72208013880,2010-01-24T09:56:00,FM-15,7,,SE,0.25,mi,"TEMP, PRECIP, SNOW",,,"MMTS, SRG, SNOWBOARD",,,WFO CHS,,,,,,,,,,,,,,,,,,,,,,,,,,,29.94,59,67,0.00,,+0.03,6,76,29.94,BKN:07 45 OVC:08 60,29.89,8.00,62,150,23,14,,,,,,,,,,,,,,,,,,,,,,,,,,,,,,,,,,,,,MET11401/24/10 09:56:02 METAR KCHS 241456Z 15012G20KT 8SM BKN045 OVC060 19/15 A2994 RMK AO2 SLP138 T01940150 56010 (JRS),,,,,,,,,,,,,,,,,,,,,,,,,,,,
72208013880,2010-01-24T10:00:00,FM-12,4,,SE,0.25,mi,"TEMP, PRECIP, SNOW",,,"MMTS, SRG, SNOWBOARD",,,WFO CHS,,,,,,,,,,,,,,,,,,,,,,,,,,,,59,67,,,+0.03,6,76,29.94,,29.89,7.46,62,150,23,14,,,,,,,,,,,,,,,,,,,,,,,,,,,,,,,,,,,,,SYN086AAXX  24154 72208 32662 81512 10194 20150 30123 40138 56010 91456 333 91020 555 92415;,,,,,,,,,,,,,,,,,,,,,,,,,,,,
72208013880,2010-02-01T09:56:00,FM-15,7,,SE,0.25,mi,"TEMP, PRECIP, SNOW",,,"MMTS, SRG, SNOWBOARD",,,WFO CHS,,,,,,,,,,,,,,,,,,,,,,,,,,,30.39,31,39,0.00,,-0.03,0,73,30.38,,30.34,10.00,36,050,,3,,,,,,,,,,,,,,,,,,,,,,,,,,,,,,,,,,,,,MET10202/01/10 09:56:02 METAR KCHS 011456Z 05003KT 10SM CLR 04/M01 A3039 RMK AO2 SLP289 T00391006 50010 (WD),,,,,,,,,,,,,,,,,,,,,,,,,,,,
72208013880,2010-02-01T10:00:00,FM-12,4,,SE,0.25,mi,"TEMP, PRECIP, SNOW",,,"MMTS, SRG, SNOWBOARD",,,WFO CHS,,,,,,,,,,,,,,,,,,,,,,,,,,,,31,39,,,-0.03,0,73,30.38,CLR:00,30.34,9.94,36,050,,3,,,,,,,,,,,,,,,,,,,,,,,,,,,,,,,,,,,,,SYN076AAXX  01154 72208 32966 00503 10039 21006 30275 40289 50010 91456 555 90115;,,,,,,,,,,,,,,,,,,,,,,,,,,,,
72208013880,2010-02-02T09:56:00,FM-15,7,,SE,0.25,mi,"TEMP, PRECIP, SNOW",,,"MMTS, SRG, SNOWBOARD",,,WFO CHS,,,,,,,,,,,,,,,,,,,,,,,,,,,29.99,51,51,0.12,RA:02 BR:1 |RA |RA,+0.01,8,100,29.99,OVC:08 3,29.94,3.00,51,020,,6,,,,,,,,,,,,,,,,,,,,,,,,,,,,,,,,,,,,,MET13302/02/10 09:56:02 METAR KCHS 021456Z 02005KT 3SM RA BR OVC003 11/11 A2999 RMK AO2 CIG 002V008 SLP155 P0011 60042 T01060106 58005 (WD),,,,,,,,,,,,,,,,,,,,,,,,,,,,
72208013880,2010-02-02T10:00:00,FM-12,4,,SE,0.25,mi,"TEMP, PRECIP, SNOW",,,"MMTS, SRG, SNOWBOARD",,,WFO CHS,,,,,,,,,,,,,,,,,,,,,,,,,,,,51,51,,||RA,+0.01,8,100,29.99,,29.94,2.98,51,020,,6,,,,,,,,,,,,,,,,,,,,,,,,,,,,,,,,,,,,,SYN098AAXX  02154 72208 11148 80205 10106 20106 30140 40155 58005 60117 763// 91456 333 96010 555 90215;,,,,,,,,,,,,,,,,,,,,,,,,,,,,
72208013880,2010-02-04T09:56:00,FM-15,7,,SE,0.25,mi,"TEMP, PRECIP, SNOW",,,"MMTS, SRG, SNOWBOARD",,,WFO CHS,,,,,,,,,,,,,,,,,,,,,,,,,,,30.33,41,45,0.00,BR:1 ||,-0.02,0,86,30.32,,30.28,6.00,43,050,,9,,,,,,,,,,,,,,,,,,,,,,,,,,,,,,,,,,,,,MET09802/04/10 09:56:02 METAR KCHS 041456Z 05008KT 6SM BR CLR 07/05 A3033 RMK AO2 SLP269 T00720050 50006,,,,,,,,,,,,,,,,,,,,,,,,,,,,
72208013880,2010-02-04T10:00:00,FM-12,4,,SE,0.25,mi,"TEMP, PRECIP, SNOW",,,"MMTS, SRG, SNOWBOARD",,,WFO CHS,,,,,,,,,,,,,,,,,,,,,,,,,,,,41,45,,,-0.02,0,86,30.32,CLR:00,30.28,5.59,43,050,,9,,,,,,,,,,,,,,,,,,,,,,,,,,,,,,,,,,,,,SYN082AAXX  04154 72208 31959 00508 10072 20050 30255 40269 50006 710// 91456 555 90415;,,,,,,,,,,,,,,,,,,,,,,,,,,,,
72208013880,2010-02-05T09:56:00,FM-15,7,,SE,0.25,mi,"TEMP, PRECIP, SNOW",,,"MMTS, SRG, SNOWBOARD",,,WFO CHS,,,,,,,,,,,,,,,,,,,,,,,,,,,29.92,56,62,0.00,HZ:7 ||HZ,+0.07,6,80,29.92,FEW:02 25 BKN:07 48 OVC:08 75,29.87,6.00,59,140,29,21,,,,,,,,,,,,,,,,,,,,,,,,,,,,,,,,,,,,,MET14702/05/10 09:56:02 METAR KCHS 051456Z 14018G25KT 6SM HZ FEW025 BKN048 OVC075 17/13 A2992 RMK AO2 PK WND 13026/1446 SLP131 60000 T01670133 56024 (WD),,,,,,,,,,,,,,,,,,,,,,,,,,,,
72208013880,2010-02-05T10:00:00,FM-12,4,,SE,0.25,mi,"TEMP, PRECIP, SNOW",,,"MMTS, SRG, SNOWBOARD",,,WFO CHS,,,,,,,,,,,,,,,,,,,,,,,,,,,,56,62,,||HZ,+0.07,6,80,29.92,,29.87,5.59,59,140,29,21,,,,,,,,,,,,,,,,,,,,,,,,,,,,,,,,,,,,,SYN098AAXX  05154 72208 11559 81418 10167 20133 30116 40131 56024 69907 705// 91456 333 91025 555 90515;,,,,,,,,,,,,,,,,,,,,,,,,,,,,
72208013880,2010-02-06T09:56:00,FM-15,7,,SE,0.25,mi,"TEMP, PRECIP, SNOW",,,"MMTS, SRG, SNOWBOARD",,,WFO CHS,,,,,,,,,,,,,,,,,,,,,,,,,,,29.62,48,51,0.01,,-0.02,0,89,29.62,FEW:02 12 OVC:08 34,29.57,10.00,49,270,18,10,,,,,,,,,,,,,,,,,,,,,,,,,,,,,,,,,,,,,MET13802/06/10 09:56:02 METAR KCHS 061456Z 27009G16KT 10SM FEW012 OVC034 11/09 A2962 RMK AO2 RAB1358E51 SLP029 P0001 60001 T01060089 50006 (JRS),,,,,,,,,,,,,,,,,,,,,,,,,,,,
72208013880,2010-02-06T10:00:00,FM-12,4,,SE,0.25,mi,"TEMP, PRECIP, SNOW",,,"MMTS, SRG, SNOWBOARD",,,WFO CHS,,,,,,,,,,,,,,,,,,,,,,,,,,,,48,51,,,-0.02,0,89,29.62,,29.57,9.94,49,270,18,10,,,,,,,,,,,,,,,,,,,,,,,,,,,,,,,,,,,,,SYN092AAXX  06154 72208 12466 82709 10106 20089 30014 40029 50006 69937 91456 333 91016 555 90615;,,,,,,,,,,,,,,,,,,,,,,,,,,,,
72208013880,2010-02-09T09:56:00,SY-MT,7,,SE,0.25,mi,"TEMP, PRECIP, SNOW",,,"MMTS, SRG, SNOWBOARD",,,WFO CHS,,,,,,,,,,,,,,,,,,,,,,,,,,,29.96,53,57,T,-RA:02 BR:1 |RA |RA,+0.01,8,87,29.96,SCT:04 20 BKN:07 25 BKN:07 33,29.91,5.00,55,100,,6,,,,,,,,,,,,,,,,,,,,,,,,,,,,,,,,,,,,,SYN098AAXX  09154 72208 11558 61005 10139 20117 30129 40144 58003 69907 761// 91456 333 96010 555 90915;MET13602/09/10 09:56:02 METAR KCHS 091456Z 10005KT 5SM -RA BR SCT020 BKN025 BKN033 14/12 A2996 RMK AO2 SLP144 P0000 60000 T01390117 58003 (WD),,,,,,,,,,,,,,,,,,,,,,,,,,,,
72208013880,2010-02-11T09:56:00,FM-15,7,,SE,0.25,mi,"TEMP, PRECIP, SNOW",,,"MMTS, SRG, SNOWBOARD",,,WFO CHS,,,,,,,,,,,,,,,,,,,,,,,,,,,30.03,21,40,0.00,,-0.04,0,47,30.03,,29.98,10.00,33,340,,11,,,,,,,,,,,,,,,,,,,,,,,,,,,,,,,,,,,,,MET10202/11/10 09:56:02 METAR KCHS 111456Z 34010KT 10SM CLR 04/M06 A3003 RMK AO2 SLP168 T00441061 50013 (WD),,,,,,,,,,,,,,,,,,,,,,,,,,,,
72208013880,2010-02-11T10:00:00,FM-12,4,,SE,0.25,mi,"TEMP, PRECIP, SNOW",,,"MMTS, SRG, SNOWBOARD",,,WFO CHS,,,,,,,,,,,,,,,,,,,,,,,,,,,,21,40,,,-0.04,0,47,30.03,CLR:00,29.98,9.94,33,340,,11,,,,,,,,,,,,,,,,,,,,,,,,,,,,,,,,,,,,,SYN076AAXX  11154 72208 32966 03410 10044 21061 30153 40168 50013 91456 555 91115;,,,,,,,,,,,,,,,,,,,,,,,,,,,,
72208013880,2010-02-12T09:56:00,FM-15,7,,SE,0.25,mi,"TEMP, PRECIP, SNOW",,,"MMTS, SRG, SNOWBOARD",,,WFO CHS,,,,,,,,,,,,,,,,,,,,,,,,,,,29.96,30,42,0.00,,+0.02,8,62,29.96,,29.91,10.00,37,070,,8,,,,,,,,,,,,,,,,,,,,,,,,,,,,,,,,,,,,,MET10202/12/10 09:56:02 METAR KCHS 121456Z 07007KT 10SM CLR 06/M01 A2996 RMK AO2 SLP144 T00561011 58008 (WD),,,,,,,,,,,,,,,,,,,,,,,,,,,,
72208013880,2010-02-12T10:00:00,FM-12,4,,SE,0.25,mi,"TEMP, PRECIP, SNOW",,,"MMTS, SRG, SNOWBOARD",,,WFO CHS,,,,,,,,,,,,,,,,,,,,,,,,,,,,30,42,,,+0.02,8,62,29.96,CLR:00,29.91,9.94,37,070,,8,,,,,,,,,,,,,,,,,,,,,,,,,,,,,,,,,,,,,SYN076AAXX  12154 72208 32966 00707 10056 21011 30129 40144 58008 91456 555 91215;,,,,,,,,,,,,,,,,,,,,,,,,,,,,
72208013880,2010-02-14T09:56:00,FM-15,7,,SE,0.25,mi,"TEMP, PRECIP, SNOW",,,"MMTS, SRG, SNOWBOARD",,,WFO CHS,,,,,,,,,,,,,,,,,,,,,,,,,,,30.04,26,40,0.00,,-0.02,0,58,30.04,,29.99,10.00,35,300,,9,,,,,,,,,,,,,,,,,,,,,,,,,,,,,,,,,,,,,MET10302/14/10 09:56:02 METAR KCHS 141456Z 30008KT 10SM CLR 04/M03 A3004 RMK AO2 SLP174 T00441033 50007 (JRS),,,,,,,,,,,,,,,,,,,,,,,,,,,,
72208013880,2010-02-14T10:00:00,FM-12,4,,SE,0.25,mi,"TEMP, PRECIP, SNOW",,,"MMTS, SRG, SNOWBOARD",,,WFO CHS,,,,,,,,,,,,,,,,,,,,,,,,,,,,26,40,,,-0.02,0,58,30.04,CLR:00,29.99,9.94,35,300,,9,,,,,,,,,,,,,,,,,,,,,,,,,,,,,,,,,,,,,SYN076AAXX  14154 72208 32966 03008 10044 21033 30157 40174 50007 91456 555 91415;,,,,,,,,,,,,,,,,,,,,,,,,,,,,
72208013880,2010-02-15T09:56:00,FM-15,7,,SE,0.25,mi,"TEMP, PRECIP, SNOW",,,"MMTS, SRG, SNOWBOARD",,,WFO CHS,,,,,,,,,,,,,,,,,,,,,,,,,,,29.91,40,54,0.00,,+0.04,8,59,29.91,BKN:07 100,29.86,9.00,47,200,22,16,,,,,,,,,,,,,,,,,,,,,,,,,,,,,,,,,,,,,MET10602/15/10 09:56:02 METAR KCHS 151456Z 20014G19KT 9SM BKN100 12/04 A2991 RMK AO2 SLP127 T01220044 58014 (WD),,,,,,,,,,,,,,,,,,,,,,,,,,,,
72208013880,2010-02-15T10:00:00,FM-12,4,,SE,0.25,mi,"TEMP, PRECIP, SNOW",,,"MMTS, SRG, SNOWBOARD",,,WFO CHS,,,,,,,,,,,,,,,,,,,,,,,,,,,,40,54,,,+0.04,8,59,29.91,,29.86,8.70,47,200,22,16,,,,,,,,,,,,,,,,,,,,,,,,,,,,,,,,,,,,,SYN086AAXX  15154 72208 32964 62014 10122 20044 30113 40127 58014 91456 333 91019 555 91515;,,,,,,,,,,,,,,,,,,,,,,,,,,,,
72208013880,2010-02-17T09:56:00,SY-MT,7,,SE,0.25,mi,"TEMP, PRECIP, SNOW",,,"MMTS, SRG, SNOWBOARD",,,WFO CHS,,,,,,,,,,,,,,,,,,,,,,,,,,,29.97,20,36,0.00,,-0.01,0,52,29.97,,29.92,10.00,30,290,,9,,,,,,,,,,,,,,,,,,,,,,,,,,,,,,,,,,,,,SYN076AAXX  17154 72208 32966 02908 10022 21067 30133 40150 50004 91456 555 91715;MET10202/17/10 09:56:02 METAR KCHS 171456Z 29008KT 10SM CLR 02/M07 A2997 RMK AO2 SLP150 T00221067 50004 (WD),,,,,,,,,,,,,,,,,,,,,,,,,,,,
72208013880,2010-02-18T09:56:00,FM-15,7,,SE,0.25,mi,"TEMP, PRECIP, SNOW",,,"MMTS, SRG, SNOWBOARD",,,WFO CHS,,,,,,,,,,,,,,,,,,,,,,,,,,,30.07,21,42,0.00,,-0.04,0,43,30.06,,30.02,10.00,34,310,,10,,,,,,,,,,,,,,,,,,,,,,,,,,,,,,,,,,,,,MET10202/18/10 09:56:02 METAR KCHS 181456Z 31009KT 10SM CLR 06/M06 A3007 RMK AO2 SLP180 T00561061 50013 (WD),,,,,,,,,,,,,,,,,,,,,,,,,,,,
72208013880,2010-02-18T10:00:00,FM-12,4,,SE,0.25,mi,"TEMP, PRECIP, SNOW",,,"MMTS, SRG, SNOWBOARD",,,WFO CHS,,,,,,,,,,,,,,,,,,,,,,,,,,,,21,42,,,-0.04,0,43,30.06,CLR:00,30.02,9.94,34,310,,10,,,,,,,,,,,,,,,,,,,,,,,,,,,,,,,,,,,,,SYN076AAXX  18154 72208 32966 03109 10056 21061 30167 40180 50013 91456 555 91815;,,,,,,,,,,,,,,,,,,,,,,,,,,,,
72208013880,2010-02-21T09:56:00,FM-15,7,,SE,0.25,mi,"TEMP, PRECIP, SNOW",,,"MMTS, SRG, SNOWBOARD",,,WFO CHS,,,,,,,,,,,,,,,,,,,,,,,,,,,30.17,38,59,0.00,,-0.02,0,46,30.17,,30.12,10.00,49,000,,0,,,,,,,,,,,,,,,,,,,,,,,,,,,,,,,,,,,,,MET10202/21/10 09:56:02 METAR KCHS 211456Z 00000KT 10SM CLR 15/03 A3017 RMK AO2 SLP216 T01500033 50006 (JRS),,,,,,,,,,,,,,,,,,,,,,,,,,,,
72208013880,2010-02-21T10:00:00,FM-12,4,,SE,0.25,mi,"TEMP, PRECIP, SNOW",,,"MMTS, SRG, SNOWBOARD",,,WFO CHS,,,,,,,,,,,,,,,,,,,,,,,,,,,,38,59,,,-0.02,0,46,30.17,CLR:00,30.12,9.94,49,000,,0,,,,,,,,,,,,,,,,,,,,,,,,,,,,,,,,,,,,,SYN076AAXX  21154 72208 32966 00000 10150 20033 30201 40216 50006 91456 555 92115;,,,,,,,,,,,,,,,,,,,,,,,,,,,,
72208013880,2010-02-22T09:56:00,FM-15,7,,SE,0.25,mi,"TEMP, PRECIP, SNOW",,,"MMTS, SRG, SNOWBOARD",,,WFO CHS,,,,,,,,,,,,,,,,,,,,,,,,,,,29.82,60,62,T,-RA:02 |RA |RA,+0.02,8,93,29.81,BKN:07 50 OVC:08 65,29.77,9.00,61,200,,6,,,,,,,,,,,,,,,,,,,,,,,,,,,,,,,,,,,,,MET13502/22/10 09:56:02 METAR KCHS 221456Z 20005KT 9SM -RA BKN050 OVC065 17/16 A2982 RMK AO2 RAE01B36 SLP095 P0000 60006 T01670156 58006 (WD),,,,,,,,,,,,,,,,,,,,,,,,,,,,
72208013880,2010-02-24T09:56:00,SY-MT,7,,SE,0.25,mi,"TEMP, PRECIP, SNOW",,,"MMTS, SRG, SNOWBOARD",,,WFO CHS,,,,,,,,,,,,,,,,,,,,,,,,,,,29.83,37,49,0.00,,+0.01,8,64,29.83,,29.78,8.00,44,280,,6,,,,,,,,,,,,,,,,,,,,,,,,,,,,,,,,,,,,,SYN076AAXX  24154 72208 32962 02805 10094 20028 30086 40101 58002 91456 555 92415;MET10002/24/10 09:56:02 METAR KCHS 241456Z 28005KT 8SM CLR 09/03 A2983 RMK AO2 SLP101 T00940028 58002 (WD),,,,,,,,,,,,,,,,,,,,,,,,,,,,
72208013880,2010-02-26T09:56:00,FM-15,7,,SE,0.25,mi,"TEMP, PRECIP, SNOW",,,"MMTS, SRG, SNOWBOARD",,,WFO CHS,,,,,,,,,,,,,,,,,,,,,,,,,,,29.96,16,40,0.00,,+0.01,6,38,29.96,,29.91,10.00,32,290,,11,,,,,,,,,,,,,,,,,,,,,,,,,,,,,,,,,,,,,MET10202/26/10 09:56:02 METAR KCHS 261456Z 29010KT 10SM CLR 04/M09 A2996 RMK AO2 SLP144 T00441089 56005 (WD),,,,,,,,,,,,,,,,,,,,,,,,,,,,
72208013880,2010-02-26T10:00:00,FM-12,4,,SE,0.25,mi,"TEMP, PRECIP, SNOW",,,"MMTS, SRG, SNOWBOARD",,,WFO CHS,,,,,,,,,,,,,,,,,,,,,,,,,,,,16,40,,,+0.01,6,38,29.96,CLR:00,29.91,9.94,32,290,,11,,,,,,,,,,,,,,,,,,,,,,,,,,,,,,,,,,,,,SYN076AAXX  26154 72208 32966 02910 10044 21089 30129 40144 56005 91456 555 92615;,,,,,,,,,,,,,,,,,,,,,,,,,,,,
72208013880,2010-02-28T09:56:00,SY-MT,7,,SE,0.25,mi,"TEMP, PRECIP, SNOW",,,"MMTS, SRG, SNOWBOARD",,,WFO CHS,,,,,,,,,,,,,,,,,,,,,,,,,,,29.89,26,49,0.00,,-0.03,0,41,29.88,,29.84,10.00,40,350,,8,,,,,,,,,,,,,,,,,,,,,,,,,,,,,,,,,,,,,SYN076AAXX  28154 72208 32966 03507 10094 21033 30106 40119 50010 91456 555 92815;MET10502/28/10 09:56:02 METAR KCHS 281456Z 35007KT 10SM CLR 09/M03 A2989 RMK AO2 SLP119 T00941033 50010 $ (JRS),,,,,,,,,,,,,,,,,,,,,,,,,,,,
72208013880,2010-03-02T09:56:00,FM-15,7,,SE,0.25,mi,"TEMP, PRECIP, SNOW",,,"MMTS, SRG, SNOWBOARD",,,WFO CHS,,,,,,,,,,,,,,,,,,,,,,,,,,,29.67,43,45,0.11,-RA:02 BR:1 |RA |RA,+0.11,8,93,29.66,SCT:04 8 BKN:07 18 OVC:08 37,29.62,3.00,44,070,22,16,,,,,,,,,,,,,,,,,,,,,,,,,,,,,,,,,,,,,MET15603/02/10 09:56:02 METAR KCHS 021456Z 07014G19KT 3SM -RA BR SCT008 BKN018 OVC037 07/06 A2967 RMK AO2 SFC VIS 4 PRESFR SLP045 P0011 60014 T00720061 58037 (WD),,,,,,,,,,,,,,,,,,,,,,,,,,,,
72208013880,2010-03-02T10:00:00,FM-12,4,,SE,0.25,mi,"TEMP, PRECIP, SNOW",,,"MMTS, SRG, SNOWBOARD",,,WFO CHS,,,,,,,,,,,,,,,,,,,,,,,,,,,,43,45,,||RA,+0.11,8,93,29.66,,29.62,2.98,44,070,22,16,,,,,,,,,,,,,,,,,,,,,,,,,,,,,,,,,,,,,SYN104AAXX  02154 72208 11348 80714 10072 20061 30031 40045 58037 60047 761// 91456 333 91019 96010 555 90215;,,,,,,,,,,,,,,,,,,,,,,,,,,,,
72208013880,2010-03-06T09:56:00,FM-15,7,,SE,0.25,mi,"TEMP, PRECIP, SNOW",,,"MMTS, SRG, SNOWBOARD",,,WFO CHS,,,,,,,,,,,,,,,,,,,,,,,,,,,30.25,23,49,0.00,,-0.03,0,36,30.25,,30.20,10.00,39,030,,7,,,,,,,,,,,,,,,,,,,,,,,,,,,,,,,,,,,,,MET10503/06/10 09:56:02 METAR KCHS 061456Z 03006KT 10SM CLR 09/M05 A3025 RMK AO2 SLP243 T00941050 50009 $ (JRS),,,,,,,,,,,,,,,,,,,,,,,,,,,,
72208013880,2010-03-06T10:00:00,FM-12,4,,SE,0.25,mi,"TEMP, PRECIP, SNOW",,,"MMTS, SRG, SNOWBOARD",,,WFO CHS,,,,,,,,,,,,,,,,,,,,,,,,,,,,23,49,,,-0.03,0,36,30.25,CLR:00,30.20,9.94,39,030,,7,,,,,,,,,,,,,,,,,,,,,,,,,,,,,,,,,,,,,SYN076AAXX  06154 72208 32966 00306 10094 21050 30228 40243 50009 91456 555 90615;,,,,,,,,,,,,,,,,,,,,,,,,,,,,
72208013880,2010-03-08T09:56:00,FM-15,7,,SE,0.25,mi,"TEMP, PRECIP, SNOW",,,"MMTS, SRG, SNOWBOARD",,,WFO CHS,,,,,,,,,,,,,,,,,,,,,,,,,,,30.12,29,54,0.00,,-0.00,0,38,30.11,,30.07,10.00,43,280,,5,,,,,,,,,,,,,,,,,,,,,,,,,,,,,,,,,,,,,MET10203/08/10 09:56:02 METAR KCHS 081456Z 28004KT 10SM CLR 12/M02 A3012 RMK AO2 SLP198 T01221017 50001 (WD),,,,,,,,,,,,,,,,,,,,,,,,,,,,
72208013880,2010-03-08T10:00:00,FM-12,4,,SE,0.25,mi,"TEMP, PRECIP, SNOW",,,"MMTS, SRG, SNOWBOARD",,,WFO CHS,,,,,,,,,,,,,,,,,,,,,,,,,,,,29,54,,,-0.00,0,38,30.11,CLR:00,30.07,9.94,43,280,,5,,,,,,,,,,,,,,,,,,,,,,,,,,,,,,,,,,,,,SYN076AAXX  08154 72208 32966 02804 10122 21017 30184 40198 50001 91456 555 90815;,,,,,,,,,,,,,,,,,,,,,,,,,,,,
72208013880,2010-03-12T09:56:00,FM-15,7,,SE,0.25,mi,"TEMP, PRECIP, SNOW",,,"MMTS, SRG, SNOWBOARD",,,WFO CHS,,,,,,,,,,,,,,,,,,,,,,,,,,,29.68,60,61,T,BR:1 ||,+0.00,6,97,29.67,OVC:08 4,29.63,3.00,60,020,,6,,,,,,,,,,,,,,,,,,,,,,,,,,,,,,,,,,,,,MET13903/12/10 09:56:02 METAR KCHS 121456Z 02005KT 3SM BR OVC004 16/16 A2968 RMK AO2 RAB20E29 CIG 003V006 SLP049 P0000 60000 T01610156 56000 (WD),,,,,,,,,,,,,,,,,,,,,,,,,,,,
72208013880,2010-03-12T10:00:00,FM-12,4,,SE,0.25,mi,"TEMP, PRECIP, SNOW",,,"MMTS, SRG, SNOWBOARD",,,WFO CHS,,,,,,,,,,,,,,,,,,,,,,,,,,,,60,61,,,+0.02,6,97,29.67,,29.63,2.98,60,020,,6,,,,,,,,,,,,,,,,,,,,,,,,,,,,,,,,,,,,,SYN088AAXX  12154 72208 11248 80205 10161 20156 30035 40049 56000 69907 710// 91456 555 91215;,,,,,,,,,,,,,,,,,,,,,,,,,,,,
72208013880,2010-03-13T09:56:00,FM-15,7,,SE,0.25,mi,"TEMP, PRECIP, SNOW",,,"MMTS, SRG, SNOWBOARD",,,WFO CHS,,,,,,,,,,,,,,,,,,,,,,,,,,,29.54,48,63,0.00,,-0.02,0,58,29.53,,29.49,10.00,55,270,,10,,,,,,,,,,,,,,,,,,,,,,,,,,,,,,,,,,,,,MET10203/13/10 09:56:02 METAR KCHS 131456Z 27009KT 10SM CLR 17/09 A2954 RMK AO2 SLP001 T01720089 50006 (JRS),,,,,,,,,,,,,,,,,,,,,,,,,,,,
72208013880,2010-03-13T10:00:00,FM-12,4,,SE,0.25,mi,"TEMP, PRECIP, SNOW",,,"MMTS, SRG, SNOWBOARD",,,WFO CHS,,,,,,,,,,,,,,,,,,,,,,,,,,,,48,63,,,-0.02,0,58,29.53,CLR:00,29.49,9.94,55,270,,10,,,,,,,,,,,,,,,,,,,,,,,,,,,,,,,,,,,,,SYN076AAXX  13154 72208 32966 02709 10172 20089 39987 40001 50006 91456 555 91315;,,,,,,,,,,,,,,,,,,,,,,,,,,,,
72208013880,2010-03-15T09:56:00,SY-MT,7,,SE,0.25,mi,"TEMP, PRECIP, SNOW",,,"MMTS, SRG, SNOWBOARD",,,WFO CHS,,,,,,,,,,,,,,,,,,,,,,,,,,,29.77,43,58,0.00,,-0.01,0,58,29.76,,29.72,10.00,50,300,,9,,,,,,,,,,,,,,,,,,,,,,,,,,,,,,,,,,,,,SYN076AAXX  15154 72208 32966 03008 10144 20061 30065 40079 50005 91456 555 91515;MET10103/15/10 09:56:02 METAR KCHS 151456Z 30008KT 10SM CLR 14/06 A2977 RMK AO2 SLP079 T01440061 50005 (WD),,,,,,,,,,,,,,,,,,,,,,,,,,,,
72208013880,2010-03-17T09:56:00,FM-15,7,,SE,0.25,mi,"TEMP, PRECIP, SNOW",,,"MMTS, SRG, SNOWBOARD",,,WFO CHS,,,,,,,,,,,,,,,,,,,,,,,,,,,30.06,43,53,0.00,,-0.01,0,69,30.06,BKN:07 41,30.01,10.00,48,090,,6,,,,,,,,,,,,,,,,,,,,,,,,,,,,,,,,,,,,,MET09903/17/10 09:56:02 METAR KCHS 171456Z 09005KT 10SM BKN041 12/06 A3006 RMK AO2 SLP180 T01170061 50002,,,,,,,,,,,,,,,,,,,,,,,,,,,,
72208013880,2010-03-17T10:00:00,FM-12,4,,SE,0.25,mi,"TEMP, PRECIP, SNOW",,,"MMTS, SRG, SNOWBOARD",,,WFO CHS,,,,,,,,,,,,,,,,,,,,,,,,,,,,43,53,,,-0.01,0,69,30.06,,30.01,9.94,48,090,,6,,,,,,,,,,,,,,,,,,,,,,,,,,,,,,,,,,,,,SYN076AAXX  17154 72208 32666 60905 10117 20061 30163 40180 50002 91456 555 91715;,,,,,,,,,,,,,,,,,,,,,,,,,,,,
72208013880,2010-03-18T09:56:00,FM-15,7,,SE,0.25,mi,"TEMP, PRECIP, SNOW",,,"MMTS, SRG, SNOWBOARD",,,WFO CHS,,,,,,,,,,,,,,,,,,,,,,,,,,,29.89,41,57,0.00,,-0.01,0,55,29.89,,29.84,10.00,49,340,,11,,,,,,,,,,,,,,,,,,,,,,,,,,,,,,,,,,,,,MET10103/18/10 09:56:02 METAR KCHS 181456Z 34010KT 10SM CLR 14/05 A2989 RMK AO2 SLP121 T01390050 50002 (WD),,,,,,,,,,,,,,,,,,,,,,,,,,,,
72208013880,2010-03-18T10:00:00,FM-12,4,,SE,0.25,mi,"TEMP, PRECIP, SNOW",,,"MMTS, SRG, SNOWBOARD",,,WFO CHS,,,,,,,,,,,,,,,,,,,,,,,,,,,,41,57,,,-0.01,0,55,29.89,CLR:00,29.84,9.94,49,340,,11,,,,,,,,,,,,,,,,,,,,,,,,,,,,,,,,,,,,,SYN076AAXX  18154 72208 32966 03410 10139 20050 30106 40121 50002 91456 555 91815;,,,,,,,,,,,,,,,,,,,,,,,,,,,,
72208013880,2010-03-21T09:56:00,SY-MT,7,,SE,0.25,mi,"TEMP, PRECIP, SNOW",,,"MMTS, SRG, SNOWBOARD",,,WFO CHS,,,,,,,,,,,,,,,,,,,,,,,,,,,30.06,55,67,0.00,,-0.02,0,66,30.06,BKN:07 46,30.01,10.00,60,130,,7,,,,,,,,,,,,,,,,,,,,,,,,,,,,,,,,,,,,,SYN076AAXX  21154 72208 32666 61306 10194 20128 30163 40178 50006 91456 555 92115;MET10503/21/10 09:56:02 METAR KCHS 211456Z 13006KT 10SM BKN046 19/13 A3006 RMK AO2 SLP178 T01940128 50006 (JRS),,,,,,,,,,,,,,,,,,,,,,,,,,,,
72208013880,2010-03-23T09:56:00,FM-15,7,,SE,0.25,mi,"TEMP, PRECIP, SNOW",,,"MMTS, SRG, SNOWBOARD",,,WFO CHS,,,,,,,,,,,,,,,,,,,,,,,,,,,29.95,35,54,0.00,,-0.01,0,49,29.94,,29.90,10.00,45,270,18,10,,,,,,,,,,,,,,,,,,,,,,,,,,,,,,,,,,,,,MET10503/23/10 09:56:02 METAR KCHS 231456Z 27009G16KT 10SM CLR 12/02 A2995 RMK AO2 SLP140 T01220017 50004 (KPL),,,,,,,,,,,,,,,,,,,,,,,,,,,,
72208013880,2010-03-23T10:00:00,FM-12,4,,SE,0.25,mi,"TEMP, PRECIP, SNOW",,,"MMTS, SRG, SNOWBOARD",,,WFO CHS,,,,,,,,,,,,,,,,,,,,,,,,,,,,35,54,,,-0.01,0,49,29.94,CLR:00,29.90,9.94,45,270,18,10,,,,,,,,,,,,,,,,,,,,,,,,,,,,,,,,,,,,,SYN086AAXX  23154 72208 32966 02709 10122 20017 30126 40140 50004 91456 333 91016 555 92315;,,,,,,,,,,,,,,,,,,,,,,,,,,,,
72208013880,2010-03-25T09:56:00,FM-15,7,,SE,0.25,mi,"TEMP, PRECIP, SNOW",,,"MMTS, SRG, SNOWBOARD",,,WFO CHS,,,,,,,,,,,,,,,,,,,,,,,,,,,30.09,54,67,0.00,,-0.02,0,63,30.09,FEW:02 110,30.04,9.00,60,220,,8,,,,,,,,,,,,,,,,,,,,,,,,,,,,,,,,,,,,,MET10303/25/10 09:56:02 METAR KCHS 251456Z 22007KT 9SM FEW110 19/12 A3009 RMK AO2 SLP189 T01940122 50006 (WD),,,,,,,,,,,,,,,,,,,,,,,,,,,,
72208013880,2010-03-25T10:00:00,FM-12,4,,SE,0.25,mi,"TEMP, PRECIP, SNOW",,,"MMTS, SRG, SNOWBOARD",,,WFO CHS,,,,,,,,,,,,,,,,,,,,,,,,,,,,54,67,,,-0.02,0,63,30.09,,30.04,8.70,60,220,,8,,,,,,,,,,,,,,,,,,,,,,,,,,,,,,,,,,,,,SYN076AAXX  25154 72208 32964 22207 10194 20122 30173 40189 50006 91456 555 92515;,,,,,,,,,,,,,,,,,,,,,,,,,,,,
72208013880,2010-03-28T09:56:00,SY-MT,7,,SE,0.25,mi,"TEMP, PRECIP, SNOW",,,"MMTS, SRG, SNOWBOARD",,,WFO CHS,,,,,,,,,,,,,,,,,,,,,,,,,,,30.04,59,68,T,,+0.04,8,73,30.04,FEW:02 35 SCT:04 47,29.99,8.00,63,150,,17,,,,,,,,,,,,,,,,,,,,,,,,,,,,,,,,,,,,,SYN082AAXX  28154 72208 12662 41515 10200 20150 30157 40173 58015 69907 91456 555 92815;MET12903/28/10 09:56:02 METAR KCHS 281456Z 15015KT 8SM FEW035 SCT047 20/15 A3004 RMK AO2 RAE05 SLP173 P0000 60000 T02000150 58015 (JRS),,,,,,,,,,,,,,,,,,,,,,,,,,,,
72208013880,2010-03-29T09:56:00,FM-15,7,,SE,0.25,mi,"TEMP, PRECIP, SNOW",,,"MMTS, SRG, SNOWBOARD",,,WFO CHS,,,,,,,,,,,,,,,,,,,,,,,,,,,29.67,60,67,0.00,,+0.00,8,79,29.67,SCT:04 12,29.62,10.00,63,000,,0,,,,,,,,,,,,,,,,,,,,,,,,,,,,,,,,,,,,,MET11003/29/10 09:56:02 METAR KCHS 291456Z 00000KT 10SM SCT012 19/16 A2967 RMK AO2 SLP048 60001 T01940156 58001 (WD),,,,,,,,,,,,,,,,,,,,,,,,,,,,
72208013880,2010-03-29T10:00:00,FM-12,4,,SE,0.25,mi,"TEMP, PRECIP, SNOW",,,"MMTS, SRG, SNOWBOARD",,,WFO CHS,,,,,,,,,,,,,,,,,,,,,,,,,,,,60,67,,,+0.00,8,79,29.67,,29.62,9.94,63,000,,0,,,,,,,,,,,,,,,,,,,,,,,,,,,,,,,,,,,,,SYN082AAXX  29154 72208 12466 40000 10194 20156 30031 40048 58001 69937 91456 555 92915;,,,,,,,,,,,,,,,,,,,,,,,,,,,,
72208013880,2010-04-03T09:56:00,SY-MT,7,,SE,0.25,mi,"TEMP, PRECIP, SNOW",,,"MMTS, SRG, SNOWBOARD",,,WFO CHS,,,,,,,,,,,,,,,,,,,,,,,,,,,30.12,59,74,0.00,,+0.00,8,60,30.12,,30.07,10.00,65,180,,11,,,,,,,,,,,,,,,,,,,,,,,,,,,,,,,,,,,,,SYN076AAXX  03154 72208 32966 01810 10233 20150 30184 40200 58000 91456 555 90315;MET10204/03/10 09:56:02 METAR KCHS 031456Z 18010KT 10SM CLR 23/15 A3012 RMK AO2 SLP200 T02330150 58000 (JRS),,,,,,,,,,,,,,,,,,,,,,,,,,,,
72208013880,2010-04-05T09:56:00,FM-15,7,,SE,0.25,mi,"TEMP, PRECIP, SNOW",,,"MMTS, SRG, SNOWBOARD",,,WFO CHS,,,,,,,,,,,,,,,,,,,,,,,,,,,30.24,59,77,0.00,,-0.01,0,54,30.24,,30.19,10.00,66,240,,7,,,,,,,,,,,,,,,,,,,,,,,,,,,,,,,,,,,,,MET10104/05/10 09:56:02 METAR KCHS 051456Z 24006KT 10SM CLR 25/15 A3024 RMK AO2 SLP241 T02500150 50004 (WD),,,,,,,,,,,,,,,,,,,,,,,,,,,,
72208013880,2010-04-05T10:00:00,FM-12,4,,SE,0.25,mi,"TEMP, PRECIP, SNOW",,,"MMTS, SRG, SNOWBOARD",,,WFO CHS,,,,,,,,,,,,,,,,,,,,,,,,,,,,59,77,,,-0.01,0,54,30.24,CLR:00,30.19,9.94,66,240,,7,,,,,,,,,,,,,,,,,,,,,,,,,,,,,,,,,,,,,SYN076AAXX  05154 72208 32966 02406 10250 20150 30224 40241 50004 91456 555 90515;,,,,,,,,,,,,,,,,,,,,,,,,,,,,
72208013880,2010-04-06T09:56:00,FM-15,7,,SE,0.25,mi,"TEMP, PRECIP, SNOW",,,"MMTS, SRG, SNOWBOARD",,,WFO CHS,,,,,,,,,,,,,,,,,,,,,,,,,,,30.15,61,78,0.00,,+0.01,8,56,30.14,,30.10,10.00,67,230,,6,,,,,,,,,,,,,,,,,,,,,,,,,,,,,,,,,,,,,MET10204/06/10 09:56:02 METAR KCHS 061456Z 23005KT 10SM CLR 26/16 A3015 RMK AO2 SLP208 T02560161 58004 (BBE),,,,,,,,,,,,,,,,,,,,,,,,,,,,
72208013880,2010-04-06T10:00:00,FM-12,4,,SE,0.25,mi,"TEMP, PRECIP, SNOW",,,"MMTS, SRG, SNOWBOARD",,,WFO CHS,,,,,,,,,,,,,,,,,,,,,,,,,,,,61,78,,,+0.01,8,56,30.14,CLR:00,30.10,9.94,67,230,,6,,,,,,,,,,,,,,,,,,,,,,,,,,,,,,,,,,,,,SYN076AAXX  06154 72208 32966 02305 10256 20161 30194 40208 58004 91456 555 90615;,,,,,,,,,,,,,,,,,,,,,,,,,,,,
72208013880,2010-04-11T09:56:00,FM-15,7,,SE,0.25,mi,"TEMP, PRECIP, SNOW",,,"MMTS, SRG, SNOWBOARD",,,WFO CHS,,,,,,,,,,,,,,,,,,,,,,,,,,,30.36,45,67,0.00,,-0.00,0,45,30.36,,30.31,10.00,55,000,,0,,,,,,,,,,,,,,,,,,,,,,,,,,,,,,,,,,,,,MET10204/11/10 09:56:02 METAR KCHS 111456Z 00000KT 10SM CLR 19/07 A3036 RMK AO2 SLP281 T01940072 50001 (JRS),,,,,,,,,,,,,,,,,,,,,,,,,,,,
72208013880,2010-04-11T10:00:00,FM-12,4,,SE,0.25,mi,"TEMP, PRECIP, SNOW",,,"MMTS, SRG, SNOWBOARD",,,WFO CHS,,,,,,,,,,,,,,,,,,,,,,,,,,,,45,67,,,-0.00,0,45,30.36,CLR:00,30.31,9.94,55,000,,0,,,,,,,,,,,,,,,,,,,,,,,,,,,,,,,,,,,,,SYN076AAXX  11154 72208 32966 00000 10194 20072 30265 40281 50001 91456 555 91115;,,,,,,,,,,,,,,,,,,,,,,,,,,,,
72208013880,2010-04-16T09:56:00,FM-15,7,,SE,0.25,mi,"TEMP, PRECIP, SNOW",,,"MMTS, SRG, SNOWBOARD",,,WFO CHS,,,,,,,,,,,,,,,,,,,,,,,,,,,30.24,50,71,0.00,,+0.03,8,47,30.24,,30.19,10.00,59,VRB,,9,,,,,,,,,,,,,,,,,,,,,,,,,,,,,,,,,,,,,MET10204/16/10 09:56:02 METAR KCHS 161456Z 25008KT 10SM CLR 22/10 A3024 RMK AO2 SLP239 T02170100 58010 (AWS),,,,,,,,,,,,,,,,,,,,,,,,,,,,
72208013880,2010-04-16T10:00:00,FM-12,4,,SE,0.25,mi,"TEMP, PRECIP, SNOW",,,"MMTS, SRG, SNOWBOARD",,,WFO CHS,,,,,,,,,,,,,,,,,,,,,,,,,,,,50,71,,,+0.03,8,47,30.24,CLR:00,30.19,9.94,59,250,,9,,,,,,,,,,,,,,,,,,,,,,,,,,,,,,,,,,,,,SYN076AAXX  16154 72208 32966 02508 10217 20100 30224 40239 58010 91456 555 91615;,,,,,,,,,,,,,,,,,,,,,,,,,,,,
72208013880,2010-04-17T09:56:00,FM-15,7,,SE,0.25,mi,"TEMP, PRECIP, SNOW",,,"MMTS, SRG, SNOWBOARD",,,WFO CHS,,,,,,,,,,,,,,,,,,,,,,,,,,,29.98,56,75,0.00,,+0.02,7,52,29.97,,29.93,10.00,64,250,,13,,,,,,,,,,,,,,,,,,,,,,,,,,,,,,,,,,,,,MET10404/17/10 09:56:02 METAR KCHS 171456Z 25011KT 10SM CLR 24/13 A2998 RMK AO2 SLP150 T02390133 57006 $ (JRS),,,,,,,,,,,,,,,,,,,,,,,,,,,,
72208013880,2010-04-17T10:00:00,FM-12,4,,SE,0.25,mi,"TEMP, PRECIP, SNOW",,,"MMTS, SRG, SNOWBOARD",,,WFO CHS,,,,,,,,,,,,,,,,,,,,,,,,,,,,56,75,,,+0.02,7,52,29.97,CLR:00,29.93,9.94,64,250,,13,,,,,,,,,,,,,,,,,,,,,,,,,,,,,,,,,,,,,SYN076AAXX  17154 72208 32966 02511 10239 20133 30136 40150 57006 91456 555 91715;,,,,,,,,,,,,,,,,,,,,,,,,,,,,
72208013880,2010-04-21T09:56:00,SY-MT,7,,SE,0.25,mi,"TEMP, PRECIP, SNOW",,,"MMTS, SRG, SNOWBOARD",,,WFO CHS,,,,,,,,,,,,,,,,,,,,,,,,,,,29.87,57,66,0.00,,+0.00,8,73,29.86,BKN:07 20 BKN:07 80,29.82,10.00,61,VRB,,8,,,,,,,,,,,,,,,,,,,,,,,,,,,,,,,,,,,,,SYN076AAXX  21154 72208 32566 62707 10189 20139 30099 40113 58000 91456 555 92115;MET11204/21/10 09:56:02 METAR KCHS 211456Z 27007KT 10SM BKN020 BKN080 19/14 A2987 RMK AO2 SLP113 T01890139 58000 (BBE),,,,,,,,,,,,,,,,,,,,,,,,,,,,
72208013880,2010-04-26T09:56:00,FM-15,7,,SE,0.25,mi,"TEMP, PRECIP, SNOW",,,"MMTS, SRG, SNOWBOARD",,,WFO CHS,,,,,,,,,,,,,,,,,,,,,,,,,,,29.49,57,77,0.00,,+0.01,8,50,29.49,,29.44,10.00,65,260,21,14,,,,,,,,,,,,,,,,,,,,,,,,,,,,,,,,,,,,,MET10504/26/10 09:56:02 METAR KCHS 261456Z 26012G18KT 10SM CLR 25/14 A2949 RMK AO2 SLP986 T02500139 58002 (KPL),,,,,,,,,,,,,,,,,,,,,,,,,,,,
72208013880,2010-04-26T10:00:00,FM-12,4,,SE,0.25,mi,"TEMP, PRECIP, SNOW",,,"MMTS, SRG, SNOWBOARD",,,WFO CHS,,,,,,,,,,,,,,,,,,,,,,,,,,,,57,77,,,+0.01,8,50,29.49,CLR:00,29.44,9.94,65,260,21,14,,,,,,,,,,,,,,,,,,,,,,,,,,,,,,,,,,,,,SYN086AAXX  26154 72208 32966 02612 10250 20139 39971 49986 58002 91456 333 91018 555 92615;,,,,,,,,,,,,,,,,,,,,,,,,,,,,
72208013880,2010-04-30T09:56:00,FM-15,7,,SE,0.25,mi,"TEMP, PRECIP, SNOW",,,"MMTS, SRG, SNOWBOARD",,,WFO CHS,,,,,,,,,,,,,,,,,,,,,,,,,,,30.07,59,78,0.00,,+0.01,8,52,30.07,SCT:04 34,30.02,10.00,66,200,,14,,,,,,,,,,,,,,,,,,,,,,,,,,,,,,,,,,,,,MET10504/30/10 09:56:02 METAR KCHS 301456Z 20012KT 10SM SCT034 26/15 A3007 RMK AO2 SLP182 T02560150 58002 (KPL),,,,,,,,,,,,,,,,,,,,,,,,,,,,
72208013880,2010-04-30T10:00:00,FM-12,4,,SE,0.25,mi,"TEMP, PRECIP, SNOW",,,"MMTS, SRG, SNOWBOARD",,,WFO CHS,,,,,,,,,,,,,,,,,,,,,,,,,,,,59,78,,,+0.01,8,52,30.07,,30.02,9.94,66,200,,14,,,,,,,,,,,,,,,,,,,,,,,,,,,,,,,,,,,,,SYN076AAXX  30154 72208 32666 42012 10256 20150 30167 40182 58002 91456 555 93015;,,,,,,,,,,,,,,,,,,,,,,,,,,,,
72208013880,2010-05-04T10:00:00,FM-12,4,,SE,0.25,mi,"TEMP, PRECIP, SNOW",,,"MMTS, SRG, SNOWBOARD",,,WFO CHS,,,,,,,,,,,,,,,,,,,,,,,,,,,,73,75,,||RA,0.00,4,94,29.97,,29.92,3.73,74,280,,3,,,,,,,,,,,,,,,,,,,,,,,,,,,,,,,,,,,,,SYN098AAXX  04154 72208 11356 82803 10239 20228 30133 40149 52000 60017 761// 91456 333 96010 555 90415;,,,,,,,,,,,,,,,,,,,,,,,,,,,,
72208013880,2010-05-05T09:56:00,FM-15,7,,SE,0.25,mi,"TEMP, PRECIP, SNOW",,,"MMTS, SRG, SNOWBOARD",,,WFO CHS,,,,,,,,,,,,,,,,,,,,,,,,,,,30.00,66,73,0.00,,-0.01,0,79,30.00,SCT:04 24,29.95,10.00,69,030,,3,,,,,,,,,,,,,,,,,,,,,,,,,,,,,,,,,,,,,MET10505/05/10 09:56:02 METAR KCHS 051456Z 03003KT 10SM SCT024 23/19 A3000 RMK AO2 SLP159 T02280189 50002 (KPL),,,,,,,,,,,,,,,,,,,,,,,,,,,,
72208013880,2010-05-05T10:00:00,FM-12,4,,SE,0.25,mi,"TEMP, PRECIP, SNOW",,,"MMTS, SRG, SNOWBOARD",,,WFO CHS,,,,,,,,,,,,,,,,,,,,,,,,,,,,66,73,,,-0.01,0,79,30.00,,29.95,9.94,69,030,,3,,,,,,,,,,,,,,,,,,,,,,,,,,,,,,,,,,,,,SYN076AAXX  05154 72208 32566 40303 10228 20189 30143 40159 50002 91456 555 90515;,,,,,,,,,,,,,,,,,,,,,,,,,,,,
72208013880,2010-05-08T09:56:00,FM-15,7,,SE,0.25,mi,"TEMP, PRECIP, SNOW",,,"MMTS, SRG, SNOWBOARD",,,WFO CHS,,,,,,,,,,,,,,,,,,,,,,,,,,,29.91,69,84,0.00,,+0.02,8,61,29.91,,29.86,9.00,74,240,21,13,,,,,,,,,,,,,,,,,,,,,,,,,,,,,,,,,,,,,MET10405/08/10 09:56:02 METAR KCHS 081456Z 24011G18KT 9SM CLR 29/21 A2991 RMK AO2 SLP127 T02890206 58008 (JRS),,,,,,,,,,,,,,,,,,,,,,,,,,,,
72208013880,2010-05-08T10:00:00,FM-12,4,,SE,0.25,mi,"TEMP, PRECIP, SNOW",,,"MMTS, SRG, SNOWBOARD",,,WFO CHS,,,,,,,,,,,,,,,,,,,,,,,,,,,,69,84,,,+0.02,8,61,29.91,CLR:00,29.86,8.70,74,240,21,13,,,,,,,,,,,,,,,,,,,,,,,,,,,,,,,,,,,,,SYN086AAXX  08154 72208 32964 02411 10289 20206 30113 40127 58008 91456 333 91018 555 90815;,,,,,,,,,,,,,,,,,,,,,,,,,,,,
72208013880,2010-05-11T09:56:00,FM-15,7,,SE,0.25,mi,"TEMP, PRECIP, SNOW",,,"MMTS, SRG, SNOWBOARD",,,WFO CHS,,,,,,,,,,,,,,,,,,,,,,,,,,,30.31,60,75,0.00,,-0.02,0,60,30.30,FEW:02 31 BKN:07 80,30.26,10.00,66,140,,14,,,,,,,,,,,,,,,,,,,,,,,,,,,,,,,,,,,,,MET11205/11/10 09:56:02 METAR KCHS 111456Z 14012KT 10SM FEW031 BKN080 24/16 A3031 RMK AO2 SLP262 T02390156 50006 (AWS),,,,,,,,,,,,,,,,,,,,,,,,,,,,
72208013880,2010-05-11T10:00:00,FM-12,4,,SE,0.25,mi,"TEMP, PRECIP, SNOW",,,"MMTS, SRG, SNOWBOARD",,,WFO CHS,,,,,,,,,,,,,,,,,,,,,,,,,,,,60,75,,,-0.02,0,60,30.30,,30.26,9.94,66,140,,14,,,,,,,,,,,,,,,,,,,,,,,,,,,,,,,,,,,,,SYN076AAXX  11154 72208 32566 61412 10239 20156 30248 40262 50006 91456 555 91115;,,,,,,,,,,,,,,,,,,,,,,,,,,,,
72208013880,2010-05-15T09:56:00,FM-15,7,,SE,0.25,mi,"TEMP, PRECIP, SNOW",,,"MMTS, SRG, SNOWBOARD",,,WFO CHS,,,,,,,,,,,,,,,,,,,,,,,,,,,30.23,65,80,0.00,,+0.00,8,60,30.23,FEW:02 26,30.18,10.00,70,230,,8,,,,,,,,,,,,,,,,,,,,,,,,,,,,,,,,,,,,,MET10505/15/10 09:56:02 METAR KCHS 151456Z 23007KT 10SM FEW026 27/18 A3023 RMK AO2 SLP236 T02670183 58000 (JRS),,,,,,,,,,,,,,,,,,,,,,,,,,,,
72208013880,2010-05-15T10:00:00,FM-12,4,,SE,0.25,mi,"TEMP, PRECIP, SNOW",,,"MMTS, SRG, SNOWBOARD",,,WFO CHS,,,,,,,,,,,,,,,,,,,,,,,,,,,,65,80,,,0.00,4,60,30.23,,30.18,9.94,70,230,,8,,,,,,,,,,,,,,,,,,,,,,,,,,,,,,,,,,,,,SYN076AAXX  15154 72208 32566 22307 10267 20183 30221 40236 58000 91456 555 91515;,,,,,,,,,,,,,,,,,,,,,,,,,,,,
72208013880,2010-05-16T09:56:00,FM-15,7,,SE,0.25,mi,"TEMP, PRECIP, SNOW",,,"MMTS, SRG, SNOWBOARD",,,WFO CHS,,,,,,,,,,,,,,,,,,,,,,,,,,,30.11,67,81,0.00,,+0.02,8,62,30.11,FEW:02 23,30.06,10.00,72,260,,7,,,,,,,,,,,,,,,,,,,,,,,,,,,,,,,,,,,,,MET10505/16/10 09:56:02 METAR KCHS 161456Z 26006KT 10SM FEW023 27/19 A3011 RMK AO2 SLP197 T02720194 58007 (JRS),,,,,,,,,,,,,,,,,,,,,,,,,,,,
72208013880,2010-05-16T10:00:00,FM-12,4,,SE,0.25,mi,"TEMP, PRECIP, SNOW",,,"MMTS, SRG, SNOWBOARD",,,WFO CHS,,,,,,,,,,,,,,,,,,,,,,,,,,,,67,81,,,+0.02,8,62,30.11,,30.06,9.94,72,260,,7,,,,,,,,,,,,,,,,,,,,,,,,,,,,,,,,,,,,,SYN076AAXX  16154 72208 32566 22606 10272 20194 30180 40197 58007 91456 555 91615;,,,,,,,,,,,,,,,,,,,,,,,,,,,,
72208013880,2010-05-17T09:56:00,FM-15,7,,SE,0.25,mi,"TEMP, PRECIP, SNOW",,,"MMTS, SRG, SNOWBOARD",,,WFO CHS,,,,,,,,,,,,,,,,,,,,,,,,,,,30.01,70,79,0.00,,+0.01,8,74,30.00,SCT:04 18 BKN:07 24 BKN:07 34,29.96,10.00,73,180,,15,,,,,,,,,,,,,,,,,,,,,,,,,,,,,,,,,,,,,MET11805/17/10 09:56:02 METAR KCHS 171456Z 18013KT 10SM SCT018 BKN024 BKN034 26/21 A3001 RMK AO2 SLP160 T02610211 58005 (WD),,,,,,,,,,,,,,,,,,,,,,,,,,,,
72208013880,2010-05-17T10:00:00,FM-12,4,,SE,0.25,mi,"TEMP, PRECIP, SNOW",,,"MMTS, SRG, SNOWBOARD",,,WFO CHS,,,,,,,,,,,,,,,,,,,,,,,,,,,,70,79,,,+0.01,8,74,30.00,,29.96,9.94,73,180,,15,,,,,,,,,,,,,,,,,,,,,,,,,,,,,,,,,,,,,SYN076AAXX  17154 72208 32466 61813 10261 20211 30146 40160 58005 91456 555 91715;,,,,,,,,,,,,,,,,,,,,,,,,,,,,
72208013880,2010-05-19T09:56:00,FM-15,7,,SE,0.25,mi,"TEMP, PRECIP, SNOW",,,"MMTS, SRG, SNOWBOARD",,,WFO CHS,,,,,,,,,,,,,,,,,,,,,,,,,,,29.89,63,81,T,,-0.00,0,54,29.89,FEW:02 80,29.84,10.00,69,280,,3,,,,,,,,,,,,,,,,,,,,,,,,,,,,,,,,,,,,,MET12605/19/10 09:56:02 METAR KCHS 191456Z 28003KT 10SM FEW080 27/17 A2989 RMK AO2 RAB22E31 SLP122 P0000 60000 T02720172 50001 (JMB),,,,,,,,,,,,,,,,,,,,,,,,,,,,
72208013880,2010-05-19T10:00:00,FM-12,4,,SE,0.25,mi,"TEMP, PRECIP, SNOW",,,"MMTS, SRG, SNOWBOARD",,,WFO CHS,,,,,,,,,,,,,,,,,,,,,,,,,,,,63,81,,,-0.00,0,54,29.89,,29.84,9.94,69,280,,3,,,,,,,,,,,,,,,,,,,,,,,,,,,,,,,,,,,,,SYN082AAXX  19154 72208 12866 22803 10272 20172 30106 40122 50001 69907 91456 555 91915;,,,,,,,,,,,,,,,,,,,,,,,,,,,,
72208013880,2010-05-20T09:56:00,SY-MT,7,,SE,0.25,mi,"TEMP, PRECIP, SNOW",,,"MMTS, SRG, SNOWBOARD",,,WFO CHS,,,,,,,,,,,,,,,,,,,,,,,,,,,30.02,67,77,0.00,HZ:7 ||HZ,-0.01,0,71,30.01,BKN:07 19 BKN:07 25,29.97,6.00,70,VRB,,3,,,,,,,,,,,,,,,,,,,,,,,,,,,,,,,,,,,,,SYN082AAXX  20154 72208 31459 6//03 10250 20194 30150 40163 50003 705// 91456 555 92015;MET11305/20/10 09:56:02 METAR KCHS 201456Z VRB03KT 6SM HZ BKN019 BKN025 25/19 A3002 RMK AO2 SLP163 T02500194 50003 (WD),,,,,,,,,,,,,,,,,,,,,,,,,,,,
72208013880,2010-05-21T09:56:00,FM-15,7,,SE,0.25,mi,"TEMP, PRECIP, SNOW",,,"MMTS, SRG, SNOWBOARD",,,WFO CHS,,,,,,,,,,,,,,,,,,,,,,,,,,,30.12,63,81,0.00,,-0.01,0,54,30.11,FEW:02 23,30.07,10.00,69,120,,11,,,,,,,,,,,,,,,,,,,,,,,,,,,,,,,,,,,,,MET10505/21/10 09:56:02 METAR KCHS 211456Z 12010KT 10SM FEW023 27/17 A3012 RMK AO2 SLP198 T02720172 50002 (JRS),,,,,,,,,,,,,,,,,,,,,,,,,,,,
72208013880,2010-05-21T10:00:00,FM-12,4,,SE,0.25,mi,"TEMP, PRECIP, SNOW",,,"MMTS, SRG, SNOWBOARD",,,WFO CHS,,,,,,,,,,,,,,,,,,,,,,,,,,,,63,81,,,-0.01,0,54,30.11,,30.07,9.94,69,120,,11,,,,,,,,,,,,,,,,,,,,,,,,,,,,,,,,,,,,,SYN076AAXX  21154 72208 32566 21210 10272 20172 30184 40198 50002 91456 555 92115;,,,,,,,,,,,,,,,,,,,,,,,,,,,,
72208013880,2010-05-22T09:56:00,SY-MT,7,,SE,0.25,mi,"TEMP, PRECIP, SNOW",,,"MMTS, SRG, SNOWBOARD",,,WFO CHS,,,,,,,,,,,,,,,,,,,,,,,,,,,30.12,65,82,0.00,,-0.01,0,56,30.12,SCT:04 34,30.07,10.00,71,160,,6,,,,,,,,,,,,,,,,,,,,,,,,,,,,,,,,,,,,,SYN076AAXX  22154 72208 32666 41605 10278 20183 30184 40199 50005 91456 555 92215;MET10505/22/10 09:56:02 METAR KCHS 221456Z 16005KT 10SM SCT034 28/18 A3012 RMK AO2 SLP199 T02780183 50005 (JRS),,,,,,,,,,,,,,,,,,,,,,,,,,,,
72208013880,2010-05-23T09:56:00,SY-MT,7,,SE,0.25,mi,"TEMP, PRECIP, SNOW",,,"MMTS, SRG, SNOWBOARD",,,WFO CHS,,,,,,,,,,,,,,,,,,,,,,,,,,,30.07,70,81,0.00,,+0.00,8,69,30.07,SCT:04 23 BKN:07 43,30.02,10.00,74,VRB,,5,,,,,,,,,,,,,,,,,,,,,,,,,,,,,,,,,,,,,SYN076AAXX  23154 72208 32566 6//04 10272 20211 30167 40183 58001 91456 555 92315;MET11205/23/10 09:56:02 METAR KCHS 231456Z VRB04KT 10SM SCT023 BKN043 27/21 A3007 RMK AO2 SLP183 T02720211 58001 (JRS),,,,,,,,,,,,,,,,,,,,,,,,,,,,
72208013880,2010-05-24T09:56:00,FM-15,7,,SE,0.25,mi,"TEMP, PRECIP, SNOW",,,"MMTS, SRG, SNOWBOARD",,,WFO CHS,,,,,,,,,,,,,,,,,,,,,,,,,,,30.05,68,74,0.00,,-0.01,0,82,30.04,SCT:04 16 SCT:04 31 BKN:07 55,30.00,8.00,70,050,,3,,,,,,,,,,,,,,,,,,,,,,,,,,,,,,,,,,,,,MET11705/24/10 09:56:02 METAR KCHS 241456Z 05003KT 8SM SCT016 SCT031 BKN055 23/20 A3005 RMK AO2 SLP173 T02330200 50003 (WD),,,,,,,,,,,,,,,,,,,,,,,,,,,,
72208013880,2010-05-24T10:00:00,FM-12,4,,SE,0.25,mi,"TEMP, PRECIP, SNOW",,,"MMTS, SRG, SNOWBOARD",,,WFO CHS,,,,,,,,,,,,,,,,,,,,,,,,,,,,68,74,,,-0.01,0,82,30.04,,30.00,7.46,70,050,,3,,,,,,,,,,,,,,,,,,,,,,,,,,,,,,,,,,,,,SYN076AAXX  24154 72208 32462 60503 10233 20200 30160 40173 50003 91456 555 92415;,,,,,,,,,,,,,,,,,,,,,,,,,,,,
72208013880,2010-05-25T09:56:00,FM-15,7,,SE,0.25,mi,"TEMP, PRECIP, SNOW",,,"MMTS, SRG, SNOWBOARD",,,WFO CHS,,,,,,,,,,,,,,,,,,,,,,,,,,,30.06,67,75,0.00,,-0.02,0,76,30.06,SCT:04 17 OVC:08 24,30.01,9.00,70,040,,11,,,,,,,,,,,,,,,,,,,,,,,,,,,,,,,,,,,,,MET11005/25/10 09:56:02 METAR KCHS 251456Z 04010KT 9SM SCT017 OVC024 24/19 A3006 RMK AO2 SLP180 T02390194 50006 (WD),,,,,,,,,,,,,,,,,,,,,,,,,,,,
72208013880,2010-05-25T10:00:00,FM-12,4,,SE,0.25,mi,"TEMP, PRECIP, SNOW",,,"MMTS, SRG, SNOWBOARD",,,WFO CHS,,,,,,,,,,,,,,,,,,,,,,,,,,,,67,75,,,-0.02,0,76,30.06,,30.01,8.70,70,040,,11,,,,,,,,,,,,,,,,,,,,,,,,,,,,,,,,,,,,,SYN076AAXX  25154 72208 32464 80410 10239 20194 30163 40180 50006 91456 555 92515;,,,,,,,,,,,,,,,,,,,,,,,,,,,,
72208013880,2010-05-26T09:56:00,FM-15,7,,SE,0.25,mi,"TEMP, PRECIP, SNOW",,,"MMTS, SRG, SNOWBOARD",,,WFO CHS,,,,,,,,,,,,,,,,,,,,,,,,,,,29.89,66,76,0.00,,+0.01,8,72,29.89,BKN:07 21 BKN:07 100,29.84,10.00,70,020,23,17,,,,,,,,,,,,,,,,,,,,,,,,,,,,,,,,,,,,,MET12005/26/10 09:56:02 METAR KCHS 261456Z 02015G20KT 10SM BKN021 BKN100 24/19 A2989 RMK AO2 SLP121 60000 T02440189 58005 (WD),,,,,,,,,,,,,,,,,,,,,,,,,,,,
72208013880,2010-05-26T10:00:00,FM-12,4,,SE,0.25,mi,"TEMP, PRECIP, SNOW",,,"MMTS, SRG, SNOWBOARD",,,WFO CHS,,,,,,,,,,,,,,,,,,,,,,,,,,,,66,76,,,+0.01,8,72,29.89,,29.84,9.94,70,020,23,17,,,,,,,,,,,,,,,,,,,,,,,,,,,,,,,,,,,,,SYN092AAXX  26154 72208 12566 60215 10244 20189 30106 40121 58005 69907 91456 333 91020 555 92615;,,,,,,,,,,,,,,,,,,,,,,,,,,,,
72208013880,2010-05-27T09:56:00,FM-15,7,,SE,0.25,mi,"TEMP, PRECIP, SNOW",,,"MMTS, SRG, SNOWBOARD",,,WFO CHS,,,,,,,,,,,,,,,,,,,,,,,,,,,29.82,62,83,0.00,,+0.02,8,49,29.82,,29.77,10.00,70,340,,9,,,,,,,,,,,,,,,,,,,,,,,,,,,,,,,,,,,,,MET10105/27/10 09:56:02 METAR KCHS 271456Z 34008KT 10SM CLR 28/17 A2982 RMK AO2 SLP097 T02830167 58006 (WD),,,,,,,,,,,,,,,,,,,,,,,,,,,,
72208013880,2010-05-27T10:00:00,FM-12,4,,SE,0.25,mi,"TEMP, PRECIP, SNOW",,,"MMTS, SRG, SNOWBOARD",,,WFO CHS,,,,,,,,,,,,,,,,,,,,,,,,,,,,62,83,,,+0.02,8,49,29.82,CLR:00,29.77,9.94,70,340,,9,,,,,,,,,,,,,,,,,,,,,,,,,,,,,,,,,,,,,SYN076AAXX  27154 72208 32966 03408 10283 20167 30082 40097 58006 91456 555 92715;,,,,,,,,,,,,,,,,,,,,,,,,,,,,
72208013880,2010-05-31T09:56:00,FM-15,7,,SE,0.25,mi,"TEMP, PRECIP, SNOW",,,"MMTS, SRG, SNOWBOARD",,,WFO CHS,,,,,,,,,,,,,,,,,,,,,,,,,,,30.11,70,80,0.00,,-0.01,0,71,30.11,FEW:02 23,30.06,9.00,73,160,,10,,,,,,,,,,,,,,,,,,,,,,,,,,,,,,,,,,,,,MET10305/31/10 09:56:02 METAR KCHS 311456Z 16009KT 9SM FEW023 27/21 A3011 RMK AO2 SLP195 T02670211 50005 (WD),,,,,,,,,,,,,,,,,,,,,,,,,,,,
72208013880,2010-05-31T10:00:00,FM-12,4,,SE,0.25,mi,"TEMP, PRECIP, SNOW",,,"MMTS, SRG, SNOWBOARD",,,WFO CHS,,,,,,,,,,,,,,,,,,,,,,,,,,,,70,80,,,-0.01,0,71,30.11,,30.06,8.70,73,160,,10,,,,,,,,,,,,,,,,,,,,,,,,,,,,,,,,,,,,,SYN076AAXX  31154 72208 32564 21609 10267 20211 30180 40195 50005 91456 555 93115;,,,,,,,,,,,,,,,,,,,,,,,,,,,,
72208013880,2010-06-01T09:56:00,SY-MT,7,,SE,0.25,mi,"TEMP, PRECIP, SNOW",,,"MMTS, SRG, SNOWBOARD",,,WFO CHS,,,,,,,,,,,,,,,,,,,,,,,,,,,30.01,71,74,0.16,-RA:02 BR:1 |RA |RA,+0.01,8,91,30.01,BKN:07 15 BKN:07 23 OVC:08 48,29.96,6.00,72,010,,6,,,,,,,,,,,,,,,,,,,,,,,,,,,,,,,,,,,,,SYN098AAXX  01154 72208 11459 80105 10233 20217 30146 40162 58005 60067 761// 91456 333 96010 555 90115;MET14406/01/10 09:56:02 METAR KCHS 011456Z 01005KT 6SM -RA BR BKN015 BKN023 OVC048 23/22 A3001 RMK AO2 RAB1357 SLP162 P0016 60022 T02330217 58005 (WD),,,,,,,,,,,,,,,,,,,,,,,,,,,,
72208013880,2010-06-02T09:56:00,FM-15,7,,SE,0.25,mi,"TEMP, PRECIP, SNOW",,,"MMTS, SRG, SNOWBOARD",,,WFO CHS,,,,,,,,,,,,,,,,,,,,,,,,,,,29.94,73,84,0.00,BR:1 ||,-0.01,0,70,29.93,,29.89,9.00,76,240,,5,,,,,,,,,,,,,,,,,,,,,,,,,,,,,,,,,,,,,MET10306/02/10 09:56:02 METAR KCHS 021456Z 24004KT 9SM BR CLR 29/23 A2994 RMK AO2 SLP137 T02890228 50004 (WD),,,,,,,,,,,,,,,,,,,,,,,,,,,,
72208013880,2010-06-02T10:00:00,FM-12,4,,SE,0.25,mi,"TEMP, PRECIP, SNOW",,,"MMTS, SRG, SNOWBOARD",,,WFO CHS,,,,,,,,,,,,,,,,,,,,,,,,,,,,73,84,,,-0.01,0,70,29.93,CLR:00,29.89,8.70,76,240,,5,,,,,,,,,,,,,,,,,,,,,,,,,,,,,,,,,,,,,SYN082AAXX  02154 72208 31964 02404 10289 20228 30123 40137 50004 710// 91456 555 90215;,,,,,,,,,,,,,,,,,,,,,,,,,,,,
72208013880,2010-06-03T09:56:00,FM-15,7,,SE,0.25,mi,"TEMP, PRECIP, SNOW",,,"MMTS, SRG, SNOWBOARD",,,WFO CHS,,,,,,,,,,,,,,,,,,,,,,,,,,,29.91,71,82,0.00,,-0.02,0,69,29.91,FEW:02 18,29.86,9.00,74,VRB,,6,,,,,,,,,,,,,,,,,,,,,,,,,,,,,,,,,,,,,MET10306/03/10 09:56:02 METAR KCHS 031456Z VRB05KT 9SM FEW018 28/22 A2991 RMK AO2 SLP128 T02780217 50008 (WD),,,,,,,,,,,,,,,,,,,,,,,,,,,,
72208013880,2010-06-03T10:00:00,FM-12,4,,SE,0.25,mi,"TEMP, PRECIP, SNOW",,,"MMTS, SRG, SNOWBOARD",,,WFO CHS,,,,,,,,,,,,,,,,,,,,,,,,,,,,71,82,,,-0.02,0,69,29.91,,29.86,8.70,74,,,,,,,,,,,,,,,,,,,,,,,,,,,,,,,,,,,,,,,,SYN076AAXX  03154 72208 32464 2//05 10278 20217 30113 40128 50008 91456 555 90315;,,,,,,,,,,,,,,,,,,,,,,,,,,,,
72208013880,2010-06-04T09:56:00,FM-15,7,,SE,0.25,mi,"TEMP, PRECIP, SNOW",,,"MMTS, SRG, SNOWBOARD",,,WFO CHS,,,,,,,,,,,,,,,,,,,,,,,,,,,29.96,73,86,0.00,,-0.01,0,65,29.96,SCT:04 27,29.91,9.00,77,230,,8,,,,,,,,,,,,,,,,,,,,,,,,,,,,,,,,,,,,,MET10306/04/10 09:56:02 METAR KCHS 041456Z 23007KT 9SM SCT027 30/23 A2996 RMK AO2 SLP144 T03000228 50005 (WD),,,,,,,,,,,,,,,,,,,,,,,,,,,,
72208013880,2010-06-04T10:00:00,FM-12,4,,SE,0.25,mi,"TEMP, PRECIP, SNOW",,,"MMTS, SRG, SNOWBOARD",,,WFO CHS,,,,,,,,,,,,,,,,,,,,,,,,,,,,73,86,,,-0.01,0,65,29.96,,29.91,8.70,77,230,,8,,,,,,,,,,,,,,,,,,,,,,,,,,,,,,,,,,,,,SYN076AAXX  04154 72208 32564 42307 10300 20228 30129 40144 50005 91456 555 90415;,,,,,,,,,,,,,,,,,,,,,,,,,,,,
72208013880,2010-06-06T09:56:00,FM-15,7,,SE,0.25,mi,"TEMP, PRECIP, SNOW",,,"MMTS, SRG, SNOWBOARD",,,WFO CHS,,,,,,,,,,,,,,,,,,,,,,,,,,,29.90,71,85,0.00,,+0.03,8,63,29.90,FEW:02 20,29.85,10.00,75,260,20,13,,,,,,,,,,,,,,,,,,,,,,,,,,,,,,,,,,,,,MET11206/06/10 09:56:02 METAR KCHS 061456Z 26011G17KT 10SM FEW020 29/22 A2990 RMK AO2 SLP124 T02940217 58011 RTX (JRS),,,,,,,,,,,,,,,,,,,,,,,,,,,,
72208013880,2010-06-06T10:00:00,FM-12,4,,SE,0.25,mi,"TEMP, PRECIP, SNOW",,,"MMTS, SRG, SNOWBOARD",,,WFO CHS,,,,,,,,,,,,,,,,,,,,,,,,,,,,71,85,,,+0.03,8,63,29.90,,29.85,9.94,75,260,19,13,,,,,,,,,,,,,,,,,,,,,,,,,,,,,,,,,,,,,SYN086AAXX  06154 72208 32566 22611 10294 20217 30109 40124 58011 91456 333 91017 555 90615;,,,,,,,,,,,,,,,,,,,,,,,,,,,,
72208013880,2010-06-10T09:56:00,SY-MT,7,,SE,0.25,mi,"TEMP, PRECIP, SNOW",,,"MMTS, SRG, SNOWBOARD",,,WFO CHS,,,,,,,,,,,,,,,,,,,,,,,,,,,30.05,69,85,0.00,,+0.01,8,59,30.04,,30.00,10.00,74,260,,10,,,,,,,,,,,,,,,,,,,,,,,,,,,,,,,,,,,,,SYN076AAXX  10154 72208 32966 02609 10294 20206 30160 40174 58003 91456 555 91015;MET10106/10/10 09:56:02 METAR KCHS 101456Z 26009KT 10SM CLR 29/21 A3005 RMK AO2 SLP174 T02940206 58003 (WD),,,,,,,,,,,,,,,,,,,,,,,,,,,,
72208013880,2010-06-13T09:56:00,SY-MT,7,,SE,0.25,mi,"TEMP, PRECIP, SNOW",,,"MMTS, SRG, SNOWBOARD",,,WFO CHS,,,,,,,,,,,,,,,,,,,,,,,,,,,30.06,71,89,0.00,,+0.01,6,55,30.05,,30.01,9.00,76,270,,10,,,,,,,,,,,,,,,,,,,,,,,,,,,,,,,,,,,,,SYN076AAXX  13154 72208 32964 02709 10317 20217 30163 40177 56003 91456 555 91315;MET10106/13/10 09:56:02 METAR KCHS 131456Z 27009KT 9SM CLR 32/22 A3006 RMK AO2 SLP177 T03170217 56003 (JRS),,,,,,,,,,,,,,,,,,,,,,,,,,,,
72208013880,2010-06-17T09:56:00,SY-MT,7,,SE,0.25,mi,"TEMP, PRECIP, SNOW",,,"MMTS, SRG, SNOWBOARD",,,WFO CHS,,,,,,,,,,,,,,,,,,,,,,,,,,,30.01,72,90,0.00,,+0.01,8,56,30.00,,29.96,9.00,77,VRB,,3,,,,,,,,,,,,,,,,,,,,,,,,,,,,,,,,,,,,,SYN076AAXX  17154 72208 32964 0//03 10322 20222 30146 40160 58002 91456 555 91715;MET10106/17/10 09:56:02 METAR KCHS 171456Z VRB03KT 9SM CLR 32/22 A3001 RMK AO2 SLP160 T03220222 58002 (JRS),,,,,,,,,,,,,,,,,,,,,,,,,,,,
72208013880,2010-06-19T09:56:00,SY-MT,7,,SE,0.25,mi,"TEMP, PRECIP, SNOW",,,"MMTS, SRG, SNOWBOARD",,,WFO CHS,,,,,,,,,,,,,,,,,,,,,,,,,,,30.08,75,83,0.00,,-0.01,0,77,30.08,FEW:02 26,30.03,9.00,77,200,,3,,,,,,,,,,,,,,,,,,,,,,,,,,,,,,,,,,,,,SYN076AAXX  19154 72208 32564 22003 10283 20239 30170 40186 50002 91456 555 91915;MET11606/19/10 09:56:02 METAR KCHS 191456Z 20003KT 9SM FEW026 28/24 A3008 RMK AO2 SLP186 TCU DSNT SW T02830239 50002 (JRS),,,,,,,,,,,,,,,,,,,,,,,,,,,,
72208013880,2010-06-23T09:56:00,FM-15,7,,SE,0.25,mi,"TEMP, PRECIP, SNOW",,,"MMTS, SRG, SNOWBOARD",,,WFO CHS,,,,,,,,,,,,,,,,,,,,,,,,,,,30.18,72,86,0.00,,-0.02,0,63,30.18,FEW:02 20 BKN:07 60,30.13,10.00,76,290,,9,,,,,,,,,,,,,,,,,,,,,,,,,,,,,,,,,,,,,MET11506/23/10 09:56:02 METAR KCHS 231456Z 29008KT 10SM FEW020 BKN060 30/22 A3018 RMK AO2 SLP219 T03000222 50007 RTX (WD),,,,,,,,,,,,,,,,,,,,,,,,,,,,
72208013880,2010-06-23T10:00:00,FM-12,4,,SE,0.25,mi,"TEMP, PRECIP, SNOW",,,"MMTS, SRG, SNOWBOARD",,,WFO CHS,,,,,,,,,,,,,,,,,,,,,,,,,,,,72,86,,,-0.02,0,63,30.18,,30.13,9.94,76,290,,9,,,,,,,,,,,,,,,,,,,,,,,,,,,,,,,,,,,,,SYN076AAXX  23154 72208 32566 62908 10300 20222 30204 40219 50007 91456 555 92315;,,,,,,,,,,,,,,,,,,,,,,,,,,,,
72208013880,2010-06-24T09:56:00,FM-15,7,,SE,0.25,mi,"TEMP, PRECIP, SNOW",,,"MMTS, SRG, SNOWBOARD",,,WFO CHS,,,,,,,,,,,,,,,,,,,,,,,,,,,30.09,75,88,0.00,,+0.01,8,66,30.08,,30.04,10.00,79,230,,8,,,,,,,,,,,,,,,,,,,,,,,,,,,,,,,,,,,,,MET10106/24/10 09:56:02 METAR KCHS 241456Z 23007KT 10SM CLR 31/24 A3009 RMK AO2 SLP187 T03110239 58002 (WD),,,,,,,,,,,,,,,,,,,,,,,,,,,,
72208013880,2010-06-24T10:00:00,FM-12,4,,SE,0.25,mi,"TEMP, PRECIP, SNOW",,,"MMTS, SRG, SNOWBOARD",,,WFO CHS,,,,,,,,,,,,,,,,,,,,,,,,,,,,75,88,,,+0.01,8,66,30.08,CLR:00,30.04,9.94,79,230,,8,,,,,,,,,,,,,,,,,,,,,,,,,,,,,,,,,,,,,SYN076AAXX  24154 72208 32966 02307 10311 20239 30173 40187 58002 91456 555 92415;,,,,,,,,,,,,,,,,,,,,,,,,,,,,
72208013880,2010-06-25T09:56:00,SY-MT,7,,SE,0.25,mi,"TEMP, PRECIP, SNOW",,,"MMTS, SRG, SNOWBOARD",,,WFO CHS,,,,,,,,,,,,,,,,,,,,,,,,,,,30.05,75,88,0.00,,-0.01,0,66,30.05,,30.00,10.00,79,220,,7,,,,,,,,,,,,,,,,,,,,,,,,,,,,,,,,,,,,,SYN076AAXX  25154 72208 32966 02206 10311 20239 30160 40177 50002 91456 555 92515;MET10106/25/10 09:56:02 METAR KCHS 251456Z 22006KT 10SM CLR 31/24 A3005 RMK AO2 SLP177 T03110239 50002 (WD),,,,,,,,,,,,,,,,,,,,,,,,,,,,
72208013880,2010-07-03T09:56:00,SY-MT,7,,SE,0.25,mi,"TEMP, PRECIP, SNOW",,,"MMTS, SRG, SNOWBOARD",,,WFO CHS,,,,,,,,,,,,,,,,,,,,,,,,,,,30.19,61,81,0.00,,-0.01,0,51,30.19,FEW:02 35,30.14,10.00,68,040,,15,,,,,,,,,,,,,,,,,,,,,,,,,,,,,,,,,,,,,SYN076AAXX  03154 72208 32666 20413 10272 20161 30207 40223 50002 91456 555 90315;MET10507/03/10 09:56:02 METAR KCHS 031456Z 04013KT 10SM FEW035 27/16 A3019 RMK AO2 SLP223 T02720161 50002 (JRS),,,,,,,,,,,,,,,,,,,,,,,,,,,,
72208013880,2010-07-07T09:56:00,SY-MT,7,,SE,0.25,mi,"TEMP, PRECIP, SNOW",,,"MMTS, SRG, SNOWBOARD",,,WFO CHS,,,,,,,,,,,,,,,,,,,,,,,,,,,30.09,71,87,0.00,,-0.00,0,59,30.08,,30.04,10.00,76,320,,7,,,,,,,,,,,,,,,,,,,,,,,,,,,,,,,,,,,,,SYN076AAXX  07154 72208 32966 03206 10306 20217 30173 40187 50000 91456 555 90715;MET10107/07/10 09:56:02 METAR KCHS 071456Z 32006KT 10SM CLR 31/22 A3009 RMK AO2 SLP187 T03060217 50000 (WD),,,,,,,,,,,,,,,,,,,,,,,,,,,,
72208013880,2010-07-08T09:56:00,SY-MT,7,,SE,0.25,mi,"TEMP, PRECIP, SNOW",,,"MMTS, SRG, SNOWBOARD",,,WFO CHS,,,,,,,,,,,,,,,,,,,,,,,,,,,29.96,70,91,0.00,,+0.02,8,50,29.95,,29.91,9.00,76,330,,11,,,,,,,,,,,,,,,,,,,,,,,,,,,,,,,,,,,,,SYN076AAXX  08154 72208 32964 03310 10328 20211 30129 40143 58006 91456 555 90815;MET10007/08/10 09:56:02 METAR KCHS 081456Z 33010KT 9SM CLR 33/21 A2996 RMK AO2 SLP143 T03280211 58006 (WD),,,,,,,,,,,,,,,,,,,,,,,,,,,,
72208013880,2010-07-09T09:56:00,SY-MT,7,,SE,0.25,mi,"TEMP, PRECIP, SNOW",,,"MMTS, SRG, SNOWBOARD",,,WFO CHS,,,,,,,,,,,,,,,,,,,,,,,,,,,29.97,72,83,0.00,HZ:7 ||HZ,-0.02,0,70,29.96,,29.92,6.00,75,080,,7,,,,,,,,,,,,,,,,,,,,,,,,,,,,,,,,,,,,,SYN082AAXX  09154 72208 31959 00806 10283 20222 30133 40146 50006 705// 91456 555 90915;MET10407/09/10 09:56:02 METAR KCHS 091456Z 08006KT 6SM HZ CLR 28/22 A2997 RMK AO2 SLP146 T02830222 50006 (JRS),,,,,,,,,,,,,,,,,,,,,,,,,,,,
72208013880,2010-07-15T09:56:00,SY-MT,7,,SE,0.25,mi,"TEMP, PRECIP, SNOW",,,"MMTS, SRG, SNOWBOARD",,,WFO CHS,,,,,,,,,,,,,,,,,,,,,,,,,,,30.05,77,87,0.00,,-0.01,0,72,30.04,SCT:04 25,30.00,10.00,80,VRB,,6,,,,,,,,,,,,,,,,,,,,,,,,,,,,,,,,,,,,,SYN076AAXX  15154 72208 32566 4//05 10306 20250 30160 40174 50002 91456 555 91515;MET10407/15/10 09:56:02 METAR KCHS 151456Z VRB05KT 10SM SCT025 31/25 A3005 RMK AO2 SLP174 T03060250 50002 (WD),,,,,,,,,,,,,,,,,,,,,,,,,,,,
72208013880,2010-07-16T09:56:00,SY-MT,7,,SE,0.25,mi,"TEMP, PRECIP, SNOW",,,"MMTS, SRG, SNOWBOARD",,,WFO CHS,,,,,,,,,,,,,,,,,,,,,,,,,,,30.12,75,87,0.00,,+0.00,8,67,30.11,FEW:02 29,30.07,10.00,78,210,,9,,,,,,,,,,,,,,,,,,,,,,,,,,,,,,,,,,,,,SYN076AAXX  16154 72208 32566 22108 10306 20239 30184 40198 58001 91456 555 91615;MET10407/16/10 09:56:02 METAR KCHS 161456Z 21008KT 10SM FEW029 31/24 A3012 RMK AO2 SLP198 T03060239 58001 (WD),,,,,,,,,,,,,,,,,,,,,,,,,,,,
72208013880,2010-07-17T09:56:00,SY-MT,7,,SE,0.25,mi,"TEMP, PRECIP, SNOW",,,"MMTS, SRG, SNOWBOARD",,,WFO CHS,,,,,,,,,,,,,,,,,,,,,,,,,,,30.14,77,88,0.00,,+0.00,8,70,30.14,FEW:02 24,30.09,9.00,80,220,,7,,,,,,,,,,,,,,,,,,,,,,,,,,,,,,,,,,,,,SYN076AAXX  17154 72208 32564 22206 10311 20250 30190 40205 58000 91456 555 91715;MET10407/17/10 09:56:02 METAR KCHS 171456Z 22006KT 9SM FEW024 31/25 A3014 RMK AO2 SLP205 T03110250 58000 (JRS),,,,,,,,,,,,,,,,,,,,,,,,,,,,
72208013880,2010-07-18T09:56:00,FM-15,7,,SE,0.25,mi,"TEMP, PRECIP, SNOW",,,"MMTS, SRG, SNOWBOARD",,,WFO CHS,,,,,,,,,,,,,,,,,,,,,,,,,,,30.13,76,87,0.00,,+0.00,8,70,30.12,SCT:04 23,30.08,9.00,79,230,,10,,,,,,,,,,,,,,,,,,,,,,,,,,,,,,,,,,,,,MET10407/18/10 09:56:02 METAR KCHS 181456Z 23009KT 9SM SCT023 31/24 A3013 RMK AO2 SLP201 T03060244 58001 (JRS),,,,,,,,,,,,,,,,,,,,,,,,,,,,
72208013880,2010-07-18T10:00:00,FM-12,4,,SE,0.25,mi,"TEMP, PRECIP, SNOW",,,"MMTS, SRG, SNOWBOARD",,,WFO CHS,,,,,,,,,,,,,,,,,,,,,,,,,,,,76,87,,,+0.00,8,70,30.12,,30.08,8.70,79,230,,10,,,,,,,,,,,,,,,,,,,,,,,,,,,,,,,,,,,,,SYN076AAXX  18154 72208 32564 42309 10306 20244 30187 40201 58001 91456 555 91815;,,,,,,,,,,,,,,,,,,,,,,,,,,,,
72208013880,2010-07-19T09:56:00,FM-15,6,,SE,0.25,mi,"TEMP, PRECIP, SNOW",,,"MMTS, SRG, SNOWBOARD",,,WFO CHS,,,,,,,,,,,,,,,,,,,,,,,,,,,30.12,72,88,0.00,,-0.00,0,59,30.11,FEW:02 30,30.07,10.00,77,230,,13,,,,,,,,,,,,,,,,,,,,,,,,,,,,,,,,,,,,,MET10407/19/10 09:56:02 METAR KCHS 191456Z 23011KT 10SM FEW030 31/22 A3012 RMK AO2 SLP198 T03110222 50000 (WD),,,,,,,,,,,,,,,,,,,,,,,,,,,,
72208013880,2010-07-21T09:56:00,SY-MT,7,,SE,0.25,mi,"TEMP, PRECIP, SNOW",,,"MMTS, SRG, SNOWBOARD",,,WFO CHS,,,,,,,,,,,,,,,,,,,,,,,,,,,30.17,75,88,0.00,,+0.01,8,66,30.16,,30.12,9.00,79,270,,10,,,,,,,,,,,,,,,,,,,,,,,,,,,,,,,,,,,,,SYN076AAXX  21154 72208 32964 02709 10311 20239 30201 40215 58002 91456 555 92115;MET10007/21/10 09:56:02 METAR KCHS 211456Z 27009KT 9SM CLR 31/24 A3017 RMK AO2 SLP215 T03110239 58002 (WD),,,,,,,,,,,,,,,,,,,,,,,,,,,,
72208013880,2010-07-22T09:56:00,SY-MT,7,,SE,0.25,mi,"TEMP, PRECIP, SNOW",,,"MMTS, SRG, SNOWBOARD",,,WFO CHS,,,,,,,,,,,,,,,,,,,,,,,,,,,30.12,75,86,0.00,,-0.01,0,70,30.11,,30.07,9.00,78,260,,8,,,,,,,,,,,,,,,,,,,,,,,,,,,,,,,,,,,,,SYN076AAXX  22154 72208 32964 02607 10300 20239 30184 40198 50003 91456 555 92215;MET10007/22/10 09:56:02 METAR KCHS 221456Z 26007KT 9SM CLR 30/24 A3012 RMK AO2 SLP198 T03000239 50003 (WD),,,,,,,,,,,,,,,,,,,,,,,,,,,,
72208013880,2010-07-25T09:56:00,SY-MT,7,,SE,0.25,mi,"TEMP, PRECIP, SNOW",,,"MMTS, SRG, SNOWBOARD",,,WFO CHS,,,,,,,,,,,,,,,,,,,,,,,,,,,30.10,77,87,0.00,,+0.02,8,72,30.09,FEW:02 27,30.05,10.00,80,230,,8,,,,,,,,,,,,,,,,,,,,,,,,,,,,,,,,,,,,,SYN076AAXX  25154 72208 32566 22307 10306 20250 30177 40190 58006 91456 555 92515;MET10507/25/10 09:56:02 METAR KCHS 251456Z 23007KT 10SM FEW027 31/25 A3010 RMK AO2 SLP190 T03060250 58006 (JRS),,,,,,,,,,,,,,,,,,,,,,,,,,,,
72208013880,2010-07-30T09:56:00,SY-MT,7,,SE,0.25,mi,"TEMP, PRECIP, SNOW",,,"MMTS, SRG, SNOWBOARD",,,WFO CHS,,,,,,,,,,,,,,,,,,,,,,,,,,,29.87,79,92,0.00,,+0.00,8,66,29.87,FEW:02 30,29.82,8.00,82,360,,7,,,,,,,,,,,,,,,,,,,,,,,,,,,,,,,,,,,,,SYN076AAXX  30154 72208 32562 23606 10333 20261 30099 40115 58001 91456 555 93015;MET10307/30/10 09:56:02 METAR KCHS 301456Z 36006KT 8SM FEW030 33/26 A2987 RMK AO2 SLP115 T03330261 58001 (WD),,,,,,,,,,,,,,,,,,,,,,,,,,,,
72208013880,2010-08-01T09:56:00,FM-15,7,,SE,0.25,mi,"TEMP, PRECIP, SNOW",,,"MMTS, SRG, SNOWBOARD",,,WFO CHS,,,,,,,,,,,,,,,,,,,,,,,,,,,29.87,79,85,0.00,,+0.01,8,82,29.86,SCT:04 16,29.82,10.00,81,VRB,,3,,,,,,,,,,,,,,,,,,,,,,,,,,,,,,,,,,,,,MET11108/01/10 09:56:02 METAR KCHS 011456Z VRB03KT 10SM SCT016 29/26 A2987 RMK AO2 SLP112 60002 T02940261 58002 (JRS),,,,,,,,,,,,,,,,,,,,,,,,,,,,
72208013880,2010-08-01T10:00:00,FM-12,4,,SE,0.25,mi,"TEMP, PRECIP, SNOW",,,"MMTS, SRG, SNOWBOARD",,,WFO CHS,,,,,,,,,,,,,,,,,,,,,,,,,,,,79,85,,,+0.01,8,82,29.86,,29.82,9.94,81,,,,,,,,,,,,,,,,,,,,,,,,,,,,,,,,,,,,,,,,SYN082AAXX  01154 72208 12466 4//03 10294 20261 30099 40112 58002 69957 91456 555 90115;,,,,,,,,,,,,,,,,,,,,,,,,,,,,
72208013880,2010-08-05T09:56:00,SY-MT,7,,SE,0.25,mi,"TEMP, PRECIP, SNOW",,,"MMTS, SRG, SNOWBOARD",,,WFO CHS,,,,,,,,,,,,,,,,,,,,,,,,,,,29.98,76,88,0.00,,+0.01,8,68,29.97,FEW:02 22,29.93,10.00,79,200,,7,,,,,,,,,,,,,,,,,,,,,,,,,,,,,,,,,,,,,SYN076AAXX  05154 72208 32566 22006 10311 20244 30136 40150 58003 91456 555 90515;MET10408/05/10 09:56:02 METAR KCHS 051456Z 20006KT 10SM FEW022 31/24 A2998 RMK AO2 SLP150 T03110244 58003 (WD),,,,,,,,,,,,,,,,,,,,,,,,,,,,
72208013880,2010-08-12T09:56:00,SY-MT,7,,SE,0.25,mi,"TEMP, PRECIP, SNOW",,,"MMTS, SRG, SNOWBOARD",,,WFO CHS,,,,,,,,,,,,,,,,,,,,,,,,,,,29.91,75,88,0.00,,-0.00,0,66,29.91,FEW:02 25,29.86,10.00,79,270,18,13,,,,,,,,,,,,,,,,,,,,,,,,,,,,,,,,,,,,,SYN086AAXX  12154 72208 32566 22711 10311 20239 30113 40129 50001 91456 333 91016 555 91215;MET10708/12/10 09:56:02 METAR KCHS 121456Z 27011G16KT 10SM FEW025 31/24 A2991 RMK AO2 SLP129 T03110239 50001 (WD),,,,,,,,,,,,,,,,,,,,,,,,,,,,
72208013880,2010-08-18T09:56:00,SY-MT,7,,SE,0.25,mi,"TEMP, PRECIP, SNOW",,,"MMTS, SRG, SNOWBOARD",,,WFO CHS,,,,,,,,,,,,,,,,,,,,,,,,,,,30.06,79,88,0.00,,+0.01,8,75,30.05,SCT:04 19 SCT:04 46 BKN:07 60,30.01,9.00,81,VRB,,5,,,,,,,,,,,,,,,,,,,,,,,,,,,,,,,,,,,,,SYN076AAXX  18154 72208 32464 6//04 10311 20261 30163 40177 58004 91456 555 91815;MET11708/18/10 09:56:02 METAR KCHS 181456Z VRB04KT 9SM SCT019 SCT046 BKN060 31/26 A3006 RMK AO2 SLP177 T03110261 58004 (WD),,,,,,,,,,,,,,,,,,,,,,,,,,,,
72208013880,2010-08-24T09:56:00,SY-MT,7,,SE,0.25,mi,"TEMP, PRECIP, SNOW",,,"MMTS, SRG, SNOWBOARD",,,WFO CHS,,,,,,,,,,,,,,,,,,,,,,,,,,,29.81,75,85,0.00,,+0.01,8,72,29.80,,29.76,7.00,78,000,,0,,,,,,,,,,,,,,,,,,,,,,,,,,,,,,,,,,,,,SYN076AAXX  24154 72208 32961 00000 10294 20239 30079 40093 58003 91456 555 92415;MET10208/24/10 09:56:02 METAR KCHS 241456Z 00000KT 7SM CLR 29/24 A2981 RMK AO2 SLP093 T02940239 58003 $ (WD),,,,,,,,,,,,,,,,,,,,,,,,,,,,
72208013880,2010-08-31T09:56:00,SY-MT,7,,SE,0.25,mi,"TEMP, PRECIP, SNOW",,,"MMTS, SRG, SNOWBOARD",,,WFO CHS,,,,,,,,,,,,,,,,,,,,,,,,,,,30.21,68,85,0.00,,-0.01,0,57,30.21,,30.16,10.00,74,080,,8,,,,,,,,,,,,,,,,,,,,,,,,,,,,,,,,,,,,,SYN076AAXX  31154 72208 32966 00807 10294 20200 30214 40230 50003 91456 555 93115;MET10208/31/10 09:56:02 METAR KCHS 311456Z 08007KT 10SM CLR 29/20 A3021 RMK AO2 SLP230 T02940200 50003 (KPL),,,,,,,,,,,,,,,,,,,,,,,,,,,,
72208013880,2010-09-02T09:56:00,SY-MT,7,,SE,0.25,mi,"TEMP, PRECIP, SNOW",,,"MMTS, SRG, SNOWBOARD",,,WFO CHS,,,,,,,,,,,,,,,,,,,,,,,,,,,29.94,69,82,0.00,,+0.01,8,65,29.94,,29.89,10.00,73,020,,14,,,,,,,,,,,,,,,,,,,,,,,,,,,,,,,,,,,,,SYN076AAXX  02154 72208 32966 00212 10278 20206 30123 40138 58002 91456 555 90215;MET10109/02/10 09:56:02 METAR KCHS 021456Z 02012KT 10SM CLR 28/21 A2994 RMK AO2 SLP138 T02780206 58002 (WD),,,,,,,,,,,,,,,,,,,,,,,,,,,,
72208013880,2010-09-03T09:56:00,SY-MT,7,,SE,0.25,mi,"TEMP, PRECIP, SNOW",,,"MMTS, SRG, SNOWBOARD",,,WFO CHS,,,,,,,,,,,,,,,,,,,,,,,,,,,29.91,68,86,0.00,,+0.02,6,55,29.91,,29.86,8.00,74,250,,7,,,,,,,,,,,,,,,,,,,,,,,,,,,,,,,,,,,,,SYN076AAXX  03154 72208 32962 02506 10300 20200 30113 40128 56006 91456 555 90315;MET10009/03/10 09:56:02 METAR KCHS 031456Z 25006KT 8SM CLR 30/20 A2991 RMK AO2 SLP128 T03000200 56006 (WD),,,,,,,,,,,,,,,,,,,,,,,,,,,,
72208013880,2010-09-08T09:56:00,SY-MT,7,,SE,0.25,mi,"TEMP, PRECIP, SNOW",,,"MMTS, SRG, SNOWBOARD",,,WFO CHS,,,,,,,,,,,,,,,,,,,,,,,,,,,30.11,74,83,0.00,,-0.00,0,74,30.11,SCT:04 17,30.06,10.00,77,280,,6,,,,,,,,,,,,,,,,,,,,,,,,,,,,,,,,,,,,,SYN076AAXX  08154 72208 32466 42805 10283 20233 30180 40195 50001 91456 555 90815;MET10409/08/10 09:56:02 METAR KCHS 081456Z 28005KT 10SM SCT017 28/23 A3011 RMK AO2 SLP195 T02830233 50001 (WD),,,,,,,,,,,,,,,,,,,,,,,,,,,,
72208013880,2010-09-14T09:56:00,SY-MT,7,,SE,0.25,mi,"TEMP, PRECIP, SNOW",,,"MMTS, SRG, SNOWBOARD",,,WFO CHS,,,,,,,,,,,,,,,,,,,,,,,,,,,30.11,66,82,0.00,,-0.01,0,58,30.11,,30.06,10.00,71,VRB,,5,,,,,,,,,,,,,,,,,,,,,,,,,,,,,,,,,,,,,SYN076AAXX  14154 72208 32966 0//04 10278 20189 30180 40195 50004 91456 555 91415;MET10109/14/10 09:56:02 METAR KCHS 141456Z VRB04KT 10SM CLR 28/19 A3011 RMK AO2 SLP195 T02780189 50004 (WD),,,,,,,,,,,,,,,,,,,,,,,,,,,,
72208013880,2010-09-16T09:56:00,SY-MT,7,,SE,0.25,mi,"TEMP, PRECIP, SNOW",,,"MMTS, SRG, SNOWBOARD",,,WFO CHS,,,,,,,,,,,,,,,,,,,,,,,,,,,30.14,68,85,0.00,,-0.01,0,57,30.13,FEW:02 25,30.09,10.00,74,220,,6,,,,,,,,,,,,,,,,,,,,,,,,,,,,,,,,,,,,,SYN076AAXX  16154 72208 32566 22205 10294 20200 30190 40204 50002 91456 555 91615;MET10409/16/10 09:56:02 METAR KCHS 161456Z 22005KT 10SM FEW025 29/20 A3014 RMK AO2 SLP204 T02940200 50002 (WD),,,,,,,,,,,,,,,,,,,,,,,,,,,,
72208013880,2010-09-18T09:56:00,SY-MT,7,,SE,0.25,mi,"TEMP, PRECIP, SNOW",,,"MMTS, SRG, SNOWBOARD",,,WFO CHS,,,,,,,,,,,,,,,,,,,,,,,,,,,30.12,72,85,0.00,,-0.04,0,65,30.12,FEW:02 35 SCT:04 60,30.07,10.00,76,010,,3,,,,,,,,,,,,,,,,,,,,,,,,,,,,,,,,,,,,,SYN076AAXX  18154 72208 32666 40103 10294 20222 30184 40199 50012 91456 555 91815;MET11209/18/10 09:56:02 METAR KCHS 181456Z 01003KT 10SM FEW035 SCT060 29/22 A3012 RMK AO2 SLP199 T02940222 50012 (JRS),,,,,,,,,,,,,,,,,,,,,,,,,,,,
72208013880,2010-09-19T09:56:00,FM-15,7,,SE,0.25,mi,"TEMP, PRECIP, SNOW",,,"MMTS, SRG, SNOWBOARD",,,WFO CHS,,,,,,,,,,,,,,,,,,,,,,,,,,,30.12,71,81,0.00,,-0.00,0,72,30.12,SCT:04 20,30.07,8.00,74,360,,7,,,,,,,,,,,,,,,,,,,,,,,,,,,,,,,,,,,,,MET10409/19/10 09:56:02 METAR KCHS 191456Z 36006KT 8SM SCT020 27/22 A3012 RMK AO2 SLP199 T02720217 50000 (JRS),,,,,,,,,,,,,,,,,,,,,,,,,,,,
72208013880,2010-09-19T10:00:00,FM-12,4,,SE,0.25,mi,"TEMP, PRECIP, SNOW",,,"MMTS, SRG, SNOWBOARD",,,WFO CHS,,,,,,,,,,,,,,,,,,,,,,,,,,,,71,81,,,-0.00,0,72,30.12,,30.07,7.46,74,360,,7,,,,,,,,,,,,,,,,,,,,,,,,,,,,,,,,,,,,,SYN076AAXX  19154 72208 32562 43606 10272 20217 30184 40199 50000 91456 555 91915;,,,,,,,,,,,,,,,,,,,,,,,,,,,,
72208013880,2010-09-20T09:56:00,SY-MT,7,,SE,0.25,mi,"TEMP, PRECIP, SNOW",,,"MMTS, SRG, SNOWBOARD",,,WFO CHS,,,,,,,,,,,,,,,,,,,,,,,,,,,30.01,66,86,0.00,,-0.01,0,51,30.01,,29.96,9.00,73,330,,8,,,,,,,,,,,,,,,,,,,,,,,,,,,,,,,,,,,,,SYN076AAXX  20154 72208 35964 03307 10300 20189 30146 40161 50004 91456 555 92015;MET10509/20/10 09:56:02 METAR KCHS 201456Z 33007KT 9SM CLR 30/19 A3001 RMK AO2 SLP161 T03000189 50004 TSNO (WD),,,,,,,,,,,,,,,,,,,,,,,,,,,,
72208013880,2010-09-24T09:56:00,SY-MT,7,,SE,0.25,mi,"TEMP, PRECIP, SNOW",,,"MMTS, SRG, SNOWBOARD",,,WFO CHS,,,,,,,,,,,,,,,,,,,,,,,,,,,30.22,72,83,0.00,,-0.01,0,70,30.22,SCT:04 25 BKN:07 34 OVC:08 44,30.17,10.00,75,040,,5,,,,,,,,,,,,,,,,,,,,,,,,,,,,,,,,,,,,,SYN076AAXX  24154 72208 32566 80404 10283 20222 30217 40232 50002 91456 555 92415;MET11909/24/10 09:56:02 METAR KCHS 241456Z 04004KT 10SM SCT025 BKN034 OVC044 28/22 A3022 RMK AO2 SLP232 T02830222 50002 (AWS),,,,,,,,,,,,,,,,,,,,,,,,,,,,
72208013880,2010-09-25T09:56:00,SY-MT,7,,SE,0.25,mi,"TEMP, PRECIP, SNOW",,,"MMTS, SRG, SNOWBOARD",,,WFO CHS,,,,,,,,,,,,,,,,,,,,,,,,,,,30.06,71,84,0.00,,+0.01,8,65,30.05,FEW:02 25,30.01,10.00,75,280,,9,,,,,,,,,,,,,,,,,,,,,,,,,,,,,,,,,,,,,SYN076AAXX  25154 72208 32566 22808 10289 20217 30163 40177 58004 91456 555 92515;MET10509/25/10 09:56:02 METAR KCHS 251456Z 28008KT 10SM FEW025 29/22 A3006 RMK AO2 SLP177 T02890217 58004 (JRS),,,,,,,,,,,,,,,,,,,,,,,,,,,,
72208013880,2010-09-27T09:56:00,SY-MT,7,,SE,0.25,mi,"TEMP, PRECIP, SNOW",,,"MMTS, SRG, SNOWBOARD",,,WFO CHS,,,,,,,,,,,,,,,,,,,,,,,,,,,29.82,74,76,0.05s,-RA:02 BR:1 |RA |RA,-0.02,0,94,29.81,BKN:07 19 OVC:08 46,29.77,2.50V,75,000,,0,,,,,,,,,,,,,,,,,,,,,,,,,,,,,,,,,,,,,SYN098AAXX  27154 72208 11440 80000 10244 20233 30082 40095 50007 60017 761// 91456 333 96010 555 92715;MET15109/27/10 09:56:02 METAR KCHS 271456Z 00000KT 2 1/2SM -RA BR BKN019 OVC046 24/23 A2982 RMK AO2 VIS 1 1/2V4 RAB10 SLP095 P0004 60004 T02440233 50007 (WD),,,,,,,,,,,,,,,,,,,,,,,,,,,,
72208013880,2010-10-02T09:56:00,SY-MT,7,,SE,0.25,mi,"TEMP, PRECIP, SNOW",,,"MMTS, SRG, SNOWBOARD",,,WFO CHS,,,,,,,,,,,,,,,,,,,,,,,,,,,29.92,55,71,0.00,,-0.03,0,57,29.92,SCT:04 60,29.87,10.00,62,050,23,15,,,,,,,,,,,,,,,,,,,,,,,,,,,,,,,,,,,,,SYN086AAXX  02154 72208 32766 40513 10217 20128 30116 40132 50010 91456 333 91020 555 90215;MET10810/02/10 09:56:02 METAR KCHS 021456Z 05013G20KT 10SM SCT060 22/13 A2992 RMK AO2 SLP132 T02170128 50010 (JRS),,,,,,,,,,,,,,,,,,,,,,,,,,,,
72208013880,2010-10-06T09:56:00,SY-MT,7,,SE,0.25,mi,"TEMP, PRECIP, SNOW",,,"MMTS, SRG, SNOWBOARD",,,WFO CHS,,,,,,,,,,,,,,,,,,,,,,,,,,,30.15,43,66,0.00,,-0.01,0,43,30.15,,30.10,10.00,54,350,,13,,,,,,,,,,,,,,,,,,,,,,,,,,,,,,,,,,,,,SYN076AAXX  06154 72208 32966 03511 10189 20061 30194 40210 50002 91456 555 90615;MET10110/06/10 09:56:02 METAR KCHS 061456Z 35011KT 10SM CLR 19/06 A3015 RMK AO2 SLP210 T01890061 50002 (DD),,,,,,,,,,,,,,,,,,,,,,,,,,,,
72208013880,2010-10-09T09:56:00,SY-MT,7,,SE,0.25,mi,"TEMP, PRECIP, SNOW",,,"MMTS, SRG, SNOWBOARD",,,WFO CHS,,,,,,,,,,,,,,,,,,,,,,,,,,,30.09,65,74,0.00,,-0.02,0,74,30.08,FEW:02 5,30.04,9.00,68,320,,5,,,,,,,,,,,,,,,,,,,,,,,,,,,,,,,,,,,,,SYN076AAXX  09154 72208 32264 23204 10233 20183 30173 40187 50006 91456 555 90915;MET10410/09/10 09:56:02 METAR KCHS 091456Z 32004KT 9SM FEW005 23/18 A3009 RMK AO2 SLP187 T02330183 50006 (WRB),,,,,,,,,,,,,,,,,,,,,,,,,,,,
72208013880,2010-10-10T09:56:00,FM-15,7,,SE,0.25,mi,"TEMP, PRECIP, SNOW",,,"MMTS, SRG, SNOWBOARD",,,WFO CHS,,,,,,,,,,,,,,,,,,,,,,,,,,,30.04,62,77,0.00,,-0.01,0,60,30.03,,29.99,10.00,68,270,,8,,,,,,,,,,,,,,,,,,,,,,,,,,,,,,,,,,,,,MET10210/10/10 09:56:02 METAR KCHS 101456Z 27007KT 10SM CLR 25/17 A3004 RMK AO2 SLP171 T02500167 50003 (WRB),,,,,,,,,,,,,,,,,,,,,,,,,,,,
72208013880,2010-10-10T10:00:00,FM-12,4,,SE,0.25,mi,"TEMP, PRECIP, SNOW",,,"MMTS, SRG, SNOWBOARD",,,WFO CHS,,,,,,,,,,,,,,,,,,,,,,,,,,,,62,77,,,-0.01,0,60,30.03,CLR:00,29.99,9.94,68,270,,8,,,,,,,,,,,,,,,,,,,,,,,,,,,,,,,,,,,,,SYN076AAXX  10154 72208 32966 02707 10250 20167 30157 40171 50003 91456 555 91015;,,,,,,,,,,,,,,,,,,,,,,,,,,,,
72208013880,2010-10-11T09:56:00,SY-MT,7,,SE,0.25,mi,"TEMP, PRECIP, SNOW",,,"MMTS, SRG, SNOWBOARD",,,WFO CHS,,,,,,,,,,,,,,,,,,,,,,,,,,,30.01,65,79,0.00,,-0.02,0,62,30.01,,29.96,10.00,70,250,,5,,,,,,,,,,,,,,,,,,,,,,,,,,,,,,,,,,,,,SYN076AAXX  11154 72208 32966 02504 10261 20183 30146 40161 50008 91456 555 91115;MET10110/11/10 09:56:02 METAR KCHS 111456Z 25004KT 10SM CLR 26/18 A3001 RMK AO2 SLP161 T02610183 50008 (DD),,,,,,,,,,,,,,,,,,,,,,,,,,,,
72208013880,2010-10-12T09:56:00,SY-MT,7,,SE,0.25,mi,"TEMP, PRECIP, SNOW",,,"MMTS, SRG, SNOWBOARD",,,WFO CHS,,,,,,,,,,,,,,,,,,,,,,,,,,,29.98,61,76,0.00,,-0.01,0,60,29.98,,29.93,10.00,67,290,,7,,,,,,,,,,,,,,,,,,,,,,,,,,,,,,,,,,,,,SYN076AAXX  12154 72208 32966 02906 10244 20161 30136 40152 50004 91456 555 91215;MET10110/12/10 09:56:02 METAR KCHS 121456Z 29006KT 10SM CLR 24/16 A2998 RMK AO2 SLP152 T02440161 50004 (DD),,,,,,,,,,,,,,,,,,,,,,,,,,,,
72208013880,2010-10-13T09:56:00,SY-MT,7,,SE,0.25,mi,"TEMP, PRECIP, SNOW",,,"MMTS, SRG, SNOWBOARD",,,WFO CHS,,,,,,,,,,,,,,,,,,,,,,,,,,,29.97,65,73,0.00,,-0.02,0,76,29.97,SCT:04 80 BKN:07 110,29.92,10.00,68,000,,0,,,,,,,,,,,,,,,,,,,,,,,,,,,,,,,,,,,,,SYN082AAXX  13154 72208 12866 60000 10228 20183 30133 40149 50007 69907 91456 555 91315;MET11710/13/10 09:56:02 METAR KCHS 131456Z 00000KT 10SM SCT080 BKN110 23/18 A2997 RMK AO2 SLP149 60000 T02280183 50007 (DD),,,,,,,,,,,,,,,,,,,,,,,,,,,,
72208013880,2010-10-14T09:56:00,SY-MT,7,,SE,0.25,mi,"TEMP, PRECIP, SNOW",,,"MMTS, SRG, SNOWBOARD",,,WFO CHS,,,,,,,,,,,,,,,,,,,,,,,,,,,29.89,63,77,0.00,,+0.01,8,62,29.88,SCT:04 110,29.84,10.00,68,270,,7,,,,,,,,,,,,,,,,,,,,,,,,,,,,,,,,,,,,,SYN076AAXX  14154 72208 32966 42706 10250 20172 30106 40119 58002 91456 555 91415;MET10410/14/10 09:56:02 METAR KCHS 141456Z 27006KT 10SM SCT110 25/17 A2989 RMK AO2 SLP119 T02500172 58002 (DD),,,,,,,,,,,,,,,,,,,,,,,,,,,,
72208013880,2010-10-15T09:56:00,SY-MT,7,,SE,0.25,mi,"TEMP, PRECIP, SNOW",,,"MMTS, SRG, SNOWBOARD",,,WFO CHS,,,,,,,,,,,,,,,,,,,,,,,,,,,29.98,45,67,0.00,,-0.00,0,45,29.98,,29.93,10.00,55,000,,0,,,,,,,,,,,,,,,,,,,,,,,,,,,,,,,,,,,,,SYN076AAXX  15154 72208 32966 00000 10194 20072 30136 40152 50000 91456 555 91515;MET10110/15/10 09:56:02 METAR KCHS 151456Z 00000KT 10SM CLR 19/07 A2998 RMK AO2 SLP152 T01940072 50000 (DD),,,,,,,,,,,,,,,,,,,,,,,,,,,,
72208013880,2010-10-16T09:56:00,SY-MT,7,,SE,0.25,mi,"TEMP, PRECIP, SNOW",,,"MMTS, SRG, SNOWBOARD",,,WFO CHS,,,,,,,,,,,,,,,,,,,,,,,,,,,30.15,41,66,0.00,,-0.03,0,40,30.15,,30.10,10.00,53,030,,14,,,,,,,,,,,,,,,,,,,,,,,,,,,,,,,,,,,,,SYN076AAXX  16154 72208 32966 00312 10189 20050 30194 40209 50010 91456 555 91615;MET10210/16/10 09:56:02 METAR KCHS 161456Z 03012KT 10SM CLR 19/05 A3015 RMK AO2 SLP209 T01890050 50010 (JRS),,,,,,,,,,,,,,,,,,,,,,,,,,,,
72208013880,2010-10-17T09:56:00,FM-15,7,,SE,0.25,mi,"TEMP, PRECIP, SNOW",,,"MMTS, SRG, SNOWBOARD",,,WFO CHS,,,,,,,,,,,,,,,,,,,,,,,,,,,30.17,44,71,0.00,,-0.01,0,38,30.17,,30.12,10.00,57,300,,3,,,,,,,,,,,,,,,,,,,,,,,,,,,,,,,,,,,,,MET10210/17/10 09:56:02 METAR KCHS 171456Z 30003KT 10SM CLR 22/07 A3017 RMK AO2 SLP217 T02170067 50002 (JRS),,,,,,,,,,,,,,,,,,,,,,,,,,,,
72208013880,2010-10-17T10:00:00,FM-12,4,,SE,0.25,mi,"TEMP, PRECIP, SNOW",,,"MMTS, SRG, SNOWBOARD",,,WFO CHS,,,,,,,,,,,,,,,,,,,,,,,,,,,,44,71,,,-0.01,0,38,30.17,CLR:00,30.12,9.94,57,300,,3,,,,,,,,,,,,,,,,,,,,,,,,,,,,,,,,,,,,,SYN076AAXX  17154 72208 32966 03003 10217 20067 30201 40217 50002 91456 555 91715;,,,,,,,,,,,,,,,,,,,,,,,,,,,,
72208013880,2010-10-18T09:56:00,SY-MT,7,,SE,0.25,mi,"TEMP, PRECIP, SNOW",,,"MMTS, SRG, SNOWBOARD",,,WFO CHS,,,,,,,,,,,,,,,,,,,,,,,,,,,30.08,54,72,0.00,,-0.00,0,53,30.08,,30.03,10.00,62,260,,7,,,,,,,,,,,,,,,,,,,,,,,,,,,,,,,,,,,,,SYN076AAXX  18154 72208 32966 02606 10222 20122 30170 40185 50001 91456 555 91815;MET10110/18/10 09:56:02 METAR KCHS 181456Z 26006KT 10SM CLR 22/12 A3008 RMK AO2 SLP185 T02220122 50001 (WD),,,,,,,,,,,,,,,,,,,,,,,,,,,,
72208013880,2010-10-19T09:56:00,SY-MT,7,,SE,0.25,mi,"TEMP, PRECIP, SNOW",,,"MMTS, SRG, SNOWBOARD",,,WFO CHS,,,,,,,,,,,,,,,,,,,,,,,,,,,29.98,57,72,0.00,,-0.01,0,59,29.98,,29.93,10.00,63,250,,7,,,,,,,,,,,,,,,,,,,,,,,,,,,,,,,,,,,,,SYN076AAXX  19154 72208 32966 02506 10222 20139 30136 40151 50004 91456 555 91915;MET10110/19/10 09:56:02 METAR KCHS 191456Z 25006KT 10SM CLR 22/14 A2998 RMK AO2 SLP151 T02220139 50004 (WD),,,,,,,,,,,,,,,,,,,,,,,,,,,,
72208013880,2010-10-20T09:56:00,SY-MT,7,,SE,0.25,mi,"TEMP, PRECIP, SNOW",,,"MMTS, SRG, SNOWBOARD",,,WFO CHS,,,,,,,,,,,,,,,,,,,,,,,,,,,29.89,60,74,0.00,,+0.00,8,62,29.89,SCT:04 140,29.84,10.00,65,230,,7,,,,,,,,,,,,,,,,,,,,,,,,,,,,,,,,,,,,,SYN076AAXX  20154 72208 32966 42306 10233 20156 30106 40122 58001 91456 555 92015;MET10510/20/10 09:56:02 METAR KCHS 201456Z 23006KT 10SM SCT140 23/16 A2989 RMK AO2 SLP122 T02330156 58001 (JRS),,,,,,,,,,,,,,,,,,,,,,,,,,,,
72208013880,2010-10-21T09:56:00,SY-MT,7,,SE,0.25,mi,"TEMP, PRECIP, SNOW",,,"MMTS, SRG, SNOWBOARD",,,WFO CHS,,,,,,,,,,,,,,,,,,,,,,,,,,,29.94,57,68,0.00,,-0.03,0,68,29.94,,29.89,10.00,62,280,,7,,,,,,,,,,,,,,,,,,,,,,,,,,,,,,,,,,,,,SYN076AAXX  21154 72208 32966 02806 10200 20139 30123 40139 50009 91456 555 92115;MET10210/21/10 09:56:02 METAR KCHS 211456Z 28006KT 10SM CLR 20/14 A2994 RMK AO2 SLP139 T02000139 50009 (JRS),,,,,,,,,,,,,,,,,,,,,,,,,,,,
72208013880,2010-10-24T09:56:00,SY-MT,7,,SE,0.25,mi,"TEMP, PRECIP, SNOW",,,"MMTS, SRG, SNOWBOARD",,,WFO CHS,,,,,,,,,,,,,,,,,,,,,,,,,,,30.24,65,77,0.00,,-0.01,0,66,30.24,,30.19,10.00,69,000,,0,,,,,,,,,,,,,,,,,,,,,,,,,,,,,,,,,,,,,SYN076AAXX  24154 72208 32966 00000 10250 20183 30224 40240 50004 91456 555 92415;MET10210/24/10 09:56:02 METAR KCHS 241456Z 00000KT 10SM CLR 25/18 A3024 RMK AO2 SLP240 T02500183 50004 (JRS),,,,,,,,,,,,,,,,,,,,,,,,,,,,
72208013880,2010-10-28T09:56:00,SY-MT,7,,SE,0.25,mi,"TEMP, PRECIP, SNOW",,,"MMTS, SRG, SNOWBOARD",,,WFO CHS,,,,,,,,,,,,,,,,,,,,,,,,,,,30.07,73,83,0.00,,+0.00,8,72,30.06,SCT:04 20 SCT:04 35 BKN:07 100,30.02,10.00,76,260,,11,,,,,,,,,,,,,,,,,,,,,,,,,,,,,,,,,,,,,SYN076AAXX  28154 72208 32566 62610 10283 20228 30167 40180 58001 91456 555 92815;MET11810/28/10 09:56:02 METAR KCHS 281456Z 26010KT 10SM SCT020 SCT035 BKN100 28/23 A3007 RMK AO2 SLP180 T02830228 58001 (DD),,,,,,,,,,,,,,,,,,,,,,,,,,,,
72208013880,2010-10-30T09:56:00,SY-MT,7,,SE,0.25,mi,"TEMP, PRECIP, SNOW",,,"MMTS, SRG, SNOWBOARD",,,WFO CHS,,,,,,,,,,,,,,,,,,,,,,,,,,,30.25,46,65,0.00,,-0.01,0,51,30.25,,30.20,10.00,55,060,,6,,,,,,,,,,,,,,,,,,,,,,,,,,,,,,,,,,,,,SYN076AAXX  30154 72208 32966 00605 10183 20078 30228 40244 50005 91456 555 93015;MET10210/30/10 09:56:02 METAR KCHS 301456Z 06005KT 10SM CLR 18/08 A3025 RMK AO2 SLP244 T01830078 50005 (JRS),,,,,,,,,,,,,,,,,,,,,,,,,,,,
72208013880,2010-10-31T09:56:00,SY-MT,7,,SE,0.25,mi,"TEMP, PRECIP, SNOW",,,"MMTS, SRG, SNOWBOARD",,,WFO CHS,,,,,,,,,,,,,,,,,,,,,,,,,,,30.10,57,71,0.00,,-0.01,0,61,30.09,FEW:02 250,30.05,10.00,63,260,,10,,,,,,,,,,,,,,,,,,,,,,,,,,,,,,,,,,,,,SYN076AAXX  31154 72208 32966 22609 10217 20139 30177 40190 50005 91456 555 93115;MET10510/31/10 09:56:02 METAR KCHS 311456Z 26009KT 10SM FEW250 22/14 A3010 RMK AO2 SLP190 T02170139 50005 (JRS),,,,,,,,,,,,,,,,,,,,,,,,,,,,
72208013880,2010-11-01T09:56:00,SY-MT,7,,SE,0.25,mi,"TEMP, PRECIP, SNOW",,,"MMTS, SRG, SNOWBOARD",,,WFO CHS,,,,,,,,,,,,,,,,,,,,,,,,,,,30.18,55,68,0.00,,-0.04,0,63,30.18,FEW:02 250,30.13,10.00,61,030,,8,,,,,,,,,,,,,,,,,,,,,,,,,,,,,,,,,,,,,SYN076AAXX  01154 72208 32966 20307 10200 20128 30204 40220 50015 91456 555 90115;MET10411/01/10 09:56:02 METAR KCHS 011456Z 03007KT 10SM FEW250 20/13 A3018 RMK AO2 SLP220 T02000128 50015 (DD),,,,,,,,,,,,,,,,,,,,,,,,,,,,
72208013880,2010-11-02T09:56:00,SY-MT,7,,SE,0.25,mi,"TEMP, PRECIP, SNOW",,,"MMTS, SRG, SNOWBOARD",,,WFO CHS,,,,,,,,,,,,,,,,,,,,,,,,,,,30.29,42,58,0.00,,-0.02,0,56,30.28,SCT:04 40 SCT:04 55 BKN:07 70,30.24,10.00,50,040,,13,,,,,,,,,,,,,,,,,,,,,,,,,,,,,,,,,,,,,SYN076AAXX  02154 72208 32666 60411 10144 20056 30241 40255 50006 91456 555 90215;MET11811/02/10 09:56:02 METAR KCHS 021456Z 04011KT 10SM SCT040 SCT055 BKN070 14/06 A3029 RMK AO2 SLP255 T01440056 50006 (DD),,,,,,,,,,,,,,,,,,,,,,,,,,,,
72208013880,2010-11-03T09:56:00,SY-MT,7,,SE,0.25,mi,"TEMP, PRECIP, SNOW",,,"MMTS, SRG, SNOWBOARD",,,WFO CHS,,,,,,,,,,,,,,,,,,,,,,,,,,,30.07,51,58,0.00,,-0.01,0,78,30.07,BKN:07 12 OVC:08 17,30.02,10.00,54,010,,13,,,,,,,,,,,,,,,,,,,,,,,,,,,,,,,,,,,,,SYN076AAXX  03154 72208 32466 80111 10144 20106 30167 40183 50002 91456 555 90315;MET11111/03/10 09:56:02 METAR KCHS 031456Z 01011KT 10SM BKN012 OVC017 14/11 A3007 RMK AO2 SLP183 T01440106 50002 (DD),,,,,,,,,,,,,,,,,,,,,,,,,,,,
72208013880,2010-11-04T09:56:00,SY-MT,7,,SE,0.25,mi,"TEMP, PRECIP, SNOW",,,"MMTS, SRG, SNOWBOARD",,,WFO CHS,,,,,,,,,,,,,,,,,,,,,,,,,,,29.57,62,62,0.01,BR:1 ||,+0.07,8,100,29.57,SCT:04 2 BKN:07 7 OVC:08 100,29.52,2.00,62,000,,0,,,,,,,,,,,,,,,,,,,,,,,,,,,,,,,,,,,,,SYN088AAXX  04154 72208 11132 80000 10167 20167 39998 40014 58023 69937 710// 91456 555 90415;MET15611/04/10 09:56:02 METAR KCHS 041456Z 00000KT 2SM BR SCT002 BKN007 OVC100 17/17 A2957 RMK AO2 RAE04B31E49 SLP014 VIS SE-SW 1 P0001 60001 T01670167 58023 (DD),,,,,,,,,,,,,,,,,,,,,,,,,,,,
72208013880,2010-11-07T09:56:00,FM-15,7,,SE,0.25,mi,"TEMP, PRECIP, SNOW",,,"MMTS, SRG, SNOWBOARD",,,WFO CHS,,,,,,,,,,,,,,,,,,,,,,,,,,,30.40,28,50,0.00,,-0.02,0,43,30.40,,30.35,10.00,41,020,,10,,,,,,,,,,,,,,,,,,,,,,,,,,,,,,,,,,,,,MET10311/07/10 09:56:02 METAR KCHS 071456Z 02009KT 10SM CLR 10/M02 A3040 RMK AO2 SLP295 T01001022 50008 (JRS),,,,,,,,,,,,,,,,,,,,,,,,,,,,
72208013880,2010-11-07T10:00:00,FM-12,4,,SE,0.25,mi,"TEMP, PRECIP, SNOW",,,"MMTS, SRG, SNOWBOARD",,,WFO CHS,,,,,,,,,,,,,,,,,,,,,,,,,,,,28,50,,,-0.02,0,43,30.40,CLR:00,30.35,9.94,41,020,,10,,,,,,,,,,,,,,,,,,,,,,,,,,,,,,,,,,,,,SYN076AAXX  07154 72208 32966 00209 10100 21022 30278 40295 50008 91456 555 90715;,,,,,,,,,,,,,,,,,,,,,,,,,,,,
72208013880,2010-11-08T09:56:00,SY-MT,7,,SE,0.25,mi,"TEMP, PRECIP, SNOW",,,"MMTS, SRG, SNOWBOARD",,,WFO CHS,,,,,,,,,,,,,,,,,,,,,,,,,,,30.14,32,56,0.00,,+0.01,8,40,30.14,,30.09,10.00,45,270,,10,,,,,,,,,,,,,,,,,,,,,,,,,,,,,,,,,,,,,SYN076AAXX  08154 72208 32966 02709 10133 20000 30190 40207 58005 91456 555 90815;MET10111/08/10 09:56:02 METAR KCHS 081456Z 27009KT 10SM CLR 13/00 A3014 RMK AO2 SLP207 T01330000 58005 (DD),,,,,,,,,,,,,,,,,,,,,,,,,,,,
72208013880,2010-11-12T09:56:00,SY-MT,7,,SE,0.25,mi,"TEMP, PRECIP, SNOW",,,"MMTS, SRG, SNOWBOARD",,,WFO CHS,,,,,,,,,,,,,,,,,,,,,,,,,,,30.35,40,55,0.00,,-0.00,0,57,30.34,,30.29,10.00,48,030,,15,,,,,,,,,,,,,,,,,,,,,,,,,,,,,,,,,,,,,SYN076AAXX  12154 72208 32966 00313 10128 20044 30261 40275 50000 91456 555 91215;MET10111/12/10 09:56:02 METAR KCHS 121456Z 03013KT 10SM CLR 13/04 A3035 RMK AO2 SLP275 T01280044 50000 (DD),,,,,,,,,,,,,,,,,,,,,,,,,,,,
72208013880,2010-11-13T09:56:00,FM-15,7,,SE,0.25,mi,"TEMP, PRECIP, SNOW",,,"MMTS, SRG, SNOWBOARD",,,WFO CHS,,,,,,,,,,,,,,,,,,,,,,,,,,,30.24,34,57,0.00,,-0.00,0,42,30.23,,30.19,10.00,46,020,,7,,,,,,,,,,,,,,,,,,,,,,,,,,,,,,,,,,,,,MET10211/13/10 09:56:02 METAR KCHS 131456Z 02006KT 10SM CLR 14/01 A3024 RMK AO2 SLP238 T01390011 50000 (JRS),,,,,,,,,,,,,,,,,,,,,,,,,,,,
72208013880,2010-11-13T10:00:00,FM-12,4,,SE,0.25,mi,"TEMP, PRECIP, SNOW",,,"MMTS, SRG, SNOWBOARD",,,WFO CHS,,,,,,,,,,,,,,,,,,,,,,,,,,,,34,57,,,-0.00,0,42,30.23,CLR:00,30.19,9.94,46,020,,7,,,,,,,,,,,,,,,,,,,,,,,,,,,,,,,,,,,,,SYN076AAXX  13154 72208 32966 00206 10139 20011 30224 40238 50000 91456 555 91315;,,,,,,,,,,,,,,,,,,,,,,,,,,,,
72208013880,2010-11-14T09:56:00,FM-15,7,,SE,0.25,mi,"TEMP, PRECIP, SNOW",,,"MMTS, SRG, SNOWBOARD",,,WFO CHS,,,,,,,,,,,,,,,,,,,,,,,,,,,30.13,36,62,0.00,,-0.03,0,38,30.13,,30.08,10.00,50,000,,0,,,,,,,,,,,,,,,,,,,,,,,,,,,,,,,,,,,,,MET10411/14/10 09:56:02 METAR KCHS 141456Z 00000KT 10SM CLR 17/02 A3013 RMK AO2 SLP204 T01670022 50009 $ (JRS),,,,,,,,,,,,,,,,,,,,,,,,,,,,
72208013880,2010-11-14T10:00:00,FM-12,4,,SE,0.25,mi,"TEMP, PRECIP, SNOW",,,"MMTS, SRG, SNOWBOARD",,,WFO CHS,,,,,,,,,,,,,,,,,,,,,,,,,,,,36,62,,,-0.03,0,38,30.13,CLR:00,30.08,9.94,50,000,,0,,,,,,,,,,,,,,,,,,,,,,,,,,,,,,,,,,,,,SYN076AAXX  14154 72208 32966 00000 10167 20022 30187 40204 50009 91456 555 91415;,,,,,,,,,,,,,,,,,,,,,,,,,,,,
72208013880,2010-11-15T09:56:00,FM-15,7,,SE,0.25,mi,"TEMP, PRECIP, SNOW",,,"MMTS, SRG, SNOWBOARD",,,WFO CHS,,,,,,,,,,,,,,,,,,,,,,,,,,,30.02,56,65,0.00,,-0.01,0,73,30.02,FEW:02 180,29.97,10.00,60,000,,0,,,,,,,,,,,,,,,,,,,,,,,,,,,,,,,,,,,,,MET10611/15/10 09:56:02 METAR KCHS 151456Z 00000KT 10SM FEW180 18/13 A3002 RMK AO2 SLP166 T01830133 50005 $ (DD),,,,,,,,,,,,,,,,,,,,,,,,,,,,
72208013880,2010-11-15T10:00:00,FM-12,4,,SE,0.25,mi,"TEMP, PRECIP, SNOW",,,"MMTS, SRG, SNOWBOARD",,,WFO CHS,,,,,,,,,,,,,,,,,,,,,,,,,,,,56,65,,,-0.01,0,73,30.02,,29.97,9.94,60,000,,0,,,,,,,,,,,,,,,,,,,,,,,,,,,,,,,,,,,,,SYN076AAXX  15154 72208 32966 20000 10183 20133 30150 40166 50005 91456 555 91515;,,,,,,,,,,,,,,,,,,,,,,,,,,,,
72208013880,2010-11-23T09:56:00,SY-MT,7,,SE,0.25,mi,"TEMP, PRECIP, SNOW",,,"MMTS, SRG, SNOWBOARD",,,WFO CHS,,,,,,,,,,,,,,,,,,,,,,,,,,,30.20,62,71,0.00,,-0.01,0,73,30.20,BKN:07 80,30.15,10.00,65,220,,9,,,,,,,,,,,,,,,,,,,,,,,,,,,,,,,,,,,,,SYN076AAXX  23154 72208 32866 62208 10217 20167 30211 40227 50005 91456 555 92315;MET10611/23/10 09:56:02 METAR KCHS 231456Z 22008KT 10SM BKN080 22/17 A3020 RMK AO2 SLP227 T02170167 50005 $ (DD),,,,,,,,,,,,,,,,,,,,,,,,,,,,
72208013880,2010-11-25T09:56:00,SY-MT,7,,SE,0.25,mi,"TEMP, PRECIP, SNOW",,,"MMTS, SRG, SNOWBOARD",,,WFO CHS,,,,,,,,,,,,,,,,,,,,,,,,,,,30.12,65,74,0.00,,-0.01,0,74,30.11,FEW:02 85,30.07,10.00,68,160,,5,,,,,,,,,,,,,,,,,,,,,,,,,,,,,,,,,,,,,SYN076AAXX  25154 72208 32966 21604 10233 20183 30184 40198 50005 91456 555 92515;MET10411/25/10 09:56:02 METAR KCHS 251456Z 16004KT 10SM FEW085 23/18 A3012 RMK AO2 SLP198 T02330183 50005 (DD),,,,,,,,,,,,,,,,,,,,,,,,,,,,
72208013880,2010-11-30T09:56:00,SY-MT,7,,SE,0.25,mi,"TEMP, PRECIP, SNOW",,,"MMTS, SRG, SNOWBOARD",,,WFO CHS,,,,,,,,,,,,,,,,,,,,,,,,,,,30.15,64,72,T,,+0.00,8,76,30.14,FEW:02 20 SCT:04 45 BKN:07 70,30.10,10.00,67,150,,15,,,,,,,,,,,,,,,,,,,,,,,,,,,,,,,,,,,,,SYN082AAXX  30154 72208 12566 61513 10222 20178 30194 40207 58000 69907 91456 555 93015;MET13611/30/10 09:56:02 METAR KCHS 301456Z 15013KT 10SM FEW020 SCT045 BKN070 22/18 A3015 RMK AO2 RAE06 SLP207 P0000 60000 T02220178 58000 (DD),,,,,,,,,,,,,,,,,,,,,,,,,,,,
72208013880,2010-12-06T09:56:00,SY-MT,7,,SE,0.25,mi,"TEMP, PRECIP, SNOW",,,"MMTS, SRG, SNOWBOARD",,,WFO CHS,,,,,,,,,,,,,,,,,,,,,,,,,,,30.10,20,40,0.00,,-0.00,0,45,30.10,,30.05,10.00,33,340,,14,,,,,,,,,,,,,,,,,,,,,,,,,,,,,,,,,,,,,SYN076AAXX  06154 72208 32966 03412 10044 21067 30177 40193 50001 91456 555 90615;MET10412/06/10 09:56:02 METAR KCHS 061456Z 34012KT 10SM CLR 04/M07 A3010 RMK AO2 SLP193 T00441067 50001 $ (DD),,,,,,,,,,,,,,,,,,,,,,,,,,,,
72208013880,2010-12-11T09:56:00,FM-15,7,,SE,0.25,mi,"TEMP, PRECIP, SNOW",,,"MMTS, SRG, SNOWBOARD",,,WFO CHS,,,,,,,,,,,,,,,,,,,,,,,,,,,30.15,44,45,0.02,-RA:02 BR:1 |RA |RA,-0.00,0,97,30.14,BKN:07 5 OVC:08 20,30.10,2.00,45,010,,8,,,,,,,,,,,,,,,,,,,,,,,,,,,,,,,,,,,,,MET13012/11/10 09:56:02 METAR KCHS 111456Z 01007KT 2SM -RA BR BKN005 OVC020 07/07 A3015 RMK AO2 SLP208 P0002 60004 T00720067 50001 (JRS),,,,,,,,,,,,,,,,,,,,,,,,,,,,
72208013880,2010-12-11T10:00:00,FM-12,4,,SE,0.25,mi,"TEMP, PRECIP, SNOW",,,"MMTS, SRG, SNOWBOARD",,,WFO CHS,,,,,,,,,,,,,,,,,,,,,,,,,,,,44,45,,||RA,-0.00,0,97,30.14,,30.10,1.99,45,010,,8,,,,,,,,,,,,,,,,,,,,,,,,,,,,,,,,,,,,,SYN098AAXX  11154 72208 11232 80107 10072 20067 30194 40208 50001 60017 761// 91456 333 96010 555 91115;,,,,,,,,,,,,,,,,,,,,,,,,,,,,
72208013880,2010-12-12T09:56:00,FM-15,7,,SE,0.25,mi,"TEMP, PRECIP, SNOW",,,"MMTS, SRG, SNOWBOARD",,,WFO CHS,,,,,,,,,,,,,,,,,,,,,,,,,,,29.65,53,57,T,-RA:02 |RA |RA,+0.05,6,87,29.65,FEW:02 9 SCT:04 36 OVC:08 50,29.60,8.00,55,240,,10,,,,,,,,,,,,,,,,,,,,,,,,,,,,,,,,,,,,,MET13412/12/10 09:56:02 METAR KCHS 121456Z 24009KT 8SM -RA FEW009 SCT036 OVC050 14/12 A2965 RMK AO2 RAB54 SLP040 P0000 T01390117 56016 (JRS),,,,,,,,,,,,,,,,,,,,,,,,,,,,
72208013880,2010-12-12T10:00:00,FM-12,4,,SE,0.25,mi,"TEMP, PRECIP, SNOW",,,"MMTS, SRG, SNOWBOARD",,,WFO CHS,,,,,,,,,,,,,,,,,,,,,,,,,,,,53,57,,||RA,+0.05,6,87,29.65,,29.60,7.46,55,240,,10,,,,,,,,,,,,,,,,,,,,,,,,,,,,,,,,,,,,,SYN082AAXX  12154 72208 31362 82409 10139 20117 30025 40040 56016 761// 91456 555 91215;,,,,,,,,,,,,,,,,,,,,,,,,,,,,
72208013880,2010-12-21T09:56:00,FM-15,7,,SE,0.25,mi,"TEMP, PRECIP, SNOW",,,"MMTS, SRG, SNOWBOARD",,,WFO CHS,,,,,,,,,,,,,,,,,,,,,,,,,,,30.17,32,47,0.00,,-0.04,0,56,30.17,SCT:04 80 SCT:04 250,30.12,10.00,41,280,,5,,,,,,,,,,,,,,,,,,,,,,,,,,,,,,,,,,,,,MET10612/21/10 09:56:01 METAR KCHS 211456Z 28004KT 10SM SCT080 SCT250 08/00 A3017 RMK AO2 SLP217 T00830000 50012,,,,,,,,,,,,,,,,,,,,,,,,,,,,
72208013880,2010-12-21T10:00:00,FM-12,4,,SE,0.25,mi,"TEMP, PRECIP, SNOW",,,"MMTS, SRG, SNOWBOARD",,,WFO CHS,,,,,,,,,,,,,,,,,,,,,,,,,,,,32,47,,,-0.04,0,56,30.17,,30.12,9.94,41,280,,5,,,,,,,,,,,,,,,,,,,,,,,,,,,,,,,,,,,,,SYN076AAXX  21154 72208 32866 42804 10083 20000 30201 40217 50012 91456 555 92115;,,,,,,,,,,,,,,,,,,,,,,,,,,,,
72208013880,2010-12-22T09:56:00,FM-15,7,,SE,0.25,mi,"TEMP, PRECIP, SNOW",,,"MMTS, SRG, SNOWBOARD",,,WFO CHS,,,,,,,,,,,,,,,,,,,,,,,,,,,29.95,55,61,0.00,,-0.01,0,81,29.95,BKN:07 13 OVC:08 90,29.90,10.00,58,260,18,13,,,,,,,,,,,,,,,,,,,,,,,,,,,,,,,,,,,,,MET10912/22/10 09:56:01 METAR KCHS 221456Z 26011G16KT 10SM BKN013 OVC090 16/13 A2995 RMK AO2 SLP141 T01610128 50004,,,,,,,,,,,,,,,,,,,,,,,,,,,,
72208013880,2010-12-22T10:00:00,FM-12,4,,SE,0.25,mi,"TEMP, PRECIP, SNOW",,,"MMTS, SRG, SNOWBOARD",,,WFO CHS,,,,,,,,,,,,,,,,,,,,,,,,,,,,55,61,,,-0.01,0,81,29.95,,29.90,9.94,58,260,18,13,,,,,,,,,,,,,,,,,,,,,,,,,,,,,,,,,,,,,SYN086AAXX  22154 72208 32466 82611 10161 20128 30126 40141 50004 91456 333 91016 555 92215;,,,,,,,,,,,,,,,,,,,,,,,,,,,,
72208013880,2010-12-29T09:56:00,SY-MT,7,,SE,0.25,mi,"TEMP, PRECIP, SNOW",,,"MMTS, SRG, SNOWBOARD",,,WFO CHS,,,,,,,,,,,,,,,,,,,,,,,,,,,30.16,22,41,0.00,,-0.00,0,47,30.16,,30.11,10.00,34,290,,5,,,,,,,,,,,,,,,,,,,,,,,,,,,,,,,,,,,,,SYN076AAXX  29154 72208 32966 02904 10050 21056 30197 40212 50000 91456 555 92915;MET10312/29/10 09:56:02 METAR KCHS 291456Z 29004KT 10SM CLR 05/M06 A3016 RMK AO2 SLP212 T00501056 50000 (JRS),,,,,,,,,,,,,,,,,,,,,,,,,,,,
72208013880,2011-01-05T09:56:00,SY-MT,7,,SE,0.25,mi,"TEMP, PRECIP, SNOW",,,"MMTS, SRG, SNOWBOARD",,,WFO CHS,,,,,,,,,,,,,,,,,,,,,,,,,,,30.03,37,46,T,-RA:02 |RA |RA,+0.01,8,71,30.03,FEW:02 70 SCT:04 85 OVC:08 150,29.98,10.00,42,030,,3,,,,,,,,,,,,,,,,,,,,,,,,,,,,,,,,,,,,,SYN088AAXX  05154 72208 11866 80303 10078 20028 30153 40168 58005 69907 761// 91456 555 90515;MET14001/05/11 09:56:02 METAR KCHS 051456Z 03003KT 10SM -RA FEW070 SCT085 OVC150 08/03 A3003 RMK AO2 RAB43 SLP168 P0000 60000 T00780028 58005 (DD),,,,,,,,,,,,,,,,,,,,,,,,,,,,
72208013880,2011-01-06T09:56:00,SY-MT,7,,SE,0.25,mi,"TEMP, PRECIP, SNOW",,,"MMTS, SRG, SNOWBOARD",,,WFO CHS,,,,,,,,,,,,,,,,,,,,,,,,,,,29.76,45,47,0.00,,-0.04,0,93,29.75,SCT:04 8 BKN:07 15 OVC:08 35,29.71,10.00,46,300,,7,,,,,,,,,,,,,,,,,,,,,,,,,,,,,,,,,,,,,SYN076AAXX  06154 72208 32366 83006 10083 20072 30062 40076 50012 91456 555 90615;MET11801/06/11 09:56:02 METAR KCHS 061456Z 30006KT 10SM SCT008 BKN015 OVC035 08/07 A2976 RMK AO2 SLP076 T00830072 50012 (DD),,,,,,,,,,,,,,,,,,,,,,,,,,,,
72208013880,2011-01-07T09:56:00,SY-MT,7,,SE,0.25,mi,"TEMP, PRECIP, SNOW",,,"MMTS, SRG, SNOWBOARD",,,WFO CHS,,,,,,,,,,,,,,,,,,,,,,,,,,,29.67,32,43,0.00,,-0.01,0,65,29.67,FEW:02 80 BKN:07 250,29.62,10.00,38,250,,10,,,,,,,,,,,,,,,,,,,,,,,,,,,,,,,,,,,,,SYN076AAXX  07154 72208 32866 62509 10061 20000 30031 40047 50005 91456 555 90715;MET11101/07/11 09:56:02 METAR KCHS 071456Z 25009KT 10SM FEW080 BKN250 06/00 A2967 RMK AO2 SLP047 T00610000 50005 (DD),,,,,,,,,,,,,,,,,,,,,,,,,,,,
72208013880,2011-01-15T09:56:00,SY-MT,7,,SE,0.25,mi,"TEMP, PRECIP, SNOW",,,"MMTS, SRG, SNOWBOARD",,,WFO CHS,,,,,,,,,,,,,,,,,,,,,,,,,,,30.32,26,41,0.00,,-0.01,0,55,30.32,,30.27,10.00,35,000,,0,,,,,,,,,,,,,,,,,,,,,,,,,,,,,,,,,,,,,SYN076AAXX  15154 72208 32966 00000 10050 21033 30251 40267 50005 91456 555 91515;MET10301/15/11 09:56:02 METAR KCHS 151456Z 00000KT 10SM CLR 05/M03 A3032 RMK AO2 SLP267 T00501033 50005 (JRS),,,,,,,,,,,,,,,,,,,,,,,,,,,,
72208013880,2011-01-18T09:56:00,FM-15,7,,SE,0.25,mi,"TEMP, PRECIP, SNOW",,,"MMTS, SRG, SNOWBOARD",,,WFO CHS,,,,,,,,,,,,,,,,,,,,,,,,,,,29.91,45,45,0.00,BR:1 ||,-0.03,0,100,29.90,BKN:07 3 OVC:08 8,29.86,3.00,45,320,,3,,,,,,,,,,,,,,,,,,,,,,,,,,,,,,,,,,,,,MET11901/18/11 09:56:02 METAR KCHS 181456Z 32003KT 3SM BR BKN003 OVC008 07/07 A2991 RMK AO2 SLP126 60000 T00720072 50011 (DD),,,,,,,,,,,,,,,,,,,,,,,,,,,,
72208013880,2011-01-18T10:00:00,FM-12,4,,SE,0.25,mi,"TEMP, PRECIP, SNOW",,,"MMTS, SRG, SNOWBOARD",,,WFO CHS,,,,,,,,,,,,,,,,,,,,,,,,,,,,45,45,,,-0.03,0,100,29.90,,29.86,2.98,45,320,,3,,,,,,,,,,,,,,,,,,,,,,,,,,,,,,,,,,,,,SYN088AAXX  18154 72208 11148 83203 10072 20072 30113 40126 50011 69907 710// 91456 555 91815;,,,,,,,,,,,,,,,,,,,,,,,,,,,,
72208013880,2011-01-25T09:56:00,FM-15,7,,SE,0.25,mi,"TEMP, PRECIP, SNOW",,,"MMTS, SRG, SNOWBOARD",,,WFO CHS,,,,,,,,,,,,,,,,,,,,,,,,,,,30.14,45,47,0.00,,+0.01,8,93,30.14,OVC:08 5,30.09,7.00,46,030,,6,,,,,,,,,,,,,,,,,,,,,,,,,,,,,,,,,,,,,MET10301/25/11 09:56:02 METAR KCHS 251456Z 03005KT 7SM OVC005 08/07 A3014 RMK AO2 SLP205 T00830072 58002 (DD),,,,,,,,,,,,,,,,,,,,,,,,,,,,
72208013880,2011-01-25T10:00:00,SY-MT,4,,SE,0.25,mi,"TEMP, PRECIP, SNOW",,,"MMTS, SRG, SNOWBOARD",,,WFO CHS,,,,,,,,,,,,,,,,,,,,,,,,,,,30.14,45,47,,,+0.01,8,93,30.14,,30.09,6.84,46,030,,6,,,,,,,,,,,,,,,,,,,,,,,,,,,,,,,,,,,,,SYN076AAXX  25154 72208 32261 80305 10083 20072 30190 40205 58002 91456 555 92515;MET081METAR KCHS 251456Z 03005KT 7SM OVC005 08/07 A3014 RMK AO2 SLP205 T00830072 58002;,,,,,,,,,,,,,,,,,,,,,,,,,,,,
72208013880,2011-01-26T09:56:00,SY-MT,7,,SE,0.25,mi,"TEMP, PRECIP, SNOW",,,"MMTS, SRG, SNOWBOARD",,,WFO CHS,,,,,,,,,,,,,,,,,,,,,,,,,,,29.70,57,59,0.01,,+0.01,8,93,29.70,BKN:07 15 BKN:07 25,29.65,10.00,58,230,21,10,,,,,,,,,,,,,,,,,,,,,,,,,,,,,,,,,,,,,SYN086AAXX  26154 72208 32466 62309 10150 20139 30042 40057 58005 91456 333 91018 555 92615;MET11401/26/11 09:56:02 METAR KCHS 261456Z 23009G18KT 10SM BKN015 BKN025 15/14 A2970 RMK AO2 SLP057 T01500139 58005 (DD),,,,,,,,,,,,,,,,,,,,,,,,,,,,
72208013880,2011-01-27T09:56:00,SY-MT,7,,SE,0.25,mi,"TEMP, PRECIP, SNOW",,,"MMTS, SRG, SNOWBOARD",,,WFO CHS,,,,,,,,,,,,,,,,,,,,,,,,,,,30.07,32,40,0.00,,-0.03,0,73,30.06,SCT:04 250,30.02,10.00,37,310,,7,,,,,,,,,,,,,,,,,,,,,,,,,,,,,,,,,,,,,SYN076AAXX  27154 72208 32966 43106 10044 20000 30167 40180 50010 91456 555 92715;MET10401/27/11 09:56:02 METAR KCHS 271456Z 31006KT 10SM SCT250 04/00 A3007 RMK AO2 SLP180 T00440000 50010 (DD),,,,,,,,,,,,,,,,,,,,,,,,,,,,
72208013880,2011-01-28T09:56:00,FM-15,7,,SE,0.25,mi,"TEMP, PRECIP, SNOW",,,"MMTS, SRG, SNOWBOARD",,,WFO CHS,,,,,,,,,,,,,,,,,,,,,,,,,,,29.95,34,50,0.00,,-0.01,0,54,29.95,SCT:04 250,29.90,10.00,43,240,,10,,,,,,,,,,,,,,,,,,,,,,,,,,,,,,,,,,,,,MET10401/28/11 09:56:02 METAR KCHS 281456Z 24009KT 10SM SCT250 10/01 A2995 RMK AO2 SLP143 T01000011 50002 (DD),,,,,,,,,,,,,,,,,,,,,,,,,,,,
72208013880,2011-01-28T10:00:00,FM-12,4,,SE,0.25,mi,"TEMP, PRECIP, SNOW",,,"MMTS, SRG, SNOWBOARD",,,WFO CHS,,,,,,,,,,,,,,,,,,,,,,,,,,,,34,50,,,-0.01,0,54,29.95,,29.90,9.94,43,240,,10,,,,,,,,,,,,,,,,,,,,,,,,,,,,,,,,,,,,,SYN076AAXX  28154 72208 32966 42409 10100 20011 30126 40143 50002 91456 555 92815;,,,,,,,,,,,,,,,,,,,,,,,,,,,,
72208013880,2011-02-01T09:56:00,FM-15,7,,SE,0.25,mi,"TEMP, PRECIP, SNOW",,,"MMTS, SRG, SNOWBOARD",,,WFO CHS,,,,,,,,,,,,,,,,,,,,,,,,,,,30.21,43,48,0.00,HZ:7 ||HZ,-0.00,0,83,30.21,BKN:07 10 OVC:08 15,30.16,5.00,46,060,,6,,,,,,,,,,,,,,,,,,,,,,,,,,,,,,,,,,,,,MET11302/01/11 09:56:02 METAR KCHS 011456Z 06005KT 5SM HZ BKN010 OVC015 09/06 A3021 RMK AO2 SLP229 T00890061 50001 (DD),,,,,,,,,,,,,,,,,,,,,,,,,,,,
72208013880,2011-02-01T10:00:00,FM-12,4,,SE,0.25,mi,"TEMP, PRECIP, SNOW",,,"MMTS, SRG, SNOWBOARD",,,WFO CHS,,,,,,,,,,,,,,,,,,,,,,,,,,,,43,48,,||HZ,-0.00,0,83,30.21,,30.16,4.97,46,060,,6,,,,,,,,,,,,,,,,,,,,,,,,,,,,,,,,,,,,,SYN082AAXX  01154 72208 31458 80605 10089 20061 30214 40229 50001 705// 91456 555 90115;,,,,,,,,,,,,,,,,,,,,,,,,,,,,
72208013880,2011-02-04T09:56:00,SY-MT,7,,SE,0.25,mi,"TEMP, PRECIP, SNOW",,,"MMTS, SRG, SNOWBOARD",,,WFO CHS,,,,,,,,,,,,,,,,,,,,,,,,,,,30.27,40,40,T,,-0.01,0,100,30.26,BKN:07 7 OVC:08 15,30.22,8.00,40,030,,10,,,,,,,,,,,,,,,,,,,,,,,,,,,,,,,,,,,,,SYN082AAXX  04154 72208 12362 80309 10044 20044 30234 40248 50005 60017 91456 555 90415;MET12802/04/11 09:56:02 METAR KCHS 041456Z 03009KT 8SM BKN007 OVC015 04/04 A3027 RMK AO2 RAE42 SLP248 P0000 60004 T00440044 50005 (DD),,,,,,,,,,,,,,,,,,,,,,,,,,,,
72208013880,2011-02-05T09:56:00,SY-MT,7,,SE,0.25,mi,"TEMP, PRECIP, SNOW",,,"MMTS, SRG, SNOWBOARD",,,WFO CHS,,,,,,,,,,,,,,,,,,,,,,,,,,,29.85,61,61,0.23,-RA:02 |RA |RA,+0.02,6,100,29.85,BKN:07 5 OVC:08 10,29.80,7.00,61,210,25,16,,,,,,,,,,,,,,,,,,,,,,,,,,,,,,,,,,,,,SYN098AAXX  05154 72208 11261 82114 10161 20161 30092 40108 56008 60137 761// 91456 333 91022 555 90515;MET14402/05/11 09:56:02 METAR KCHS 051456Z 21014G22KT 7SM -RA BKN005 OVC010 16/16 A2985 RMK AO2 CIG 003V008 SLP108 P0025 60051 T01610161 56008 $ (JRS),,,,,,,,,,,,,,,,,,,,,,,,,,,,
72208013880,2011-02-07T09:56:00,SY-MT,7,,SE,0.25,mi,"TEMP, PRECIP, SNOW",,,"MMTS, SRG, SNOWBOARD",,,WFO CHS,,,,,,,,,,,,,,,,,,,,,,,,,,,29.99,48,50,0.00,,+0.06,6,93,29.98,FEW:02 60 BKN:07 110 OVC:08 150,29.94,10.00,49,000,,0,,,,,,,,,,,,,,,,,,,,,,,,,,,,,,,,,,,,,SYN082AAXX  07154 72208 12766 80000 10100 20089 30140 40153 56019 69907 91456 555 90715;MET12402/07/11 09:56:02 METAR KCHS 071456Z 00000KT 10SM FEW060 BKN110 OVC150 10/09 A2999 RMK AO2 SLP153 60000 T01000089 56019 (DD),,,,,,,,,,,,,,,,,,,,,,,,,,,,
72208013880,2011-02-09T09:56:00,SY-MT,7,,SE,0.25,mi,"TEMP, PRECIP, SNOW",,,"MMTS, SRG, SNOWBOARD",,,WFO CHS,,,,,,,,,,,,,,,,,,,,,,,,,,,30.27,27,44,0.00,,+0.02,8,51,30.27,SCT:04 45 SCT:04 250,30.22,10.00,37,080,,10,,,,,,,,,,,,,,,,,,,,,,,,,,,,,,,,,,,,,SYN076AAXX  09154 72208 32666 40809 10067 21028 30234 40249 58007 91456 555 90915;MET11202/09/11 09:56:02 METAR KCHS 091456Z 08009KT 10SM SCT045 SCT250 07/M03 A3027 RMK AO2 SLP249 T00671028 58007 (DD),,,,,,,,,,,,,,,,,,,,,,,,,,,,
72208013880,2011-02-11T09:56:00,SY-MT,7,,SE,0.25,mi,"TEMP, PRECIP, SNOW",,,"MMTS, SRG, SNOWBOARD",,,WFO CHS,,,,,,,,,,,,,,,,,,,,,,,,,,,30.17,31,40,0.00,,-0.01,0,70,30.17,OVC:08 30,30.12,10.00,36,360,,8,,,,,,,,,,,,,,,,,,,,,,,,,,,,,,,,,,,,,SYN076AAXX  11154 72208 32566 83607 10044 21006 30201 40216 50004 91456 555 91115;MET10502/11/11 09:56:02 METAR KCHS 111456Z 36007KT 10SM OVC030 04/M01 A3017 RMK AO2 SLP216 T00441006 50004 (DD),,,,,,,,,,,,,,,,,,,,,,,,,,,,
72208013880,2011-02-14T09:56:00,SY-MT,7,,SE,0.25,mi,"TEMP, PRECIP, SNOW",,,"MMTS, SRG, SNOWBOARD",,,WFO CHS,,,,,,,,,,,,,,,,,,,,,,,,,,,30.14,23,61,0.00,,+0.03,8,23,30.14,FEW:02 250,30.09,10.00,45,260,20,11,,,,,,,,,,,,,,,,,,,,,,,,,,,,,,,,,,,,,SYN086AAXX  14154 72208 32966 22610 10161 21050 30190 40207 58010 91456 333 91017 555 91415;MET10802/14/11 09:56:02 METAR KCHS 141456Z 26010G17KT 10SM FEW250 16/M05 A3014 RMK AO2 SLP207 T01611050 58010 (DD),,,,,,,,,,,,,,,,,,,,,,,,,,,,
72208013880,2011-02-18T09:56:00,SY-MT,7,,SE,0.25,mi,"TEMP, PRECIP, SNOW",,,"MMTS, SRG, SNOWBOARD",,,WFO CHS,,,,,,,,,,,,,,,,,,,,,,,,,,,30.24,53,65,0.00,,-0.02,0,66,30.24,SCT:04 250,30.19,10.00,58,270,,11,,,,,,,,,,,,,,,,,,,,,,,,,,,,,,,,,,,,,SYN076AAXX  18154 72208 32966 42710 10183 20117 30224 40240 50008 91456 555 91815;MET10402/18/11 09:56:02 METAR KCHS 181456Z 27010KT 10SM SCT250 18/12 A3024 RMK AO2 SLP240 T01830117 50008 (DD),,,,,,,,,,,,,,,,,,,,,,,,,,,,
72208013880,2011-02-21T09:56:00,SY-MT,7,,SE,0.25,mi,"TEMP, PRECIP, SNOW",,,"MMTS, SRG, SNOWBOARD",,,WFO CHS,,,,,,,,,,,,,,,,,,,,,,,,,,,30.00,54,69,0.00,,-0.01,0,59,30.00,BKN:07 55,29.95,10.00,60,260,26,21,,,,,,,,,,,,,,,,,,,,,,,,,,,,,,,,,,,,,SYN086AAXX  21154 72208 32766 62618 10206 20122 30143 40158 50003 91456 333 91023 555 92115;MET10702/21/11 09:56:02 METAR KCHS 211456Z 26018G23KT 10SM BKN055 21/12 A3000 RMK AO2 SLP158 T02060122 50003 (DD),,,,,,,,,,,,,,,,,,,,,,,,,,,,
72208013880,2011-03-02T09:56:00,SY-MT,7,,SE,0.25,mi,"TEMP, PRECIP, SNOW",,,"MMTS, SRG, SNOWBOARD",,,WFO CHS,,,,,,,,,,,,,,,,,,,,,,,,,,,30.32,43,55,0.00,,-0.02,0,64,30.31,,30.27,10.00,49,000,,0,,,,,,,,,,,,,,,,,,,,,,,,,,,,,,,,,,,,,SYN076AAXX  02154 72208 32966 00000 10128 20061 30251 40265 50007 91456 555 90215;MET10103/02/11 09:56:02 METAR KCHS 021456Z 00000KT 10SM CLR 13/06 A3032 RMK AO2 SLP265 T01280061 50007 (DD),,,,,,,,,,,,,,,,,,,,,,,,,,,,
72208013880,2011-03-04T09:56:00,SY-MT,7,,SE,0.25,mi,"TEMP, PRECIP, SNOW",,,"MMTS, SRG, SNOWBOARD",,,WFO CHS,,,,,,,,,,,,,,,,,,,,,,,,,,,30.50,44,48,0.00,,-0.04,0,86,30.49,BKN:07 8 OVC:08 11,30.45,10.00,46,040,,9,,,,,,,,,,,,,,,,,,,,,,,,,,,,,,,,,,,,,SYN076AAXX  04154 72208 32366 80408 10089 20067 30312 40326 50014 91456 555 90415;MET11103/04/11 09:56:02 METAR KCHS 041456Z 04008KT 10SM BKN008 OVC011 09/07 A3050 RMK AO2 SLP326 T00890067 50014 (DD),,,,,,,,,,,,,,,,,,,,,,,,,,,,
72208013880,2011-03-05T09:56:00,SY-MT,7,,SE,0.25,mi,"TEMP, PRECIP, SNOW",,,"MMTS, SRG, SNOWBOARD",,,WFO CHS,,,,,,,,,,,,,,,,,,,,,,,,,,,30.29,55,70,0.00,,-0.00,0,59,30.29,FEW:02 38 SCT:04 60 BKN:07 200,30.24,10.00,61,150,24,14,,,,,,,,,,,,,,,,,,,,,,,,,,,,,,,,,,,,,SYN086AAXX  05154 72208 32666 61512 10211 20128 30241 40256 50001 91456 333 91021 555 90515;MET12203/05/11 09:56:02 METAR KCHS 051456Z 15012G21KT 10SM FEW038 SCT060 BKN200 21/13 A3029 RMK AO2 SLP256 T02110128 50001 (JRS),,,,,,,,,,,,,,,,,,,,,,,,,,,,
72208013880,2011-03-06T09:56:00,FM-15,7,,SE,0.25,mi,"TEMP, PRECIP, SNOW",,,"MMTS, SRG, SNOWBOARD",,,WFO CHS,,,,,,,,,,,,,,,,,,,,,,,,,,,29.88,63,65,0.03s,-RA:02 BR:1 |RA |RA,+0.04,6,93,29.87,SCT:04 15 BKN:07 26 OVC:08 41,29.83,4.00,64,210,24,14,,,,,,,,,,,,,,,,,,,,,,,,,,,,,,,,,,,,,MET16403/06/11 09:56:02 METAR KCHS 061456Z 21012G21KT 4SM -RA BR SCT015 BKN026 OVC041 18/17 A2988 RMK AO2 PK WND 21030/1405 RAB06 SLP116 P0002 60002 T01830172 56013 (JRS),,,,,,,,,,,,,,,,,,,,,,,,,,,,
72208013880,2011-03-06T10:00:00,FM-12,4,,SE,0.25,mi,"TEMP, PRECIP, SNOW",,,"MMTS, SRG, SNOWBOARD",,,WFO CHS,,,,,,,,,,,,,,,,,,,,,,,,,,,,63,65,,||RA,+0.04,6,93,29.87,,29.83,3.73,64,210,24,14,,,,,,,,,,,,,,,,,,,,,,,,,,,,,,,,,,,,,SYN104AAXX  06154 72208 11456 82112 10183 20172 30102 40116 56013 69957 761// 91456 333 91021 96010 555 90615;,,,,,,,,,,,,,,,,,,,,,,,,,,,,
72208013880,2011-03-09T09:56:00,SY-MT,7,,SE,0.25,mi,"TEMP, PRECIP, SNOW",,,"MMTS, SRG, SNOWBOARD",,,WFO CHS,,,,,,,,,,,,,,,,,,,,,,,,,,,30.23,53,70,0.00,,+0.01,8,55,30.23,FEW:02 40 SCT:04 55 BKN:07 250,30.18,10.00,60,140,30,21,,,,,,,,,,,,,,,,,,,,,,,,,,,,,,,,,,,,,SYN086AAXX  09154 72208 32666 61418 10211 20117 30221 40236 58002 91456 333 91026 555 90915;MET13903/09/11 09:56:02 METAR KCHS 091456Z 14018G26KT 10SM FEW040 SCT055 BKN250 21/12 A3023 RMK AO2 PK WND 13026/1450 SLP236 T02110117 58002 (DD),,,,,,,,,,,,,,,,,,,,,,,,,,,,
72208013880,2011-03-10T09:56:00,SY-MT,7,,SE,0.25,mi,"TEMP, PRECIP, SNOW",,,"MMTS, SRG, SNOWBOARD",,,WFO CHS,,,,,,,,,,,,,,,,,,,,,,,,,,,29.91,59,63,0.00,,+0.02,8,87,29.91,BKN:07 15 BKN:07 30 OVC:08 45,29.86,10.00,61,200,,16,,,,,,,,,,,,,,,,,,,,,,,,,,,,,,,,,,,,,SYN076AAXX  10154 72208 32466 82014 10172 20150 30113 40127 58008 91456 555 91015;MET11803/10/11 09:56:02 METAR KCHS 101456Z 20014KT 10SM BKN015 BKN030 OVC045 17/15 A2991 RMK AO2 SLP127 T01720150 58008 (DD),,,,,,,,,,,,,,,,,,,,,,,,,,,,
72208013880,2011-03-12T09:56:00,SY-MT,7,,SE,0.25,mi,"TEMP, PRECIP, SNOW",,,"MMTS, SRG, SNOWBOARD",,,WFO CHS,,,,,,,,,,,,,,,,,,,,,,,,,,,30.25,30,54,0.00,,-0.02,0,40,30.24,,30.20,10.00,44,270,,5,,,,,,,,,,,,,,,,,,,,,,,,,,,,,,,,,,,,,SYN076AAXX  12154 72208 32966 02704 10122 21011 30228 40241 50008 91456 555 91215;MET10303/12/11 09:56:02 METAR KCHS 121456Z 27004KT 10SM CLR 12/M01 A3025 RMK AO2 SLP241 T01221011 50008 (JRS),,,,,,,,,,,,,,,,,,,,,,,,,,,,
72208013880,2011-03-18T09:56:00,SY-MT,7,,SE,0.25,mi,"TEMP, PRECIP, SNOW",,,"MMTS, SRG, SNOWBOARD",,,WFO CHS,,,,,,,,,,,,,,,,,,,,,,,,,,,30.27,54,69,0.00,,-0.01,0,59,30.26,,30.22,10.00,60,260,,10,,,,,,,,,,,,,,,,,,,,,,,,,,,,,,,,,,,,,SYN076AAXX  18154 72208 32966 02609 10206 20122 30234 40248 50004 91456 555 91815;MET10103/18/11 09:56:02 METAR KCHS 181456Z 26009KT 10SM CLR 21/12 A3027 RMK AO2 SLP248 T02060122 50004 (WD),,,,,,,,,,,,,,,,,,,,,,,,,,,,
72208013880,2011-03-22T09:56:00,FM-15,7,,SE,0.25,mi,"TEMP, PRECIP, SNOW",,,"MMTS, SRG, SNOWBOARD",,,WFO CHS,,,,,,,,,,,,,,,,,,,,,,,,,,,30.08,54,77,0.00,,+0.01,8,45,30.08,,30.03,9.00,63,310,18,10,,,,,,,,,,,,,,,,,,,,,,,,,,,,,,,,,,,,,MET10303/22/11 09:56:02 METAR KCHS 221456Z 31009G16KT 9SM CLR 25/12 A3008 RMK AO2 SLP186 T02500122 58003 (WD),,,,,,,,,,,,,,,,,,,,,,,,,,,,
72208013880,2011-03-22T10:00:00,FM-12,4,,SE,0.25,mi,"TEMP, PRECIP, SNOW",,,"MMTS, SRG, SNOWBOARD",,,WFO CHS,,,,,,,,,,,,,,,,,,,,,,,,,,,,54,77,,,+0.01,8,45,30.08,CLR:00,30.03,8.70,63,310,18,10,,,,,,,,,,,,,,,,,,,,,,,,,,,,,,,,,,,,,SYN086AAXX  22154 72208 32964 03109 10250 20122 30170 40186 58003 91456 333 91016 555 92215;,,,,,,,,,,,,,,,,,,,,,,,,,,,,
72208013880,2011-03-23T09:56:00,SY-MT,7,,SE,0.25,mi,"TEMP, PRECIP, SNOW",,,"MMTS, SRG, SNOWBOARD",,,WFO CHS,,,,,,,,,,,,,,,,,,,,,,,,,,,29.90,56,73,0.00,,+0.01,8,55,29.90,BKN:07 200,29.85,8.00,63,260,,14,,,,,,,,,,,,,,,,,,,,,,,,,,,,,,,,,,,,,SYN076AAXX  23154 72208 32962 62612 10228 20133 30109 40125 58002 91456 555 92315;MET10303/23/11 09:56:02 METAR KCHS 231456Z 26012KT 8SM BKN200 23/13 A2990 RMK AO2 SLP125 T02280133 58002 (WD),,,,,,,,,,,,,,,,,,,,,,,,,,,,
72208013880,2011-03-28T09:56:00,FM-15,7,,SE,0.25,mi,"TEMP, PRECIP, SNOW",,,"MMTS, SRG, SNOWBOARD",,,WFO CHS,,,,,,,,,,,,,,,,,,,,,,,,,,,30.02,42,42,T,,-0.05,0,100,30.02,BKN:07 8 OVC:08 15,29.97,10.00,42,050,,9,,,,,,,,,,,,,,,,,,,,,,,,,,,,,,,,,,,,,MET12903/28/11 09:56:02 METAR KCHS 281456Z 05008KT 10SM BKN008 OVC015 06/06 A3002 RMK AO2 RAE20 SLP165 P0000 60002 T00560056 50017 (DD),,,,,,,,,,,,,,,,,,,,,,,,,,,,
72208013880,2011-03-28T10:00:00,FM-12,4,,SE,0.25,mi,"TEMP, PRECIP, SNOW",,,"MMTS, SRG, SNOWBOARD",,,WFO CHS,,,,,,,,,,,,,,,,,,,,,,,,,,,,42,42,,,-0.05,0,100,30.02,,29.97,9.94,42,050,,9,,,,,,,,,,,,,,,,,,,,,,,,,,,,,,,,,,,,,SYN082AAXX  28154 72208 12366 80508 10056 20056 30150 40165 50017 69957 91456 555 92815;,,,,,,,,,,,,,,,,,,,,,,,,,,,,
72208013880,2011-04-03T09:56:00,SY-MT,7,,SE,0.25,mi,"TEMP, PRECIP, SNOW",,,"MMTS, SRG, SNOWBOARD",,,WFO CHS,,,,,,,,,,,,,,,,,,,,,,,,,,,30.19,38,68,0.00,,-0.04,0,33,30.19,,30.14,10.00,53,170,,9,,,,,,,,,,,,,,,,,,,,,,,,,,,,,,,,,,,,,SYN076AAXX  03154 72208 32966 01708 10200 20033 30207 40222 50014 91456 555 90315;MET10204/03/11 09:56:02 METAR KCHS 031456Z 17008KT 10SM CLR 20/03 A3019 RMK AO2 SLP222 T02000033 50014 (JRS),,,,,,,,,,,,,,,,,,,,,,,,,,,,
72208013880,2011-04-04T09:56:00,FM-15,7,,SE,0.25,mi,"TEMP, PRECIP, SNOW",,,"MMTS, SRG, SNOWBOARD",,,WFO CHS,,,,,,,,,,,,,,,,,,,,,,,,,,,30.07,59,77,0.00,,-0.03,0,54,30.06,,30.02,10.00,66,220,29,21,,,,,,,,,,,,,,,,,,,,,,,,,,,,,,,,,,,,,MET12204/04/11 09:56:02 METAR KCHS 041456Z 22018G25KT 10SM CLR 25/15 A3007 RMK AO2 PK WND 21028/1435 SLP181 T02500150 50010 (DD),,,,,,,,,,,,,,,,,,,,,,,,,,,,
72208013880,2011-04-04T10:00:00,FM-12,4,,SE,0.25,mi,"TEMP, PRECIP, SNOW",,,"MMTS, SRG, SNOWBOARD",,,WFO CHS,,,,,,,,,,,,,,,,,,,,,,,,,,,,59,77,,,-0.03,0,54,30.06,CLR:00,30.02,9.94,66,220,29,21,,,,,,,,,,,,,,,,,,,,,,,,,,,,,,,,,,,,,SYN086AAXX  04154 72208 32966 02218 10250 20150 30167 40181 50010 91456 333 91025 555 90415;,,,,,,,,,,,,,,,,,,,,,,,,,,,,
72208013880,2011-04-08T09:56:00,SY-MT,7,,SE,0.25,mi,"TEMP, PRECIP, SNOW",,,"MMTS, SRG, SNOWBOARD",,,WFO CHS,,,,,,,,,,,,,,,,,,,,,,,,,,,30.10,59,78,0.00,,-0.00,0,52,30.10,SCT:04 60 SCT:04 150,30.05,10.00,66,240,,7,,,,,,,,,,,,,,,,,,,,,,,,,,,,,,,,,,,,,SYN076AAXX  08154 72208 32766 42406 10256 20150 30177 40193 50001 91456 555 90815;MET11104/08/11 09:56:02 METAR KCHS 081456Z 24006KT 10SM SCT060 SCT150 26/15 A3010 RMK AO2 SLP193 T02560150 50001 (DD),,,,,,,,,,,,,,,,,,,,,,,,,,,,
72208013880,2011-04-12T09:56:00,SY-MT,7,,SE,0.25,mi,"TEMP, PRECIP, SNOW",,,"MMTS, SRG, SNOWBOARD",,,WFO CHS,,,,,,,,,,,,,,,,,,,,,,,,,,,29.88,54,66,T,,-0.04,0,65,29.88,BKN:07 70 OVC:08 100,29.83,10.00,59,220,,7,,,,,,,,,,,,,,,,,,,,,,,,,,,,,,,,,,,,,SYN082AAXX  12154 72208 12866 82206 10189 20122 30102 40118 50012 69907 91456 555 91215;MET12904/12/11 09:56:02 METAR KCHS 121456Z 22006KT 10SM BKN070 OVC100 19/12 A2988 RMK AO2 RAE29 SLP118 P0000 60000 T01890122 50012 (DD),,,,,,,,,,,,,,,,,,,,,,,,,,,,
72208013880,2011-04-16T09:56:00,SY-MT,7,,SE,0.25,mi,"TEMP, PRECIP, SNOW",,,"MMTS, SRG, SNOWBOARD",,,WFO CHS,,,,,,,,,,,,,,,,,,,,,,,,,,,29.89,70,76,0.00,,+0.03,8,82,29.89,BKN:07 15 OVC:08 22,29.84,10.00,72,200,28,22,,,,,,,,,,,,,,,,,,,,,,,,,,,,,,,,,,,,,SYN086AAXX  16154 72208 32466 82019 10244 20211 30106 40122 58009 91456 333 91024 555 91615;MET13304/16/11 09:56:02 METAR KCHS 161456Z 20019G24KT 10SM BKN015 OVC022 24/21 A2989 RMK AO2 PK WND 20030/1410 SLP122 T02440211 58009 (JRS),,,,,,,,,,,,,,,,,,,,,,,,,,,,
72208013880,2011-04-21T09:56:00,FM-15,7,,SE,0.25,mi,"TEMP, PRECIP, SNOW",,,"MMTS, SRG, SNOWBOARD",,,WFO CHS,,,,,,,,,,,,,,,,,,,,,,,,,,,30.14,62,83,0.00,,-0.01,0,49,30.14,FEW:02 120 SCT:04 250,30.09,10.00,70,330,,8,,,,,,,,,,,,,,,,,,,,,,,,,,,,,,,,,,,,,MET11104/21/11 09:56:02 METAR KCHS 211456Z 33007KT 10SM FEW120 SCT250 28/17 A3014 RMK AO2 SLP206 T02830167 50005 (DD),,,,,,,,,,,,,,,,,,,,,,,,,,,,
72208013880,2011-04-21T10:00:00,FM-12,4,,SE,0.25,mi,"TEMP, PRECIP, SNOW",,,"MMTS, SRG, SNOWBOARD",,,WFO CHS,,,,,,,,,,,,,,,,,,,,,,,,,,,,62,83,,,-0.01,0,49,30.14,,30.09,9.94,70,330,,8,,,,,,,,,,,,,,,,,,,,,,,,,,,,,,,,,,,,,SYN076AAXX  21154 72208 32966 43307 10283 20167 30190 40206 50005 91456 555 92115;,,,,,,,,,,,,,,,,,,,,,,,,,,,,
72208013880,2011-04-24T09:56:00,SY-MT,7,,SE,0.25,mi,"TEMP, PRECIP, SNOW",,,"MMTS, SRG, SNOWBOARD",,,WFO CHS,,,,,,,,,,,,,,,,,,,,,,,,,,,30.23,69,81,0.00,,-0.02,0,67,30.23,SCT:04 24,30.18,10.00,73,230,,8,,,,,,,,,,,,,,,,,,,,,,,,,,,,,,,,,,,,,SYN076AAXX  24154 72208 32566 42307 10272 20206 30221 40236 50007 91456 555 92415;MET10504/24/11 09:56:02 METAR KCHS 241456Z 23007KT 10SM SCT024 27/21 A3023 RMK AO2 SLP236 T02720206 50007 (BBE),,,,,,,,,,,,,,,,,,,,,,,,,,,,
72208013880,2011-04-25T09:56:00,SY-MT,7,,SE,0.25,mi,"TEMP, PRECIP, SNOW",,,"MMTS, SRG, SNOWBOARD",,,WFO CHS,,,,,,,,,,,,,,,,,,,,,,,,,,,30.13,63,81,0.00,,+0.00,6,54,30.13,SCT:04 30 BKN:07 40,30.08,10.00,69,170,,10,,,,,,,,,,,,,,,,,,,,,,,,,,,,,,,,,,,,,SYN076AAXX  25154 72208 32566 61709 10272 20172 30187 40204 56001 91456 555 92515;MET11104/25/11 09:56:02 METAR KCHS 251456Z 17009KT 10SM SCT030 BKN040 27/17 A3013 RMK AO2 SLP204 T02720172 56001 (DD),,,,,,,,,,,,,,,,,,,,,,,,,,,,
72208013880,2011-05-05T09:56:00,SY-MT,7,,SE,0.25,mi,"TEMP, PRECIP, SNOW",,,"MMTS, SRG, SNOWBOARD",,,WFO CHS,,,,,,,,,,,,,,,,,,,,,,,,,,,30.29,41,63,0.00,,-0.01,0,45,30.29,,30.24,10.00,52,VRB,,9,,,,,,,,,,,,,,,,,,,,,,,,,,,,,,,,,,,,,SYN076AAXX  05154 72208 32966 00308 10172 20050 30241 40256 50003 91456 555 90515;MET10105/05/11 09:56:02 METAR KCHS 051456Z 03008KT 10SM CLR 17/05 A3029 RMK AO2 SLP256 T01720050 50003 (DD),,,,,,,,,,,,,,,,,,,,,,,,,,,,
72208013880,2011-05-06T09:56:00,SY-MT,7,,SE,0.25,mi,"TEMP, PRECIP, SNOW",,,"MMTS, SRG, SNOWBOARD",,,WFO CHS,,,,,,,,,,,,,,,,,,,,,,,,,,,30.05,56,71,T,-RA:02 |RA |RA,+0.03,8,59,30.05,FEW:02 45 BKN:07 60 OVC:08 75,30.00,10.00,62,160,,13,,,,,,,,,,,,,,,,,,,,,,,,,,,,,,,,,,,,,SYN088AAXX  06154 72208 11666 81611 10217 20133 30160 40175 58009 69907 761// 91456 555 90615;MET14005/06/11 09:56:02 METAR KCHS 061456Z 16011KT 10SM -RA FEW045 BKN060 OVC075 22/13 A3005 RMK AO2 RAB53 SLP175 P0000 60000 T02170133 58009 (DD),,,,,,,,,,,,,,,,,,,,,,,,,,,,
72208013880,2011-05-08T09:56:00,SY-MT,7,,SE,0.25,mi,"TEMP, PRECIP, SNOW",,,"MMTS, SRG, SNOWBOARD",,,WFO CHS,,,,,,,,,,,,,,,,,,,,,,,,,,,29.94,55,79,0.00,,+0.03,8,44,29.93,,29.89,10.00,65,250,,10,,,,,,,,,,,,,,,,,,,,,,,,,,,,,,,,,,,,,SYN076AAXX  08154 72208 32966 02509 10261 20128 30123 40137 58010 91456 555 90815;MET10205/08/11 09:56:02 METAR KCHS 081456Z 25009KT 10SM CLR 26/13 A2994 RMK AO2 SLP137 T02610128 58010 (JRS),,,,,,,,,,,,,,,,,,,,,,,,,,,,
72208013880,2011-05-09T09:56:00,SY-MT,7,,SE,0.25,mi,"TEMP, PRECIP, SNOW",,,"MMTS, SRG, SNOWBOARD",,,WFO CHS,,,,,,,,,,,,,,,,,,,,,,,,,,,29.99,61,77,0.00,,-0.03,0,58,29.98,FEW:02 30,29.94,10.00,67,110,,9,,,,,,,,,,,,,,,,,,,,,,,,,,,,,,,,,,,,,SYN076AAXX  09154 72208 32566 21108 10250 20161 30140 40154 50010 91456 555 90915;MET10405/09/11 09:56:02 METAR KCHS 091456Z 11008KT 10SM FEW030 25/16 A2999 RMK AO2 SLP154 T02500161 50010 (DD),,,,,,,,,,,,,,,,,,,,,,,,,,,,
72208013880,2011-05-11T09:56:00,FM-15,7,,SE,0.25,mi,"TEMP, PRECIP, SNOW",,,"MMTS, SRG, SNOWBOARD",,,WFO CHS,,,,,,,,,,,,,,,,,,,,,,,,,,,29.97,66,71,0.00,,-0.04,0,84,29.97,BKN:07 15 BKN:07 100 OVC:08 200,29.92,10.00,68,040,,8,,,,,,,,,,,,,,,,,,,,,,,,,,,,,,,,,,,,,MET12905/11/11 09:56:02 METAR KCHS 111456Z 04007KT 10SM BKN015 BKN100 OVC200 22/19 A2997 RMK AO2 PRESFR SLP149 T02170189 50014 RTX (DD),,,,,,,,,,,,,,,,,,,,,,,,,,,,
72208013880,2011-05-11T10:00:00,FM-12,4,,SE,0.25,mi,"TEMP, PRECIP, SNOW",,,"MMTS, SRG, SNOWBOARD",,,WFO CHS,,,,,,,,,,,,,,,,,,,,,,,,,,,,66,71,,,-0.04,0,84,29.97,,29.92,9.94,68,040,,8,,,,,,,,,,,,,,,,,,,,,,,,,,,,,,,,,,,,,SYN076AAXX  11154 72208 32466 80407 10217 20189 30133 40149 50014 91456 555 91115;,,,,,,,,,,,,,,,,,,,,,,,,,,,,
72208013880,2011-05-13T09:56:00,SY-MT,7,,SE,0.25,mi,"TEMP, PRECIP, SNOW",,,"MMTS, SRG, SNOWBOARD",,,WFO CHS,,,,,,,,,,,,,,,,,,,,,,,,,,,29.90,71,82,0.00,,+0.04,8,69,29.89,SCT:04 20 SCT:04 250,29.85,10.00,74,210,,9,,,,,,,,,,,,,,,,,,,,,,,,,,,,,,,,,,,,,SYN076AAXX  13154 72208 32566 42108 10278 20217 30109 40123 58013 91456 555 91315;MET11105/13/11 09:56:02 METAR KCHS 131456Z 21008KT 10SM SCT020 SCT250 28/22 A2990 RMK AO2 SLP123 T02780217 58013 (DD),,,,,,,,,,,,,,,,,,,,,,,,,,,,
72208013880,2011-05-15T09:56:00,FM-15,7,,SE,0.25,mi,"TEMP, PRECIP, SNOW",,,"MMTS, SRG, SNOWBOARD",,,WFO CHS,,,,,,,,,,,,,,,,,,,,,,,,,,,29.66,61,76,0.00,,-0.00,0,60,29.65,FEW:02 30,29.61,10.00,67,270,,9,,,,,,,,,,,,,,,,,,,,,,,,,,,,,,,,,,,,,MET10705/15/11 09:56:02 METAR KCHS 151456Z 27008KT 10SM FEW030 24/16 A2966 RMK AO2 SLP042 T02440161 50000 $ (JRS),,,,,,,,,,,,,,,,,,,,,,,,,,,,
72208013880,2011-05-15T10:00:00,FM-12,4,,SE,0.25,mi,"TEMP, PRECIP, SNOW",,,"MMTS, SRG, SNOWBOARD",,,WFO CHS,,,,,,,,,,,,,,,,,,,,,,,,,,,,61,76,,,-0.00,0,60,29.65,,29.61,9.94,67,270,,9,,,,,,,,,,,,,,,,,,,,,,,,,,,,,,,,,,,,,SYN076AAXX  15154 72208 32566 22708 10244 20161 30028 40042 50000 91456 555 91515;,,,,,,,,,,,,,,,,,,,,,,,,,,,,
72208013880,2011-05-16T09:56:00,SY-MT,7,,SE,0.25,mi,"TEMP, PRECIP, SNOW",,,"MMTS, SRG, SNOWBOARD",,,WFO CHS,,,,,,,,,,,,,,,,,,,,,,,,,,,29.68,52,69,0.00,,+0.00,8,55,29.67,SCT:04 35 SCT:04 250,29.63,10.00,59,210,,9,,,,,,,,,,,,,,,,,,,,,,,,,,,,,,,,,,,,,SYN076AAXX  16154 72208 32666 42108 10206 20111 30035 40049 58001 91456 555 91615;MET11105/16/11 09:56:02 METAR KCHS 161456Z 21008KT 10SM SCT035 SCT250 21/11 A2968 RMK AO2 SLP049 T02060111 58001 (DD),,,,,,,,,,,,,,,,,,,,,,,,,,,,
72208013880,2011-05-17T09:56:00,SY-MT,7,,SE,0.25,mi,"TEMP, PRECIP, SNOW",,,"MMTS, SRG, SNOWBOARD",,,WFO CHS,,,,,,,,,,,,,,,,,,,,,,,,,,,29.67,55,68,0.00,,-0.02,0,63,29.67,SCT:04 20,29.62,10.00,60,260,,8,,,,,,,,,,,,,,,,,,,,,,,,,,,,,,,,,,,,,SYN076AAXX  17154 72208 32566 42607 10200 20128 30031 40047 50006 91456 555 91715;MET11405/17/11 09:56:02 METAR KCHS 171456Z 26007KT 10SM SCT020 20/13 A2967 RMK AO2 SLP047 SCT V BKN T02000128 50006 (DD),,,,,,,,,,,,,,,,,,,,,,,,,,,,
72208013880,2011-05-20T09:56:00,SY-MT,7,,SE,0.25,mi,"TEMP, PRECIP, SNOW",,,"MMTS, SRG, SNOWBOARD",,,WFO CHS,,,,,,,,,,,,,,,,,,,,,,,,,,,30.09,65,80,0.00,,-0.00,0,60,30.09,SCT:04 30 SCT:04 45,30.04,10.00,70,270,,8,,,,,,,,,,,,,,,,,,,,,,,,,,,,,,,,,,,,,SYN076AAXX  20154 72208 32566 42707 10267 20183 30173 40189 50001 91456 555 92015;MET11105/20/11 09:56:02 METAR KCHS 201456Z 27007KT 10SM SCT030 SCT045 27/18 A3009 RMK AO2 SLP189 T02670183 50001 (DD),,,,,,,,,,,,,,,,,,,,,,,,,,,,
72208013880,2011-05-21T09:56:00,SY-MT,7,,SE,0.25,mi,"TEMP, PRECIP, SNOW",,,"MMTS, SRG, SNOWBOARD",,,WFO CHS,,,,,,,,,,,,,,,,,,,,,,,,,,,30.01,67,83,0.00,,+0.02,8,59,30.01,FEW:02 33,29.96,10.00,72,330,,6,,,,,,,,,,,,,,,,,,,,,,,,,,,,,,,,,,,,,SYN076AAXX  21154 72208 32566 23305 10283 20194 30146 40162 58007 91456 555 92115;MET10505/21/11 09:56:02 METAR KCHS 211456Z 33005KT 10SM FEW033 28/19 A3001 RMK AO2 SLP162 T02830194 58007 (JRS),,,,,,,,,,,,,,,,,,,,,,,,,,,,
72208013880,2011-05-25T09:56:00,SY-MT,7,,SE,0.25,mi,"TEMP, PRECIP, SNOW",,,"MMTS, SRG, SNOWBOARD",,,WFO CHS,,,,,,,,,,,,,,,,,,,,,,,,,,,30.00,68,87,0.00,,+0.00,8,53,29.99,,29.95,10.00,74,250,,8,,,,,,,,,,,,,,,,,,,,,,,,,,,,,,,,,,,,,SYN076AAXX  25154 72208 32966 02507 10306 20200 30143 40157 58000 91456 555 92515;MET10105/25/11 09:56:02 METAR KCHS 251456Z 25007KT 10SM CLR 31/20 A3000 RMK AO2 SLP157 T03060200 58000 (DD),,,,,,,,,,,,,,,,,,,,,,,,,,,,
72208013880,2011-05-26T09:56:00,FM-15,7,,SE,0.25,mi,"TEMP, PRECIP, SNOW",,,"MMTS, SRG, SNOWBOARD",,,WFO CHS,,,,,,,,,,,,,,,,,,,,,,,,,,,30.03,67,84,0.00,,-0.03,0,57,30.02,SCT:04 30,29.98,10.00,73,200,18,11,,,,,,,,,,,,,,,,,,,,,,,,,,,,,,,,,,,,,MET10705/26/11 09:56:02 METAR KCHS 261456Z 20010G16KT 10SM SCT030 29/19 A3003 RMK AO2 SLP167 T02890194 50010 (DD),,,,,,,,,,,,,,,,,,,,,,,,,,,,
72208013880,2011-05-26T10:00:00,FM-12,4,,SE,0.25,mi,"TEMP, PRECIP, SNOW",,,"MMTS, SRG, SNOWBOARD",,,WFO CHS,,,,,,,,,,,,,,,,,,,,,,,,,,,,67,84,,,-0.03,0,57,30.02,,29.98,9.94,73,200,18,11,,,,,,,,,,,,,,,,,,,,,,,,,,,,,,,,,,,,,SYN086AAXX  26154 72208 32566 42010 10289 20194 30153 40167 50010 91456 333 91016 555 92615;,,,,,,,,,,,,,,,,,,,,,,,,,,,,
72208013880,2011-05-29T09:56:00,FM-15,7,,SE,0.25,mi,"TEMP, PRECIP, SNOW",,,"MMTS, SRG, SNOWBOARD",,,WFO CHS,,,,,,,,,,,,,,,,,,,,,,,,,,,30.14,68,85,0.00,,-0.02,0,57,30.13,SCT:04 33,30.09,10.00,74,160,,9,,,,,,,,,,,,,,,,,,,,,,,,,,,,,,,,,,,,,MET10505/29/11 09:56:02 METAR KCHS 291456Z 16008KT 10SM SCT033 29/20 A3014 RMK AO2 SLP204 T02940200 50008 (JRS),,,,,,,,,,,,,,,,,,,,,,,,,,,,
72208013880,2011-05-29T10:00:00,FM-12,4,,SE,0.25,mi,"TEMP, PRECIP, SNOW",,,"MMTS, SRG, SNOWBOARD",,,WFO CHS,,,,,,,,,,,,,,,,,,,,,,,,,,,,68,85,,,-0.02,0,57,30.13,,30.09,9.94,74,160,,9,,,,,,,,,,,,,,,,,,,,,,,,,,,,,,,,,,,,,SYN076AAXX  29154 72208 32566 41608 10294 20200 30190 40204 50008 91456 555 92915;,,,,,,,,,,,,,,,,,,,,,,,,,,,,
72208013880,2011-05-31T09:56:00,SY-MT,7,,SE,0.25,mi,"TEMP, PRECIP, SNOW",,,"MMTS, SRG, SNOWBOARD",,,WFO CHS,,,,,,,,,,,,,,,,,,,,,,,,,,,30.20,68,87,0.00,,+0.01,8,53,30.19,FEW:02 250,30.15,10.00,74,VRB,,9,,,,,,,,,,,,,,,,,,,,,,,,,,,,,,,,,,,,,SYN076AAXX  31154 72208 32966 23208 10306 20200 30211 40225 58003 91456 555 93115;MET10405/31/11 09:56:02 METAR KCHS 311456Z 32008KT 10SM FEW250 31/20 A3020 RMK AO2 SLP225 T03060200 58003 (DD),,,,,,,,,,,,,,,,,,,,,,,,,,,,
72208013880,2011-06-01T09:56:00,SY-MT,7,,SE,0.25,mi,"TEMP, PRECIP, SNOW",,,"MMTS, SRG, SNOWBOARD",,,WFO CHS,,,,,,,,,,,,,,,,,,,,,,,,,,,30.13,67,89,0.00,,-0.01,0,48,30.13,FEW:02 45 SCT:04 250,30.08,10.00,74,050,,10,,,,,,,,,,,,,,,,,,,,,,,,,,,,,,,,,,,,,SYN076AAXX  01154 72208 32666 40509 10317 20194 30187 40202 50004 91456 555 90115;MET11106/01/11 09:56:02 METAR KCHS 011456Z 05009KT 10SM FEW045 SCT250 32/19 A3013 RMK AO2 SLP202 T03170194 50004 (DD),,,,,,,,,,,,,,,,,,,,,,,,,,,,
72208013880,2011-06-02T09:56:00,FM-15,7,,SE,0.25,mi,"TEMP, PRECIP, SNOW",,,"MMTS, SRG, SNOWBOARD",,,WFO CHS,,,,,,,,,,,,,,,,,,,,,,,,,,,30.12,71,84,0.00,,-0.01,0,65,30.12,SCT:04 20 BKN:07 30,30.07,10.00,75,VRB,,5,,,,,,,,,,,,,,,,,,,,,,,,,,,,,,,,,,,,,MET11106/02/11 09:56:02 METAR KCHS 021456Z VRB04KT 10SM SCT020 BKN030 29/22 A3012 RMK AO2 SLP200 T02890217 50005 (DD),,,,,,,,,,,,,,,,,,,,,,,,,,,,
72208013880,2011-06-02T10:00:00,SY-MT,4,,SE,0.25,mi,"TEMP, PRECIP, SNOW",,,"MMTS, SRG, SNOWBOARD",,,WFO CHS,,,,,,,,,,,,,,,,,,,,,,,,,,,30.12,71,84,,,-0.01,0,65,30.12,SCT:04 20 BKN:07 30,30.07,9.94,75,VRB,,5,,,,,,,,,,,,,,,,,,,,,,,,,,,,,,,,,,,,,SYN076AAXX  02154 72208 32566 4//04 10289 20217 30184 40200 50005 91456 555 90215;MET089METAR KCHS 021456Z VRB04KT 10SM SCT020 BKN030 29/22 A3012 RMK AO2 SLP200 T02890217 50005;,,,,,,,,,,,,,,,,,,,,,,,,,,,,
72208013880,2011-06-03T09:56:00,FM-15,7,,SE,0.25,mi,"TEMP, PRECIP, SNOW",,,"MMTS, SRG, SNOWBOARD",,,WFO CHS,,,,,,,,,,,,,,,,,,,,,,,,,,,30.08,66,87,0.00,,-0.01,0,50,30.08,FEW:02 100,30.03,10.00,73,310,,8,,,,,,,,,,,,,,,,,,,,,,,,,,,,,,,,,,,,,MET10406/03/11 09:56:02 METAR KCHS 031456Z 31007KT 10SM FEW100 31/19 A3008 RMK AO2 SLP186 T03060189 50003 (DD),,,,,,,,,,,,,,,,,,,,,,,,,,,,
72208013880,2011-06-03T10:00:00,FM-12,4,,SE,0.25,mi,"TEMP, PRECIP, SNOW",,,"MMTS, SRG, SNOWBOARD",,,WFO CHS,,,,,,,,,,,,,,,,,,,,,,,,,,,,66,87,,,-0.01,0,50,30.08,,30.03,9.94,73,310,,8,,,,,,,,,,,,,,,,,,,,,,,,,,,,,,,,,,,,,SYN076AAXX  03154 72208 32966 23107 10306 20189 30170 40186 50003 91456 555 90315;,,,,,,,,,,,,,,,,,,,,,,,,,,,,
72208013880,2011-06-04T09:56:00,SY-MT,7,,SE,0.25,mi,"TEMP, PRECIP, SNOW",,,"MMTS, SRG, SNOWBOARD",,,WFO CHS,,,,,,,,,,,,,,,,,,,,,,,,,,,30.15,69,86,0.00,,-0.02,0,57,30.14,SCT:04 30,30.10,10.00,74,080,,5,,,,,,,,,,,,,,,,,,,,,,,,,,,,,,,,,,,,,SYN076AAXX  04154 72208 32566 40804 10300 20206 30194 40208 50006 91456 555 90415;MET10506/04/11 09:56:02 METAR KCHS 041456Z 08004KT 10SM SCT030 30/21 A3015 RMK AO2 SLP208 T03000206 50006 (JRS),,,,,,,,,,,,,,,,,,,,,,,,,,,,
72208013880,2011-06-05T09:56:00,FM-15,7,,SE,0.25,mi,"TEMP, PRECIP, SNOW",,,"MMTS, SRG, SNOWBOARD",,,WFO CHS,,,,,,,,,,,,,,,,,,,,,,,,,,,30.03,67,89,0.00,,+0.02,6,48,30.02,,29.98,9.00,74,290,,9,,,,,,,,,,,,,,,,,,,,,,,,,,,,,,,,,,,,,MET10106/05/11 09:56:02 METAR KCHS 051456Z 29008KT 9SM CLR 32/19 A3003 RMK AO2 SLP167 T03170194 56007 (JRS),,,,,,,,,,,,,,,,,,,,,,,,,,,,
72208013880,2011-06-05T10:00:00,FM-12,4,,SE,0.25,mi,"TEMP, PRECIP, SNOW",,,"MMTS, SRG, SNOWBOARD",,,WFO CHS,,,,,,,,,,,,,,,,,,,,,,,,,,,,67,89,,,+0.02,6,48,30.02,CLR:00,29.98,8.70,74,290,,9,,,,,,,,,,,,,,,,,,,,,,,,,,,,,,,,,,,,,SYN076AAXX  05154 72208 32964 02908 10317 20194 30153 40167 56007 91456 555 90515;,,,,,,,,,,,,,,,,,,,,,,,,,,,,
72208013880,2011-06-08T09:56:00,SY-MT,7,,SE,0.25,mi,"TEMP, PRECIP, SNOW",,,"MMTS, SRG, SNOWBOARD",,,WFO CHS,,,,,,,,,,,,,,,,,,,,,,,,,,,30.10,68,85,0.00,,-0.00,0,57,30.10,SCT:04 35 SCT:04 70,30.05,10.00,74,220,,10,,,,,,,,,,,,,,,,,,,,,,,,,,,,,,,,,,,,,SYN076AAXX  08154 72208 32666 42209 10294 20200 30177 40192 50000 91456 555 90815;MET11106/08/11 09:56:02 METAR KCHS 081456Z 22009KT 10SM SCT035 SCT070 29/20 A3010 RMK AO2 SLP192 T02940200 50000 (DD),,,,,,,,,,,,,,,,,,,,,,,,,,,,
72208013880,2011-06-09T09:56:00,FM-15,7,,SE,0.25,mi,"TEMP, PRECIP, SNOW",,,"MMTS, SRG, SNOWBOARD",,,WFO CHS,,,,,,,,,,,,,,,,,,,,,,,,,,,30.07,67,83,0.00,,-0.00,0,59,30.07,FEW:02 35 SCT:04 75 SCT:04 250,30.02,10.00,72,210,,7,,,,,,,,,,,,,,,,,,,,,,,,,,,,,,,,,,,,,MET11806/09/11 09:56:02 METAR KCHS 091456Z 21006KT 10SM FEW035 SCT075 SCT250 28/19 A3007 RMK AO2 SLP182 T02830194 50001 (DD),,,,,,,,,,,,,,,,,,,,,,,,,,,,
72208013880,2011-06-09T10:00:00,FM-12,4,,SE,0.25,mi,"TEMP, PRECIP, SNOW",,,"MMTS, SRG, SNOWBOARD",,,WFO CHS,,,,,,,,,,,,,,,,,,,,,,,,,,,,67,83,,,-0.00,0,59,30.07,,30.02,9.94,72,210,,7,,,,,,,,,,,,,,,,,,,,,,,,,,,,,,,,,,,,,SYN076AAXX  09154 72208 32666 42106 10283 20194 30167 40182 50001 91456 555 90915;,,,,,,,,,,,,,,,,,,,,,,,,,,,,
72208013880,2011-06-10T09:56:00,FM-15,7,,SE,0.25,mi,"TEMP, PRECIP, SNOW",,,"MMTS, SRG, SNOWBOARD",,,WFO CHS,,,,,,,,,,,,,,,,,,,,,,,,,,,30.03,63,84,0.00,,+0.01,8,49,30.02,SCT:04 40,29.98,10.00,70,150,,6,,,,,,,,,,,,,,,,,,,,,,,,,,,,,,,,,,,,,MET10406/10/11 09:56:02 METAR KCHS 101456Z 15005KT 10SM SCT040 29/17 A3003 RMK AO2 SLP167 T02890172 58002 (DD),,,,,,,,,,,,,,,,,,,,,,,,,,,,
72208013880,2011-06-10T10:00:00,FM-12,4,,SE,0.25,mi,"TEMP, PRECIP, SNOW",,,"MMTS, SRG, SNOWBOARD",,,WFO CHS,,,,,,,,,,,,,,,,,,,,,,,,,,,,63,84,,,+0.01,8,49,30.02,,29.98,9.94,70,150,,6,,,,,,,,,,,,,,,,,,,,,,,,,,,,,,,,,,,,,SYN076AAXX  10154 72208 32666 41505 10289 20172 30153 40167 58002 91456 555 91015;,,,,,,,,,,,,,,,,,,,,,,,,,,,,
72208013880,2011-06-11T09:56:00,FM-15,7,,SE,0.25,mi,"TEMP, PRECIP, SNOW",,,"MMTS, SRG, SNOWBOARD",,,WFO CHS,,,,,,,,,,,,,,,,,,,,,,,,,,,29.99,65,82,0.00,,+0.01,8,56,29.98,SCT:04 35,29.94,10.00,71,000,,0,,,,,,,,,,,,,,,,,,,,,,,,,,,,,,,,,,,,,MET10506/11/11 09:56:02 METAR KCHS 111456Z 00000KT 10SM SCT035 28/18 A2999 RMK AO2 SLP153 T02780183 58003 (JRS),,,,,,,,,,,,,,,,,,,,,,,,,,,,
72208013880,2011-06-11T10:00:00,FM-12,4,,SE,0.25,mi,"TEMP, PRECIP, SNOW",,,"MMTS, SRG, SNOWBOARD",,,WFO CHS,,,,,,,,,,,,,,,,,,,,,,,,,,,,65,82,,,+0.01,8,56,29.98,,29.94,9.94,71,000,,0,,,,,,,,,,,,,,,,,,,,,,,,,,,,,,,,,,,,,SYN076AAXX  11154 72208 32666 40000 10278 20183 30140 40153 58003 91456 555 91115;,,,,,,,,,,,,,,,,,,,,,,,,,,,,
72208013880,2011-06-12T09:56:00,FM-15,7,,SE,0.25,mi,"TEMP, PRECIP, SNOW",,,"MMTS, SRG, SNOWBOARD",,,WFO CHS,,,,,,,,,,,,,,,,,,,,,,,,,,,29.95,66,84,0.00,,-0.00,0,55,29.95,FEW:02 33 SCT:04 250,29.90,10.00,72,220,,5,,,,,,,,,,,,,,,,,,,,,,,,,,,,,,,,,,,,,MET11406/12/11 09:56:02 METAR KCHS 121456Z 22004KT 10SM FEW033 SCT250 29/19 A2995 RMK AO2 SLP142 T02890189 50000 $ (JRS),,,,,,,,,,,,,,,,,,,,,,,,,,,,
72208013880,2011-06-12T10:00:00,FM-12,4,,SE,0.25,mi,"TEMP, PRECIP, SNOW",,,"MMTS, SRG, SNOWBOARD",,,WFO CHS,,,,,,,,,,,,,,,,,,,,,,,,,,,,66,84,,,-0.00,0,55,29.95,,29.90,9.94,72,220,,5,,,,,,,,,,,,,,,,,,,,,,,,,,,,,,,,,,,,,SYN076AAXX  12154 72208 32566 42204 10289 20189 30126 40142 50000 91456 555 91215;,,,,,,,,,,,,,,,,,,,,,,,,,,,,
72208013880,2011-06-13T09:56:00,SY-MT,7,,SE,0.25,mi,"TEMP, PRECIP, SNOW",,,"MMTS, SRG, SNOWBOARD",,,WFO CHS,,,,,,,,,,,,,,,,,,,,,,,,,,,29.90,66,89,0.00,,+0.01,8,47,29.89,FEW:02 250,29.85,10.00,74,340,,8,,,,,,,,,,,,,,,,,,,,,,,,,,,,,,,,,,,,,SYN076AAXX  13154 72208 32966 23407 10317 20189 30109 40123 58003 91456 555 91315;MET10406/13/11 09:56:02 METAR KCHS 131456Z 34007KT 10SM FEW250 32/19 A2990 RMK AO2 SLP123 T03170189 58003 (DD),,,,,,,,,,,,,,,,,,,,,,,,,,,,
72208013880,2011-06-14T09:56:00,FM-15,7,,SE,0.25,mi,"TEMP, PRECIP, SNOW",,,"MMTS, SRG, SNOWBOARD",,,WFO CHS,,,,,,,,,,,,,,,,,,,,,,,,,,,29.90,70,86,0.00,FU:3 |FU |FU,-0.04,0,59,29.89,FEW:02 35 SCT:04 75,29.85,6.00,75,090,,7,,,,,,,,,,,,,,,,,,,,,,,,,,,,,,,,,,,,,MET11506/14/11 09:56:02 METAR KCHS 141456Z 09006KT 6SM FU FEW035 SCT075 30/21 A2990 RMK AO2 SLP123 T03000211 50013 $ (DD),,,,,,,,,,,,,,,,,,,,,,,,,,,,
72208013880,2011-06-14T10:00:00,FM-12,4,,SE,0.25,mi,"TEMP, PRECIP, SNOW",,,"MMTS, SRG, SNOWBOARD",,,WFO CHS,,,,,,,,,,,,,,,,,,,,,,,,,,,,70,86,,||FU,-0.04,0,59,29.89,,29.85,5.59,75,090,,7,,,,,,,,,,,,,,,,,,,,,,,,,,,,,,,,,,,,,SYN082AAXX  14154 72208 31659 40906 10300 20211 30109 40123 50013 704// 91456 555 91415;,,,,,,,,,,,,,,,,,,,,,,,,,,,,
72208013880,2011-06-15T09:56:00,SY-MT,7,,SE,0.25,mi,"TEMP, PRECIP, SNOW",,,"MMTS, SRG, SNOWBOARD",,,WFO CHS,,,,,,,,,,,,,,,,,,,,,,,,,,,29.91,68,86,0.00,,-0.01,0,55,29.91,FEW:02 30 SCT:04 45 SCT:04 60,29.86,7.00,74,VRB,,6,,,,,,,,,,,,,,,,,,,,,,,,,,,,,,,,,,,,,SYN076AAXX  15154 72208 32561 4//05 10300 20200 30113 40129 50005 91456 555 91515;MET11706/15/11 09:56:02 METAR KCHS 151456Z VRB05KT 7SM FEW030 SCT045 SCT060 30/20 A2991 RMK AO2 SLP129 T03000200 50005 (DD),,,,,,,,,,,,,,,,,,,,,,,,,,,,
72208013880,2011-06-18T09:56:00,FM-15,7,,SE,0.25,mi,"TEMP, PRECIP, SNOW",,,"MMTS, SRG, SNOWBOARD",,,WFO CHS,,,,,,,,,,,,,,,,,,,,,,,,,,,30.03,67,79,0.00,,+0.01,8,67,30.02,BKN:07 150,29.98,10.00,71,250,,9,,,,,,,,,,,,,,,,,,,,,,,,,,,,,,,,,,,,,MET10506/18/11 09:56:02 METAR KCHS 181456Z 25008KT 10SM BKN150 26/19 A3003 RMK AO2 SLP167 T02610194 58004 (JRS),,,,,,,,,,,,,,,,,,,,,,,,,,,,
72208013880,2011-06-18T10:00:00,FM-12,4,,SE,0.25,mi,"TEMP, PRECIP, SNOW",,,"MMTS, SRG, SNOWBOARD",,,WFO CHS,,,,,,,,,,,,,,,,,,,,,,,,,,,,67,79,,,+0.01,8,67,30.02,,29.98,9.94,71,250,,9,,,,,,,,,,,,,,,,,,,,,,,,,,,,,,,,,,,,,SYN076AAXX  18154 72208 32966 62508 10261 20194 30153 40167 58004 91456 555 91815;,,,,,,,,,,,,,,,,,,,,,,,,,,,,
72208013880,2011-06-19T09:56:00,FM-15,7,,SE,0.25,mi,"TEMP, PRECIP, SNOW",,,"MMTS, SRG, SNOWBOARD",,,WFO CHS,,,,,,,,,,,,,,,,,,,,,,,,,,,29.95,72,90,0.00,,+0.01,6,56,29.95,FEW:02 250,29.90,10.00,77,300,,13,,,,,,,,,,,,,,,,,,,,,,,,,,,,,,,,,,,,,MET10506/19/11 09:56:02 METAR KCHS 191456Z 30011KT 10SM FEW250 32/22 A2995 RMK AO2 SLP142 T03220222 56003 (JRS),,,,,,,,,,,,,,,,,,,,,,,,,,,,
72208013880,2011-06-19T10:00:00,FM-12,4,,SE,0.25,mi,"TEMP, PRECIP, SNOW",,,"MMTS, SRG, SNOWBOARD",,,WFO CHS,,,,,,,,,,,,,,,,,,,,,,,,,,,,72,90,,,+0.01,6,56,29.95,,29.90,9.94,77,300,,13,,,,,,,,,,,,,,,,,,,,,,,,,,,,,,,,,,,,,SYN076AAXX  19154 72208 32966 23011 10322 20222 30126 40142 56003 91456 555 91915;,,,,,,,,,,,,,,,,,,,,,,,,,,,,
72208013880,2011-06-20T09:56:00,FM-15,7,,SE,0.25,mi,"TEMP, PRECIP, SNOW",,,"MMTS, SRG, SNOWBOARD",,,WFO CHS,,,,,,,,,,,,,,,,,,,,,,,,,,,29.91,71,92,0.00,,+0.01,8,51,29.91,FEW:02 100,29.86,10.00,77,300,,10,,,,,,,,,,,,,,,,,,,,,,,,,,,,,,,,,,,,,MET10406/20/11 09:56:02 METAR KCHS 201456Z 30009KT 10SM FEW100 33/22 A2991 RMK AO2 SLP128 T03330217 58004 (DD),,,,,,,,,,,,,,,,,,,,,,,,,,,,
72208013880,2011-06-20T10:00:00,FM-12,4,,SE,0.25,mi,"TEMP, PRECIP, SNOW",,,"MMTS, SRG, SNOWBOARD",,,WFO CHS,,,,,,,,,,,,,,,,,,,,,,,,,,,,71,92,,,+0.01,8,51,29.91,,29.86,9.94,77,300,,10,,,,,,,,,,,,,,,,,,,,,,,,,,,,,,,,,,,,,SYN076AAXX  20154 72208 32966 23009 10333 20217 30113 40128 58004 91456 555 92015;,,,,,,,,,,,,,,,,,,,,,,,,,,,,
72208013880,2011-06-22T09:56:00,FM-15,7,,SE,0.25,mi,"TEMP, PRECIP, SNOW",,,"MMTS, SRG, SNOWBOARD",,,WFO CHS,,,,,,,,,,,,,,,,,,,,,,,,,,,30.01,73,91,0.00,,+0.00,8,56,30.01,FEW:02 35 BKN:07 250,29.96,8.00,78,220,,7,,,,,,,,,,,,,,,,,,,,,,,,,,,,,,,,,,,,,MET11206/22/11 09:56:02 METAR KCHS 221456Z 22006KT 8SM FEW035 BKN250 33/23 A3001 RMK AO2 SLP161 T03280228 58000 $ (DD),,,,,,,,,,,,,,,,,,,,,,,,,,,,
72208013880,2011-06-22T10:00:00,FM-12,4,,SE,0.25,mi,"TEMP, PRECIP, SNOW",,,"MMTS, SRG, SNOWBOARD",,,WFO CHS,,,,,,,,,,,,,,,,,,,,,,,,,,,,73,91,,,0.00,4,56,30.01,,29.96,7.46,78,220,,7,,,,,,,,,,,,,,,,,,,,,,,,,,,,,,,,,,,,,SYN076AAXX  22154 72208 32662 62206 10328 20228 30146 40161 58000 91456 555 92215;,,,,,,,,,,,,,,,,,,,,,,,,,,,,
72208013880,2011-06-23T09:56:00,FM-15,7,,SE,0.25,mi,"TEMP, PRECIP, SNOW",,,"MMTS, SRG, SNOWBOARD",,,WFO CHS,,,,,,,,,,,,,,,,,,,,,,,,,,,29.98,72,89,0.00,FU:3 |FU |FU,-0.00,0,57,29.97,FEW:02 120 SCT:04 180,29.93,5.00,77,270,,9,,,,,,,,,,,,,,,,,,,,,,,,,,,,,,,,,,,,,MET11306/23/11 09:56:02 METAR KCHS 231456Z 27008KT 5SM FU FEW120 SCT180 32/22 A2998 RMK AO2 SLP150 T03170222 50001 (DD),,,,,,,,,,,,,,,,,,,,,,,,,,,,
72208013880,2011-06-23T10:00:00,FM-12,4,,SE,0.25,mi,"TEMP, PRECIP, SNOW",,,"MMTS, SRG, SNOWBOARD",,,WFO CHS,,,,,,,,,,,,,,,,,,,,,,,,,,,,72,89,,||FU,-0.00,0,57,29.97,,29.93,4.97,77,270,,9,,,,,,,,,,,,,,,,,,,,,,,,,,,,,,,,,,,,,SYN082AAXX  23154 72208 31958 42708 10317 20222 30136 40150 50001 704// 91456 555 92315;,,,,,,,,,,,,,,,,,,,,,,,,,,,,
72208013880,2011-06-24T09:56:00,FM-15,7,,SE,0.25,mi,"TEMP, PRECIP, SNOW",,,"MMTS, SRG, SNOWBOARD",,,WFO CHS,,,,,,,,,,,,,,,,,,,,,,,,,,,29.92,74,81,0.00,,+0.01,8,79,29.91,FEW:02 20 BKN:07 200,29.87,10.00,76,250,,9,,,,,,,,,,,,,,,,,,,,,,,,,,,,,,,,,,,,,MET11106/24/11 09:56:02 METAR KCHS 241456Z 25008KT 10SM FEW020 BKN200 27/23 A2992 RMK AO2 SLP129 T02720233 58003 (DD),,,,,,,,,,,,,,,,,,,,,,,,,,,,
72208013880,2011-06-24T10:00:00,FM-12,4,,SE,0.25,mi,"TEMP, PRECIP, SNOW",,,"MMTS, SRG, SNOWBOARD",,,WFO CHS,,,,,,,,,,,,,,,,,,,,,,,,,,,,74,81,,,+0.01,8,79,29.91,,29.87,9.94,76,250,,9,,,,,,,,,,,,,,,,,,,,,,,,,,,,,,,,,,,,,SYN076AAXX  24154 72208 32566 62508 10272 20233 30116 40129 58003 91456 555 92415;,,,,,,,,,,,,,,,,,,,,,,,,,,,,
72208013880,2011-06-26T09:56:00,FM-15,7,,SE,0.25,mi,"TEMP, PRECIP, SNOW",,,"MMTS, SRG, SNOWBOARD",,,WFO CHS,,,,,,,,,,,,,,,,,,,,,,,,,,,29.98,69,87,0.00,,+0.02,8,55,29.98,FEW:02 250,29.93,10.00,75,300,,3,,,,,,,,,,,,,,,,,,,,,,,,,,,,,,,,,,,,,MET10706/26/11 09:56:02 METAR KCHS 261456Z 30003KT 10SM FEW250 31/21 A2998 RMK AO2 SLP151 T03060206 58007 $ (JRS),,,,,,,,,,,,,,,,,,,,,,,,,,,,
72208013880,2011-06-26T10:00:00,FM-12,4,,SE,0.25,mi,"TEMP, PRECIP, SNOW",,,"MMTS, SRG, SNOWBOARD",,,WFO CHS,,,,,,,,,,,,,,,,,,,,,,,,,,,,69,87,,,+0.02,8,55,29.98,,29.93,9.94,75,300,,3,,,,,,,,,,,,,,,,,,,,,,,,,,,,,,,,,,,,,SYN076AAXX  26154 72208 32966 23003 10306 20206 30136 40151 58007 91456 555 92615;,,,,,,,,,,,,,,,,,,,,,,,,,,,,
72208013880,2011-06-27T09:56:00,FM-15,7,,SE,0.25,mi,"TEMP, PRECIP, SNOW",,,"MMTS, SRG, SNOWBOARD",,,WFO CHS,,,,,,,,,,,,,,,,,,,,,,,,,,,30.04,70,87,0.00,,-0.03,0,57,30.03,FEW:02 120,29.99,10.00,75,VRB,,5,,,,,,,,,,,,,,,,,,,,,,,,,,,,,,,,,,,,,MET10406/27/11 09:56:02 METAR KCHS 271456Z VRB04KT 10SM FEW120 31/21 A3004 RMK AO2 SLP170 T03060211 50009 (DD),,,,,,,,,,,,,,,,,,,,,,,,,,,,
72208013880,2011-06-27T10:00:00,FM-12,4,,SE,0.25,mi,"TEMP, PRECIP, SNOW",,,"MMTS, SRG, SNOWBOARD",,,WFO CHS,,,,,,,,,,,,,,,,,,,,,,,,,,,,70,87,,,-0.03,0,57,30.03,,29.99,9.94,75,,,,,,,,,,,,,,,,,,,,,,,,,,,,,,,,,,,,,,,,SYN076AAXX  27154 72208 32966 2//04 10306 20211 30157 40170 50009 91456 555 92715;,,,,,,,,,,,,,,,,,,,,,,,,,,,,
72208013880,2011-06-28T09:56:00,FM-15,7,,SE,0.25,mi,"TEMP, PRECIP, SNOW",,,"MMTS, SRG, SNOWBOARD",,,WFO CHS,,,,,,,,,,,,,,,,,,,,,,,,,,,30.03,71,88,0.00,,+0.02,8,57,30.02,FEW:02 35 SCT:04 50,29.98,10.00,76,210,,8,,,,,,,,,,,,,,,,,,,,,,,,,,,,,,,,,,,,,MET11106/28/11 09:56:02 METAR KCHS 281456Z 21007KT 10SM FEW035 SCT050 31/22 A3003 RMK AO2 SLP167 T03110217 58006 (DD),,,,,,,,,,,,,,,,,,,,,,,,,,,,
72208013880,2011-06-28T10:00:00,FM-12,4,,SE,0.25,mi,"TEMP, PRECIP, SNOW",,,"MMTS, SRG, SNOWBOARD",,,WFO CHS,,,,,,,,,,,,,,,,,,,,,,,,,,,,71,88,,,+0.02,8,57,30.02,,29.98,9.94,76,210,,8,,,,,,,,,,,,,,,,,,,,,,,,,,,,,,,,,,,,,SYN076AAXX  28154 72208 32666 42107 10311 20217 30153 40167 58006 91456 555 92815;,,,,,,,,,,,,,,,,,,,,,,,,,,,,
72208013880,2011-06-29T09:56:00,FM-15,7,,SE,0.25,mi,"TEMP, PRECIP, SNOW",,,"MMTS, SRG, SNOWBOARD",,,WFO CHS,,,,,,,,,,,,,,,,,,,,,,,,,,,29.99,72,86,0.00,,+0.00,8,63,29.98,FEW:02 25 BKN:07 150,29.94,10.00,76,280,16,9,,,,,,,,,,,,,,,,,,,,,,,,,,,,,,,,,,,,,MET11406/29/11 09:56:02 METAR KCHS 291456Z 28008G14KT 10SM FEW025 BKN150 30/22 A2999 RMK AO2 SLP153 T03000222 58000 (DD),,,,,,,,,,,,,,,,,,,,,,,,,,,,
72208013880,2011-06-29T10:00:00,SY-MT,4,,SE,0.25,mi,"TEMP, PRECIP, SNOW",,,"MMTS, SRG, SNOWBOARD",,,WFO CHS,,,,,,,,,,,,,,,,,,,,,,,,,,,29.99,72,86,,,0.00,4,63,29.98,FEW:02 25 BKN:07 148,29.94,9.94,76,280,16,9,,,,,,,,,,,,,,,,,,,,,,,,,,,,,,,,,,,,,SYN086AAXX  29154 72208 32566 62808 10300 20222 30140 40153 58000 91456 333 91014 555 92915;MET092METAR KCHS 291456Z 28008G14KT 10SM FEW025 BKN150 30/22 A2999 RMK AO2 SLP153 T03000222 58000;,,,,,,,,,,,,,,,,,,,,,,,,,,,,
72208013880,2011-07-01T09:56:00,FM-15,7,,SE,0.25,mi,"TEMP, PRECIP, SNOW",,,"MMTS, SRG, SNOWBOARD",,,WFO CHS,,,,,,,,,,,,,,,,,,,,,,,,,,,30.01,72,87,0.00,FU:3 |FU |FU,-0.00,0,61,30.01,,29.96,5.00,77,020,,6,,,,,,,,,,,,,,,,,,,,,,,,,,,,,,,,,,,,,MET10307/01/11 09:56:02 METAR KCHS 011456Z 02005KT 5SM FU CLR 31/22 A3001 RMK AO2 SLP162 T03060222 50000 (DD),,,,,,,,,,,,,,,,,,,,,,,,,,,,
72208013880,2011-07-01T10:00:00,FM-12,4,,SE,0.25,mi,"TEMP, PRECIP, SNOW",,,"MMTS, SRG, SNOWBOARD",,,WFO CHS,,,,,,,,,,,,,,,,,,,,,,,,,,,,72,87,,||FU,-0.00,0,61,30.01,CLR:00,29.96,4.97,77,020,,6,,,,,,,,,,,,,,,,,,,,,,,,,,,,,,,,,,,,,SYN082AAXX  01154 72208 31958 00205 10306 20222 30146 40162 50000 704// 91456 555 90115;,,,,,,,,,,,,,,,,,,,,,,,,,,,,
72208013880,2011-07-02T09:56:00,FM-15,7,,SE,0.25,mi,"TEMP, PRECIP, SNOW",,,"MMTS, SRG, SNOWBOARD",,,WFO CHS,,,,,,,,,,,,,,,,,,,,,,,,,,,30.09,71,85,0.00,,-0.01,0,63,30.09,FEW:02 30,30.04,10.00,75,200,,3,,,,,,,,,,,,,,,,,,,,,,,,,,,,,,,,,,,,,MET10507/02/11 09:56:02 METAR KCHS 021456Z 20003KT 10SM FEW030 29/22 A3009 RMK AO2 SLP189 T02940217 50002 (JRS),,,,,,,,,,,,,,,,,,,,,,,,,,,,
72208013880,2011-07-02T10:00:00,FM-12,4,,SE,0.25,mi,"TEMP, PRECIP, SNOW",,,"MMTS, SRG, SNOWBOARD",,,WFO CHS,,,,,,,,,,,,,,,,,,,,,,,,,,,,71,85,,,-0.01,0,63,30.09,,30.04,9.94,75,200,,3,,,,,,,,,,,,,,,,,,,,,,,,,,,,,,,,,,,,,SYN076AAXX  02154 72208 32566 22003 10294 20217 30173 40189 50002 91456 555 90215;,,,,,,,,,,,,,,,,,,,,,,,,,,,,
72208013880,2011-07-03T09:56:00,FM-15,7,,SE,0.25,mi,"TEMP, PRECIP, SNOW",,,"MMTS, SRG, SNOWBOARD",,,WFO CHS,,,,,,,,,,,,,,,,,,,,,,,,,,,30.07,72,84,0.00,,-0.01,0,67,30.06,SCT:04 28 BKN:07 250,30.02,10.00,76,200,,5,,,,,,,,,,,,,,,,,,,,,,,,,,,,,,,,,,,,,MET11207/03/11 09:56:02 METAR KCHS 031456Z 20004KT 10SM SCT028 BKN250 29/22 A3007 RMK AO2 SLP181 T02890222 50005 (JRS),,,,,,,,,,,,,,,,,,,,,,,,,,,,
72208013880,2011-07-03T10:00:00,FM-12,4,,SE,0.25,mi,"TEMP, PRECIP, SNOW",,,"MMTS, SRG, SNOWBOARD",,,WFO CHS,,,,,,,,,,,,,,,,,,,,,,,,,,,,72,84,,,-0.01,0,67,30.06,,30.02,9.94,76,200,,5,,,,,,,,,,,,,,,,,,,,,,,,,,,,,,,,,,,,,SYN076AAXX  03154 72208 32566 62004 10289 20222 30167 40181 50005 91456 555 90315;,,,,,,,,,,,,,,,,,,,,,,,,,,,,
72208013880,2011-07-04T09:56:00,SY-MT,7,,SE,0.25,mi,"TEMP, PRECIP, SNOW",,,"MMTS, SRG, SNOWBOARD",,,WFO CHS,,,,,,,,,,,,,,,,,,,,,,,,,,,30.04,71,85,0.00,,-0.00,0,63,30.03,SCT:04 30 SCT:04 65,29.99,10.00,75,230,,7,,,,,,,,,,,,,,,,,,,,,,,,,,,,,,,,,,,,,SYN076AAXX  04154 72208 32566 42306 10294 20217 30157 40170 50000 91456 555 90415;MET11107/04/11 09:56:02 METAR KCHS 041456Z 23006KT 10SM SCT030 SCT065 29/22 A3004 RMK AO2 SLP170 T02940217 50000 (DD),,,,,,,,,,,,,,,,,,,,,,,,,,,,
72208013880,2011-07-07T09:56:00,SY-MT,7,,SE,0.25,mi,"TEMP, PRECIP, SNOW",,,"MMTS, SRG, SNOWBOARD",,,WFO CHS,,,,,,,,,,,,,,,,,,,,,,,,,,,29.99,73,88,0.00,,+0.01,8,61,29.99,SCT:04 30 SCT:04 45,29.94,10.00,77,000,,0,,,,,,,,,,,,,,,,,,,,,,,,,,,,,,,,,,,,,SYN076AAXX  07154 72208 32566 40000 10311 20228 30140 40156 58002 91456 555 90715;MET11107/07/11 09:56:02 METAR KCHS 071456Z 00000KT 10SM SCT030 SCT045 31/23 A2999 RMK AO2 SLP156 T03110228 58002 (DD),,,,,,,,,,,,,,,,,,,,,,,,,,,,
72208013880,2011-07-08T09:56:00,SY-MT,7,,SE,0.25,mi,"TEMP, PRECIP, SNOW",,,"MMTS, SRG, SNOWBOARD",,,WFO CHS,,,,,,,,,,,,,,,,,,,,,,,,,,,29.91,78,82,T,,+0.01,8,88,29.91,SCT:04 15 SCT:04 75 BKN:07 180,29.86,10.00,79,180,,6,,,,,,,,,,,,,,,,,,,,,,,,,,,,,,,,,,,,,SYN082AAXX  08154 72208 12466 61805 10278 20256 30113 40129 58002 69907 91456 555 90815;MET15907/08/11 09:56:02 METAR KCHS 081456Z 18005KT 10SM SCT015 SCT075 BKN180 28/26 A2991 RMK AO2 RAB08E48 SLP129 CB DSNT E-S MOVG NE P0000 60000 T02780256 58002 (DD),,,,,,,,,,,,,,,,,,,,,,,,,,,,
72208013880,2011-07-10T09:56:00,SY-MT,7,,SE,0.25,mi,"TEMP, PRECIP, SNOW",,,"MMTS, SRG, SNOWBOARD",,,WFO CHS,,,,,,,,,,,,,,,,,,,,,,,,,,,30.04,76,85,0.00,,-0.02,0,75,30.03,SCT:04 15,29.99,10.00,79,090,,5,,,,,,,,,,,,,,,,,,,,,,,,,,,,,,,,,,,,,SYN076AAXX  10154 72208 32466 40904 10294 20244 30157 40171 50006 91456 555 91015;MET10707/10/11 09:56:02 METAR KCHS 101456Z 09004KT 10SM SCT015 29/24 A3004 RMK AO2 SLP171 T02940244 50006 $ (JRS),,,,,,,,,,,,,,,,,,,,,,,,,,,,
72208013880,2011-07-11T09:56:00,FM-15,7,,SE,0.25,mi,"TEMP, PRECIP, SNOW",,,"MMTS, SRG, SNOWBOARD",,,WFO CHS,,,,,,,,,,,,,,,,,,,,,,,,,,,30.07,76,86,0.00,,-0.01,0,72,30.06,SCT:04 25 SCT:04 40 BKN:07 80,30.02,10.00,79,000,,0,,,,,,,,,,,,,,,,,,,,,,,,,,,,,,,,,,,,,MET13207/11/11 09:56:02 METAR KCHS 111456Z 00000KT 10SM SCT025 SCT040 BKN080 30/24 A3007 RMK AO2 SLP180 TCU DSNT N-NE T03000244 50005 (DD),,,,,,,,,,,,,,,,,,,,,,,,,,,,
72208013880,2011-07-11T10:00:00,FM-12,4,,SE,0.25,mi,"TEMP, PRECIP, SNOW",,,"MMTS, SRG, SNOWBOARD",,,WFO CHS,,,,,,,,,,,,,,,,,,,,,,,,,,,,76,86,,,-0.01,0,72,30.06,,30.02,9.94,79,000,,0,,,,,,,,,,,,,,,,,,,,,,,,,,,,,,,,,,,,,SYN076AAXX  11154 72208 32566 60000 10300 20244 30167 40180 50005 91456 555 91115;,,,,,,,,,,,,,,,,,,,,,,,,,,,,
72208013880,2011-07-18T09:56:00,FM-15,7,,SE,0.25,mi,"TEMP, PRECIP, SNOW",,,"MMTS, SRG, SNOWBOARD",,,WFO CHS,,,,,,,,,,,,,,,,,,,,,,,,,,,30.12,65,83,0.00,,+0.01,7,55,30.12,FEW:02 35,30.07,10.00,71,VRB,,6,,,,,,,,,,,,,,,,,,,,,,,,,,,,,,,,,,,,,MET10407/18/11 09:56:02 METAR KCHS 181456Z VRB05KT 10SM FEW035 28/18 A3012 RMK AO2 SLP200 T02830183 57005 (DD),,,,,,,,,,,,,,,,,,,,,,,,,,,,
72208013880,2011-07-18T10:00:00,FM-12,4,,SE,0.25,mi,"TEMP, PRECIP, SNOW",,,"MMTS, SRG, SNOWBOARD",,,WFO CHS,,,,,,,,,,,,,,,,,,,,,,,,,,,,65,83,,,+0.01,7,55,30.12,,30.07,9.94,71,,,,,,,,,,,,,,,,,,,,,,,,,,,,,,,,,,,,,,,,SYN076AAXX  18154 72208 32666 2//05 10283 20183 30184 40200 57005 91456 555 91815;,,,,,,,,,,,,,,,,,,,,,,,,,,,,
72208013880,2011-07-21T09:56:00,SY-MT,7,,SE,0.25,mi,"TEMP, PRECIP, SNOW",,,"MMTS, SRG, SNOWBOARD",,,WFO CHS,,,,,,,,,,,,,,,,,,,,,,,,,,,29.94,74,92,0.00,,-0.00,0,56,29.93,FEW:02 250,29.89,10.00,79,290,,8,,,,,,,,,,,,,,,,,,,,,,,,,,,,,,,,,,,,,SYN076AAXX  21154 72208 32966 22907 10333 20233 30123 40136 50001 91456 555 92115;MET10607/21/11 09:56:02 METAR KCHS 211456Z 29007KT 10SM FEW250 33/23 A2994 RMK AO2 SLP136 T03330233 50001 $ (DD),,,,,,,,,,,,,,,,,,,,,,,,,,,,
72208013880,2011-07-22T09:56:00,FM-15,7,,SE,0.25,mi,"TEMP, PRECIP, SNOW",,,"MMTS, SRG, SNOWBOARD",,,WFO CHS,,,,,,,,,,,,,,,,,,,,,,,,,,,30.05,75,92,0.00,,-0.02,0,58,30.04,,30.00,10.00,80,250,,6,,,,,,,,,,,,,,,,,,,,,,,,,,,,,,,,,,,,,MET10107/22/11 09:56:02 METAR KCHS 221456Z 25005KT 10SM CLR 33/24 A3005 RMK AO2 SLP174 T03330239 50006 (DD),,,,,,,,,,,,,,,,,,,,,,,,,,,,
72208013880,2011-07-22T10:00:00,FM-12,4,,SE,0.25,mi,"TEMP, PRECIP, SNOW",,,"MMTS, SRG, SNOWBOARD",,,WFO CHS,,,,,,,,,,,,,,,,,,,,,,,,,,,,75,92,,,-0.02,0,58,30.04,CLR:00,30.00,9.94,80,250,,6,,,,,,,,,,,,,,,,,,,,,,,,,,,,,,,,,,,,,SYN076AAXX  22154 72208 32966 02505 10333 20239 30160 40174 50006 91456 555 92215;,,,,,,,,,,,,,,,,,,,,,,,,,,,,
72208013880,2011-07-23T09:56:00,FM-15,7,,SE,0.25,mi,"TEMP, PRECIP, SNOW",,,"MMTS, SRG, SNOWBOARD",,,WFO CHS,,,,,,,,,,,,,,,,,,,,,,,,,,,30.14,71,87,0.00,,-0.03,0,59,30.14,FEW:02 45 SCT:04 60,30.09,10.00,76,240,,6,,,,,,,,,,,,,,,,,,,,,,,,,,,,,,,,,,,,,MET11207/23/11 09:56:02 METAR KCHS 231456Z 24005KT 10SM FEW045 SCT060 31/22 A3014 RMK AO2 SLP206 T03060217 50011 (JRS),,,,,,,,,,,,,,,,,,,,,,,,,,,,
72208013880,2011-07-23T10:00:00,FM-12,4,,SE,0.25,mi,"TEMP, PRECIP, SNOW",,,"MMTS, SRG, SNOWBOARD",,,WFO CHS,,,,,,,,,,,,,,,,,,,,,,,,,,,,71,87,,,-0.03,0,59,30.14,,30.09,9.94,76,240,,6,,,,,,,,,,,,,,,,,,,,,,,,,,,,,,,,,,,,,SYN076AAXX  23154 72208 32666 42405 10306 20217 30190 40206 50011 91456 555 92315;,,,,,,,,,,,,,,,,,,,,,,,,,,,,
72208013880,2011-07-24T09:56:00,SY-MT,7,,SE,0.25,mi,"TEMP, PRECIP, SNOW",,,"MMTS, SRG, SNOWBOARD",,,WFO CHS,,,,,,,,,,,,,,,,,,,,,,,,,,,30.10,75,88,0.00,,+0.00,8,66,30.10,BKN:07 200,30.05,10.00,79,290,,8,,,,,,,,,,,,,,,,,,,,,,,,,,,,,,,,,,,,,SYN076AAXX  24154 72208 32966 62907 10311 20239 30177 40192 58001 91456 555 92415;MET10707/24/11 09:56:02 METAR KCHS 241456Z 29007KT 10SM BKN200 31/24 A3010 RMK AO2 SLP192 T03110239 58001 $ (JRS),,,,,,,,,,,,,,,,,,,,,,,,,,,,
72208013880,2011-07-25T09:56:00,SY-MT,7,,SE,0.25,mi,"TEMP, PRECIP, SNOW",,,"MMTS, SRG, SNOWBOARD",,,WFO CHS,,,,,,,,,,,,,,,,,,,,,,,,,,,29.98,76,86,0.00,,-0.01,0,72,29.98,FEW:02 40 SCT:04 90 BKN:07 180,29.93,10.00,79,230,,8,,,,,,,,,,,,,,,,,,,,,,,,,,,,,,,,,,,,,SYN076AAXX  25154 72208 32666 62307 10300 20244 30136 40152 50002 91456 555 92515;MET11807/25/11 09:56:02 METAR KCHS 251456Z 23007KT 10SM FEW040 SCT090 BKN180 30/24 A2998 RMK AO2 SLP152 T03000244 50002 (DD),,,,,,,,,,,,,,,,,,,,,,,,,,,,
72208013880,2011-07-29T09:56:00,SY-MT,7,,SE,0.25,mi,"TEMP, PRECIP, SNOW",,,"MMTS, SRG, SNOWBOARD",,,WFO CHS,,,,,,,,,,,,,,,,,,,,,,,,,,,30.09,73,89,0.00,,-0.01,0,59,30.09,FEW:02 70,30.04,10.00,78,240,,9,,,,,,,,,,,,,,,,,,,,,,,,,,,,,,,,,,,,,SYN076AAXX  29154 72208 32866 22408 10317 20228 30173 40190 50003 91456 555 92915;MET10607/29/11 09:56:02 METAR KCHS 291456Z 24008KT 10SM FEW070 32/23 A3009 RMK AO2 SLP190 T03170228 50003 $ (DD),,,,,,,,,,,,,,,,,,,,,,,,,,,,
72208013880,2011-07-30T09:56:00,SY-MT,7,,SE,0.25,mi,"TEMP, PRECIP, SNOW",,,"MMTS, SRG, SNOWBOARD",,,WFO CHS,,,,,,,,,,,,,,,,,,,,,,,,,,,30.01,75,93,0.00,,-0.01,0,56,30.01,FEW:02 250,29.96,10.00,80,000,,0,,,,,,,,,,,,,,,,,,,,,,,,,,,,,,,,,,,,,SYN076AAXX  30154 72208 32966 20000 10339 20239 30146 40162 50003 91456 555 93015;MET10507/30/11 09:56:02 METAR KCHS 301456Z 00000KT 10SM FEW250 34/24 A3001 RMK AO2 SLP162 T03390239 50003 (JRS),,,,,,,,,,,,,,,,,,,,,,,,,,,,
72208013880,2011-08-03T09:56:00,FM-15,7,,SE,0.25,mi,"TEMP, PRECIP, SNOW",,,"MMTS, SRG, SNOWBOARD",,,WFO CHS,,,,,,,,,,,,,,,,,,,,,,,,,,,29.85,74,90,0.00,,+0.01,8,59,29.85,FEW:02 250,29.80,10.00,79,230,,11,,,,,,,,,,,,,,,,,,,,,,,,,,,,,,,,,,,,,MET10408/03/11 09:56:02 METAR KCHS 031456Z 23010KT 10SM FEW250 32/23 A2985 RMK AO2 SLP108 T03220233 58005 (DD),,,,,,,,,,,,,,,,,,,,,,,,,,,,
72208013880,2011-08-03T10:00:00,FM-12,4,,SE,0.25,mi,"TEMP, PRECIP, SNOW",,,"MMTS, SRG, SNOWBOARD",,,WFO CHS,,,,,,,,,,,,,,,,,,,,,,,,,,,,74,90,,,+0.01,8,59,29.85,,29.80,9.94,79,230,,11,,,,,,,,,,,,,,,,,,,,,,,,,,,,,,,,,,,,,SYN076AAXX  03154 72208 32966 22310 10322 20233 30092 40108 58005 91456 555 90315;,,,,,,,,,,,,,,,,,,,,,,,,,,,,
72208013880,2011-08-07T09:56:00,FM-15,7,,SE,0.25,mi,"TEMP, PRECIP, SNOW",,,"MMTS, SRG, SNOWBOARD",,,WFO CHS,,,,,,,,,,,,,,,,,,,,,,,,,,,29.92,78,87,0.00,,+0.01,8,75,29.91,FEW:02 20 SCT:04 150,29.87,10.00,80,VRB,,8,,,,,,,,,,,,,,,,,,,,,,,,,,,,,,,,,,,,,MET11408/07/11 09:56:02 METAR KCHS 071456Z 25007KT 10SM FEW020 SCT150 31/26 A2992 RMK AO2 SLP129 T03060256 58003 $ (JRS),,,,,,,,,,,,,,,,,,,,,,,,,,,,
72208013880,2011-08-07T10:00:00,FM-12,4,,SE,0.25,mi,"TEMP, PRECIP, SNOW",,,"MMTS, SRG, SNOWBOARD",,,WFO CHS,,,,,,,,,,,,,,,,,,,,,,,,,,,,78,87,,,+0.01,8,75,29.91,,29.87,9.94,80,250,,8,,,,,,,,,,,,,,,,,,,,,,,,,,,,,,,,,,,,,SYN076AAXX  07154 72208 32566 42507 10306 20256 30116 40129 58003 91456 555 90715;,,,,,,,,,,,,,,,,,,,,,,,,,,,,
72208013880,2011-08-09T09:56:00,FM-15,7,,SE,0.25,mi,"TEMP, PRECIP, SNOW",,,"MMTS, SRG, SNOWBOARD",,,WFO CHS,,,,,,,,,,,,,,,,,,,,,,,,,,,29.78,73,89,0.00,,-0.01,0,59,29.78,FEW:02 180,29.73,10.00,78,240,,9,,,,,,,,,,,,,,,,,,,,,,,,,,,,,,,,,,,,,MET10408/09/11 09:56:02 METAR KCHS 091456Z 24008KT 10SM FEW180 32/23 A2978 RMK AO2 SLP083 T03170228 50002 (DD),,,,,,,,,,,,,,,,,,,,,,,,,,,,
72208013880,2011-08-09T10:00:00,FM-12,4,,SE,0.25,mi,"TEMP, PRECIP, SNOW",,,"MMTS, SRG, SNOWBOARD",,,WFO CHS,,,,,,,,,,,,,,,,,,,,,,,,,,,,73,89,,,-0.01,0,59,29.78,,29.73,9.94,78,240,,9,,,,,,,,,,,,,,,,,,,,,,,,,,,,,,,,,,,,,SYN076AAXX  09154 72208 32966 22408 10317 20228 30069 40083 50002 91456 555 90915;,,,,,,,,,,,,,,,,,,,,,,,,,,,,
72208013880,2011-08-14T09:56:00,FM-15,7,,SE,0.25,mi,"TEMP, PRECIP, SNOW",,,"MMTS, SRG, SNOWBOARD",,,WFO CHS,,,,,,,,,,,,,,,,,,,,,,,,,,,29.88,73,85,,,-0.00,0,69,,FEW:02 20 SCT:04 250,29.83,10.00,77,260,,9,,,,,,,,,,,,,,,,,,,,,,,,,,,,,,,,,,,,,MET11708/14/11 09:56:02 METAR KCHS 141456Z 26008KT 10SM FEW020 SCT250 29/23 A2988 RMK AO2 SLPNO T02920230 50000 PNO $ (JRS),,,,,,,,,,,,,,,,,,,,,,,,,,,,
72208013880,2011-08-14T10:00:00,FM-12,4,,SE,0.25,mi,"TEMP, PRECIP, SNOW",,,"MMTS, SRG, SNOWBOARD",,,WFO CHS,,,,,,,,,,,,,,,,,,,,,,,,,,,,73,85,,,-0.00,0,69,,,29.83,9.94,77,260,,9,,,,,,,,,,,,,,,,,,,,,,,,,,,,,,,,,,,,,SYN070AAXX  14154 72208 32566 42608 10292 20230 30102 50000 91456 555 91415;,,,,,,,,,,,,,,,,,,,,,,,,,,,,
72208013880,2011-08-18T09:56:00,FM-15,7,,SE,0.25,mi,"TEMP, PRECIP, SNOW",,,"MMTS, SRG, SNOWBOARD",,,WFO CHS,,,,,,,,,,,,,,,,,,,,,,,,,,,30.05,73,87,0.00,,+0.00,8,63,30.05,SCT:04 30 SCT:04 45,30.00,10.00,77,070,,7,,,,,,,,,,,,,,,,,,,,,,,,,,,,,,,,,,,,,MET11108/18/11 09:56:02 METAR KCHS 181456Z 07006KT 10SM SCT030 SCT045 31/23 A3005 RMK AO2 SLP176 T03060228 58001 (DD),,,,,,,,,,,,,,,,,,,,,,,,,,,,
72208013880,2011-08-18T10:00:00,FM-12,4,,SE,0.25,mi,"TEMP, PRECIP, SNOW",,,"MMTS, SRG, SNOWBOARD",,,WFO CHS,,,,,,,,,,,,,,,,,,,,,,,,,,,,73,87,,,+0.00,8,63,30.05,,30.00,9.94,77,070,,7,,,,,,,,,,,,,,,,,,,,,,,,,,,,,,,,,,,,,SYN076AAXX  18154 72208 32566 40706 10306 20228 30160 40176 58001 91456 555 91815;,,,,,,,,,,,,,,,,,,,,,,,,,,,,
72208013880,2011-08-19T09:56:00,FM-15,7,,SE,0.25,mi,"TEMP, PRECIP, SNOW",,,"MMTS, SRG, SNOWBOARD",,,WFO CHS,,,,,,,,,,,,,,,,,,,,,,,,,,,29.95,72,86,0.00,,-0.00,0,63,29.95,FEW:02 250,29.90,10.00,76,320,,8,,,,,,,,,,,,,,,,,,,,,,,,,,,,,,,,,,,,,MET10408/19/11 09:56:02 METAR KCHS 191456Z 32007KT 10SM FEW250 30/22 A2995 RMK AO2 SLP142 T03000222 50000 (DD),,,,,,,,,,,,,,,,,,,,,,,,,,,,
72208013880,2011-08-19T10:00:00,FM-12,4,,SE,0.25,mi,"TEMP, PRECIP, SNOW",,,"MMTS, SRG, SNOWBOARD",,,WFO CHS,,,,,,,,,,,,,,,,,,,,,,,,,,,,72,86,,,-0.00,0,63,29.95,,29.90,9.94,76,320,,8,,,,,,,,,,,,,,,,,,,,,,,,,,,,,,,,,,,,,SYN076AAXX  19154 72208 32966 23207 10300 20222 30126 40142 50000 91456 555 91915;,,,,,,,,,,,,,,,,,,,,,,,,,,,,
72208013880,2011-08-22T09:56:00,FM-15,7,,SE,0.25,mi,"TEMP, PRECIP, SNOW",,,"MMTS, SRG, SNOWBOARD",,,WFO CHS,,,,,,,,,,,,,,,,,,,,,,,,,,,29.95,76,86,0.00,,-0.00,0,72,29.95,FEW:02 25,29.90,10.00,79,VRB,,7,,,,,,,,,,,,,,,,,,,,,,,,,,,,,,,,,,,,,MET10408/22/11 09:56:02 METAR KCHS 221456Z VRB06KT 10SM FEW025 30/24 A2995 RMK AO2 SLP143 T03000244 50000 (DD),,,,,,,,,,,,,,,,,,,,,,,,,,,,
72208013880,2011-08-22T10:00:00,FM-12,4,,SE,0.25,mi,"TEMP, PRECIP, SNOW",,,"MMTS, SRG, SNOWBOARD",,,WFO CHS,,,,,,,,,,,,,,,,,,,,,,,,,,,,76,86,,,-0.00,0,72,29.95,,29.90,9.94,79,,,,,,,,,,,,,,,,,,,,,,,,,,,,,,,,,,,,,,,,SYN076AAXX  22154 72208 32566 2//06 10300 20244 30126 40143 50000 91456 555 92215;,,,,,,,,,,,,,,,,,,,,,,,,,,,,
72208013880,2011-09-05T09:56:00,SY-MT,7,,SE,0.25,mi,"TEMP, PRECIP, SNOW",,,"MMTS, SRG, SNOWBOARD",,,WFO CHS,,,,,,,,,,,,,,,,,,,,,,,,,,,29.86,74,84,T,,+0.00,8,72,29.85,SCT:04 20 SCT:04 35 BKN:07 180,29.81,10.00,77,180,21,16,,,,,,,,,,,,,,,,,,,,,,,,,,,,,,,,,,,,,SYN092AAXX  05154 72208 12566 61814 10289 20233 30096 40109 58001 69907 91456 333 91018 555 90515;MET14209/05/11 09:56:02 METAR KCHS 051456Z 18014G18KT 10SM SCT020 SCT035 BKN180 29/23 A2986 RMK AO2 RAB13E25 SLP109 P0000 60000 T02890233 58001 (DD),,,,,,,,,,,,,,,,,,,,,,,,,,,,
72208013880,2011-09-06T09:56:00,FM-15,7,,SE,0.25,mi,"TEMP, PRECIP, SNOW",,,"MMTS, SRG, SNOWBOARD",,,WFO CHS,,,,,,,,,,,,,,,,,,,,,,,,,,,29.78,77,79,0.15,TS:7 -RA:02 |RA TS |SHRA TS,-0.02,0,94,29.78,SCT:04 20 SCT:04 70 BKN:07 120,29.73,8.00,78,200,23,16,,,,,,,,,,,,,,,,,,,,,,,,,,,,,,,,,,,,,MET20509/06/11 09:56:02 METAR KCHS 061456Z 20014G20KT 8SM -TSRA SCT020CB SCT070 BKN120 26/25 A2978 RMK AO2 PK WND 19034/1437 TSB33RAB25 SLP084 OCNL LTGICCG N-E-S TS N-E-S MOVG NE P0015 60050 T02610250 50006 (DD),,,,,,,,,,,,,,,,,,,,,,,,,,,,
72208013880,2011-09-06T10:00:00,FM-12,4,,SE,0.25,mi,"TEMP, PRECIP, SNOW",,,"MMTS, SRG, SNOWBOARD",,,WFO CHS,,,,,,,,,,,,,,,,,,,,,,,,,,,,77,79,,,-0.02,0,94,29.78,,29.73,7.46,78,200,23,16,,,,,,,,,,,,,,,,,,,,,,,,,,,,,,,,,,,,,SYN092AAXX  06154 72208 11562 62014 10261 20250 30069 40084 50006 60137 91456 333 91020 555 90615;,,,,,,,,,,,,,,,,,,,,,,,,,,,,
72208013880,2011-09-08T09:56:00,FM-15,7,,SE,0.25,mi,"TEMP, PRECIP, SNOW",,,"MMTS, SRG, SNOWBOARD",,,WFO CHS,,,,,,,,,,,,,,,,,,,,,,,,,,,29.92,58,78,0.00,,+0.00,6,50,29.92,FEW:02 35,29.87,10.00,66,230,,6,,,,,,,,,,,,,,,,,,,,,,,,,,,,,,,,,,,,,MET10409/08/11 09:56:02 METAR KCHS 081456Z 23005KT 10SM FEW035 26/14 A2992 RMK AO2 SLP132 T02560144 56000 (DD),,,,,,,,,,,,,,,,,,,,,,,,,,,,
72208013880,2011-09-08T10:00:00,FM-12,4,,SE,0.25,mi,"TEMP, PRECIP, SNOW",,,"MMTS, SRG, SNOWBOARD",,,WFO CHS,,,,,,,,,,,,,,,,,,,,,,,,,,,,58,78,,,0.00,4,50,29.92,,29.87,9.94,66,230,,6,,,,,,,,,,,,,,,,,,,,,,,,,,,,,,,,,,,,,SYN076AAXX  08154 72208 32666 22305 10256 20144 30116 40132 56000 91456 555 90815;,,,,,,,,,,,,,,,,,,,,,,,,,,,,
72208013880,2011-09-09T09:56:00,SY-MT,7,,SE,0.25,mi,"TEMP, PRECIP, SNOW",,,"MMTS, SRG, SNOWBOARD",,,WFO CHS,,,,,,,,,,,,,,,,,,,,,,,,,,,29.94,60,78,0.00,,-0.02,0,54,29.94,FEW:02 40,29.89,10.00,67,240,,10,,,,,,,,,,,,,,,,,,,,,,,,,,,,,,,,,,,,,SYN076AAXX  09154 72208 32666 22409 10256 20156 30123 40139 50006 91456 555 90915;MET10409/09/11 09:56:02 METAR KCHS 091456Z 24009KT 10SM FEW040 26/16 A2994 RMK AO2 SLP139 T02560156 50006 (DD),,,,,,,,,,,,,,,,,,,,,,,,,,,,
72208013880,2011-09-27T09:56:00,FM-15,7,,SE,0.25,mi,"TEMP, PRECIP, SNOW",,,"MMTS, SRG, SNOWBOARD",,,WFO CHS,,,,,,,,,,,,,,,,,,,,,,,,,,,29.95,73,82,0.00,,-0.00,0,74,29.95,SCT:04 20,29.90,10.00,76,240,,5,,,,,,,,,,,,,,,,,,,,,,,,,,,,,,,,,,,,,MET10409/27/11 09:56:02 METAR KCHS 271456Z 24004KT 10SM SCT020 28/23 A2995 RMK AO2 SLP141 T02780228 50001 (DD),,,,,,,,,,,,,,,,,,,,,,,,,,,,
72208013880,2011-09-27T10:00:00,FM-12,4,,SE,0.25,mi,"TEMP, PRECIP, SNOW",,,"MMTS, SRG, SNOWBOARD",,,WFO CHS,,,,,,,,,,,,,,,,,,,,,,,,,,,,73,82,,,-0.00,0,74,29.95,,29.90,9.94,76,240,,5,,,,,,,,,,,,,,,,,,,,,,,,,,,,,,,,,,,,,SYN076AAXX  27154 72208 32566 42404 10278 20228 30126 40141 50001 91456 555 92715;,,,,,,,,,,,,,,,,,,,,,,,,,,,,
72208013880,2011-09-28T09:56:00,FM-15,7,,SE,0.25,mi,"TEMP, PRECIP, SNOW",,,"MMTS, SRG, SNOWBOARD",,,WFO CHS,,,,,,,,,,,,,,,,,,,,,,,,,,,29.92,71,80,0.00,,-0.01,0,74,29.92,FEW:02 25 SCT:04 100,29.87,10.00,74,200,,5,,,,,,,,,,,,,,,,,,,,,,,,,,,,,,,,,,,,,MET11109/28/11 09:56:02 METAR KCHS 281456Z 20004KT 10SM FEW025 SCT100 27/22 A2992 RMK AO2 SLP131 T02670217 50005 (DD),,,,,,,,,,,,,,,,,,,,,,,,,,,,
72208013880,2011-09-28T10:00:00,FM-12,4,,SE,0.25,mi,"TEMP, PRECIP, SNOW",,,"MMTS, SRG, SNOWBOARD",,,WFO CHS,,,,,,,,,,,,,,,,,,,,,,,,,,,,71,80,,,-0.01,0,74,29.92,,29.87,9.94,74,200,,5,,,,,,,,,,,,,,,,,,,,,,,,,,,,,,,,,,,,,SYN076AAXX  28154 72208 32566 42004 10267 20217 30116 40131 50005 91456 555 92815;,,,,,,,,,,,,,,,,,,,,,,,,,,,,
72208013880,2011-09-30T09:56:00,FM-15,7,,SE,0.25,mi,"TEMP, PRECIP, SNOW",,,"MMTS, SRG, SNOWBOARD",,,WFO CHS,,,,,,,,,,,,,,,,,,,,,,,,,,,29.82,63,83,0.00,,+0.01,8,51,29.81,FEW:02 250,29.77,10.00,70,260,,7,,,,,,,,,,,,,,,,,,,,,,,,,,,,,,,,,,,,,MET10409/30/11 09:56:02 METAR KCHS 301456Z 26006KT 10SM FEW250 28/17 A2982 RMK AO2 SLP096 T02830172 58002 (DD),,,,,,,,,,,,,,,,,,,,,,,,,,,,
72208013880,2011-09-30T10:00:00,FM-12,4,,SE,0.25,mi,"TEMP, PRECIP, SNOW",,,"MMTS, SRG, SNOWBOARD",,,WFO CHS,,,,,,,,,,,,,,,,,,,,,,,,,,,,63,83,,,+0.01,8,51,29.81,,29.77,9.94,70,260,,7,,,,,,,,,,,,,,,,,,,,,,,,,,,,,,,,,,,,,SYN076AAXX  30154 72208 32966 22606 10283 20172 30082 40096 58002 91456 555 93015;,,,,,,,,,,,,,,,,,,,,,,,,,,,,
72208013880,2011-10-01T09:56:00,FM-15,7,,SE,0.25,mi,"TEMP, PRECIP, SNOW",,,"MMTS, SRG, SNOWBOARD",,,WFO CHS,,,,,,,,,,,,,,,,,,,,,,,,,,,29.91,41,67,0.00,,-0.02,0,39,29.91,,29.86,10.00,54,350,,14,,,,,,,,,,,,,,,,,,,,,,,,,,,,,,,,,,,,,MET10210/01/11 09:56:02 METAR KCHS 011456Z 35012KT 10SM CLR 19/05 A2991 RMK AO2 SLP128 T01940050 50008 (JRS),,,,,,,,,,,,,,,,,,,,,,,,,,,,
72208013880,2011-10-01T10:00:00,FM-12,4,,SE,0.25,mi,"TEMP, PRECIP, SNOW",,,"MMTS, SRG, SNOWBOARD",,,WFO CHS,,,,,,,,,,,,,,,,,,,,,,,,,,,,41,67,,,-0.02,0,39,29.91,CLR:00,29.86,9.94,54,350,,14,,,,,,,,,,,,,,,,,,,,,,,,,,,,,,,,,,,,,SYN076AAXX  01154 72208 32966 03512 10194 20050 30113 40128 50008 91456 555 90115;,,,,,,,,,,,,,,,,,,,,,,,,,,,,
72208013880,2011-10-02T09:56:00,FM-15,7,,SE,0.25,mi,"TEMP, PRECIP, SNOW",,,"MMTS, SRG, SNOWBOARD",,,WFO CHS,,,,,,,,,,,,,,,,,,,,,,,,,,,30.06,44,62,0.00,,-0.01,0,52,30.06,FEW:02 200,30.01,10.00,53,040,,5,,,,,,,,,,,,,,,,,,,,,,,,,,,,,,,,,,,,,MET10510/02/11 09:56:02 METAR KCHS 021456Z 04004KT 10SM FEW200 17/07 A3006 RMK AO2 SLP180 T01670067 50005 (JRS),,,,,,,,,,,,,,,,,,,,,,,,,,,,
72208013880,2011-10-02T10:00:00,FM-12,4,,SE,0.25,mi,"TEMP, PRECIP, SNOW",,,"MMTS, SRG, SNOWBOARD",,,WFO CHS,,,,,,,,,,,,,,,,,,,,,,,,,,,,44,62,,,-0.01,0,52,30.06,,30.01,9.94,53,040,,5,,,,,,,,,,,,,,,,,,,,,,,,,,,,,,,,,,,,,SYN076AAXX  02154 72208 32966 20404 10167 20067 30163 40180 50005 91456 555 90215;,,,,,,,,,,,,,,,,,,,,,,,,,,,,
72208013880,2011-10-05T09:56:00,FM-15,7,,SE,0.25,mi,"TEMP, PRECIP, SNOW",,,"MMTS, SRG, SNOWBOARD",,,WFO CHS,,,,,,,,,,,,,,,,,,,,,,,,,,,30.25,53,73,0.00,,-0.02,0,50,30.25,FEW:02 250,30.20,10.00,61,VRB,,7,,,,,,,,,,,,,,,,,,,,,,,,,,,,,,,,,,,,,MET10410/05/11 09:56:02 METAR KCHS 051456Z VRB06KT 10SM FEW250 23/12 A3025 RMK AO2 SLP244 T02280117 50007 (DD),,,,,,,,,,,,,,,,,,,,,,,,,,,,
72208013880,2011-10-05T10:00:00,FM-12,4,,SE,0.25,mi,"TEMP, PRECIP, SNOW",,,"MMTS, SRG, SNOWBOARD",,,WFO CHS,,,,,,,,,,,,,,,,,,,,,,,,,,,,53,73,,,-0.02,0,50,30.25,,30.20,9.94,61,,,,,,,,,,,,,,,,,,,,,,,,,,,,,,,,,,,,,,,,SYN076AAXX  05154 72208 32966 2//06 10228 20117 30228 40244 50007 91456 555 90515;,,,,,,,,,,,,,,,,,,,,,,,,,,,,
72208013880,2011-10-09T09:56:00,FM-15,7,,SE,0.25,mi,"TEMP, PRECIP, SNOW",,,"MMTS, SRG, SNOWBOARD",,,WFO CHS,,,,,,,,,,,,,,,,,,,,,,,,,,,30.24,63,73,0.00,,+0.01,8,71,30.23,FEW:02 18 SCT:04 50 BKN:07 150,30.19,10.00,67,050,29,18,,,,,,,,,,,,,,,,,,,,,,,,,,,,,,,,,,,,,MET14010/09/11 09:56:02 METAR KCHS 091456Z 05016G25KT 10SM FEW018 SCT050 BKN150 23/17 A3024 RMK AO2 PK WND 05026/1437 SLP238 T02280172 58002 (JRS),,,,,,,,,,,,,,,,,,,,,,,,,,,,
72208013880,2011-10-09T10:00:00,FM-12,4,,SE,0.25,mi,"TEMP, PRECIP, SNOW",,,"MMTS, SRG, SNOWBOARD",,,WFO CHS,,,,,,,,,,,,,,,,,,,,,,,,,,,,63,73,,,+0.01,8,71,30.23,,30.19,9.94,67,050,29,18,,,,,,,,,,,,,,,,,,,,,,,,,,,,,,,,,,,,,SYN086AAXX  09154 72208 32466 60516 10228 20172 30224 40238 58002 91456 333 91025 555 90915;,,,,,,,,,,,,,,,,,,,,,,,,,,,,
72208013880,2011-10-13T09:56:00,FM-15,7,,SE,0.25,mi,"TEMP, PRECIP, SNOW",,,"MMTS, SRG, SNOWBOARD",,,WFO CHS,,,,,,,,,,,,,,,,,,,,,,,,,,,29.77,65,75,0.00,,-0.02,0,71,29.76,SCT:04 25 BKN:07 40,29.72,10.00,69,240,,9,,,,,,,,,,,,,,,,,,,,,,,,,,,,,,,,,,,,,MET11110/13/11 09:56:02 METAR KCHS 131456Z 24008KT 10SM SCT025 BKN040 24/18 A2977 RMK AO2 SLP079 T02390183 50006 (DD),,,,,,,,,,,,,,,,,,,,,,,,,,,,
72208013880,2011-10-13T10:00:00,FM-12,4,,SE,0.25,mi,"TEMP, PRECIP, SNOW",,,"MMTS, SRG, SNOWBOARD",,,WFO CHS,,,,,,,,,,,,,,,,,,,,,,,,,,,,65,75,,,-0.02,0,71,29.76,,29.72,9.94,69,240,,9,,,,,,,,,,,,,,,,,,,,,,,,,,,,,,,,,,,,,SYN076AAXX  13154 72208 32566 62408 10239 20183 30065 40079 50006 91456 555 91315;,,,,,,,,,,,,,,,,,,,,,,,,,,,,
72208013880,2011-10-17T09:56:00,SY-MT,7,,SE,0.25,mi,"TEMP, PRECIP, SNOW",,,"MMTS, SRG, SNOWBOARD",,,WFO CHS,,,,,,,,,,,,,,,,,,,,,,,,,,,30.03,59,74,0.00,,-0.00,0,60,30.03,,29.98,10.00,65,280,,7,,,,,,,,,,,,,,,,,,,,,,,,,,,,,,,,,,,,,SYN076AAXX  17154 72208 32966 02806 10233 20150 30153 40168 50001 91456 555 91715;MET10310/17/11 09:56:02 METAR KCHS 171456Z 28006KT 10SM CLR 23/15 A3003 RMK AO2 SLP168 T02330150 50001 $ (DD),,,,,,,,,,,,,,,,,,,,,,,,,,,,
72208013880,2011-10-18T09:56:00,SY-MT,7,,SE,0.25,mi,"TEMP, PRECIP, SNOW",,,"MMTS, SRG, SNOWBOARD",,,WFO CHS,,,,,,,,,,,,,,,,,,,,,,,,,,,29.87,69,79,0.00,,+0.01,8,72,29.86,FEW:02 30 SCT:04 45 SCT:04 90,29.82,10.00,72,160,,3,,,,,,,,,,,,,,,,,,,,,,,,,,,,,,,,,,,,,SYN076AAXX  18154 72208 32566 41603 10261 20206 30099 40113 58004 91456 555 91815;MET11810/18/11 09:56:02 METAR KCHS 181456Z 16003KT 10SM FEW030 SCT045 SCT090 26/21 A2987 RMK AO2 SLP113 T02610206 58004 (DD),,,,,,,,,,,,,,,,,,,,,,,,,,,,
72208013880,2011-10-19T09:56:00,SY-MT,7,,SE,0.25,mi,"TEMP, PRECIP, SNOW",,,"MMTS, SRG, SNOWBOARD",,,WFO CHS,,,,,,,,,,,,,,,,,,,,,,,,,,,29.41,70,77,0.00,,+0.01,8,79,29.40,SCT:04 25 BKN:07 40,29.36,10.00,72,250,,11,,,,,,,,,,,,,,,,,,,,,,,,,,,,,,,,,,,,,SYN082AAXX  19154 72208 12566 62510 10250 20211 39943 49957 58004 69907 91456 555 91915;MET11710/19/11 09:56:02 METAR KCHS 191456Z 25010KT 10SM SCT025 BKN040 25/21 A2941 RMK AO2 SLP957 60000 T02500211 58004 (DD),,,,,,,,,,,,,,,,,,,,,,,,,,,,
72208013880,2011-10-21T09:56:00,FM-15,7,,SE,0.25,mi,"TEMP, PRECIP, SNOW",,,"MMTS, SRG, SNOWBOARD",,,WFO CHS,,,,,,,,,,,,,,,,,,,,,,,,,,,30.12,42,58,0.00,,-0.01,0,56,30.11,,30.07,10.00,50,300,,6,,,,,,,,,,,,,,,,,,,,,,,,,,,,,,,,,,,,,MET10110/21/11 09:56:02 METAR KCHS 211456Z 30005KT 10SM CLR 14/06 A3012 RMK AO2 SLP198 T01440056 50004 (DD),,,,,,,,,,,,,,,,,,,,,,,,,,,,
72208013880,2011-10-21T10:00:00,FM-12,4,,SE,0.25,mi,"TEMP, PRECIP, SNOW",,,"MMTS, SRG, SNOWBOARD",,,WFO CHS,,,,,,,,,,,,,,,,,,,,,,,,,,,,42,58,,,-0.01,0,56,30.11,CLR:00,30.07,9.94,50,300,,6,,,,,,,,,,,,,,,,,,,,,,,,,,,,,,,,,,,,,SYN076AAXX  21154 72208 32966 03005 10144 20056 30184 40198 50004 91456 555 92115;,,,,,,,,,,,,,,,,,,,,,,,,,,,,
72208013880,2011-10-22T09:56:00,SY-MT,7,,SE,0.25,mi,"TEMP, PRECIP, SNOW",,,"MMTS, SRG, SNOWBOARD",,,WFO CHS,,,,,,,,,,,,,,,,,,,,,,,,,,,30.12,46,64,0.00,,-0.01,0,52,30.11,FEW:02 140,30.07,10.00,55,350,,7,,,,,,,,,,,,,,,,,,,,,,,,,,,,,,,,,,,,,SYN076AAXX  22154 72208 32966 23506 10178 20078 30184 40198 50005 91456 555 92215;MET10510/22/11 09:56:02 METAR KCHS 221456Z 35006KT 10SM FEW140 18/08 A3012 RMK AO2 SLP198 T01780078 50005 (KPL),,,,,,,,,,,,,,,,,,,,,,,,,,,,
72208013880,2011-10-24T09:56:00,SY-MT,7,,SE,0.25,mi,"TEMP, PRECIP, SNOW",,,"MMTS, SRG, SNOWBOARD",,,WFO CHS,,,,,,,,,,,,,,,,,,,,,,,,,,,30.12,50,68,0.00,,-0.04,0,53,30.11,,30.07,10.00,58,360,,8,,,,,,,,,,,,,,,,,,,,,,,,,,,,,,,,,,,,,SYN076AAXX  24154 72208 32966 03607 10200 20100 30184 40198 50013 91456 555 92415;MET10110/24/11 09:56:02 METAR KCHS 241456Z 36007KT 10SM CLR 20/10 A3012 RMK AO2 SLP198 T02000100 50013 (DD),,,,,,,,,,,,,,,,,,,,,,,,,,,,
72208013880,2011-10-26T09:56:00,SY-MT,7,,SE,0.25,mi,"TEMP, PRECIP, SNOW",,,"MMTS, SRG, SNOWBOARD",,,WFO CHS,,,,,,,,,,,,,,,,,,,,,,,,,,,30.16,51,72,0.00,,-0.02,0,48,30.15,,30.11,10.00,60,000,,0,,,,,,,,,,,,,,,,,,,,,,,,,,,,,,,,,,,,,SYN076AAXX  26154 72208 32966 00000 10222 20106 30197 40211 50006 91456 555 92615;MET10110/26/11 09:56:02 METAR KCHS 261456Z 00000KT 10SM CLR 22/11 A3016 RMK AO2 SLP211 T02220106 50006 (DD),,,,,,,,,,,,,,,,,,,,,,,,,,,,
72208013880,2011-10-29T09:56:00,FM-15,7,,SE,0.25,mi,"TEMP, PRECIP, SNOW",,,"MMTS, SRG, SNOWBOARD",,,WFO CHS,,,,,,,,,,,,,,,,,,,,,,,,,,,29.95,49,51,T,,-0.05,0,92,29.94,SCT:04 5 OVC:08 15,29.90,10.00,50,340,20,13,,,,,,,,,,,,,,,,,,,,,,,,,,,,,,,,,,,,,MET13310/29/11 09:56:02 METAR KCHS 291456Z 34011G17KT 10SM SCT005 OVC015 11/09 A2995 RMK AO2 RAE10 SLP140 P0000 60000 T01060094 50018 (JRS),,,,,,,,,,,,,,,,,,,,,,,,,,,,
72208013880,2011-10-29T10:00:00,FM-12,4,,SE,0.25,mi,"TEMP, PRECIP, SNOW",,,"MMTS, SRG, SNOWBOARD",,,WFO CHS,,,,,,,,,,,,,,,,,,,,,,,,,,,,49,51,,,-0.05,0,92,29.94,,29.90,9.94,50,340,19,13,,,,,,,,,,,,,,,,,,,,,,,,,,,,,,,,,,,,,SYN092AAXX  29154 72208 12266 83411 10106 20094 30126 40140 50018 69907 91456 333 91017 555 92915;,,,,,,,,,,,,,,,,,,,,,,,,,,,,
72208013880,2011-10-31T09:56:00,SY-MT,7,,SE,0.25,mi,"TEMP, PRECIP, SNOW",,,"MMTS, SRG, SNOWBOARD",,,WFO CHS,,,,,,,,,,,,,,,,,,,,,,,,,,,30.20,48,55,0.00,,+0.01,8,77,30.20,OVC:08 100,30.15,10.00,51,050,,10,,,,,,,,,,,,,,,,,,,,,,,,,,,,,,,,,,,,,SYN076AAXX  31154 72208 32966 80509 10128 20089 30211 40227 58002 91456 555 93115;MET10510/31/11 09:56:02 METAR KCHS 311456Z 05009KT 10SM OVC100 13/09 A3020 RMK AO2 SLP227 T01280089 58002 (KPL),,,,,,,,,,,,,,,,,,,,,,,,,,,,
72208013880,2011-11-03T09:56:00,SY-MT,7,,SE,0.25,mi,"TEMP, PRECIP, SNOW",,,"MMTS, SRG, SNOWBOARD",,,WFO CHS,,,,,,,,,,,,,,,,,,,,,,,,,,,30.19,53,65,0.00,,+0.01,8,66,30.19,FEW:02 50,30.14,10.00,58,060,,7,,,,,,,,,,,,,,,,,,,,,,,,,,,,,,,,,,,,,SYN076AAXX  03154 72208 32766 20606 10183 20117 30207 40222 58004 91456 555 90315;MET10411/03/11 09:56:02 METAR KCHS 031456Z 06006KT 10SM FEW050 18/12 A3019 RMK AO2 SLP222 T01830117 58004 (DD),,,,,,,,,,,,,,,,,,,,,,,,,,,,
72208013880,2011-11-04T09:56:00,SY-MT,7,,SE,0.25,mi,"TEMP, PRECIP, SNOW",,,"MMTS, SRG, SNOWBOARD",,,WFO CHS,,,,,,,,,,,,,,,,,,,,,,,,,,,29.79,43,50,0.00,,-0.01,0,77,29.78,BKN:07 18 OVC:08 25,29.74,10.00,47,280,23,14,,,,,,,,,,,,,,,,,,,,,,,,,,,,,,,,,,,,,SYN086AAXX  04154 72208 32466 82812 10100 20061 30072 40085 50004 91456 333 91020 555 90415;MET11411/04/11 09:56:02 METAR KCHS 041456Z 28012G20KT 10SM BKN018 OVC025 10/06 A2979 RMK AO2 SLP085 T01000061 50004 (DD),,,,,,,,,,,,,,,,,,,,,,,,,,,,
72208013880,2011-11-06T09:56:00,SY-MT,7,,SE,0.25,mi,"TEMP, PRECIP, SNOW",,,"MMTS, SRG, SNOWBOARD",,,WFO CHS,,,,,,,,,,,,,,,,,,,,,,,,,,,30.39,44,56,0.00,,-0.03,0,65,30.39,SCT:04 65,30.34,10.00,50,030,20,14,,,,,,,,,,,,,,,,,,,,,,,,,,,,,,,,,,,,,SYN086AAXX  06154 72208 32766 40312 10133 20067 30275 40291 50009 91456 333 91017 555 90615;MET10811/06/11 09:56:02 METAR KCHS 061456Z 03012G17KT 10SM SCT065 13/07 A3039 RMK AO2 SLP291 T01330067 50009 (JRS),,,,,,,,,,,,,,,,,,,,,,,,,,,,
72208013880,2011-11-07T09:56:00,SY-MT,7,,SE,0.25,mi,"TEMP, PRECIP, SNOW",,,"MMTS, SRG, SNOWBOARD",,,WFO CHS,,,,,,,,,,,,,,,,,,,,,,,,,,,30.34,54,66,0.00,,-0.01,0,65,30.33,FEW:02 65,30.29,10.00,59,050,,9,,,,,,,,,,,,,,,,,,,,,,,,,,,,,,,,,,,,,SYN076AAXX  07154 72208 32766 20508 10189 20122 30258 40272 50002 91456 555 90715;MET10411/07/11 09:56:02 METAR KCHS 071456Z 05008KT 10SM FEW065 19/12 A3034 RMK AO2 SLP272 T01890122 50002 (DD),,,,,,,,,,,,,,,,,,,,,,,,,,,,
72208013880,2011-11-08T09:56:00,SY-MT,7,,SE,0.25,mi,"TEMP, PRECIP, SNOW",,,"MMTS, SRG, SNOWBOARD",,,WFO CHS,,,,,,,,,,,,,,,,,,,,,,,,,,,30.24,53,65,0.00,,-0.01,0,66,30.24,SCT:04 35,30.19,10.00,58,060,,9,,,,,,,,,,,,,,,,,,,,,,,,,,,,,,,,,,,,,SYN076AAXX  08154 72208 32666 40608 10183 20117 30224 40239 50005 91456 555 90815;MET10411/08/11 09:56:02 METAR KCHS 081456Z 06008KT 10SM SCT035 18/12 A3024 RMK AO2 SLP239 T01830117 50005 (DD),,,,,,,,,,,,,,,,,,,,,,,,,,,,
72208013880,2011-11-09T09:56:00,SY-MT,7,,SE,0.25,mi,"TEMP, PRECIP, SNOW",,,"MMTS, SRG, SNOWBOARD",,,WFO CHS,,,,,,,,,,,,,,,,,,,,,,,,,,,30.13,54,65,0.00,,-0.01,0,68,30.13,,30.08,10.00,59,010,,7,,,,,,,,,,,,,,,,,,,,,,,,,,,,,,,,,,,,,SYN076AAXX  09154 72208 32966 00106 10183 20122 30187 40202 50002 91456 555 90915;MET10111/09/11 09:56:02 METAR KCHS 091456Z 01006KT 10SM CLR 18/12 A3013 RMK AO2 SLP202 T01830122 50002 (DD),,,,,,,,,,,,,,,,,,,,,,,,,,,,
72208013880,2011-11-22T09:56:00,FM-15,7,,SE,0.25,mi,"TEMP, PRECIP, SNOW",,,"MMTS, SRG, SNOWBOARD",,,WFO CHS,,,,,,,,,,,,,,,,,,,,,,,,,,,30.22,64,73,0.00,,-0.02,0,74,30.22,SCT:04 250,30.17,10.00,67,000,,0,,,,,,,,,,,,,,,,,,,,,,,,,,,,,,,,,,,,,MET10411/22/11 09:56:02 METAR KCHS 221456Z 00000KT 10SM SCT250 23/18 A3022 RMK AO2 SLP234 T02280178 50007 (DD),,,,,,,,,,,,,,,,,,,,,,,,,,,,
72208013880,2011-11-22T10:00:00,FM-12,4,,SE,0.25,mi,"TEMP, PRECIP, SNOW",,,"MMTS, SRG, SNOWBOARD",,,WFO CHS,,,,,,,,,,,,,,,,,,,,,,,,,,,,64,73,,,-0.02,0,74,30.22,,30.17,9.94,67,000,,0,,,,,,,,,,,,,,,,,,,,,,,,,,,,,,,,,,,,,SYN076AAXX  22154 72208 32966 40000 10228 20178 30217 40234 50007 91456 555 92215;,,,,,,,,,,,,,,,,,,,,,,,,,,,,
72208013880,2011-11-28T09:56:00,SY-MT,7,,SE,0.25,mi,"TEMP, PRECIP, SNOW",,,"MMTS, SRG, SNOWBOARD",,,WFO CHS,,,,,,,,,,,,,,,,,,,,,,,,,,,29.96,63,75,0.00,,+0.01,6,66,29.96,FEW:02 25 BKN:07 70,29.91,10.00,67,150,,17,,,,,,,,,,,,,,,,,,,,,,,,,,,,,,,,,,,,,SYN076AAXX  28154 72208 32566 61515 10239 20172 30129 40145 56002 91456 555 92815;MET11111/28/11 09:56:02 METAR KCHS 281456Z 15015KT 10SM FEW025 BKN070 24/17 A2996 RMK AO2 SLP145 T02390172 56002 (DD),,,,,,,,,,,,,,,,,,,,,,,,,,,,
72208013880,2011-11-29T09:56:00,SY-MT,7,,SE,0.25,mi,"TEMP, PRECIP, SNOW",,,"MMTS, SRG, SNOWBOARD",,,WFO CHS,,,,,,,,,,,,,,,,,,,,,,,,,,,29.94,47,53,0.00,,-0.02,0,80,29.93,SCT:04 20,29.89,10.00,50,240,,6,,,,,,,,,,,,,,,,,,,,,,,,,,,,,,,,,,,,,SYN076AAXX  29154 72208 32566 42405 10117 20083 30123 40137 50008 91456 555 92915;MET10411/29/11 09:56:02 METAR KCHS 291456Z 24005KT 10SM SCT020 12/08 A2994 RMK AO2 SLP137 T01170083 50008 (DD),,,,,,,,,,,,,,,,,,,,,,,,,,,,
72208013880,2011-12-07T09:56:00,SY-MT,7,,SE,0.25,mi,"TEMP, PRECIP, SNOW",,,"MMTS, SRG, SNOWBOARD",,,WFO CHS,,,,,,,,,,,,,,,,,,,,,,,,,,,29.93,62,71,0.00,,+0.03,8,73,29.92,FEW:02 20 SCT:04 100 BKN:07 250,29.88,10.00,65,220,28,15,,,,,,,,,,,,,,,,,,,,,,,,,,,,,,,,,,,,,SYN086AAXX  07154 72208 32566 62213 10217 20167 30119 40133 58011 91456 333 91024 555 90715;MET12112/07/11 09:56:02 METAR KCHS 071456Z 22013G24KT 10SM FEW020 SCT100 BKN250 22/17 A2993 RMK AO2 SLP133 T02170167 58011 (DD),,,,,,,,,,,,,,,,,,,,,,,,,,,,
72208013880,2011-12-12T09:56:00,SY-MT,7,,SE,0.25,mi,"TEMP, PRECIP, SNOW",,,"MMTS, SRG, SNOWBOARD",,,WFO CHS,,,,,,,,,,,,,,,,,,,,,,,,,,,30.47,40,43,0.01,-RA:02 |RA |RA,-0.06,0,89,30.47,FEW:02 40 BKN:07 80 OVC:08 90,30.42,10.00,42,040,,13,,,,,,,,,,,,,,,,,,,,,,,,,,,,,,,,,,,,,SYN088AAXX  12154 72208 11666 80411 10061 20044 30302 40317 50022 69937 761// 91456 555 91215;MET13412/12/11 09:56:02 METAR KCHS 121456Z 04011KT 10SM -RA FEW040 BKN080 OVC090 06/04 A3047 RMK AO2 SLP317 P0001 60001 T00610044 50022 (DD),,,,,,,,,,,,,,,,,,,,,,,,,,,,
72208013880,2011-12-25T09:56:00,FM-15,7,,SE,0.25,mi,"TEMP, PRECIP, SNOW",,,"MMTS, SRG, SNOWBOARD",,,WFO CHS,,,,,,,,,,,,,,,,,,,,,,,,,,,30.37,41,59,0.00,,-0.01,0,51,30.37,FEW:02 37 BKN:07 140 BKN:07 180,30.32,10.00,50,000,,0,,,,,,,,,,,,,,,,,,,,,,,,,,,,,,,,,,,,,MET11912/25/11 09:56:02 METAR KCHS 251456Z 00000KT 10SM FEW037 BKN140 BKN180 15/05 A3037 RMK AO2 SLP283 T01500050 50003 (WRB),,,,,,,,,,,,,,,,,,,,,,,,,,,,
72208013880,2011-12-25T10:00:00,FM-12,4,,SE,0.25,mi,"TEMP, PRECIP, SNOW",,,"MMTS, SRG, SNOWBOARD",,,WFO CHS,,,,,,,,,,,,,,,,,,,,,,,,,,,,41,59,,,-0.01,0,51,30.37,,30.32,9.94,50,000,,0,,,,,,,,,,,,,,,,,,,,,,,,,,,,,,,,,,,,,SYN076AAXX  25154 72208 32666 60000 10150 20050 30268 40283 50003 91456 555 92515;,,,,,,,,,,,,,,,,,,,,,,,,,,,,
72208013880,2011-12-27T09:56:00,SY-MT,7,,SE,0.25,mi,"TEMP, PRECIP, SNOW",,,"MMTS, SRG, SNOWBOARD",,,WFO CHS,,,,,,,,,,,,,,,,,,,,,,,,,,,29.87,64,66,0.08,,+0.07,8,93,29.87,BKN:07 12 BKN:07 26 OVC:08 60,29.82,8.00,65,180,31,22,,,,,,,,,,,,,,,,,,,,,,,,,,,,,,,,,,,,,SYN092AAXX  27154 72208 12462 81819 10189 20178 30099 40115 58025 60067 91456 333 91027 555 92715;MET15712/27/11 09:56:02 METAR KCHS 271456Z 18019G27KT 8SM BKN012 BKN026 OVC060 19/18 A2987 RMK AO2 PK WND 18027/1453 RAE43 SLP115 P0010 60025 T01890178 58025 (WRB),,,,,,,,,,,,,,,,,,,,,,,,,,,,
72208013880,2012-01-01T09:56:00,FM-15,7,,SE,0.25,mi,"TEMP, PRECIP, SNOW",,,"MMTS, SRG, SNOWBOARD",,,WFO CHS,,,,,,,,,,,,,,,,,,,,,,,,,,,30.21,43,58,0.00,,+0.00,8,58,30.21,FEW:02 150,30.16,10.00,50,180,,6,,,,,,,,,,,,,,,,,,,,,,,,,,,,,,,,,,,,,MET10501/01/12 09:56:02 METAR KCHS 011456Z 18005KT 10SM FEW150 14/06 A3021 RMK AO2 SLP229 T01440061 58001 (KLL),,,,,,,,,,,,,,,,,,,,,,,,,,,,
72208013880,2012-01-01T10:00:00,FM-12,4,,SE,0.25,mi,"TEMP, PRECIP, SNOW",,,"MMTS, SRG, SNOWBOARD",,,WFO CHS,,,,,,,,,,,,,,,,,,,,,,,,,,,,43,58,,,+0.00,8,58,30.21,,30.16,9.94,50,180,,6,,,,,,,,,,,,,,,,,,,,,,,,,,,,,,,,,,,,,SYN076AAXX  01154 72208 32966 21805 10144 20061 30214 40229 58001 91456 555 90115;,,,,,,,,,,,,,,,,,,,,,,,,,,,,
72208013880,2012-01-02T09:56:00,SY-MT,7,,SE,0.25,mi,"TEMP, PRECIP, SNOW",,,"MMTS, SRG, SNOWBOARD",,,WFO CHS,,,,,,,,,,,,,,,,,,,,,,,,,,,30.12,28,50,0.00,,-0.04,0,43,30.12,,30.07,10.00,41,320,,10,,,,,,,,,,,,,,,,,,,,,,,,,,,,,,,,,,,,,SYN076AAXX  02154 72208 32966 03209 10100 21022 30184 40200 50013 91456 555 90215;MET10201/02/12 09:56:02 METAR KCHS 021456Z 32009KT 10SM CLR 10/M02 A3012 RMK AO2 SLP200 T01001022 50013 (DD),,,,,,,,,,,,,,,,,,,,,,,,,,,,
72208013880,2012-01-11T09:56:00,SY-MT,7,,SE,0.25,mi,"TEMP, PRECIP, SNOW",,,"MMTS, SRG, SNOWBOARD",,,WFO CHS,,,,,,,,,,,,,,,,,,,,,,,,,,,29.83,63,65,0.00,,+0.02,8,93,29.83,FEW:02 20 SCT:04 100 OVC:08 150,29.78,10.00,64,130,,7,,,,,,,,,,,,,,,,,,,,,,,,,,,,,,,,,,,,,SYN082AAXX  11154 72208 12566 81306 10183 20172 30086 40102 58008 69937 91456 555 91115;MET12401/11/12 09:56:02 METAR KCHS 111456Z 13006KT 10SM FEW020 SCT100 OVC150 18/17 A2983 RMK AO2 SLP102 60001 T01830172 58008 (DD),,,,,,,,,,,,,,,,,,,,,,,,,,,,
72208013880,2012-01-16T09:56:00,SY-MT,7,,SE,0.25,mi,"TEMP, PRECIP, SNOW",,,"MMTS, SRG, SNOWBOARD",,,WFO CHS,,,,,,,,,,,,,,,,,,,,,,,,,,,30.59,35,50,0.00,,-0.04,0,57,30.58,SCT:04 150 BKN:07 200,30.54,10.00,43,100,,8,,,,,,,,,,,,,,,,,,,,,,,,,,,,,,,,,,,,,SYN076AAXX  16154 72208 32966 61007 10100 20017 30343 40356 50013 91456 555 91615;MET11101/16/12 09:56:02 METAR KCHS 161456Z 10007KT 10SM SCT150 BKN200 10/02 A3059 RMK AO2 SLP356 T01000017 50013 (DD),,,,,,,,,,,,,,,,,,,,,,,,,,,,
72208013880,2012-01-26T09:56:00,SY-MT,7,,SE,0.25,mi,"TEMP, PRECIP, SNOW",,,"MMTS, SRG, SNOWBOARD",,,WFO CHS,,,,,,,,,,,,,,,,,,,,,,,,,,,30.13,62,67,0.00,,+0.01,7,84,30.13,SCT:04 10 SCT:04 250,30.08,10.00,64,170,,7,,,,,,,,,,,,,,,,,,,,,,,,,,,,,,,,,,,,,SYN076AAXX  26154 72208 32466 41706 10194 20167 30187 40202 57004 91456 555 92615;MET11101/26/12 09:56:02 METAR KCHS 261456Z 17006KT 10SM SCT010 SCT250 19/17 A3013 RMK AO2 SLP202 T01940167 57004 (DD),,,,,,,,,,,,,,,,,,,,,,,,,,,,
72208013880,2012-02-04T09:56:00,SY-MT,7,,SE,0.25,mi,"TEMP, PRECIP, SNOW",,,"MMTS, SRG, SNOWBOARD",,,WFO CHS,,,,,,,,,,,,,,,,,,,,,,,,,,,30.29,52,59,0.00,HZ:7 ||HZ,+0.00,8,78,30.29,SCT:04 45 BKN:07 60,30.24,5.00,55,090,,3,,,,,,,,,,,,,,,,,,,,,,,,,,,,,,,,,,,,,SYN082AAXX  04154 72208 31658 60903 10150 20111 30241 40257 58001 705// 91456 555 90415;MET11402/04/12 09:56:02 METAR KCHS 041456Z 09003KT 5SM HZ SCT045 BKN060 15/11 A3029 RMK AO2 SLP257 T01500111 58001 (KLL),,,,,,,,,,,,,,,,,,,,,,,,,,,,
72208013880,2012-02-05T09:56:00,SY-MT,7,,SE,0.25,mi,"TEMP, PRECIP, SNOW",,,"MMTS, SRG, SNOWBOARD",,,WFO CHS,,,,,,,,,,,,,,,,,,,,,,,,,,,30.04,60,69,0.00,,-0.01,0,73,30.04,SCT:04 90,29.99,10.00,64,260,,8,,,,,,,,,,,,,,,,,,,,,,,,,,,,,,,,,,,,,SYN076AAXX  05154 72208 32966 42607 10206 20156 30157 40172 50004 91456 555 90515;MET10502/05/12 09:56:02 METAR KCHS 051456Z 26007KT 10SM SCT090 21/16 A3004 RMK AO2 SLP172 T02060156 50004 (KLL),,,,,,,,,,,,,,,,,,,,,,,,,,,,
72208013880,2012-02-10T09:56:00,FM-15,7,,SE,0.25,mi,"TEMP, PRECIP, SNOW",,,"MMTS, SRG, SNOWBOARD",,,WFO CHS,,,,,,,,,,,,,,,,,,,,,,,,,,,30.18,42,54,T,,-0.01,0,64,30.17,BKN:07 30 BKN:07 40 BKN:07 50,30.13,10.00,48,050,,7,,,,,,,,,,,,,,,,,,,,,,,,,,,,,,,,,,,,,MET13902/10/12 09:56:02 METAR KCHS 101456Z 05006KT 10SM BKN030 BKN040 BKN050 12/06 A3018 RMK AO2 RAB21E55 SLP218 P0000 60000 T01220056 50005 (DD),,,,,,,,,,,,,,,,,,,,,,,,,,,,
72208013880,2012-02-10T10:00:00,FM-12,4,,SE,0.25,mi,"TEMP, PRECIP, SNOW",,,"MMTS, SRG, SNOWBOARD",,,WFO CHS,,,,,,,,,,,,,,,,,,,,,,,,,,,,42,54,,,-0.01,0,64,30.17,,30.13,9.94,48,050,,7,,,,,,,,,,,,,,,,,,,,,,,,,,,,,,,,,,,,,SYN082AAXX  10154 72208 12566 60506 10122 20056 30204 40218 50005 69907 91456 555 91015;,,,,,,,,,,,,,,,,,,,,,,,,,,,,
72208013880,2012-02-11T09:56:00,SY-MT,7,,SE,0.25,mi,"TEMP, PRECIP, SNOW",,,"MMTS, SRG, SNOWBOARD",,,WFO CHS,,,,,,,,,,,,,,,,,,,,,,,,,,,29.83,35,53,0.00,,+0.02,8,51,29.83,,29.78,10.00,45,300,21,11,,,,,,,,,,,,,,,,,,,,,,,,,,,,,,,,,,,,,SYN086AAXX  11154 72208 32966 03010 10117 20017 30086 40101 58006 91456 333 91018 555 91115;MET10502/11/12 09:56:02 METAR KCHS 111456Z 30010G18KT 10SM CLR 12/02 A2983 RMK AO2 SLP101 T01170017 58006 (KLL),,,,,,,,,,,,,,,,,,,,,,,,,,,,
72208013880,2012-02-12T09:56:00,SY-MT,7,,SE,0.25,mi,"TEMP, PRECIP, SNOW",,,"MMTS, SRG, SNOWBOARD",,,WFO CHS,,,,,,,,,,,,,,,,,,,,,,,,,,,30.33,4,34,0.00,,-0.06,0,28,30.33,,30.28,10.00,26,340,23,14,,,,,,,,,,,,,,,,,,,,,,,,,,,,,,,,,,,,,SYN086AAXX  12154 72208 32966 03412 10011 21156 30255 40270 50022 91456 333 91020 555 91215;MET10602/12/12 09:56:02 METAR KCHS 121456Z 34012G20KT 10SM CLR 01/M16 A3033 RMK AO2 SLP270 T00111156 50022 (KLL),,,,,,,,,,,,,,,,,,,,,,,,,,,,
72208013880,2012-02-16T09:56:00,SY-MT,7,,SE,0.25,mi,"TEMP, PRECIP, SNOW",,,"MMTS, SRG, SNOWBOARD",,,WFO CHS,,,,,,,,,,,,,,,,,,,,,,,,,,,30.15,60,69,0.00,,+0.03,8,73,30.15,FEW:02 30 SCT:04 70 OVC:08 150,30.10,10.00,64,160,,9,,,,,,,,,,,,,,,,,,,,,,,,,,,,,,,,,,,,,SYN076AAXX  16154 72208 32566 81608 10206 20156 30194 40209 58009 91456 555 91615;MET11802/16/12 09:56:02 METAR KCHS 161456Z 16008KT 10SM FEW030 SCT070 OVC150 21/16 A3015 RMK AO2 SLP209 T02060156 58009 (DD),,,,,,,,,,,,,,,,,,,,,,,,,,,,
72208013880,2012-02-18T09:56:00,SY-MT,7,,SE,0.25,mi,"TEMP, PRECIP, SNOW",,,"MMTS, SRG, SNOWBOARD",,,WFO CHS,,,,,,,,,,,,,,,,,,,,,,,,,,,30.09,46,61,0.00,,-0.01,0,58,30.09,SCT:04 120,30.04,10.00,53,060,,7,,,,,,,,,,,,,,,,,,,,,,,,,,,,,,,,,,,,,SYN076AAXX  18154 72208 32966 40606 10161 20078 30173 40188 50003 91456 555 91815;MET10502/18/12 09:56:02 METAR KCHS 181456Z 06006KT 10SM SCT120 16/08 A3009 RMK AO2 SLP188 T01610078 50003 (KLL),,,,,,,,,,,,,,,,,,,,,,,,,,,,
72208013880,2012-02-19T09:56:00,FM-15,7,,SE,0.25,mi,"TEMP, PRECIP, SNOW",,,"MMTS, SRG, SNOWBOARD",,,WFO CHS,,,,,,,,,,,,,,,,,,,,,,,,,,,29.74,59,60,0.02,-RA:02 |RA |RA,+0.07,8,96,29.73,BKN:07 14 OVC:08 21,29.69,8.00,59,130,,9,,,,,,,,,,,,,,,,,,,,,,,,,,,,,,,,,,,,,MET12902/19/12 09:56:02 METAR KCHS 191456Z 13008KT 8SM -RA BKN014 OVC021 16/15 A2974 RMK AO2 SLP069 P0002 60005 T01560150 58023 $ (KLL),,,,,,,,,,,,,,,,,,,,,,,,,,,,
72208013880,2012-02-19T10:00:00,FM-12,4,,SE,0.25,mi,"TEMP, PRECIP, SNOW",,,"MMTS, SRG, SNOWBOARD",,,WFO CHS,,,,,,,,,,,,,,,,,,,,,,,,,,,,59,60,,||RA,+0.07,8,96,29.73,,29.69,7.46,59,130,,9,,,,,,,,,,,,,,,,,,,,,,,,,,,,,,,,,,,,,SYN088AAXX  19154 72208 11462 81308 10156 20150 30055 40069 58023 60017 761// 91456 555 91915;,,,,,,,,,,,,,,,,,,,,,,,,,,,,
72208013880,2012-02-21T09:56:00,SY-MT,7,,SE,0.25,mi,"TEMP, PRECIP, SNOW",,,"MMTS, SRG, SNOWBOARD",,,WFO CHS,,,,,,,,,,,,,,,,,,,,,,,,,,,30.30,41,53,0.00,,-0.04,0,64,30.30,SCT:04 60 SCT:04 75 BKN:07 200,30.25,10.00,47,080,,6,,,,,,,,,,,,,,,,,,,,,,,,,,,,,,,,,,,,,SYN076AAXX  21154 72208 32766 60805 10117 20050 30244 40261 50013 91456 555 92115;MET11802/21/12 09:56:02 METAR KCHS 211456Z 08005KT 10SM SCT060 SCT075 BKN200 12/05 A3030 RMK AO2 SLP261 T01170050 50013 (DD),,,,,,,,,,,,,,,,,,,,,,,,,,,,
72208013880,2012-02-22T09:56:00,SY-MT,7,,SE,0.25,mi,"TEMP, PRECIP, SNOW",,,"MMTS, SRG, SNOWBOARD",,,WFO CHS,,,,,,,,,,,,,,,,,,,,,,,,,,,30.03,52,64,0.00,,+0.02,8,65,30.03,FEW:02 250,29.98,10.00,57,250,,8,,,,,,,,,,,,,,,,,,,,,,,,,,,,,,,,,,,,,SYN076AAXX  22154 72208 32966 22507 10178 20111 30153 40168 58006 91456 555 92215;MET10402/22/12 09:56:02 METAR KCHS 221456Z 25007KT 10SM FEW250 18/11 A3003 RMK AO2 SLP168 T01780111 58006 (DD),,,,,,,,,,,,,,,,,,,,,,,,,,,,
72208013880,2012-02-26T09:56:00,FM-15,7,,SE,0.25,mi,"TEMP, PRECIP, SNOW",,,"MMTS, SRG, SNOWBOARD",,,WFO CHS,,,,,,,,,,,,,,,,,,,,,,,,,,,30.49,26,46,0.00,,-0.06,0,46,30.49,BKN:07 140,30.44,10.00,38,090,,13,,,,,,,,,,,,,,,,,,,,,,,,,,,,,,,,,,,,,MET10602/26/12 09:56:02 METAR KCHS 261456Z 09011KT 10SM BKN140 08/M03 A3049 RMK AO2 SLP325 T00781033 50019 (KLL),,,,,,,,,,,,,,,,,,,,,,,,,,,,
72208013880,2012-02-26T10:00:00,FM-12,4,,SE,0.25,mi,"TEMP, PRECIP, SNOW",,,"MMTS, SRG, SNOWBOARD",,,WFO CHS,,,,,,,,,,,,,,,,,,,,,,,,,,,,26,46,,,-0.06,0,46,30.49,,30.44,9.94,38,090,,13,,,,,,,,,,,,,,,,,,,,,,,,,,,,,,,,,,,,,SYN076AAXX  26154 72208 32966 60911 10078 21033 30309 40325 50019 91456 555 92615;,,,,,,,,,,,,,,,,,,,,,,,,,,,,
72208013880,2012-02-29T09:56:00,SY-MT,7,,SE,0.25,mi,"TEMP, PRECIP, SNOW",,,"MMTS, SRG, SNOWBOARD",,,WFO CHS,,,,,,,,,,,,,,,,,,,,,,,,,,,30.21,63,70,0.00,,+0.01,8,79,30.20,FEW:02 20 SCT:04 60 BKN:07 250,30.16,10.00,66,190,,9,,,,,,,,,,,,,,,,,,,,,,,,,,,,,,,,,,,,,SYN076AAXX  29154 72208 32566 61908 10211 20172 30214 40228 58003 91456 555 92915;MET11802/29/12 09:56:02 METAR KCHS 291456Z 19008KT 10SM FEW020 SCT060 BKN250 21/17 A3021 RMK AO2 SLP228 T02110172 58003 (DD),,,,,,,,,,,,,,,,,,,,,,,,,,,,
72208013880,2012-03-01T09:56:00,SY-MT,7,,SE,0.25,mi,"TEMP, PRECIP, SNOW",,,"MMTS, SRG, SNOWBOARD",,,WFO CHS,,,,,,,,,,,,,,,,,,,,,,,,,,,29.99,65,67,0.04,,-0.02,0,93,29.99,FEW:02 70 BKN:07 110,29.94,10.00,66,200,,9,,,,,,,,,,,,,,,,,,,,,,,,,,,,,,,,,,,,,SYN082AAXX  01154 72208 12866 62008 10194 20183 30140 40155 50008 60017 91456 555 90115;MET12903/01/12 09:56:02 METAR KCHS 011456Z 20008KT 10SM FEW070 BKN110 19/18 A2999 RMK AO2 RAE35 SLP155 P0004 60005 T01940183 50008 (DD),,,,,,,,,,,,,,,,,,,,,,,,,,,,
72208013880,2012-03-03T09:56:00,FM-15,7,,SE,0.25,mi,"TEMP, PRECIP, SNOW",,,"MMTS, SRG, SNOWBOARD",,,WFO CHS,,,,,,,,,,,,,,,,,,,,,,,,,,,29.80,63,70,0.00,,+0.01,8,79,29.79,SCT:04 15 BKN:07 120,29.75,10.00,66,220,,10,,,,,,,,,,,,,,,,,,,,,,,,,,,,,,,,,,,,,MET11203/03/12 09:56:02 METAR KCHS 031456Z 22009KT 10SM SCT015 BKN120 21/17 A2980 RMK AO2 SLP089 T02110172 58005 (KLL),,,,,,,,,,,,,,,,,,,,,,,,,,,,
72208013880,2012-03-03T10:00:00,SY-MT,4,,SE,0.25,mi,"TEMP, PRECIP, SNOW",,,"MMTS, SRG, SNOWBOARD",,,WFO CHS,,,,,,,,,,,,,,,,,,,,,,,,,,,29.80,63,70,,,+0.01,8,79,29.79,,29.75,9.94,66,220,,10,,,,,,,,,,,,,,,,,,,,,,,,,,,,,,,,,,,,,SYN076AAXX  03154 72208 32466 62209 10211 20172 30075 40089 58005 91456 555 90315;MET081METAR KCHS 031456Z 22009KT 9SM SCT015 21/17 A2980 RMK AO2 SLP089 T02110172 58005;,,,,,,,,,,,,,,,,,,,,,,,,,,,,
72208013880,2012-03-08T09:56:00,FM-15,7,,SE,0.25,mi,"TEMP, PRECIP, SNOW",,,"MMTS, SRG, SNOWBOARD",,,WFO CHS,,,,,,,,,,,,,,,,,,,,,,,,,,,30.39,59,67,0.00,,+0.02,8,76,30.38,FEW:02 35 SCT:04 70,30.34,10.00,62,130,,10,,,,,,,,,,,,,,,,,,,,,,,,,,,,,,,,,,,,,MET11703/08/12 09:56:02 METAR KCHS 081456Z 13009KT 10SM FEW035 SCT070 19/15 A3039 RMK AO2 SLP289 60000 T01940150 58006 (DD),,,,,,,,,,,,,,,,,,,,,,,,,,,,
72208013880,2012-03-08T10:00:00,FM-12,4,,SE,0.25,mi,"TEMP, PRECIP, SNOW",,,"MMTS, SRG, SNOWBOARD",,,WFO CHS,,,,,,,,,,,,,,,,,,,,,,,,,,,,59,67,,,+0.02,8,76,30.38,,30.34,9.94,62,130,,10,,,,,,,,,,,,,,,,,,,,,,,,,,,,,,,,,,,,,SYN082AAXX  08154 72208 12666 41309 10194 20150 30275 40289 58006 69907 91456 555 90815;,,,,,,,,,,,,,,,,,,,,,,,,,,,,
72208013880,2012-03-09T09:56:00,SY-MT,7,,SE,0.25,mi,"TEMP, PRECIP, SNOW",,,"MMTS, SRG, SNOWBOARD",,,WFO CHS,,,,,,,,,,,,,,,,,,,,,,,,,,,30.17,62,68,0.00,,-0.00,0,81,30.17,SCT:04 90 OVC:08 200,30.12,10.00,64,230,,8,,,,,,,,,,,,,,,,,,,,,,,,,,,,,,,,,,,,,SYN076AAXX  09154 72208 32966 82307 10200 20167 30201 40216 50000 91456 555 90915;MET11103/09/12 09:56:02 METAR KCHS 091456Z 23007KT 10SM SCT090 OVC200 20/17 A3017 RMK AO2 SLP216 T02000167 50000 (DD),,,,,,,,,,,,,,,,,,,,,,,,,,,,
72208013880,2012-03-12T09:56:00,SY-MT,7,,SE,0.25,mi,"TEMP, PRECIP, SNOW",,,"MMTS, SRG, SNOWBOARD",,,WFO CHS,,,,,,,,,,,,,,,,,,,,,,,,,,,30.41,51,69,0.00,,-0.01,0,53,30.41,FEW:02 40 SCT:04 100,30.36,10.00,59,100,,10,,,,,,,,,,,,,,,,,,,,,,,,,,,,,,,,,,,,,SYN076AAXX  12154 72208 32666 41009 10206 20106 30282 40297 50004 91456 555 91215;MET11103/12/12 09:56:02 METAR KCHS 121456Z 10009KT 10SM FEW040 SCT100 21/11 A3041 RMK AO2 SLP297 T02060106 50004 (DD),,,,,,,,,,,,,,,,,,,,,,,,,,,,
72208013880,2012-03-13T09:56:00,SY-MT,7,,SE,0.25,mi,"TEMP, PRECIP, SNOW",,,"MMTS, SRG, SNOWBOARD",,,WFO CHS,,,,,,,,,,,,,,,,,,,,,,,,,,,30.31,59,66,T,-RA:02 |RA |RA,-0.01,0,78,30.31,FEW:02 35 BKN:07 50 BKN:07 65,30.26,10.00,62,230,,7,,,,,,,,,,,,,,,,,,,,,,,,,,,,,,,,,,,,,SYN088AAXX  13154 72208 11666 62306 10189 20150 30248 40263 50005 69937 761// 91456 555 91315;MET14003/13/12 09:56:02 METAR KCHS 131456Z 23006KT 10SM -RA FEW035 BKN050 BKN065 19/15 A3031 RMK AO2 RAB53 SLP263 P0000 60001 T01890150 50005 (DD),,,,,,,,,,,,,,,,,,,,,,,,,,,,
72208013880,2012-03-15T09:56:00,SY-MT,7,,SE,0.25,mi,"TEMP, PRECIP, SNOW",,,"MMTS, SRG, SNOWBOARD",,,WFO CHS,,,,,,,,,,,,,,,,,,,,,,,,,,,30.32,61,74,0.00,,-0.03,0,64,30.31,FEW:02 250,30.27,10.00,66,250,,8,,,,,,,,,,,,,,,,,,,,,,,,,,,,,,,,,,,,,SYN076AAXX  15154 72208 32966 22507 10233 20161 30251 40265 50009 91456 555 91515;MET10403/15/12 09:56:02 METAR KCHS 151456Z 25007KT 10SM FEW250 23/16 A3032 RMK AO2 SLP265 T02330161 50009 (DD),,,,,,,,,,,,,,,,,,,,,,,,,,,,
72208013880,2012-03-20T09:56:00,SY-MT,7,,SE,0.25,mi,"TEMP, PRECIP, SNOW",,,"MMTS, SRG, SNOWBOARD",,,WFO CHS,,,,,,,,,,,,,,,,,,,,,,,,,,,30.23,64,75,0.00,,-0.03,0,69,30.22,FEW:02 20,30.18,10.00,68,110,,3,,,,,,,,,,,,,,,,,,,,,,,,,,,,,,,,,,,,,SYN076AAXX  20154 72208 32566 21103 10239 20178 30221 40234 50010 91456 555 92015;MET10403/20/12 09:56:02 METAR KCHS 201456Z 11003KT 10SM FEW020 24/18 A3023 RMK AO2 SLP234 T02390178 50010 (DD),,,,,,,,,,,,,,,,,,,,,,,,,,,,
72208013880,2012-03-23T09:56:00,FM-15,7,,SE,0.25,mi,"TEMP, PRECIP, SNOW",,,"MMTS, SRG, SNOWBOARD",,,WFO CHS,,,,,,,,,,,,,,,,,,,,,,,,,,,30.15,65,75,0.00,,-0.00,0,71,30.15,SCT:04 20 BKN:07 35,30.10,10.00,69,220,,7,,,,,,,,,,,,,,,,,,,,,,,,,,,,,,,,,,,,,MET11103/23/12 09:56:02 METAR KCHS 231456Z 22006KT 10SM SCT020 BKN035 24/18 A3015 RMK AO2 SLP209 T02390183 50000 (DD),,,,,,,,,,,,,,,,,,,,,,,,,,,,
72208013880,2012-03-23T10:00:00,FM-12,4,,SE,0.25,mi,"TEMP, PRECIP, SNOW",,,"MMTS, SRG, SNOWBOARD",,,WFO CHS,,,,,,,,,,,,,,,,,,,,,,,,,,,,65,75,,,-0.00,0,71,30.15,,30.10,9.94,69,220,,7,,,,,,,,,,,,,,,,,,,,,,,,,,,,,,,,,,,,,SYN076AAXX  23154 72208 32566 62206 10239 20183 30194 40209 50000 91456 555 92315;,,,,,,,,,,,,,,,,,,,,,,,,,,,,
72208013880,2012-03-24T09:56:00,SY-MT,7,,SE,0.25,mi,"TEMP, PRECIP, SNOW",,,"MMTS, SRG, SNOWBOARD",,,WFO CHS,,,,,,,,,,,,,,,,,,,,,,,,,,,29.96,67,73,0.00,,+0.00,8,81,29.96,BKN:07 12,29.91,10.00,69,230,,11,,,,,,,,,,,,,,,,,,,,,,,,,,,,,,,,,,,,,SYN076AAXX  24154 72208 32466 62310 10228 20194 30129 40144 58001 91456 555 92415;MET10503/24/12 09:56:02 METAR KCHS 241456Z 23010KT 10SM BKN012 23/19 A2996 RMK AO2 SLP144 T02280194 58001 (KLL),,,,,,,,,,,,,,,,,,,,,,,,,,,,
72208013880,2012-03-25T09:56:00,FM-15,7,,SE,0.25,mi,"TEMP, PRECIP, SNOW",,,"MMTS, SRG, SNOWBOARD",,,WFO CHS,,,,,,,,,,,,,,,,,,,,,,,,,,,29.77,49,65,0.00,,-0.01,0,56,29.77,FEW:02 170,29.72,10.00,56,290,16,7,,,,,,,,,,,,,,,,,,,,,,,,,,,,,,,,,,,,,MET10803/25/12 09:56:02 METAR KCHS 251456Z 29006G14KT 10SM FEW170 18/09 A2977 RMK AO2 SLP081 T01830094 50003 (KLL),,,,,,,,,,,,,,,,,,,,,,,,,,,,
72208013880,2012-03-25T10:00:00,FM-12,4,,SE,0.25,mi,"TEMP, PRECIP, SNOW",,,"MMTS, SRG, SNOWBOARD",,,WFO CHS,,,,,,,,,,,,,,,,,,,,,,,,,,,,49,65,,,-0.01,0,56,29.77,,29.72,9.94,56,290,16,7,,,,,,,,,,,,,,,,,,,,,,,,,,,,,,,,,,,,,SYN086AAXX  25154 72208 32966 22906 10183 20094 30065 40081 50003 91456 333 91014 555 92515;,,,,,,,,,,,,,,,,,,,,,,,,,,,,
72208013880,2012-03-28T09:56:00,FM-15,7,,SE,0.25,mi,"TEMP, PRECIP, SNOW",,,"MMTS, SRG, SNOWBOARD",,,WFO CHS,,,,,,,,,,,,,,,,,,,,,,,,,,,30.22,61,74,0.00,,-0.01,0,64,30.22,SCT:04 30 SCT:04 250,30.17,10.00,66,220,,14,,,,,,,,,,,,,,,,,,,,,,,,,,,,,,,,,,,,,MET11103/28/12 09:56:02 METAR KCHS 281456Z 22012KT 10SM SCT030 SCT250 23/16 A3022 RMK AO2 SLP234 T02330161 50004 (DD),,,,,,,,,,,,,,,,,,,,,,,,,,,,
72208013880,2012-03-28T10:00:00,FM-12,4,,SE,0.25,mi,"TEMP, PRECIP, SNOW",,,"MMTS, SRG, SNOWBOARD",,,WFO CHS,,,,,,,,,,,,,,,,,,,,,,,,,,,,61,74,,,-0.01,0,64,30.22,,30.17,9.94,66,220,,14,,,,,,,,,,,,,,,,,,,,,,,,,,,,,,,,,,,,,SYN076AAXX  28154 72208 32566 42212 10233 20161 30217 40234 50004 91456 555 92815;,,,,,,,,,,,,,,,,,,,,,,,,,,,,
72208013880,2012-03-29T09:56:00,FM-15,7,,SE,0.25,mi,"TEMP, PRECIP, SNOW",,,"MMTS, SRG, SNOWBOARD",,,WFO CHS,,,,,,,,,,,,,,,,,,,,,,,,,,,29.98,56,78,0.00,,+0.00,8,47,29.98,SCT:04 250,29.93,10.00,65,280,,13,,,,,,,,,,,,,,,,,,,,,,,,,,,,,,,,,,,,,MET10403/29/12 09:56:02 METAR KCHS 291456Z 28011KT 10SM SCT250 26/13 A2998 RMK AO2 SLP153 T02560133 58001 (DD),,,,,,,,,,,,,,,,,,,,,,,,,,,,
72208013880,2012-03-29T10:00:00,FM-12,4,,SE,0.25,mi,"TEMP, PRECIP, SNOW",,,"MMTS, SRG, SNOWBOARD",,,WFO CHS,,,,,,,,,,,,,,,,,,,,,,,,,,,,56,78,,,+0.00,8,47,29.98,,29.93,9.94,65,280,,13,,,,,,,,,,,,,,,,,,,,,,,,,,,,,,,,,,,,,SYN076AAXX  29154 72208 32966 42811 10256 20133 30136 40153 58001 91456 555 92915;,,,,,,,,,,,,,,,,,,,,,,,,,,,,
72208013880,2012-03-30T09:56:00,FM-15,7,,SE,0.25,mi,"TEMP, PRECIP, SNOW",,,"MMTS, SRG, SNOWBOARD",,,WFO CHS,,,,,,,,,,,,,,,,,,,,,,,,,,,30.02,58,79,0.00,,-0.03,0,49,30.01,FEW:02 180 SCT:04 250,29.97,10.00,66,VRB,,3,,,,,,,,,,,,,,,,,,,,,,,,,,,,,,,,,,,,,MET11103/30/12 09:56:02 METAR KCHS 301456Z VRB03KT 10SM FEW180 SCT250 26/14 A3002 RMK AO2 SLP163 T02610144 50011 (DK),,,,,,,,,,,,,,,,,,,,,,,,,,,,
72208013880,2012-03-30T10:00:00,FM-12,4,,SE,0.25,mi,"TEMP, PRECIP, SNOW",,,"MMTS, SRG, SNOWBOARD",,,WFO CHS,,,,,,,,,,,,,,,,,,,,,,,,,,,,58,79,,,-0.03,0,49,30.01,,29.97,9.94,66,,,,,,,,,,,,,,,,,,,,,,,,,,,,,,,,,,,,,,,,SYN076AAXX  30154 72208 32966 4//03 10261 20144 30150 40163 50011 91456 555 93015;,,,,,,,,,,,,,,,,,,,,,,,,,,,,
72208013880,2012-03-31T09:56:00,SY-MT,7,,SE,0.25,mi,"TEMP, PRECIP, SNOW",,,"MMTS, SRG, SNOWBOARD",,,WFO CHS,,,,,,,,,,,,,,,,,,,,,,,,,,,29.88,62,75,0.00,,+0.01,8,64,29.88,FEW:02 27 SCT:04 60 BKN:07 70,29.83,10.00,67,240,18,10,,,,,,,,,,,,,,,,,,,,,,,,,,,,,,,,,,,,,SYN086AAXX  31154 72208 32566 62409 10239 20167 30102 40117 58004 91456 333 91016 555 93115;MET12403/31/12 09:56:02 METAR KCHS 311456Z 24009G16KT 10SM FEW027 SCT060 BKN070 24/17 A2988 RMK AO2 SLP117 T02390167 58004 $ (KLL),,,,,,,,,,,,,,,,,,,,,,,,,,,,
72208013880,2012-04-02T09:56:00,SY-MT,7,,SE,0.25,mi,"TEMP, PRECIP, SNOW",,,"MMTS, SRG, SNOWBOARD",,,WFO CHS,,,,,,,,,,,,,,,,,,,,,,,,,,,29.79,63,81,0.00,,+0.01,8,54,29.79,,29.74,10.00,69,290,18,13,,,,,,,,,,,,,,,,,,,,,,,,,,,,,,,,,,,,,SYN086AAXX  02154 72208 32966 02911 10272 20172 30072 40088 58003 91456 333 91016 555 90215;MET10404/02/12 09:56:02 METAR KCHS 021456Z 29011G16KT 10SM CLR 27/17 A2979 RMK AO2 SLP088 T02720172 58003 (DK),,,,,,,,,,,,,,,,,,,,,,,,,,,,
72208013880,2012-04-04T09:56:00,FM-15,7,,SE,0.25,mi,"TEMP, PRECIP, SNOW",,,"MMTS, SRG, SNOWBOARD",,,WFO CHS,,,,,,,,,,,,,,,,,,,,,,,,,,,29.86,65,70,0.00,,-0.01,0,84,29.86,SCT:04 8 BKN:07 11,29.81,10.00,67,250,,7,,,,,,,,,,,,,,,,,,,,,,,,,,,,,,,,,,,,,MET11204/04/12 09:56:02 METAR KCHS 041456Z 25006KT 10SM SCT008 BKN011 21/18 A2986 RMK AO2 SLP112 T02110183 50003 (JRS),,,,,,,,,,,,,,,,,,,,,,,,,,,,
72208013880,2012-04-04T10:00:00,FM-12,4,,SE,0.25,mi,"TEMP, PRECIP, SNOW",,,"MMTS, SRG, SNOWBOARD",,,WFO CHS,,,,,,,,,,,,,,,,,,,,,,,,,,,,65,70,,,-0.01,0,84,29.86,,29.81,9.94,67,250,,7,,,,,,,,,,,,,,,,,,,,,,,,,,,,,,,,,,,,,SYN076AAXX  04154 72208 32366 62506 10211 20183 30096 40112 50003 91456 555 90415;,,,,,,,,,,,,,,,,,,,,,,,,,,,,
72208013880,2012-04-08T09:56:00,SY-MT,7,,SE,0.25,mi,"TEMP, PRECIP, SNOW",,,"MMTS, SRG, SNOWBOARD",,,WFO CHS,,,,,,,,,,,,,,,,,,,,,,,,,,,30.18,46,70,0.00,,+0.03,8,42,30.17,FEW:02 250,30.13,10.00,57,260,,9,,,,,,,,,,,,,,,,,,,,,,,,,,,,,,,,,,,,,SYN076AAXX  08154 72208 32966 22608 10211 20078 30204 40217 58009 91456 555 90815;MET10504/08/12 09:56:02 METAR KCHS 081456Z 26008KT 10SM FEW250 21/08 A3018 RMK AO2 SLP217 T02110078 58009 (KLL),,,,,,,,,,,,,,,,,,,,,,,,,,,,
72208013880,2012-04-10T09:56:00,SY-MT,7,,SE,0.25,mi,"TEMP, PRECIP, SNOW",,,"MMTS, SRG, SNOWBOARD",,,WFO CHS,,,,,,,,,,,,,,,,,,,,,,,,,,,30.05,40,71,0.00,,-0.03,0,32,30.05,FEW:02 250,30.00,10.00,55,320,,11,,,,,,,,,,,,,,,,,,,,,,,,,,,,,,,,,,,,,SYN076AAXX  10154 72208 32966 23210 10217 20044 30160 40176 50010 91456 555 91015;MET10404/10/12 09:56:02 METAR KCHS 101456Z 32010KT 10SM FEW250 22/04 A3005 RMK AO2 SLP176 T02170044 50010 (DD),,,,,,,,,,,,,,,,,,,,,,,,,,,,
72208013880,2012-04-17T09:56:00,SY-MT,7,,SE,0.25,mi,"TEMP, PRECIP, SNOW",,,"MMTS, SRG, SNOWBOARD",,,WFO CHS,,,,,,,,,,,,,,,,,,,,,,,,,,,30.22,62,77,0.00,,-0.00,0,60,30.22,FEW:02 35 SCT:04 60,30.17,10.00,68,260,,8,,,,,,,,,,,,,,,,,,,,,,,,,,,,,,,,,,,,,SYN076AAXX  17154 72208 32666 42607 10250 20167 30217 40232 50001 91456 555 91715;MET11104/17/12 09:56:02 METAR KCHS 171456Z 26007KT 10SM FEW035 SCT060 25/17 A3022 RMK AO2 SLP232 T02500167 50001 (DD),,,,,,,,,,,,,,,,,,,,,,,,,,,,
72208013880,2012-04-18T09:56:00,SY-MT,7,,SE,0.25,mi,"TEMP, PRECIP, SNOW",,,"MMTS, SRG, SNOWBOARD",,,WFO CHS,,,,,,,,,,,,,,,,,,,,,,,,,,,30.10,61,75,0.00,,+0.01,8,62,30.09,SCT:04 30 SCT:04 60 BKN:07 180,30.05,10.00,66,200,,11,,,,,,,,,,,,,,,,,,,,,,,,,,,,,,,,,,,,,SYN076AAXX  18154 72208 32566 62010 10239 20161 30177 40190 58002 91456 555 91815;MET11804/18/12 09:56:02 METAR KCHS 181456Z 20010KT 10SM SCT030 SCT060 BKN180 24/16 A3010 RMK AO2 SLP190 T02390161 58002 (DD),,,,,,,,,,,,,,,,,,,,,,,,,,,,
72208013880,2012-04-22T09:56:00,SY-MT,7,,SE,0.25,mi,"TEMP, PRECIP, SNOW",,,"MMTS, SRG, SNOWBOARD",,,WFO CHS,,,,,,,,,,,,,,,,,,,,,,,,,,,29.49,64,67,0.03,-RA:02 BR:1 |RA |RA,+0.04,6,91,29.49,SCT:04 16 BKN:07 33 OVC:08 41,29.44,4.00,65,020,,3,,,,,,,,,,,,,,,,,,,,,,,,,,,,,,,,,,,,,SYN098AAXX  22154 72208 11456 80203 10194 20178 39971 49986 56015 60027 761// 91456 333 96010 555 92215;MET14304/22/12 09:56:02 METAR KCHS 221456Z 02003KT 4SM -RA BR SCT016 BKN033 OVC041 19/18 A2949 RMK AO2 RAB35 SLP986 P0003 60008 T01940178 56015 (KLL),,,,,,,,,,,,,,,,,,,,,,,,,,,,
72208013880,2012-04-24T09:56:00,SY-MT,7,,SE,0.25,mi,"TEMP, PRECIP, SNOW",,,"MMTS, SRG, SNOWBOARD",,,WFO CHS,,,,,,,,,,,,,,,,,,,,,,,,,,,29.89,32,62,0.00,,-0.02,0,32,29.89,,29.84,10.00,48,260,20,11,,,,,,,,,,,,,,,,,,,,,,,,,,,,,,,,,,,,,SYN086AAXX  24154 72208 32966 02610 10167 20000 30106 40121 50006 91456 333 91017 555 92415;MET10404/24/12 09:56:02 METAR KCHS 241456Z 26010G17KT 10SM CLR 17/00 A2989 RMK AO2 SLP121 T01670000 50006 (DD),,,,,,,,,,,,,,,,,,,,,,,,,,,,
72208013880,2012-04-29T09:56:00,FM-15,7,,SE,0.25,mi,"TEMP, PRECIP, SNOW",,,"MMTS, SRG, SNOWBOARD",,,WFO CHS,,,,,,,,,,,,,,,,,,,,,,,,,,,30.16,65,81,0.00,,-0.01,0,58,30.15,,30.11,10.00,71,300,,6,,,,,,,,,,,,,,,,,,,,,,,,,,,,,,,,,,,,,MET10204/29/12 09:56:02 METAR KCHS 291456Z 30005KT 10SM CLR 27/18 A3016 RMK AO2 SLP211 T02720183 50002 (KLL),,,,,,,,,,,,,,,,,,,,,,,,,,,,
72208013880,2012-04-29T10:00:00,FM-12,4,,SE,0.25,mi,"TEMP, PRECIP, SNOW",,,"MMTS, SRG, SNOWBOARD",,,WFO CHS,,,,,,,,,,,,,,,,,,,,,,,,,,,,65,81,,,-0.01,0,58,30.15,CLR:00,30.11,9.94,71,300,,6,,,,,,,,,,,,,,,,,,,,,,,,,,,,,,,,,,,,,SYN076AAXX  29154 72208 32966 03005 10272 20183 30197 40211 50002 91456 555 92915;,,,,,,,,,,,,,,,,,,,,,,,,,,,,
72208013880,2012-05-01T09:56:00,FM-15,7,,SE,0.25,mi,"TEMP, PRECIP, SNOW",,,"MMTS, SRG, SNOWBOARD",,,WFO CHS,,,,,,,,,,,,,,,,,,,,,,,,,,,30.21,64,79,0.00,,-0.00,0,60,30.20,SCT:04 35,30.16,10.00,69,200,,5,,,,,,,,,,,,,,,,,,,,,,,,,,,,,,,,,,,,,MET10405/01/12 09:56:02 METAR KCHS 011456Z 20004KT 10SM SCT035 26/18 A3021 RMK AO2 SLP228 T02610178 50001 (DD),,,,,,,,,,,,,,,,,,,,,,,,,,,,
72208013880,2012-05-01T10:00:00,FM-12,4,,SE,0.25,mi,"TEMP, PRECIP, SNOW",,,"MMTS, SRG, SNOWBOARD",,,WFO CHS,,,,,,,,,,,,,,,,,,,,,,,,,,,,64,79,,,-0.00,0,60,30.20,,30.16,9.94,69,200,,5,,,,,,,,,,,,,,,,,,,,,,,,,,,,,,,,,,,,,SYN076AAXX  01154 72208 32666 42004 10261 20178 30214 40228 50001 91456 555 90115;,,,,,,,,,,,,,,,,,,,,,,,,,,,,
72208013880,2012-05-08T09:56:00,SY-MT,7,,SE,0.25,mi,"TEMP, PRECIP, SNOW",,,"MMTS, SRG, SNOWBOARD",,,WFO CHS,,,,,,,,,,,,,,,,,,,,,,,,,,,29.98,62,77,0.00,,+0.01,8,60,29.97,SCT:04 35,29.93,10.00,68,160,,9,,,,,,,,,,,,,,,,,,,,,,,,,,,,,,,,,,,,,SYN076AAXX  08154 72208 32666 41608 10250 20167 30136 40150 58002 91456 555 90815;MET10405/08/12 09:56:02 METAR KCHS 081456Z 16008KT 10SM SCT035 25/17 A2998 RMK AO2 SLP150 T02500167 58002 (DD),,,,,,,,,,,,,,,,,,,,,,,,,,,,
72208013880,2012-05-12T09:56:00,SY-MT,7,,SE,0.25,mi,"TEMP, PRECIP, SNOW",,,"MMTS, SRG, SNOWBOARD",,,WFO CHS,,,,,,,,,,,,,,,,,,,,,,,,,,,30.33,51,77,0.00,,-0.04,0,40,30.32,FEW:02 47 SCT:04 130,30.28,10.00,62,090,,9,,,,,,,,,,,,,,,,,,,,,,,,,,,,,,,,,,,,,SYN076AAXX  12154 72208 32666 40908 10250 20106 30255 40269 50012 91456 555 91215;MET11205/12/12 09:56:02 METAR KCHS 121456Z 09008KT 10SM FEW047 SCT130 25/11 A3033 RMK AO2 SLP269 T02500106 50012 (KLL),,,,,,,,,,,,,,,,,,,,,,,,,,,,
72208013880,2012-05-13T09:56:00,FM-15,7,,SE,0.25,mi,"TEMP, PRECIP, SNOW",,,"MMTS, SRG, SNOWBOARD",,,WFO CHS,,,,,,,,,,,,,,,,,,,,,,,,,,,30.22,64,69,T,,+0.00,8,84,30.22,BKN:07 40 OVC:08 50,30.17,10.00,66,120,,6,,,,,,,,,,,,,,,,,,,,,,,,,,,,,,,,,,,,,MET13305/13/12 09:56:02 METAR KCHS 131456Z 12005KT 10SM BKN040 OVC050 21/18 A3022 RMK AO2 RAB04E46 SLP233 P0000 60000 T02060178 58000 (KLL),,,,,,,,,,,,,,,,,,,,,,,,,,,,
72208013880,2012-05-13T10:00:00,FM-12,4,,SE,0.25,mi,"TEMP, PRECIP, SNOW",,,"MMTS, SRG, SNOWBOARD",,,WFO CHS,,,,,,,,,,,,,,,,,,,,,,,,,,,,64,69,,,0.00,4,84,30.22,,30.17,9.94,66,120,,6,,,,,,,,,,,,,,,,,,,,,,,,,,,,,,,,,,,,,SYN082AAXX  13154 72208 12666 81205 10206 20178 30217 40233 58000 69907 91456 555 91315;,,,,,,,,,,,,,,,,,,,,,,,,,,,,
72208013880,2012-05-16T09:56:00,SY-MT,7,,SE,0.25,mi,"TEMP, PRECIP, SNOW",,,"MMTS, SRG, SNOWBOARD",,,WFO CHS,,,,,,,,,,,,,,,,,,,,,,,,,,,29.97,67,79,0.00,,+0.00,8,67,29.96,FEW:02 30 BKN:07 200,29.92,10.00,71,310,,6,,,,,,,,,,,,,,,,,,,,,,,,,,,,,,,,,,,,,SYN076AAXX  16154 72208 32566 63105 10261 20194 30133 40146 58001 91456 555 91615;MET11105/16/12 09:56:02 METAR KCHS 161456Z 31005KT 10SM FEW030 BKN200 26/19 A2997 RMK AO2 SLP146 T02610194 58001 (DD),,,,,,,,,,,,,,,,,,,,,,,,,,,,
72208013880,2012-05-17T09:56:00,SY-MT,7,,SE,0.25,mi,"TEMP, PRECIP, SNOW",,,"MMTS, SRG, SNOWBOARD",,,WFO CHS,,,,,,,,,,,,,,,,,,,,,,,,,,,29.95,67,78,0.00,,-0.01,0,69,29.94,FEW:02 20 SCT:04 50 SCT:04 150,29.90,10.00,71,000,,0,,,,,,,,,,,,,,,,,,,,,,,,,,,,,,,,,,,,,SYN076AAXX  17154 72208 32566 40000 10256 20194 30126 40140 50003 91456 555 91715;MET12005/17/12 09:56:02 METAR KCHS 171456Z 00000KT 10SM FEW020 SCT050 SCT150 26/19 A2995 RMK AO2 SLP140 T02560194 50003 $ (DD),,,,,,,,,,,,,,,,,,,,,,,,,,,,
72208013880,2012-05-19T09:56:00,SY-MT,7,,SE,0.25,mi,"TEMP, PRECIP, SNOW",,,"MMTS, SRG, SNOWBOARD",,,WFO CHS,,,,,,,,,,,,,,,,,,,,,,,,,,,30.07,43,68,0.00,,-0.03,0,40,30.06,SCT:04 40 SCT:04 50 BKN:07 100,30.02,10.00,55,010,,16,,,,,,,,,,,,,,,,,,,,,,,,,,,,,,,,,,,,,SYN076AAXX  19154 72208 32666 60114 10200 20061 30167 40181 50009 91456 555 91915;MET11905/19/12 09:56:02 METAR KCHS 191456Z 01014KT 10SM SCT040 SCT050 BKN100 20/06 A3007 RMK AO2 SLP181 T02000061 50009 (KLL),,,,,,,,,,,,,,,,,,,,,,,,,,,,
72208013880,2012-05-20T09:56:00,SY-MT,7,,SE,0.25,mi,"TEMP, PRECIP, SNOW",,,"MMTS, SRG, SNOWBOARD",,,WFO CHS,,,,,,,,,,,,,,,,,,,,,,,,,,,30.01,49,77,0.00,,-0.00,0,37,30.00,SCT:04 45 SCT:04 70,29.96,10.00,61,030,22,15,,,,,,,,,,,,,,,,,,,,,,,,,,,,,,,,,,,,,SYN086AAXX  20154 72208 32666 40313 10250 20094 30146 40160 50001 91456 333 91019 555 92015;MET11505/20/12 09:56:02 METAR KCHS 201456Z 03013G19KT 10SM SCT045 SCT070 25/09 A3001 RMK AO2 SLP160 T02500094 50001 (KLL),,,,,,,,,,,,,,,,,,,,,,,,,,,,
72208013880,2012-05-21T09:56:00,SY-MT,7,,SE,0.25,mi,"TEMP, PRECIP, SNOW",,,"MMTS, SRG, SNOWBOARD",,,WFO CHS,,,,,,,,,,,,,,,,,,,,,,,,,,,29.99,64,77,0.00,,+0.02,8,64,29.98,SCT:04 25 SCT:04 35,29.94,10.00,69,VRB,,9,,,,,,,,,,,,,,,,,,,,,,,,,,,,,,,,,,,,,SYN076AAXX  21154 72208 32566 43508 10250 20178 30140 40154 58007 91456 555 92115;MET11105/21/12 09:56:02 METAR KCHS 211456Z 35008KT 10SM SCT025 SCT035 25/18 A2999 RMK AO2 SLP154 T02500178 58007 (DD),,,,,,,,,,,,,,,,,,,,,,,,,,,,
72208013880,2012-05-22T09:56:00,SY-MT,7,,SE,0.25,mi,"TEMP, PRECIP, SNOW",,,"MMTS, SRG, SNOWBOARD",,,WFO CHS,,,,,,,,,,,,,,,,,,,,,,,,,,,29.90,67,82,0.00,,-0.00,0,60,29.90,FEW:02 30 SCT:04 120,29.85,10.00,72,230,,7,,,,,,,,,,,,,,,,,,,,,,,,,,,,,,,,,,,,,SYN076AAXX  22154 72208 32566 42306 10278 20194 30109 40124 50001 91456 555 92215;MET11105/22/12 09:56:02 METAR KCHS 221456Z 23006KT 10SM FEW030 SCT120 28/19 A2990 RMK AO2 SLP124 T02780194 50001 (DD),,,,,,,,,,,,,,,,,,,,,,,,,,,,
72208013880,2012-05-23T09:56:00,SY-MT,7,,SE,0.25,mi,"TEMP, PRECIP, SNOW",,,"MMTS, SRG, SNOWBOARD",,,WFO CHS,,,,,,,,,,,,,,,,,,,,,,,,,,,29.90,65,80,,,-0.02,0,60,29.90,FEW:02 30 SCT:04 180,29.85,10.00,70,180,,10,,,,,,,,,,,,,,,,,,,,,,,,,,,,,,,,,,,,,SYN076AAXX  23154 72208 32566 41809 10267 20183 30109 40126 50007 91456 555 92315;MET11305/23/12 09:56:02 METAR KCHS 231456Z 18009KT 10SM FEW030 SCT180 27/18 A2990 RMK AO2 SLP126 T02670183 50007 $ (DD),,,,,,,,,,,,,,,,,,,,,,,,,,,,
72208013880,2012-05-24T09:56:00,SY-MT,7,,SE,0.25,mi,"TEMP, PRECIP, SNOW",,,"MMTS, SRG, SNOWBOARD",,,WFO CHS,,,,,,,,,,,,,,,,,,,,,,,,,,,30.01,69,84,0.00,,-0.03,0,61,30.01,FEW:02 30 SCT:04 45,29.96,10.00,74,VRB,,6,,,,,,,,,,,,,,,,,,,,,,,,,,,,,,,,,,,,,SYN076AAXX  24154 72208 32566 4//05 10289 20206 30146 40161 50009 91456 555 92415;MET11105/24/12 09:56:02 METAR KCHS 241456Z VRB05KT 10SM FEW030 SCT045 29/21 A3001 RMK AO2 SLP161 T02890206 50009 (DD),,,,,,,,,,,,,,,,,,,,,,,,,,,,
72208013880,2012-05-25T09:56:00,FM-15,7,,SE,0.25,mi,"TEMP, PRECIP, SNOW",,,"MMTS, SRG, SNOWBOARD",,,WFO CHS,,,,,,,,,,,,,,,,,,,,,,,,,,,30.08,67,81,0.00,,-0.02,0,62,30.08,SCT:04 25,30.03,10.00,72,360,21,10,,,,,,,,,,,,,,,,,,,,,,,,,,,,,,,,,,,,,MET10705/25/12 09:56:02 METAR KCHS 251456Z 36009G18KT 10SM SCT025 27/19 A3008 RMK AO2 SLP185 T02720194 50007 (DD),,,,,,,,,,,,,,,,,,,,,,,,,,,,
72208013880,2012-05-25T10:00:00,FM-12,4,,SE,0.25,mi,"TEMP, PRECIP, SNOW",,,"MMTS, SRG, SNOWBOARD",,,WFO CHS,,,,,,,,,,,,,,,,,,,,,,,,,,,,67,81,,,-0.02,0,62,30.08,,30.03,9.94,72,360,,10,,,,,,,,,,,,,,,,,,,,,,,,,,,,,,,,,,,,,SYN086AAXX  25154 72208 32566 43609 10272 20194 30170 40185 50007 91456 333 91018 555 92515;,,,,,,,,,,,,,,,,,,,,,,,,,,,,
72208013880,2012-05-28T09:56:00,SY-MT,7,,SE,0.25,mi,"TEMP, PRECIP, SNOW",,,"MMTS, SRG, SNOWBOARD",,,WFO CHS,,,,,,,,,,,,,,,,,,,,,,,,,,,30.01,72,79,0.05,,-0.01,0,79,30.01,FEW:02 30 SCT:04 60 SCT:04 120,29.96,10.00,74,130,25,14,,,,,,,,,,,,,,,,,,,,,,,,,,,,,,,,,,,,,SYN092AAXX  28154 72208 12566 41312 10261 20222 30146 40162 50003 60017 91456 333 91022 555 92815;MET17405/28/12 09:56:02 METAR KCHS 281456Z 13012G22KT 10SM FEW030 SCT060 SCT120 26/22 A3001 RMK AO2 PK WND 15033/1413 RAB13E31 SLP162 TCU DSNT NW-N P0005 60005 T02610222 50003 (DD),,,,,,,,,,,,,,,,,,,,,,,,,,,,
72208013880,2012-05-29T09:56:00,FM-15,7,,SE,0.25,mi,"TEMP, PRECIP, SNOW",,,"MMTS, SRG, SNOWBOARD",,,WFO CHS,,,,,,,,,,,,,,,,,,,,,,,,,,,29.95,70,77,T,-RA:02 |RA |RA,+0.00,8,79,29.94,FEW:02 40 OVC:08 180,29.90,10.00,72,150,,10,,,,,,,,,,,,,,,,,,,,,,,,,,,,,,,,,,,,,MET13305/29/12 09:56:02 METAR KCHS 291456Z 15009KT 10SM -RA FEW040 OVC180 25/21 A2995 RMK AO2 RAB48 SLP139 P0000 60000 T02500211 58001 (DD),,,,,,,,,,,,,,,,,,,,,,,,,,,,
72208013880,2012-05-29T10:00:00,FM-12,4,,SE,0.25,mi,"TEMP, PRECIP, SNOW",,,"MMTS, SRG, SNOWBOARD",,,WFO CHS,,,,,,,,,,,,,,,,,,,,,,,,,,,,70,77,,||RA,+0.00,8,79,29.94,,29.90,9.94,72,150,,10,,,,,,,,,,,,,,,,,,,,,,,,,,,,,,,,,,,,,SYN088AAXX  29154 72208 11666 81509 10250 20211 30126 40139 58001 69907 761// 91456 555 92915;,,,,,,,,,,,,,,,,,,,,,,,,,,,,
72208013880,2012-06-01T09:56:00,SY-MT,7,,SE,0.25,mi,"TEMP, PRECIP, SNOW",,,"MMTS, SRG, SNOWBOARD",,,WFO CHS,,,,,,,,,,,,,,,,,,,,,,,,,,,29.88,69,85,0.00,,-0.01,0,59,29.88,FEW:02 35 SCT:04 250,29.83,10.00,74,240,,10,,,,,,,,,,,,,,,,,,,,,,,,,,,,,,,,,,,,,SYN076AAXX  01154 72208 32666 42409 10294 20206 30102 40118 50002 91456 555 90115;MET11106/01/12 09:56:02 METAR KCHS 011456Z 24009KT 10SM FEW035 SCT250 29/21 A2988 RMK AO2 SLP118 T02940206 50002 (DD),,,,,,,,,,,,,,,,,,,,,,,,,,,,
72208013880,2012-06-03T09:56:00,FM-15,7,,SE,0.25,mi,"TEMP, PRECIP, SNOW",,,"MMTS, SRG, SNOWBOARD",,,WFO CHS,,,,,,,,,,,,,,,,,,,,,,,,,,,29.99,58,79,0.00,,-0.01,0,49,29.98,,29.94,10.00,66,360,,8,,,,,,,,,,,,,,,,,,,,,,,,,,,,,,,,,,,,,MET10206/03/12 09:56:02 METAR KCHS 031456Z 36007KT 10SM CLR 26/14 A2999 RMK AO2 SLP154 T02610144 50002 (KLL),,,,,,,,,,,,,,,,,,,,,,,,,,,,
72208013880,2012-06-03T10:00:00,FM-12,4,,SE,0.25,mi,"TEMP, PRECIP, SNOW",,,"MMTS, SRG, SNOWBOARD",,,WFO CHS,,,,,,,,,,,,,,,,,,,,,,,,,,,,58,79,,,-0.01,0,49,29.98,CLR:00,29.94,9.94,66,360,,8,,,,,,,,,,,,,,,,,,,,,,,,,,,,,,,,,,,,,SYN076AAXX  03154 72208 32966 03607 10261 20144 30140 40154 50002 91456 555 90315;,,,,,,,,,,,,,,,,,,,,,,,,,,,,
72208013880,2012-06-04T09:56:00,SY-MT,7,,SE,0.25,mi,"TEMP, PRECIP, SNOW",,,"MMTS, SRG, SNOWBOARD",,,WFO CHS,,,,,,,,,,,,,,,,,,,,,,,,,,,29.80,68,77,0.00,,+0.01,8,74,29.80,FEW:02 100 BKN:07 180,29.75,10.00,71,320,,6,,,,,,,,,,,,,,,,,,,,,,,,,,,,,,,,,,,,,SYN076AAXX  04154 72208 32966 63205 10250 20200 30075 40090 58003 91456 555 90415;MET11106/04/12 09:56:02 METAR KCHS 041456Z 32005KT 10SM FEW100 BKN180 25/20 A2980 RMK AO2 SLP090 T02500200 58003 (DD),,,,,,,,,,,,,,,,,,,,,,,,,,,,
72208013880,2012-06-08T09:56:00,SY-MT,7,,SE,0.25,mi,"TEMP, PRECIP, SNOW",,,"MMTS, SRG, SNOWBOARD",,,WFO CHS,,,,,,,,,,,,,,,,,,,,,,,,,,,30.05,60,80,0.00,,-0.01,0,51,30.05,FEW:02 40 SCT:04 250,30.00,10.00,67,070,,8,,,,,,,,,,,,,,,,,,,,,,,,,,,,,,,,,,,,,SYN076AAXX  08154 72208 32666 40707 10267 20156 30160 40177 50004 91456 555 90815;MET11306/08/12 09:56:02 METAR KCHS 081456Z 07007KT 10SM FEW040 SCT250 27/16 A3005 RMK AO2 SLP177 T02670156 50004 $ (DD),,,,,,,,,,,,,,,,,,,,,,,,,,,,
72208013880,2012-06-11T09:56:00,SY-MT,7,,SE,0.25,mi,"TEMP, PRECIP, SNOW",,,"MMTS, SRG, SNOWBOARD",,,WFO CHS,,,,,,,,,,,,,,,,,,,,,,,,,,,30.13,72,84,0.00,,-0.01,0,67,30.13,SCT:04 25 SCT:04 100 BKN:07 150,30.08,10.00,76,200,,14,,,,,,,,,,,,,,,,,,,,,,,,,,,,,,,,,,,,,SYN076AAXX  11154 72208 32566 62012 10289 20222 30187 40204 50002 91456 555 91115;MET11806/11/12 09:56:02 METAR KCHS 111456Z 20012KT 10SM SCT025 SCT100 BKN150 29/22 A3013 RMK AO2 SLP204 T02890222 50002 (DD),,,,,,,,,,,,,,,,,,,,,,,,,,,,
72208013880,2012-06-12T09:56:00,SY-MT,7,,SE,0.25,mi,"TEMP, PRECIP, SNOW",,,"MMTS, SRG, SNOWBOARD",,,WFO CHS,,,,,,,,,,,,,,,,,,,,,,,,,,,30.01,73,77,T,,+0.02,6,88,30.01,SCT:04 20 BKN:07 40 BKN:07 60,29.96,10.00,74,200,,7,,,,,,,,,,,,,,,,,,,,,,,,,,,,,,,,,,,,,SYN082AAXX  12154 72208 12566 62006 10250 20228 30146 40161 56008 69907 91456 555 91215;MET17206/12/12 09:56:02 METAR KCHS 121456Z 20006KT 10SM SCT020 BKN040 BKN060 25/23 A3001 RMK AO2 RAB06E21 SLP161 TCU DSNT NE-E AND W-NW SCT V BKN P0000 60000 T02500228 56008 (DD),,,,,,,,,,,,,,,,,,,,,,,,,,,,
72208013880,2012-06-17T09:56:00,SY-MT,7,,SE,0.25,mi,"TEMP, PRECIP, SNOW",,,"MMTS, SRG, SNOWBOARD",,,WFO CHS,,,,,,,,,,,,,,,,,,,,,,,,,,,30.15,59,77,0.00,,+0.00,8,54,30.15,FEW:02 37 SCT:04 150,30.10,10.00,66,010,,7,,,,,,,,,,,,,,,,,,,,,,,,,,,,,,,,,,,,,SYN076AAXX  17154 72208 32666 40106 10250 20150 30194 40210 58000 91456 555 91715;MET11406/17/12 09:56:02 METAR KCHS 171456Z 01006KT 10SM FEW037 SCT150 25/15 A3015 RMK AO2 SLP210 T02500150 58000 $ (KLL),,,,,,,,,,,,,,,,,,,,,,,,,,,,
72208013880,2012-06-19T09:56:00,SY-MT,7,,SE,0.25,mi,"TEMP, PRECIP, SNOW",,,"MMTS, SRG, SNOWBOARD",,,WFO CHS,,,,,,,,,,,,,,,,,,,,,,,,,,,30.18,64,81,0.00,,-0.02,0,57,30.18,FEW:02 35 SCT:04 180,30.13,10.00,70,170,,5,,,,,,,,,,,,,,,,,,,,,,,,,,,,,,,,,,,,,SYN076AAXX  19154 72208 32666 41704 10272 20178 30204 40219 50006 91456 555 91915;MET11106/19/12 09:56:02 METAR KCHS 191456Z 17004KT 10SM FEW035 SCT180 27/18 A3018 RMK AO2 SLP219 T02720178 50006 (DD),,,,,,,,,,,,,,,,,,,,,,,,,,,,
72208013880,2012-06-20T09:56:00,FM-15,7,,SE,0.25,mi,"TEMP, PRECIP, SNOW",,,"MMTS, SRG, SNOWBOARD",,,WFO CHS,,,,,,,,,,,,,,,,,,,,,,,,,,,30.17,66,84,0.00,,-0.00,0,55,30.17,SCT:04 40,30.12,10.00,72,080,,5,,,,,,,,,,,,,,,,,,,,,,,,,,,,,,,,,,,,,MET10406/20/12 09:56:02 METAR KCHS 201456Z 08004KT 10SM SCT040 29/19 A3017 RMK AO2 SLP216 T02890189 50001 (DD),,,,,,,,,,,,,,,,,,,,,,,,,,,,
72208013880,2012-06-20T10:00:00,FM-12,4,,SE,0.25,mi,"TEMP, PRECIP, SNOW",,,"MMTS, SRG, SNOWBOARD",,,WFO CHS,,,,,,,,,,,,,,,,,,,,,,,,,,,,66,84,,,-0.00,0,55,30.17,,30.12,9.94,72,080,,5,,,,,,,,,,,,,,,,,,,,,,,,,,,,,,,,,,,,,SYN076AAXX  20154 72208 32666 40804 10289 20189 30201 40216 50001 91456 555 92015;,,,,,,,,,,,,,,,,,,,,,,,,,,,,
72208013880,2012-06-21T09:56:00,SY-MT,7,,SE,0.25,mi,"TEMP, PRECIP, SNOW",,,"MMTS, SRG, SNOWBOARD",,,WFO CHS,,,,,,,,,,,,,,,,,,,,,,,,,,,30.08,65,83,0.00,,+0.01,8,55,30.08,FEW:02 40 SCT:04 250,30.03,10.00,71,VRB,,6,,,,,,,,,,,,,,,,,,,,,,,,,,,,,,,,,,,,,SYN076AAXX  21154 72208 32666 4//05 10283 20183 30170 40186 58004 91456 555 92115;MET11106/21/12 09:56:02 METAR KCHS 211456Z VRB05KT 10SM FEW040 SCT250 28/18 A3008 RMK AO2 SLP186 T02830183 58004 (DD),,,,,,,,,,,,,,,,,,,,,,,,,,,,
72208013880,2012-06-23T09:56:00,SY-MT,7,,SE,0.25,mi,"TEMP, PRECIP, SNOW",,,"MMTS, SRG, SNOWBOARD",,,WFO CHS,,,,,,,,,,,,,,,,,,,,,,,,,,,29.97,70,85,0.00,,-0.01,0,61,29.96,SCT:04 30,29.92,10.00,75,240,,5,,,,,,,,,,,,,,,,,,,,,,,,,,,,,,,,,,,,,SYN076AAXX  23154 72208 32566 42404 10294 20211 30133 40146 50005 91456 555 92315;MET10706/23/12 09:56:02 METAR KCHS 231456Z 24004KT 10SM SCT030 29/21 A2997 RMK AO2 SLP146 T02940211 50005 $ (KLL),,,,,,,,,,,,,,,,,,,,,,,,,,,,
72208013880,2012-06-24T09:56:00,SY-MT,7,,SE,0.25,mi,"TEMP, PRECIP, SNOW",,,"MMTS, SRG, SNOWBOARD",,,WFO CHS,,,,,,,,,,,,,,,,,,,,,,,,,,,29.99,72,84,0.00,,+0.01,8,67,29.98,BKN:07 26,29.94,10.00,76,000,,0,,,,,,,,,,,,,,,,,,,,,,,,,,,,,,,,,,,,,SYN076AAXX  24154 72208 32566 60000 10289 20222 30140 40153 58002 91456 555 92415;MET10506/24/12 09:56:02 METAR KCHS 241456Z 00000KT 10SM BKN026 29/22 A2999 RMK AO2 SLP153 T02890222 58002 (KLL),,,,,,,,,,,,,,,,,,,,,,,,,,,,
72208013880,2012-06-25T09:56:00,SY-MT,7,,SE,0.25,mi,"TEMP, PRECIP, SNOW",,,"MMTS, SRG, SNOWBOARD",,,WFO CHS,,,,,,,,,,,,,,,,,,,,,,,,,,,29.87,71,78,0.01s,RA:02 |RA |RA,+0.01,6,79,29.87,SCT:04 20 BKN:07 45 BKN:07 70,29.82,3.00,73,190,,15,,,,,,,,,,,,,,,,,,,,,,,,,,,,,,,,,,,,,SYN088AAXX  25154 72208 11548 61913 10256 20217 30099 40115 56002 69907 763// 91456 555 92515;MET13806/25/12 09:56:02 METAR KCHS 251456Z 19013KT 3SM RA SCT020 BKN045 BKN070 26/22 A2987 RMK AO2 RAB52 SLP115 P0000 60000 T02560217 56002 (DD),,,,,,,,,,,,,,,,,,,,,,,,,,,,
72208013880,2012-06-29T09:56:00,SY-MT,7,,SE,0.25,mi,"TEMP, PRECIP, SNOW",,,"MMTS, SRG, SNOWBOARD",,,WFO CHS,,,,,,,,,,,,,,,,,,,,,,,,,,,29.90,69,87,0.00,,+0.01,8,55,29.90,,29.85,10.00,75,260,,6,,,,,,,,,,,,,,,,,,,,,,,,,,,,,,,,,,,,,SYN076AAXX  29154 72208 32966 02605 10306 20206 30109 40124 58005 91456 555 92915;MET10306/29/12 09:56:02 METAR KCHS 291456Z 26005KT 10SM CLR 31/21 A2990 RMK AO2 SLP124 T03060206 58005 $ (DD),,,,,,,,,,,,,,,,,,,,,,,,,,,,
72208013880,2012-06-30T09:56:00,FM-15,7,,SE,0.25,mi,"TEMP, PRECIP, SNOW",,,"MMTS, SRG, SNOWBOARD",,,WFO CHS,,,,,,,,,,,,,,,,,,,,,,,,,,,29.88,76,90,0.00,,-0.01,0,63,29.87,FEW:02 180,29.83,10.00,80,000,,0,,,,,,,,,,,,,,,,,,,,,,,,,,,,,,,,,,,,,MET10406/30/12 09:56:02 METAR KCHS 301456Z 00000KT 10SM FEW180 32/24 A2988 RMK AO2 SLP116 T03220244 50003 (DK),,,,,,,,,,,,,,,,,,,,,,,,,,,,
72208013880,2012-06-30T10:00:00,FM-12,4,,SE,0.25,mi,"TEMP, PRECIP, SNOW",,,"MMTS, SRG, SNOWBOARD",,,WFO CHS,,,,,,,,,,,,,,,,,,,,,,,,,,,,76,90,,,-0.01,0,63,29.87,,29.83,9.94,80,000,,0,,,,,,,,,,,,,,,,,,,,,,,,,,,,,,,,,,,,,SYN076AAXX  30154 72208 32966 20000 10322 20244 30102 40116 50003 91456 555 93015;,,,,,,,,,,,,,,,,,,,,,,,,,,,,
72208013880,2012-07-05T09:56:00,SY-MT,7,,SE,0.25,mi,"TEMP, PRECIP, SNOW",,,"MMTS, SRG, SNOWBOARD",,,WFO CHS,,,,,,,,,,,,,,,,,,,,,,,,,,,30.00,74,88,0.00,,-0.01,0,63,29.99,FEW:02 200 SCT:04 250,29.95,10.00,78,230,,9,,,,,,,,,,,,,,,,,,,,,,,,,,,,,,,,,,,,,SYN076AAXX  05154 72208 32966 42308 10311 20233 30143 40156 50002 91456 555 90515;MET11107/05/12 09:56:02 METAR KCHS 051456Z 23008KT 10SM FEW200 SCT250 31/23 A3000 RMK AO2 SLP156 T03110233 50002 (DD),,,,,,,,,,,,,,,,,,,,,,,,,,,,
72208013880,2012-07-06T09:56:00,SY-MT,7,,SE,0.25,mi,"TEMP, PRECIP, SNOW",,,"MMTS, SRG, SNOWBOARD",,,WFO CHS,,,,,,,,,,,,,,,,,,,,,,,,,,,30.01,70,86,0.00,,-0.01,0,59,30.01,FEW:02 250,29.96,10.00,75,260,,6,,,,,,,,,,,,,,,,,,,,,,,,,,,,,,,,,,,,,SYN076AAXX  06154 72208 32966 22605 10300 20211 30146 40161 50005 91456 555 90615;MET10407/06/12 09:56:02 METAR KCHS 061456Z 26005KT 10SM FEW250 30/21 A3001 RMK AO2 SLP161 T03000211 50005 (DD),,,,,,,,,,,,,,,,,,,,,,,,,,,,
72208013880,2012-07-08T09:56:00,SY-MT,7,,SE,0.25,mi,"TEMP, PRECIP, SNOW",,,"MMTS, SRG, SNOWBOARD",,,WFO CHS,,,,,,,,,,,,,,,,,,,,,,,,,,,30.04,73,90,0.00,,+0.01,8,58,30.04,,29.99,10.00,78,270,,11,,,,,,,,,,,,,,,,,,,,,,,,,,,,,,,,,,,,,SYN076AAXX  08154 72208 32966 02710 10322 20228 30157 40172 58002 91456 555 90815;MET10207/08/12 09:56:02 METAR KCHS 081456Z 27010KT 10SM CLR 32/23 A3004 RMK AO2 SLP172 T03220228 58002 (KLL),,,,,,,,,,,,,,,,,,,,,,,,,,,,
72208013880,2012-07-09T09:56:00,SY-MT,7,,SE,0.25,mi,"TEMP, PRECIP, SNOW",,,"MMTS, SRG, SNOWBOARD",,,WFO CHS,,,,,,,,,,,,,,,,,,,,,,,,,,,29.96,72,92,0.00,,+0.00,8,52,29.95,FEW:02 40,29.91,10.00,78,220,,9,,,,,,,,,,,,,,,,,,,,,,,,,,,,,,,,,,,,,SYN076AAXX  09154 72208 32666 22208 10333 20222 30129 40143 58001 91456 555 90915;MET10407/09/12 09:56:02 METAR KCHS 091456Z 22008KT 10SM FEW040 33/22 A2996 RMK AO2 SLP143 T03330222 58001 (DD),,,,,,,,,,,,,,,,,,,,,,,,,,,,
72208013880,2012-07-16T09:56:00,SY-MT,7,,SE,0.25,mi,"TEMP, PRECIP, SNOW",,,"MMTS, SRG, SNOWBOARD",,,WFO CHS,,,,,,,,,,,,,,,,,,,,,,,,,,,30.08,71,87,0.00,,+0.01,6,59,30.08,SCT:04 35 SCT:04 50,30.03,10.00,76,320,,5,,,,,,,,,,,,,,,,,,,,,,,,,,,,,,,,,,,,,SYN076AAXX  16154 72208 32666 43204 10306 20217 30170 40185 56005 91456 555 91615;MET11107/16/12 09:56:02 METAR KCHS 161456Z 32004KT 10SM SCT035 SCT050 31/22 A3008 RMK AO2 SLP185 T03060217 56005 (DD),,,,,,,,,,,,,,,,,,,,,,,,,,,,
72208013880,2012-07-23T09:56:00,SY-MT,7,,SE,0.25,mi,"TEMP, PRECIP, SNOW",,,"MMTS, SRG, SNOWBOARD",,,WFO CHS,,,,,,,,,,,,,,,,,,,,,,,,,,,30.19,71,89,0.00,,+0.02,6,55,30.19,FEW:02 35,30.14,10.00,77,VRB,,7,,,,,,,,,,,,,,,,,,,,,,,,,,,,,,,,,,,,,SYN076AAXX  23154 72208 32666 2//06 10317 20217 30207 40222 56006 91456 555 92315;MET10407/23/12 09:56:02 METAR KCHS 231456Z VRB06KT 10SM FEW035 32/22 A3019 RMK AO2 SLP222 T03170217 56006 (DD),,,,,,,,,,,,,,,,,,,,,,,,,,,,
72208013880,2012-07-24T09:56:00,SY-MT,7,,SE,0.25,mi,"TEMP, PRECIP, SNOW",,,"MMTS, SRG, SNOWBOARD",,,WFO CHS,,,,,,,,,,,,,,,,,,,,,,,,,,,30.04,72,88,0.00,,+0.03,8,59,30.04,,29.99,10.00,77,260,,13,,,,,,,,,,,,,,,,,,,,,,,,,,,,,,,,,,,,,SYN076AAXX  24154 72208 32966 02611 10311 20222 30157 40173 58009 91456 555 92415;MET10107/24/12 09:56:02 METAR KCHS 241456Z 26011KT 10SM CLR 31/22 A3004 RMK AO2 SLP173 T03110222 58009 (DD),,,,,,,,,,,,,,,,,,,,,,,,,,,,
72208013880,2012-07-27T09:56:00,SY-MT,7,,SE,0.25,mi,"TEMP, PRECIP, SNOW",,,"MMTS, SRG, SNOWBOARD",,,WFO CHS,,,,,,,,,,,,,,,,,,,,,,,,,,,29.96,74,86,0.00,,-0.00,0,67,29.96,FEW:02 250,29.91,10.00,78,210,,8,,,,,,,,,,,,,,,,,,,,,,,,,,,,,,,,,,,,,SYN076AAXX  27154 72208 32966 22107 10300 20233 30129 40146 50001 91456 555 92715;MET10407/27/12 09:56:02 METAR KCHS 271456Z 21007KT 10SM FEW250 30/23 A2996 RMK AO2 SLP146 T03000233 50001 (DD),,,,,,,,,,,,,,,,,,,,,,,,,,,,
72208013880,2012-07-28T09:56:00,SY-MT,7,,SE,0.25,mi,"TEMP, PRECIP, SNOW",,,"MMTS, SRG, SNOWBOARD",,,WFO CHS,,,,,,,,,,,,,,,,,,,,,,,,,,,30.02,76,87,0.00,,+0.00,8,70,30.02,FEW:02 26 SCT:04 170,29.97,10.00,79,200,,6,,,,,,,,,,,,,,,,,,,,,,,,,,,,,,,,,,,,,SYN076AAXX  28154 72208 32566 42005 10306 20244 30150 40165 58001 91456 555 92815;MET11207/28/12 09:56:02 METAR KCHS 281456Z 20005KT 10SM FEW026 SCT170 31/24 A3002 RMK AO2 SLP165 T03060244 58001 (KLL),,,,,,,,,,,,,,,,,,,,,,,,,,,,
72208013880,2012-07-30T09:56:00,SY-MT,7,,SE,0.25,mi,"TEMP, PRECIP, SNOW",,,"MMTS, SRG, SNOWBOARD",,,WFO CHS,,,,,,,,,,,,,,,,,,,,,,,,,,,29.97,73,78,0.00,TS:7 |TS |TS TS,-0.01,0,85,29.97,FEW:02 15 SCT:04 45 BKN:07 150,29.92,10.00,75,000,,0,,,,,,,,,,,,,,,,,,,,,,,,,,,,,,,,,,,,,SYN082AAXX  30154 72208 31466 60000 10256 20228 30133 40149 50004 795// 91456 555 93015;MET16007/30/12 09:56:02 METAR KCHS 301456Z 00000KT 10SM TS FEW015 SCT045CB BKN150 26/23 A2997 RMK AO2 TSB35 SLP149 OCNL LTGIC S-SE TS S-SE MOVG E T02560228 50004 (DD),,,,,,,,,,,,,,,,,,,,,,,,,,,,
72208013880,2012-07-31T09:56:00,FM-15,7,,SE,0.25,mi,"TEMP, PRECIP, SNOW",,,"MMTS, SRG, SNOWBOARD",,,WFO CHS,,,,,,,,,,,,,,,,,,,,,,,,,,,29.96,72,83,0.00,,+0.01,8,70,29.96,SCT:04 25,29.91,10.00,75,000,,0,,,,,,,,,,,,,,,,,,,,,,,,,,,,,,,,,,,,,MET10407/31/12 09:56:02 METAR KCHS 311456Z 00000KT 10SM SCT025 28/22 A2996 RMK AO2 SLP146 T02830222 58003 (DD),,,,,,,,,,,,,,,,,,,,,,,,,,,,
72208013880,2012-07-31T10:00:00,FM-12,4,,SE,0.25,mi,"TEMP, PRECIP, SNOW",,,"MMTS, SRG, SNOWBOARD",,,WFO CHS,,,,,,,,,,,,,,,,,,,,,,,,,,,,72,83,,,+0.01,8,70,29.96,,29.91,9.94,75,000,,0,,,,,,,,,,,,,,,,,,,,,,,,,,,,,,,,,,,,,SYN076AAXX  31154 72208 32566 40000 10283 20222 30129 40146 58003 91456 555 93115;,,,,,,,,,,,,,,,,,,,,,,,,,,,,
72208013880,2012-08-01T09:56:00,SY-MT,7,,SE,0.25,mi,"TEMP, PRECIP, SNOW",,,"MMTS, SRG, SNOWBOARD",,,WFO CHS,,,,,,,,,,,,,,,,,,,,,,,,,,,29.91,73,83,0.00,,-0.01,0,72,29.91,SCT:04 20 SCT:04 45,29.86,10.00,76,280,,7,,,,,,,,,,,,,,,,,,,,,,,,,,,,,,,,,,,,,SYN076AAXX  01154 72208 32566 42806 10283 20228 30113 40129 50003 91456 555 90115;MET11108/01/12 09:56:02 METAR KCHS 011456Z 28006KT 10SM SCT020 SCT045 28/23 A2991 RMK AO2 SLP129 T02830228 50003 (DD),,,,,,,,,,,,,,,,,,,,,,,,,,,,
72208013880,2012-08-06T09:56:00,SY-MT,7,,SE,0.25,mi,"TEMP, PRECIP, SNOW",,,"MMTS, SRG, SNOWBOARD",,,WFO CHS,,,,,,,,,,,,,,,,,,,,,,,,,,,30.14,75,83,0.00,,+0.00,7,77,30.13,SCT:04 25 SCT:04 50 BKN:07 100,30.09,10.00,77,140,,6,,,,,,,,,,,,,,,,,,,,,,,,,,,,,,,,,,,,,SYN076AAXX  06154 72208 32566 61405 10283 20239 30190 40204 57001 91456 555 90615;MET15508/06/12 09:56:02 METAR KCHS 061456Z 14005KT 10SM SCT025TCU SCT050 BKN100 28/24 A3014 RMK AO2 SLP204 TCU NE-SE AND DSNT S-W SHRA NE-SE T02830239 57001 (DD),,,,,,,,,,,,,,,,,,,,,,,,,,,,
72208013880,2012-08-07T09:56:00,SY-MT,7,,SE,0.25,mi,"TEMP, PRECIP, SNOW",,,"MMTS, SRG, SNOWBOARD",,,WFO CHS,,,,,,,,,,,,,,,,,,,,,,,,,,,30.04,75,80,T,TS:7 -RA:02 |RA TS |SHRA TS,-0.01,0,85,30.04,FEW:02 25 SCT:04 60 BKN:07 180,29.99,10.00,77,000,,0,,,,,,,,,,,,,,,,,,,,,,,,,,,,,,,,,,,,,SYN082AAXX  07154 72208 11566 60000 10267 20239 30157 40172 50002 69907 91456 555 90715;MET20708/07/12 09:56:02 METAR KCHS 071456Z 00000KT 10SM -TSRA FEW025CB SCT060 BKN180 27/24 A3004 RMK AO2 TSB25RAB08E22B55 SLP172 OCNL LTGIC SW TS SW MOVG NE CB DSNT W AND N MOVG NE P0000 60000 T02670239 50002 (DD),,,,,,,,,,,,,,,,,,,,,,,,,,,,
72208013880,2012-08-13T09:56:00,FM-15,7,,SE,0.25,mi,"TEMP, PRECIP, SNOW",,,"MMTS, SRG, SNOWBOARD",,,WFO CHS,,,,,,,,,,,,,,,,,,,,,,,,,,,30.05,67,87,0.00,,-0.01,0,51,30.05,FEW:02 35 SCT:04 70,30.00,10.00,74,300,,6,,,,,,,,,,,,,,,,,,,,,,,,,,,,,,,,,,,,,MET11108/13/12 09:56:02 METAR KCHS 131456Z 30005KT 10SM FEW035 SCT070 31/19 A3005 RMK AO2 SLP175 T03060194 50003 (DD),,,,,,,,,,,,,,,,,,,,,,,,,,,,
72208013880,2012-08-13T10:00:00,FM-12,4,,SE,0.25,mi,"TEMP, PRECIP, SNOW",,,"MMTS, SRG, SNOWBOARD",,,WFO CHS,,,,,,,,,,,,,,,,,,,,,,,,,,,,67,87,,,-0.01,0,51,30.05,,30.00,9.94,74,300,,6,,,,,,,,,,,,,,,,,,,,,,,,,,,,,,,,,,,,,SYN076AAXX  13154 72208 32666 43005 10306 20194 30160 40175 50003 91456 555 91315;,,,,,,,,,,,,,,,,,,,,,,,,,,,,
72208013880,2012-08-14T09:56:00,SY-MT,7,,SE,0.25,mi,"TEMP, PRECIP, SNOW",,,"MMTS, SRG, SNOWBOARD",,,WFO CHS,,,,,,,,,,,,,,,,,,,,,,,,,,,30.01,68,88,0.00,,-0.01,0,52,30.00,FEW:02 250,29.96,10.00,74,290,,3,,,,,,,,,,,,,,,,,,,,,,,,,,,,,,,,,,,,,SYN076AAXX  14154 72208 32966 22903 10311 20200 30146 40160 50004 91456 555 91415;MET10408/14/12 09:56:02 METAR KCHS 141456Z 29003KT 10SM FEW250 31/20 A3001 RMK AO2 SLP160 T03110200 50004 (DD),,,,,,,,,,,,,,,,,,,,,,,,,,,,
72208013880,2012-08-20T09:56:00,SY-MT,7,,SE,0.25,mi,"TEMP, PRECIP, SNOW",,,"MMTS, SRG, SNOWBOARD",,,WFO CHS,,,,,,,,,,,,,,,,,,,,,,,,,,,29.93,71,79,0.00,,-0.00,0,77,29.92,SCT:04 15 SCT:04 45 BKN:07 90,29.88,10.00,74,290,,9,,,,,,,,,,,,,,,,,,,,,,,,,,,,,,,,,,,,,SYN082AAXX  20154 72208 12466 62908 10261 20217 30119 40133 50000 69907 91456 555 92015;MET12408/20/12 09:56:02 METAR KCHS 201456Z 29008KT 10SM SCT015 SCT045 BKN090 26/22 A2993 RMK AO2 SLP133 60000 T02610217 50000 (DD),,,,,,,,,,,,,,,,,,,,,,,,,,,,
72208013880,2012-08-24T09:56:00,SY-MT,7,,SE,0.25,mi,"TEMP, PRECIP, SNOW",,,"MMTS, SRG, SNOWBOARD",,,WFO CHS,,,,,,,,,,,,,,,,,,,,,,,,,,,30.09,69,77,0.00,,-0.03,0,77,30.09,SCT:04 13 BKN:07 18 BKN:07 120,30.04,10.00,72,010,18,11,,,,,,,,,,,,,,,,,,,,,,,,,,,,,,,,,,,,,SYN086AAXX  24154 72208 32466 60110 10250 20206 30173 40189 50009 91456 333 91016 555 92415;MET13108/24/12 09:56:02 METAR KCHS 241456Z 01010G16KT 10SM SCT013 BKN018 BKN120 25/21 A3009 RMK AO2 SLP189 SCT V BKN T02500206 50009 (DD),,,,,,,,,,,,,,,,,,,,,,,,,,,,
72208013880,2012-09-04T09:56:00,FM-15,7,,SE,0.25,mi,"TEMP, PRECIP, SNOW",,,"MMTS, SRG, SNOWBOARD",,,WFO CHS,,,,,,,,,,,,,,,,,,,,,,,,,,,30.02,71,85,0.00,,+0.00,6,63,30.01,FEW:02 30 SCT:04 180,29.97,10.00,75,180,,8,,,,,,,,,,,,,,,,,,,,,,,,,,,,,,,,,,,,,MET11109/04/12 09:56:02 METAR KCHS 041456Z 18007KT 10SM FEW030 SCT180 29/22 A3002 RMK AO2 SLP164 T02940217 56001 (DD),,,,,,,,,,,,,,,,,,,,,,,,,,,,
72208013880,2012-09-04T10:00:00,FM-12,4,,SE,0.25,mi,"TEMP, PRECIP, SNOW",,,"MMTS, SRG, SNOWBOARD",,,WFO CHS,,,,,,,,,,,,,,,,,,,,,,,,,,,,71,85,,,+0.00,6,63,30.01,,29.97,9.94,75,180,,8,,,,,,,,,,,,,,,,,,,,,,,,,,,,,,,,,,,,,SYN076AAXX  04154 72208 32566 41807 10294 20217 30150 40164 56001 91456 555 90415;,,,,,,,,,,,,,,,,,,,,,,,,,,,,
72208013880,2012-09-08T09:56:00,SY-MT,7,,SE,0.25,mi,"TEMP, PRECIP, SNOW",,,"MMTS, SRG, SNOWBOARD",,,WFO CHS,,,,,,,,,,,,,,,,,,,,,,,,,,,29.87,75,85,0.00,,-0.00,0,72,29.87,SCT:04 20 SCT:04 50,29.82,10.00,78,250,,10,,,,,,,,,,,,,,,,,,,,,,,,,,,,,,,,,,,,,SYN076AAXX  08154 72208 32566 42509 10294 20239 30099 40114 50001 91456 555 90815;MET11209/08/12 09:56:02 METAR KCHS 081456Z 25009KT 10SM SCT020 SCT050 29/24 A2987 RMK AO2 SLP114 T02940239 50001 (KLL),,,,,,,,,,,,,,,,,,,,,,,,,,,,
72208013880,2012-09-15T09:56:00,FM-15,7,,SE,0.25,mi,"TEMP, PRECIP, SNOW",,,"MMTS, SRG, SNOWBOARD",,,WFO CHS,,,,,,,,,,,,,,,,,,,,,,,,,,,30.16,66,82,0.00,,-0.01,0,58,30.16,FEW:02 150,30.11,10.00,71,010,,9,,,,,,,,,,,,,,,,,,,,,,,,,,,,,,,,,,,,,MET10509/15/12 09:56:02 METAR KCHS 151456Z 01008KT 10SM FEW150 28/19 A3016 RMK AO2 SLP212 T02780189 50002 (KLL),,,,,,,,,,,,,,,,,,,,,,,,,,,,
72208013880,2012-09-15T10:00:00,FM-12,4,,SE,0.25,mi,"TEMP, PRECIP, SNOW",,,"MMTS, SRG, SNOWBOARD",,,WFO CHS,,,,,,,,,,,,,,,,,,,,,,,,,,,,66,82,,,-0.01,0,58,30.16,,30.11,9.94,71,010,,9,,,,,,,,,,,,,,,,,,,,,,,,,,,,,,,,,,,,,SYN076AAXX  15154 72208 32966 20108 10278 20189 30197 40212 50002 91456 555 91515;,,,,,,,,,,,,,,,,,,,,,,,,,,,,
72208013880,2012-09-16T09:56:00,FM-15,7,,SE,0.25,mi,"TEMP, PRECIP, SNOW",,,"MMTS, SRG, SNOWBOARD",,,WFO CHS,,,,,,,,,,,,,,,,,,,,,,,,,,,30.12,66,82,0.00,,-0.01,0,58,30.12,SCT:04 33 SCT:04 170,30.07,10.00,71,VRB,,3,,,,,,,,,,,,,,,,,,,,,,,,,,,,,,,,,,,,,MET11209/16/12 09:56:02 METAR KCHS 161456Z VRB03KT 10SM SCT033 SCT170 28/19 A3012 RMK AO2 SLP200 T02780189 50004 (KLL),,,,,,,,,,,,,,,,,,,,,,,,,,,,
72208013880,2012-09-16T10:00:00,FM-12,4,,SE,0.25,mi,"TEMP, PRECIP, SNOW",,,"MMTS, SRG, SNOWBOARD",,,WFO CHS,,,,,,,,,,,,,,,,,,,,,,,,,,,,66,82,,,-0.01,0,58,30.12,,30.07,9.94,71,,,,,,,,,,,,,,,,,,,,,,,,,,,,,,,,,,,,,,,,SYN076AAXX  16154 72208 32566 4//03 10278 20189 30184 40200 50004 91456 555 91615;,,,,,,,,,,,,,,,,,,,,,,,,,,,,
72208013880,2012-09-17T09:56:00,FM-15,7,,SE,0.25,mi,"TEMP, PRECIP, SNOW",,,"MMTS, SRG, SNOWBOARD",,,WFO CHS,,,,,,,,,,,,,,,,,,,,,,,,,,,30.07,69,83,0.00,,-0.01,0,63,30.06,SCT:04 25 SCT:04 35,30.02,10.00,74,140,,8,,,,,,,,,,,,,,,,,,,,,,,,,,,,,,,,,,,,,MET11109/17/12 09:56:02 METAR KCHS 171456Z 14007KT 10SM SCT025 SCT035 28/21 A3007 RMK AO2 SLP181 T02830206 50002 (DD),,,,,,,,,,,,,,,,,,,,,,,,,,,,
72208013880,2012-09-17T10:00:00,FM-12,4,,SE,0.25,mi,"TEMP, PRECIP, SNOW",,,"MMTS, SRG, SNOWBOARD",,,WFO CHS,,,,,,,,,,,,,,,,,,,,,,,,,,,,69,83,,,-0.01,0,63,30.06,,30.02,9.94,74,140,,8,,,,,,,,,,,,,,,,,,,,,,,,,,,,,,,,,,,,,SYN076AAXX  17154 72208 32566 41407 10283 20206 30167 40181 50002 91456 555 91715;,,,,,,,,,,,,,,,,,,,,,,,,,,,,
72208013880,2012-09-20T09:56:00,SY-MT,7,,SE,0.25,mi,"TEMP, PRECIP, SNOW",,,"MMTS, SRG, SNOWBOARD",,,WFO CHS,,,,,,,,,,,,,,,,,,,,,,,,,,,30.12,63,74,0.00,,-0.01,0,69,30.12,FEW:02 30 SCT:04 250,30.07,10.00,67,010,,7,,,,,,,,,,,,,,,,,,,,,,,,,,,,,,,,,,,,,SYN076AAXX  20154 72208 32566 40106 10233 20172 30184 40199 50005 91456 555 92015;MET11109/20/12 09:56:02 METAR KCHS 201456Z 01006KT 10SM FEW030 SCT250 23/17 A3012 RMK AO2 SLP199 T02330172 50005 (DD),,,,,,,,,,,,,,,,,,,,,,,,,,,,
72208013880,2012-09-21T09:56:00,SY-MT,7,,SE,0.25,mi,"TEMP, PRECIP, SNOW",,,"MMTS, SRG, SNOWBOARD",,,WFO CHS,,,,,,,,,,,,,,,,,,,,,,,,,,,30.08,64,77,0.00,,-0.01,0,64,30.08,FEW:02 30 SCT:04 250,30.03,10.00,69,060,,3,,,,,,,,,,,,,,,,,,,,,,,,,,,,,,,,,,,,,SYN076AAXX  21154 72208 32566 40603 10250 20178 30170 40185 50002 91456 555 92115;MET11109/21/12 09:56:02 METAR KCHS 211456Z 06003KT 10SM FEW030 SCT250 25/18 A3008 RMK AO2 SLP185 T02500178 50002 (DD),,,,,,,,,,,,,,,,,,,,,,,,,,,,
72208013880,2012-09-25T09:56:00,FM-15,7,,SE,0.25,mi,"TEMP, PRECIP, SNOW",,,"MMTS, SRG, SNOWBOARD",,,WFO CHS,,,,,,,,,,,,,,,,,,,,,,,,,,,30.22,54,75,0.00,,-0.01,0,48,30.22,FEW:02 45 SCT:04 250,30.17,10.00,63,110,20,10,,,,,,,,,,,,,,,,,,,,,,,,,,,,,,,,,,,,,MET11409/25/12 09:56:02 METAR KCHS 251456Z 11009G17KT 10SM FEW045 SCT250 24/12 A3022 RMK AO2 SLP234 T02390122 50003 (DD),,,,,,,,,,,,,,,,,,,,,,,,,,,,
72208013880,2012-09-25T10:00:00,FM-12,4,,SE,0.25,mi,"TEMP, PRECIP, SNOW",,,"MMTS, SRG, SNOWBOARD",,,WFO CHS,,,,,,,,,,,,,,,,,,,,,,,,,,,,54,75,,,-0.01,0,48,30.22,,30.17,9.94,63,110,,10,,,,,,,,,,,,,,,,,,,,,,,,,,,,,,,,,,,,,SYN086AAXX  25154 72208 32666 41109 10239 20122 30217 40234 50003 91456 333 91017 555 92515;,,,,,,,,,,,,,,,,,,,,,,,,,,,,
72208013880,2012-09-29T09:56:00,SY-MT,7,,SE,0.25,mi,"TEMP, PRECIP, SNOW",,,"MMTS, SRG, SNOWBOARD",,,WFO CHS,,,,,,,,,,,,,,,,,,,,,,,,,,,30.00,66,79,0.00,,-0.01,0,65,30.00,FEW:02 40 SCT:04 120,29.95,10.00,71,270,,7,,,,,,,,,,,,,,,,,,,,,,,,,,,,,,,,,,,,,SYN076AAXX  29154 72208 32666 42706 10261 20189 30143 40159 50004 91456 555 92915;MET11209/29/12 09:56:02 METAR KCHS 291456Z 27006KT 10SM FEW040 SCT120 26/19 A3000 RMK AO2 SLP159 T02610189 50004 (KLL),,,,,,,,,,,,,,,,,,,,,,,,,,,,
72208013880,2012-10-01T09:56:00,SY-MT,7,,SE,0.25,mi,"TEMP, PRECIP, SNOW",,,"MMTS, SRG, SNOWBOARD",,,WFO CHS,,,,,,,,,,,,,,,,,,,,,,,,,,,29.82,75,84,0.00,,-0.01,0,74,29.82,SCT:04 20 BKN:07 35 BKN:07 200,29.77,10.00,78,150,,9,,,,,,,,,,,,,,,,,,,,,,,,,,,,,,,,,,,,,SYN076AAXX  01154 72208 32566 61508 10289 20239 30082 40097 50003 91456 555 90115;MET11810/01/12 09:56:02 METAR KCHS 011456Z 15008KT 10SM SCT020 BKN035 BKN200 29/24 A2982 RMK AO2 SLP097 T02890239 50003 (DD),,,,,,,,,,,,,,,,,,,,,,,,,,,,
72208013880,2012-10-06T09:56:00,SY-MT,7,,SE,0.25,mi,"TEMP, PRECIP, SNOW",,,"MMTS, SRG, SNOWBOARD",,,WFO CHS,,,,,,,,,,,,,,,,,,,,,,,,,,,30.00,68,81,0.00,,-0.01,0,65,30.00,FEW:02 30 SCT:04 60,29.95,10.00,72,VRB,,3,,,,,,,,,,,,,,,,,,,,,,,,,,,,,,,,,,,,,SYN076AAXX  06154 72208 32566 4//03 10272 20200 30143 40159 50003 91456 555 90615;MET11210/06/12 09:56:02 METAR KCHS 061456Z VRB03KT 10SM FEW030 SCT060 27/20 A3000 RMK AO2 SLP159 T02720200 50003 (WRB),,,,,,,,,,,,,,,,,,,,,,,,,,,,
72208013880,2012-10-10T09:56:00,SY-MT,7,,SE,0.25,mi,"TEMP, PRECIP, SNOW",,,"MMTS, SRG, SNOWBOARD",,,WFO CHS,,,,,,,,,,,,,,,,,,,,,,,,,,,30.15,56,66,0.00,,-0.02,0,70,30.14,FEW:02 20,30.10,10.00,60,350,,7,,,,,,,,,,,,,,,,,,,,,,,,,,,,,,,,,,,,,SYN076AAXX  10154 72208 32566 23506 10189 20133 30194 40208 50008 91456 555 91015;MET10410/10/12 09:56:02 METAR KCHS 101456Z 35006KT 10SM FEW020 19/13 A3015 RMK AO2 SLP208 T01890133 50008 (DD),,,,,,,,,,,,,,,,,,,,,,,,,,,,
72208013880,2012-10-14T09:56:00,FM-15,7,,SE,0.25,mi,"TEMP, PRECIP, SNOW",,,"MMTS, SRG, SNOWBOARD",,,WFO CHS,,,,,,,,,,,,,,,,,,,,,,,,,,,30.23,62,77,0.00,,-0.01,0,60,30.23,FEW:02 60 SCT:04 200,30.18,10.00,68,VRB,,7,,,,,,,,,,,,,,,,,,,,,,,,,,,,,,,,,,,,,MET11210/14/12 09:56:02 METAR KCHS 141456Z VRB06KT 10SM FEW060 SCT200 25/17 A3023 RMK AO2 SLP236 T02500167 50004 (WRB),,,,,,,,,,,,,,,,,,,,,,,,,,,,
72208013880,2012-10-14T10:00:00,FM-12,4,,SE,0.25,mi,"TEMP, PRECIP, SNOW",,,"MMTS, SRG, SNOWBOARD",,,WFO CHS,,,,,,,,,,,,,,,,,,,,,,,,,,,,62,77,,,-0.01,0,60,30.23,,30.18,9.94,68,,,,,,,,,,,,,,,,,,,,,,,,,,,,,,,,,,,,,,,,SYN076AAXX  14154 72208 32766 4//06 10250 20167 30221 40236 50004 91456 555 91415;,,,,,,,,,,,,,,,,,,,,,,,,,,,,
72208013880,2012-10-15T09:56:00,FM-15,7,,SE,0.25,mi,"TEMP, PRECIP, SNOW",,,"MMTS, SRG, SNOWBOARD",,,WFO CHS,,,,,,,,,,,,,,,,,,,,,,,,,,,29.95,68,78,0.00,,+0.00,8,71,29.95,SCT:04 45 BKN:07 60 BKN:07 200,29.90,10.00,71,230,,8,,,,,,,,,,,,,,,,,,,,,,,,,,,,,,,,,,,,,MET11810/15/12 09:56:02 METAR KCHS 151456Z 23007KT 10SM SCT045 BKN060 BKN200 26/20 A2995 RMK AO2 SLP142 T02560200 58001 (DD),,,,,,,,,,,,,,,,,,,,,,,,,,,,
72208013880,2012-10-15T10:00:00,FM-12,4,,SE,0.25,mi,"TEMP, PRECIP, SNOW",,,"MMTS, SRG, SNOWBOARD",,,WFO CHS,,,,,,,,,,,,,,,,,,,,,,,,,,,,68,78,,,+0.00,8,71,29.95,,29.90,9.94,71,230,,8,,,,,,,,,,,,,,,,,,,,,,,,,,,,,,,,,,,,,SYN076AAXX  15154 72208 32666 62307 10256 20200 30126 40142 58001 91456 555 91515;,,,,,,,,,,,,,,,,,,,,,,,,,,,,
72208013880,2012-10-16T09:56:00,FM-15,7,,SE,0.25,mi,"TEMP, PRECIP, SNOW",,,"MMTS, SRG, SNOWBOARD",,,WFO CHS,,,,,,,,,,,,,,,,,,,,,,,,,,,29.97,44,65,0.00,,-0.02,0,47,29.96,,29.92,10.00,54,050,,9,,,,,,,,,,,,,,,,,,,,,,,,,,,,,,,,,,,,,MET10110/16/12 09:56:02 METAR KCHS 161456Z 05008KT 10SM CLR 18/07 A2997 RMK AO2 SLP147 T01830067 50007 (DD),,,,,,,,,,,,,,,,,,,,,,,,,,,,
72208013880,2012-10-16T10:00:00,FM-12,4,,SE,0.25,mi,"TEMP, PRECIP, SNOW",,,"MMTS, SRG, SNOWBOARD",,,WFO CHS,,,,,,,,,,,,,,,,,,,,,,,,,,,,44,65,,,-0.02,0,47,29.96,CLR:00,29.92,9.94,54,050,,9,,,,,,,,,,,,,,,,,,,,,,,,,,,,,,,,,,,,,SYN076AAXX  16154 72208 32966 00508 10183 20067 30133 40147 50007 91456 555 91615;,,,,,,,,,,,,,,,,,,,,,,,,,,,,
72208013880,2012-10-17T09:56:00,SY-MT,7,,SE,0.25,mi,"TEMP, PRECIP, SNOW",,,"MMTS, SRG, SNOWBOARD",,,WFO CHS,,,,,,,,,,,,,,,,,,,,,,,,,,,30.00,54,65,0.00,,-0.04,0,68,29.99,FEW:02 100 OVC:08 200,29.95,10.00,59,030,,7,,,,,,,,,,,,,,,,,,,,,,,,,,,,,,,,,,,,,SYN076AAXX  17154 72208 32966 80306 10183 20122 30143 40157 50013 91456 555 91715;MET11110/17/12 09:56:02 METAR KCHS 171456Z 03006KT 10SM FEW100 OVC200 18/12 A3000 RMK AO2 SLP157 T01830122 50013 (DD),,,,,,,,,,,,,,,,,,,,,,,,,,,,
72208013880,2012-10-18T09:56:00,SY-MT,7,,SE,0.25,mi,"TEMP, PRECIP, SNOW",,,"MMTS, SRG, SNOWBOARD",,,WFO CHS,,,,,,,,,,,,,,,,,,,,,,,,,,,29.89,65,71,0.00,,+0.01,8,81,29.88,FEW:02 50 BKN:07 85 BKN:07 250,29.84,10.00,67,180,,3,,,,,,,,,,,,,,,,,,,,,,,,,,,,,,,,,,,,,SYN082AAXX  18154 72208 12766 61803 10217 20183 30106 40119 58002 69907 91456 555 91815;MET12410/18/12 09:56:02 METAR KCHS 181456Z 18003KT 10SM FEW050 BKN085 BKN250 22/18 A2989 RMK AO2 SLP119 60000 T02170183 58002 (DD),,,,,,,,,,,,,,,,,,,,,,,,,,,,
72208013880,2012-10-19T09:56:00,SY-MT,7,,SE,0.25,mi,"TEMP, PRECIP, SNOW",,,"MMTS, SRG, SNOWBOARD",,,WFO CHS,,,,,,,,,,,,,,,,,,,,,,,,,,,29.86,43,74,0.00,,-0.05,0,33,29.85,,29.81,10.00,57,320,23,14,,,,,,,,,,,,,,,,,,,,,,,,,,,,,,,,,,,,,SYN086AAXX  19154 72208 32966 03212 10233 20061 30096 40109 50018 91456 333 91020 555 91915;MET10510/19/12 09:56:02 METAR KCHS 191456Z 32012G20KT 10SM CLR 23/06 A2986 RMK AO2 SLP109 T02330061 50018 (JRS),,,,,,,,,,,,,,,,,,,,,,,,,,,,
72208013880,2012-10-22T09:56:00,SY-MT,7,,SE,0.25,mi,"TEMP, PRECIP, SNOW",,,"MMTS, SRG, SNOWBOARD",,,WFO CHS,,,,,,,,,,,,,,,,,,,,,,,,,,,30.23,46,66,0.00,,-0.02,0,48,30.23,BKN:07 200,30.18,10.00,55,040,,10,,,,,,,,,,,,,,,,,,,,,,,,,,,,,,,,,,,,,SYN076AAXX  22154 72208 32966 60409 10190 20078 30221 40236 50008 91456 555 92215;MET10510/22/12 09:56:02 METAR KCHS 221456Z 04009KT 10SM BKN200 19/08 A3023 RMK AO2 SLP236 T01900078 50008 (KPL),,,,,,,,,,,,,,,,,,,,,,,,,,,,
72208013880,2012-10-23T09:56:00,SY-MT,7,,SE,0.25,mi,"TEMP, PRECIP, SNOW",,,"MMTS, SRG, SNOWBOARD",,,WFO CHS,,,,,,,,,,,,,,,,,,,,,,,,,,,30.20,56,73,0.00,,-0.02,0,55,30.20,,30.15,10.00,63,080,,7,,,,,,,,,,,,,,,,,,,,,,,,,,,,,,,,,,,,,SYN076AAXX  23154 72208 32966 00806 10228 20133 30211 40226 50007 91456 555 92315;MET10210/23/12 09:56:02 METAR KCHS 231456Z 08006KT 10SM CLR 23/13 A3020 RMK AO2 SLP226 T02280133 50007 (KPL),,,,,,,,,,,,,,,,,,,,,,,,,,,,
72208013880,2012-10-24T09:56:00,SY-MT,7,,SE,0.25,mi,"TEMP, PRECIP, SNOW",,,"MMTS, SRG, SNOWBOARD",,,WFO CHS,,,,,,,,,,,,,,,,,,,,,,,,,,,30.17,64,76,0.00,,-0.01,0,67,30.17,SCT:04 55,30.12,10.00,68,050,,7,,,,,,,,,,,,,,,,,,,,,,,,,,,,,,,,,,,,,SYN076AAXX  24154 72208 32766 40506 10244 20178 30201 40217 50004 91456 555 92415;MET10510/24/12 09:56:02 METAR KCHS 241456Z 05006KT 10SM SCT055 24/18 A3017 RMK AO2 SLP217 T02440178 50004 (KPL),,,,,,,,,,,,,,,,,,,,,,,,,,,,
72208013880,2012-10-26T09:56:00,FM-15,7,,SE,0.25,mi,"TEMP, PRECIP, SNOW",,,"MMTS, SRG, SNOWBOARD",,,WFO CHS,,,,,,,,,,,,,,,,,,,,,,,,,,,29.96,61,75,0.00,,-0.00,0,62,29.95,OVC:08 200,29.91,10.00,66,040,,13,,,,,,,,,,,,,,,,,,,,,,,,,,,,,,,,,,,,,MET10510/26/12 09:56:02 METAR KCHS 261456Z 04011KT 10SM OVC200 24/16 A2996 RMK AO2 SLP143 T02390161 50001 (JRS),,,,,,,,,,,,,,,,,,,,,,,,,,,,
72208013880,2012-10-27T09:56:00,SY-MT,7,,SE,0.25,mi,"TEMP, PRECIP, SNOW",,,"MMTS, SRG, SNOWBOARD",,,WFO CHS,,,,,,,,,,,,,,,,,,,,,,,,,,,29.63,63,66,0.02,-RA:02 |RA |RA,+0.01,8,90,29.63,BKN:07 18 OVC:08 37,29.58,10.00,64,360,,18,,,,,,,,,,,,,,,,,,,,,,,,,,,,,,,,,,,,,SYN088AAXX  27154 72208 11466 83616 10189 20172 30018 40033 58002 60027 761// 91456 555 92715;MET12810/27/12 09:56:02 METAR KCHS 271456Z 36016KT 10SM -RA BKN018 OVC037 19/17 A2963 RMK AO2 SLP033 P0002 60008 T01890172 58002 (WRB),,,,,,,,,,,,,,,,,,,,,,,,,,,,
72208013880,2012-10-29T09:56:00,FM-15,7,,SE,0.25,mi,"TEMP, PRECIP, SNOW",,,"MMTS, SRG, SNOWBOARD",,,WFO CHS,,,,,,,,,,,,,,,,,,,,,,,,,,,29.65,35,57,0.00,,+0.01,8,44,29.65,,29.60,10.00,47,300,24,17,,,,,,,,,,,,,,,,,,,,,,,,,,,,,,,,,,,,,MET10410/29/12 09:56:02 METAR KCHS 291456Z 30015G21KT 10SM CLR 14/02 A2965 RMK AO2 SLP041 T01390017 58002 (DD),,,,,,,,,,,,,,,,,,,,,,,,,,,,
72208013880,2012-10-29T10:00:00,FM-12,4,,SE,0.25,mi,"TEMP, PRECIP, SNOW",,,"MMTS, SRG, SNOWBOARD",,,WFO CHS,,,,,,,,,,,,,,,,,,,,,,,,,,,,35,57,,,+0.01,8,44,29.65,CLR:00,29.60,9.94,47,300,,17,,,,,,,,,,,,,,,,,,,,,,,,,,,,,,,,,,,,,SYN086AAXX  29154 72208 32966 03015 10139 20017 30025 40041 58002 91456 333 91021 555 92915;,,,,,,,,,,,,,,,,,,,,,,,,,,,,
72208013880,2012-10-31T09:56:00,FM-15,7,,SE,0.25,mi,"TEMP, PRECIP, SNOW",,,"MMTS, SRG, SNOWBOARD",,,WFO CHS,,,,,,,,,,,,,,,,,,,,,,,,,,,29.82,30,55,0.00,,-0.01,0,38,29.81,FEW:02 180 SCT:04 250,29.77,10.00,44,280,,11,,,,,,,,,,,,,,,,,,,,,,,,,,,,,,,,,,,,,MET11210/31/12 09:56:02 METAR KCHS 311456Z 28010KT 10SM FEW180 SCT250 13/M01 A2982 RMK AO2 SLP096 T01281011 50004 (DD),,,,,,,,,,,,,,,,,,,,,,,,,,,,
72208013880,2012-10-31T10:00:00,FM-12,4,,SE,0.25,mi,"TEMP, PRECIP, SNOW",,,"MMTS, SRG, SNOWBOARD",,,WFO CHS,,,,,,,,,,,,,,,,,,,,,,,,,,,,30,55,,,-0.01,0,38,29.81,,29.77,9.94,44,280,,11,,,,,,,,,,,,,,,,,,,,,,,,,,,,,,,,,,,,,SYN076AAXX  31154 72208 32966 42810 10128 21011 30082 40096 50004 91456 555 93115;,,,,,,,,,,,,,,,,,,,,,,,,,,,,
72208013880,2012-11-01T09:56:00,FM-15,7,,SE,0.25,mi,"TEMP, PRECIP, SNOW",,,"MMTS, SRG, SNOWBOARD",,,WFO CHS,,,,,,,,,,,,,,,,,,,,,,,,,,,29.90,28,56,0.00,,-0.01,0,34,29.89,,29.85,10.00,44,300,22,10,,,,,,,,,,,,,,,,,,,,,,,,,,,,,,,,,,,,,MET10511/01/12 09:56:02 METAR KCHS 011456Z 30009G19KT 10SM CLR 13/M02 A2990 RMK AO2 SLP123 T01331022 50002 (DD),,,,,,,,,,,,,,,,,,,,,,,,,,,,
72208013880,2012-11-01T10:00:00,FM-12,4,,SE,0.25,mi,"TEMP, PRECIP, SNOW",,,"MMTS, SRG, SNOWBOARD",,,WFO CHS,,,,,,,,,,,,,,,,,,,,,,,,,,,,28,56,,,-0.01,0,34,29.89,CLR:00,29.85,9.94,44,300,,10,,,,,,,,,,,,,,,,,,,,,,,,,,,,,,,,,,,,,SYN086AAXX  01154 72208 32966 03009 10133 21022 30109 40123 50002 91456 333 91019 555 90115;,,,,,,,,,,,,,,,,,,,,,,,,,,,,
72208013880,2012-11-04T09:56:00,SY-MT,7,,SE,0.25,mi,"TEMP, PRECIP, SNOW",,,"MMTS, SRG, SNOWBOARD",,,WFO CHS,,,,,,,,,,,,,,,,,,,,,,,,,,,30.00,58,71,0.00,,+0.00,8,63,30.00,SCT:04 250,29.95,10.00,63,250,,8,,,,,,,,,,,,,,,,,,,,,,,,,,,,,,,,,,,,,SYN076AAXX  04154 72208 32966 42507 10217 20144 30143 40159 58000 91456 555 90415;MET10511/04/12 09:56:02 METAR KCHS 041456Z 25007KT 10SM SCT250 22/14 A3000 RMK AO2 SLP159 T02170144 58000 (WRB),,,,,,,,,,,,,,,,,,,,,,,,,,,,
72208013880,2012-11-05T09:56:00,SY-MT,7,,SE,0.25,mi,"TEMP, PRECIP, SNOW",,,"MMTS, SRG, SNOWBOARD",,,WFO CHS,,,,,,,,,,,,,,,,,,,,,,,,,,,30.05,43,56,0.00,,-0.04,0,62,30.04,FEW:02 55,30.00,10.00,50,040,,14,,,,,,,,,,,,,,,,,,,,,,,,,,,,,,,,,,,,,SYN076AAXX  05154 72208 32766 20412 10133 20061 30160 40173 50014 91456 555 90515;MET10411/05/12 09:56:02 METAR KCHS 051456Z 04012KT 10SM FEW055 13/06 A3005 RMK AO2 SLP173 T01330061 50014 (DD),,,,,,,,,,,,,,,,,,,,,,,,,,,,
72208013880,2012-11-11T09:56:00,SY-MT,7,,SE,0.25,mi,"TEMP, PRECIP, SNOW",,,"MMTS, SRG, SNOWBOARD",,,WFO CHS,,,,,,,,,,,,,,,,,,,,,,,,,,,30.44,57,67,0.00,,-0.03,0,71,30.43,SCT:04 45 BKN:07 60,30.39,10.00,61,050,,6,,,,,,,,,,,,,,,,,,,,,,,,,,,,,,,,,,,,,SYN076AAXX  11154 72208 32666 60505 10194 20139 30292 40306 50011 91456 555 91115;MET11211/11/12 09:56:02 METAR KCHS 111456Z 05005KT 10SM SCT045 BKN060 19/14 A3044 RMK AO2 SLP306 T01940139 50011 (WRB),,,,,,,,,,,,,,,,,,,,,,,,,,,,
72208013880,2012-11-17T09:56:00,FM-15,7,,SE,0.25,mi,"TEMP, PRECIP, SNOW",,,"MMTS, SRG, SNOWBOARD",,,WFO CHS,,,,,,,,,,,,,,,,,,,,,,,,,,,30.35,39,49,0.00,,-0.03,0,69,30.35,FEW:02 150 SCT:04 200 BKN:07 250,30.29,10.00,44,020,,14,,,,,,,,,,,,,,,,,,,,,,,,,,,,,,,,,,,,,MET11911/17/12 09:56:02 METAR KCHS 171456Z 02012KT 10SM FEW150 SCT200 BKN250 09/04 A3035 RMK AO2 SLP278 T00940039 50011 (WRB),,,,,,,,,,,,,,,,,,,,,,,,,,,,
72208013880,2012-11-17T10:00:00,FM-12,4,,SE,0.25,mi,"TEMP, PRECIP, SNOW",,,"MMTS, SRG, SNOWBOARD",,,WFO CHS,,,,,,,,,,,,,,,,,,,,,,,,,,,,39,49,,,-0.03,0,69,30.35,,30.30,9.94,44,020,,14,,,,,,,,,,,,,,,,,,,,,,,,,,,,,,,,,,,,,SYN076AAXX  17154 72208 32966 60212 10094 20039 30261 40278 50011 91456 555 91715;,,,,,,,,,,,,,,,,,,,,,,,,,,,,
72208013880,2012-11-18T09:56:00,FM-15,7,,SE,0.25,mi,"TEMP, PRECIP, SNOW",,,"MMTS, SRG, SNOWBOARD",,,WFO CHS,,,,,,,,,,,,,,,,,,,,,,,,,,,30.27,47,49,0.04,-RA:02 |RA |RA,+0.01,6,93,30.27,BKN:07 12 BKN:07 48 OVC:08 80,30.22,8.00,48,360,24,18,,,,,,,,,,,,,,,,,,,,,,,,,,,,,,,,,,,,,MET13711/18/12 09:56:02 METAR KCHS 181456Z 36016G21KT 8SM -RA BKN012 BKN048 OVC080 09/08 A3027 RMK AO2 SLP249 P0004 60009 T00940083 56005 (WRB),,,,,,,,,,,,,,,,,,,,,,,,,,,,
72208013880,2012-11-18T10:00:00,FM-12,4,,SE,0.25,mi,"TEMP, PRECIP, SNOW",,,"MMTS, SRG, SNOWBOARD",,,WFO CHS,,,,,,,,,,,,,,,,,,,,,,,,,,,,47,49,,||RA,+0.01,6,93,30.27,,30.22,7.46,48,360,,18,,,,,,,,,,,,,,,,,,,,,,,,,,,,,,,,,,,,,SYN098AAXX  18154 72208 11462 83616 10094 20083 30234 40249 56005 60027 761// 91456 333 91021 555 91815;,,,,,,,,,,,,,,,,,,,,,,,,,,,,
72208013880,2012-11-23T09:56:00,SY-MT,7,,SE,0.25,mi,"TEMP, PRECIP, SNOW",,,"MMTS, SRG, SNOWBOARD",,,WFO CHS,,,,,,,,,,,,,,,,,,,,,,,,,,,30.18,37,55,0.00,,-0.00,0,51,30.18,FEW:02 250,30.13,10.00,47,000,,0,,,,,,,,,,,,,,,,,,,,,,,,,,,,,,,,,,,,,SYN076AAXX  23154 72208 32966 20000 10128 20028 30204 40219 50001 91456 555 92315;MET10411/23/12 09:56:02 METAR KCHS 231456Z 00000KT 10SM FEW250 13/03 A3018 RMK AO2 SLP219 T01280028 50001 (DD),,,,,,,,,,,,,,,,,,,,,,,,,,,,
72208013880,2012-11-27T09:56:00,SY-MT,7,,SE,0.25,mi,"TEMP, PRECIP, SNOW",,,"MMTS, SRG, SNOWBOARD",,,WFO CHS,,,,,,,,,,,,,,,,,,,,,,,,,,,30.20,46,56,0.00,,-0.01,0,70,30.20,SCT:04 120 BKN:07 180 OVC:08 250,30.15,10.00,51,000,,0,,,,,,,,,,,,,,,,,,,,,,,,,,,,,,,,,,,,,SYN076AAXX  27154 72208 32966 80000 10133 20078 30211 40226 50002 91456 555 92715;MET11811/27/12 09:56:02 METAR KCHS 271456Z 00000KT 10SM SCT120 BKN180 OVC250 13/08 A3020 RMK AO2 SLP226 T01330078 50002 (DD),,,,,,,,,,,,,,,,,,,,,,,,,,,,
72208013880,2012-12-16T09:56:00,SY-MT,7,,SE,0.25,mi,"TEMP, PRECIP, SNOW",,,"MMTS, SRG, SNOWBOARD",,,WFO CHS,,,,,,,,,,,,,,,,,,,,,,,,,,,30.09,58,62,0.00,BR:1 ||,-0.01,0,86,30.09,FEW:02 1 BKN:07 55 BKN:07 200,30.04,5.00,60,170,,5,,,,,,,,,,,,,,,,,,,,,,,,,,,,,,,,,,,,,SYN082AAXX  16154 72208 31058 61704 10167 20144 30173 40188 50002 710// 91456 555 91615;MET12112/16/12 09:56:02 METAR KCHS 161456Z 17004KT 5SM BR FEW001 BKN055 BKN200 17/14 A3009 RMK AO2 SLP188 T01670144 50002 (WRB),,,,,,,,,,,,,,,,,,,,,,,,,,,,
72208013880,2012-12-20T09:56:00,FM-15,7,,SE,0.25,mi,"TEMP, PRECIP, SNOW",,,"MMTS, SRG, SNOWBOARD",,,WFO CHS,,,,,,,,,,,,,,,,,,,,,,,,,,,30.06,54,63,0.00,,+0.06,6,73,30.06,FEW:02 80 BKN:07 250,30.01,10.00,58,140,,10,,,,,,,,,,,,,,,,,,,,,,,,,,,,,,,,,,,,,MET11112/20/12 09:56:02 METAR KCHS 201456Z 14009KT 10SM FEW080 BKN250 17/12 A3006 RMK AO2 SLP179 T01720122 56020 (DD),,,,,,,,,,,,,,,,,,,,,,,,,,,,
72208013880,2012-12-20T10:00:00,FM-12,4,,SE,0.25,mi,"TEMP, PRECIP, SNOW",,,"MMTS, SRG, SNOWBOARD",,,WFO CHS,,,,,,,,,,,,,,,,,,,,,,,,,,,,54,63,,,+0.06,6,73,30.06,,30.01,9.94,58,140,,10,,,,,,,,,,,,,,,,,,,,,,,,,,,,,,,,,,,,,SYN076AAXX  20154 72208 32866 61409 10172 20122 30163 40179 56020 91456 555 92015;,,,,,,,,,,,,,,,,,,,,,,,,,,,,
72208013880,2012-12-26T09:56:00,FM-15,7,,SE,0.25,mi,"TEMP, PRECIP, SNOW",,,"MMTS, SRG, SNOWBOARD",,,WFO CHS,,,,,,,,,,,,,,,,,,,,,,,,,,,29.67,63,66,0.09,TS:7 RA:02 BR:1 |RA TS |SHRA TS,+0.01,6,90,29.67,FEW:02 15 SCT:04 30 OVC:08 70,29.62,2.00,64,200,32,20,,,,,,,,,,,,,,,,,,,,,,,,,,,,,,,,,,,,,MET20912/26/12 09:56:02 METAR KCHS 261456Z 20017G28KT 2SM TSRA BR FEW015 SCT030CB OVC070 19/17 A2967 RMK AO2 PK WND 20032/1412 SFC VIS 3 TSB44 SLP046 OCNL LTGIC SW-NW TS SW-NW MOV E P0008 60009 T01890172 56005 (JMB),,,,,,,,,,,,,,,,,,,,,,,,,,,,
72208013880,2012-12-26T10:00:00,FM-12,4,,SE,0.25,mi,"TEMP, PRECIP, SNOW",,,"MMTS, SRG, SNOWBOARD",,,WFO CHS,,,,,,,,,,,,,,,,,,,,,,,,,,,,63,66,,||TS,+0.01,6,90,29.67,,29.62,1.99,64,200,,19,,,,,,,,,,,,,,,,,,,,,,,,,,,,,,,,,,,,,SYN104AAXX  26154 72208 11432 82017 10189 20172 30031 40046 56005 60027 795// 91456 333 91028 96010 555 92615;,,,,,,,,,,,,,,,,,,,,,,,,,,,,
72208013880,2012-12-31T09:56:00,FM-15,7,,SE,0.25,mi,"TEMP, PRECIP, SNOW",,,"MMTS, SRG, SNOWBOARD",,,WFO CHS,,,,,,,,,,,,,,,,,,,,,,,,,,,30.44,31,47,0.00,,-0.01,0,54,30.44,FEW:02 180 SCT:04 250,30.39,10.00,40,000,,0,,,,,,,,,,,,,,,,,,,,,,,,,,,,,,,,,,,,,MET11212/31/12 09:56:02 METAR KCHS 311456Z 00000KT 10SM FEW180 SCT250 08/M01 A3044 RMK AO2 SLP308 T00831006 50003 (DD),,,,,,,,,,,,,,,,,,,,,,,,,,,,
72208013880,2012-12-31T10:00:00,FM-12,4,,SE,0.25,mi,"TEMP, PRECIP, SNOW",,,"MMTS, SRG, SNOWBOARD",,,WFO CHS,,,,,,,,,,,,,,,,,,,,,,,,,,,,31,47,,,-0.01,0,54,30.44,,30.39,9.94,40,000,,0,,,,,,,,,,,,,,,,,,,,,,,,,,,,,,,,,,,,,SYN076AAXX  31154 72208 32966 40000 10083 21006 30292 40308 50003 91456 555 93115;,,,,,,,,,,,,,,,,,,,,,,,,,,,,
72208013880,2013-01-03T09:56:00,FM-15,7,,SE,0.25,mi,"TEMP, PRECIP, SNOW",,,"MMTS, SRG, SNOWBOARD",,,WFO CHS,,,,,,,,,,,,,,,,,,,,,,,,,,,30.17,46,48,0.01,-RA:02 |RA |RA,-0.01,0,93,30.16,SCT:04 8 SCT:04 45 OVC:08 90,30.12,8.00,47,070,,8,,,,,,,,,,,,,,,,,,,,,,,,,,,,,,,,,,,,,MET13301/03/13 09:56:02 METAR KCHS 031456Z 07007KT 8SM -RA SCT008 SCT045 OVC090 09/08 A3017 RMK AO2 SLP214 P0001 60003 T00890078 50002 (DD),,,,,,,,,,,,,,,,,,,,,,,,,,,,
72208013880,2013-01-03T10:00:00,FM-12,4,,SE,0.25,mi,"TEMP, PRECIP, SNOW",,,"MMTS, SRG, SNOWBOARD",,,WFO CHS,,,,,,,,,,,,,,,,,,,,,,,,,,,,46,48,,||RA,-0.01,0,93,30.16,,30.12,7.46,47,070,,8,,,,,,,,,,,,,,,,,,,,,,,,,,,,,,,,,,,,,SYN088AAXX  03154 72208 11362 80707 10089 20078 30201 40214 50002 69987 761// 91456 555 90315;,,,,,,,,,,,,,,,,,,,,,,,,,,,,
72208013880,2013-01-10T09:56:00,FM-15,7,,SE,0.25,mi,"TEMP, PRECIP, SNOW",,,"MMTS, SRG, SNOWBOARD",,,WFO CHS,,,,,,,,,,,,,,,,,,,,,,,,,,,30.45,59,62,0.00,,-0.03,0,90,30.45,BKN:07 40,30.40,10.00,60,050,,6,,,,,,,,,,,,,,,,,,,,,,,,,,,,,,,,,,,,,MET10401/10/13 09:56:02 METAR KCHS 101456Z 05005KT 10SM BKN040 17/15 A3045 RMK AO2 SLP310 T01670150 50011 (DD),,,,,,,,,,,,,,,,,,,,,,,,,,,,
72208013880,2013-01-10T10:00:00,FM-12,4,,SE,0.25,mi,"TEMP, PRECIP, SNOW",,,"MMTS, SRG, SNOWBOARD",,,WFO CHS,,,,,,,,,,,,,,,,,,,,,,,,,,,,59,62,,,-0.03,0,90,30.45,,30.40,9.94,60,050,,6,,,,,,,,,,,,,,,,,,,,,,,,,,,,,,,,,,,,,SYN076AAXX  10154 72208 32666 60505 10167 20150 30295 40310 50011 91456 555 91015;,,,,,,,,,,,,,,,,,,,,,,,,,,,,
72208013880,2013-01-17T09:56:00,FM-15,7,,SE,0.25,mi,"TEMP, PRECIP, SNOW",,,"MMTS, SRG, SNOWBOARD",,,WFO CHS,,,,,,,,,,,,,,,,,,,,,,,,,,,29.96,59,72,0.00,,+0.01,8,64,29.96,FEW:02 80,29.91,10.00,64,200,,8,,,,,,,,,,,,,,,,,,,,,,,,,,,,,,,,,,,,,MET10401/17/13 09:56:02 METAR KCHS 171456Z 20007KT 10SM FEW080 22/15 A2996 RMK AO2 SLP145 T02220150 58005 (DD),,,,,,,,,,,,,,,,,,,,,,,,,,,,
72208013880,2013-01-17T10:00:00,FM-12,4,,SE,0.25,mi,"TEMP, PRECIP, SNOW",,,"MMTS, SRG, SNOWBOARD",,,WFO CHS,,,,,,,,,,,,,,,,,,,,,,,,,,,,59,72,,,+0.01,8,64,29.96,,29.91,9.94,64,200,,8,,,,,,,,,,,,,,,,,,,,,,,,,,,,,,,,,,,,,SYN076AAXX  17154 72208 32866 22007 10222 20150 30129 40145 58005 91456 555 91715;,,,,,,,,,,,,,,,,,,,,,,,,,,,,
72208013880,2013-02-02T09:56:00,FM-15,7,,SE,0.25,mi,"TEMP, PRECIP, SNOW",,,"MMTS, SRG, SNOWBOARD",,,WFO CHS,,,,,,,,,,,,,,,,,,,,,,,,,,,30.37,26,46,0.00,,+0.00,8,46,30.37,,30.32,10.00,38,070,,5,,,,,,,,,,,,,,,,,,,,,,,,,,,,,,,,,,,,,MET10302/02/13 09:56:02 METAR KCHS 021456Z 07004KT 10SM CLR 08/M03 A3037 RMK AO2 SLP285 T00781033 58001 (WRB),,,,,,,,,,,,,,,,,,,,,,,,,,,,
72208013880,2013-02-02T10:00:00,FM-12,4,,SE,0.25,mi,"TEMP, PRECIP, SNOW",,,"MMTS, SRG, SNOWBOARD",,,WFO CHS,,,,,,,,,,,,,,,,,,,,,,,,,,,,26,46,,,+0.00,8,46,30.37,CLR:00,30.32,9.94,38,070,,5,,,,,,,,,,,,,,,,,,,,,,,,,,,,,,,,,,,,,SYN076AAXX  02154 72208 32966 00704 10078 21033 30268 40285 58001 91456 555 90215;,,,,,,,,,,,,,,,,,,,,,,,,,,,,
72208013880,2013-02-03T09:56:00,FM-15,7,,SE,0.25,mi,"TEMP, PRECIP, SNOW",,,"MMTS, SRG, SNOWBOARD",,,WFO CHS,,,,,,,,,,,,,,,,,,,,,,,,,,,30.08,30,50,0.00,,-0.02,0,46,30.08,,30.03,10.00,41,290,,9,,,,,,,,,,,,,,,,,,,,,,,,,,,,,,,,,,,,,MET10302/03/13 09:56:02 METAR KCHS 031456Z 29008KT 10SM CLR 10/M01 A3008 RMK AO2 SLP186 T01001011 50008 (WRB),,,,,,,,,,,,,,,,,,,,,,,,,,,,
72208013880,2013-02-03T10:00:00,FM-12,4,,SE,0.25,mi,"TEMP, PRECIP, SNOW",,,"MMTS, SRG, SNOWBOARD",,,WFO CHS,,,,,,,,,,,,,,,,,,,,,,,,,,,,30,50,,,-0.02,0,46,30.08,CLR:00,30.03,9.94,41,290,,9,,,,,,,,,,,,,,,,,,,,,,,,,,,,,,,,,,,,,SYN076AAXX  03154 72208 32966 02908 10100 21011 30170 40186 50008 91456 555 90315;,,,,,,,,,,,,,,,,,,,,,,,,,,,,
72208013880,2013-02-04T09:56:00,SY-MT,7,,SE,0.25,mi,"TEMP, PRECIP, SNOW",,,"MMTS, SRG, SNOWBOARD",,,WFO CHS,,,,,,,,,,,,,,,,,,,,,,,,,,,30.16,28,49,0.00,,-0.05,0,44,30.15,SCT:04 180 BKN:07 250,30.11,10.00,40,070,,7,,,,,,,,,,,,,,,,,,,,,,,,,,,,,,,,,,,,,SYN076AAXX  04154 72208 32966 60706 10094 21022 30197 40211 50016 91456 555 90415;MET11202/04/13 09:56:02 METAR KCHS 041456Z 07006KT 10SM SCT180 BKN250 09/M02 A3016 RMK AO2 SLP211 T00941022 50016 (DD),,,,,,,,,,,,,,,,,,,,,,,,,,,,
72208013880,2013-02-07T09:56:00,SY-MT,7,,SE,0.25,mi,"TEMP, PRECIP, SNOW",,,"MMTS, SRG, SNOWBOARD",,,WFO CHS,,,,,,,,,,,,,,,,,,,,,,,,,,,30.15,52,57,T,,+0.02,8,83,30.14,SCT:04 35 SCT:04 80 OVC:08 200,30.10,10.00,54,060,,7,,,,,,,,,,,,,,,,,,,,,,,,,,,,,,,,,,,,,SYN082AAXX  07154 72208 12666 80606 10139 20111 30194 40208 58006 69907 91456 555 90715;MET13902/07/13 09:56:02 METAR KCHS 071456Z 06006KT 10SM SCT035 SCT080 OVC200 14/11 A3015 RMK AO2 RAB45E54 SLP208 P0000 60000 T01390111 58006 (DD),,,,,,,,,,,,,,,,,,,,,,,,,,,,
72208013880,2013-02-10T09:56:00,FM-15,7,,SE,0.25,mi,"TEMP, PRECIP, SNOW",,,"MMTS, SRG, SNOWBOARD",,,WFO CHS,,,,,,,,,,,,,,,,,,,,,,,,,,,30.41,41,57,0.00,,-0.03,0,55,30.40,FEW:02 170 BKN:07 220,30.36,10.00,49,070,,10,,,,,,,,,,,,,,,,,,,,,,,,,,,,,,,,,,,,,MET11202/10/13 09:56:02 METAR KCHS 101456Z 07009KT 10SM FEW170 BKN220 14/05 A3041 RMK AO2 SLP296 T01390050 50010 (WRB),,,,,,,,,,,,,,,,,,,,,,,,,,,,
72208013880,2013-02-10T10:00:00,FM-12,4,,SE,0.25,mi,"TEMP, PRECIP, SNOW",,,"MMTS, SRG, SNOWBOARD",,,WFO CHS,,,,,,,,,,,,,,,,,,,,,,,,,,,,41,57,,,-0.03,0,55,30.40,,30.36,9.94,49,070,,10,,,,,,,,,,,,,,,,,,,,,,,,,,,,,,,,,,,,,SYN076AAXX  10154 72208 32966 60709 10139 20050 30282 40296 50010 91456 555 91015;,,,,,,,,,,,,,,,,,,,,,,,,,,,,
72208013880,2013-02-11T09:56:00,SY-MT,7,,SE,0.25,mi,"TEMP, PRECIP, SNOW",,,"MMTS, SRG, SNOWBOARD",,,WFO CHS,,,,,,,,,,,,,,,,,,,,,,,,,,,30.16,61,63,0.02,,+0.01,8,93,30.16,BKN:07 35 OVC:08 55,30.11,10.00,62,200,,9,,,,,,,,,,,,,,,,,,,,,,,,,,,,,,,,,,,,,SYN082AAXX  11154 72208 12666 82008 10172 20161 30197 40213 58005 60067 91456 555 91115;MET12902/11/13 09:56:02 METAR KCHS 111456Z 20008KT 10SM BKN035 OVC055 17/16 A3016 RMK AO2 RAE44 SLP213 P0003 60023 T01720161 58005 (DD),,,,,,,,,,,,,,,,,,,,,,,,,,,,
72208013880,2013-02-13T09:56:00,SY-MT,7,,SE,0.25,mi,"TEMP, PRECIP, SNOW",,,"MMTS, SRG, SNOWBOARD",,,WFO CHS,,,,,,,,,,,,,,,,,,,,,,,,,,,29.80,56,57,0.00,BR:1 ||,-0.01,0,96,29.80,OVC:08 3,29.75,1.50,56,270,,3,,,,,,,,,,,,,,,,,,,,,,,,,,,,,,,,,,,,,SYN082AAXX  13154 72208 31124 82703 10139 20133 30075 40092 50005 710// 91456 555 91315;MET12002/13/13 09:56:02 METAR KCHS 131456Z 27003KT 1 1/2SM BR OVC003 14/13 A2980 RMK AO2 SFC VIS 4 SLP092 T01390133 50005 (DD),,,,,,,,,,,,,,,,,,,,,,,,,,,,
72208013880,2013-02-16T09:56:00,SY-MT,7,,SE,0.25,mi,"TEMP, PRECIP, SNOW",,,"MMTS, SRG, SNOWBOARD",,,WFO CHS,,,,,,,,,,,,,,,,,,,,,,,,,,,29.88,41,50,0.00,,+0.01,6,71,29.88,FEW:02 180 SCT:04 250,29.83,10.00,46,010,,9,,,,,,,,,,,,,,,,,,,,,,,,,,,,,,,,,,,,,SYN076AAXX  16154 72208 32966 40108 10100 20050 30102 40118 56005 91456 555 91615;MET11202/16/13 09:56:02 METAR KCHS 161456Z 01008KT 10SM FEW180 SCT250 10/05 A2988 RMK AO2 SLP118 T01000050 56005 (WRB),,,,,,,,,,,,,,,,,,,,,,,,,,,,
72208013880,2013-02-19T09:56:00,SY-MT,7,,SE,0.25,mi,"TEMP, PRECIP, SNOW",,,"MMTS, SRG, SNOWBOARD",,,WFO CHS,,,,,,,,,,,,,,,,,,,,,,,,,,,30.14,47,62,0.00,,-0.01,0,58,30.14,FEW:02 45 SCT:04 120 BKN:07 200,30.09,10.00,54,220,,11,,,,,,,,,,,,,,,,,,,,,,,,,,,,,,,,,,,,,SYN076AAXX  19154 72208 32666 62210 10167 20083 30190 40205 50002 91456 555 91915;MET11802/19/13 09:56:02 METAR KCHS 191456Z 22010KT 10SM FEW045 SCT120 BKN200 17/08 A3014 RMK AO2 SLP205 T01670083 50002 (DD),,,,,,,,,,,,,,,,,,,,,,,,,,,,
72208013880,2013-02-20T09:56:00,FM-15,7,,SE,0.25,mi,"TEMP, PRECIP, SNOW",,,"MMTS, SRG, SNOWBOARD",,,WFO CHS,,,,,,,,,,,,,,,,,,,,,,,,,,,30.17,29,47,0.00,,-0.04,0,50,30.17,FEW:02 250,30.12,10.00,40,VRB,,3,,,,,,,,,,,,,,,,,,,,,,,,,,,,,,,,,,,,,MET10502/20/13 09:56:02 METAR KCHS 201456Z VRB03KT 10SM FEW250 08/M02 A3017 RMK AO2 SLP216 T00831017 50015 (DD),,,,,,,,,,,,,,,,,,,,,,,,,,,,
72208013880,2013-02-20T10:00:00,FM-12,4,,SE,0.25,mi,"TEMP, PRECIP, SNOW",,,"MMTS, SRG, SNOWBOARD",,,WFO CHS,,,,,,,,,,,,,,,,,,,,,,,,,,,,29,47,,,-0.04,0,50,30.17,,30.12,9.94,40,,,,,,,,,,,,,,,,,,,,,,,,,,,,,,,,,,,,,,,,SYN076AAXX  20154 72208 32966 2//03 10083 21017 30201 40216 50015 91456 555 92015;,,,,,,,,,,,,,,,,,,,,,,,,,,,,
72208013880,2013-02-22T09:56:00,FM-15,7,,SE,0.25,mi,"TEMP, PRECIP, SNOW",,,"MMTS, SRG, SNOWBOARD",,,WFO CHS,,,,,,,,,,,,,,,,,,,,,,,,,,,30.20,44,52,T,,-0.01,0,75,30.19,BKN:07 20 OVC:08 30,30.15,10.00,48,080,,11,,,,,,,,,,,,,,,,,,,,,,,,,,,,,,,,,,,,,MET13202/22/13 09:56:02 METAR KCHS 221456Z 08010KT 10SM BKN020 OVC030 11/07 A3020 RMK AO2 RAB39E51 SLP225 P0000 60000 T01110067 50002 (DD),,,,,,,,,,,,,,,,,,,,,,,,,,,,
72208013880,2013-02-22T10:00:00,FM-12,4,,SE,0.25,mi,"TEMP, PRECIP, SNOW",,,"MMTS, SRG, SNOWBOARD",,,WFO CHS,,,,,,,,,,,,,,,,,,,,,,,,,,,,44,52,,,-0.01,0,75,30.19,,30.15,9.94,48,080,,11,,,,,,,,,,,,,,,,,,,,,,,,,,,,,,,,,,,,,SYN082AAXX  22154 72208 12566 80810 10111 20067 30211 40225 50002 69907 91456 555 92215;,,,,,,,,,,,,,,,,,,,,,,,,,,,,
72208013880,2013-02-26T09:56:00,FM-15,7,,SE,0.25,mi,"TEMP, PRECIP, SNOW",,,"MMTS, SRG, SNOWBOARD",,,WFO CHS,,,,,,,,,,,,,,,,,,,,,,,,,,,29.73,65,67,0.22,+RA:02 BR:1 |RA |RA,+0.03,6,93,29.72,BKN:07 7 BKN:07 15 OVC:08 35,29.68,3.00,66,170,36,25,,,,,,,,,,,,,,,,,,,,,,,,,,,,,,,,,,,,,MET18502/26/13 09:56:02 METAR KCHS 261456Z 17022G31KT 3SM +RA BR BKN007 BKN015 OVC035 19/18 A2973 RMK AO2 PK WND 16033/1419 TSE46 SLP066 CB DSNT NW-NE MOVG NE P0022 60054 T01940183 56011 (DD),,,,,,,,,,,,,,,,,,,,,,,,,,,,
72208013880,2013-02-26T10:00:00,FM-12,4,,SE,0.25,mi,"TEMP, PRECIP, SNOW",,,"MMTS, SRG, SNOWBOARD",,,WFO CHS,,,,,,,,,,,,,,,,,,,,,,,,,,,,65,67,,||RA,+0.03,6,93,29.72,,29.68,2.98,66,170,,25,,,,,,,,,,,,,,,,,,,,,,,,,,,,,,,,,,,,,SYN104AAXX  26154 72208 11348 81722 10194 20183 30052 40066 56011 60147 765// 91456 333 91031 96010 555 92615;,,,,,,,,,,,,,,,,,,,,,,,,,,,,
72208013880,2013-02-28T09:56:00,FM-15,7,,SE,0.25,mi,"TEMP, PRECIP, SNOW",,,"MMTS, SRG, SNOWBOARD",,,WFO CHS,,,,,,,,,,,,,,,,,,,,,,,,,,,29.88,33,54,0.00,,-0.02,0,45,29.88,,29.83,10.00,45,280,23,15,,,,,,,,,,,,,,,,,,,,,,,,,,,,,,,,,,,,,MET12202/28/13 09:56:02 METAR KCHS 281456Z 28013G20KT 10SM CLR 12/01 A2988 RMK AO2 PK WND 29027/1406 SLP117 T01220006 50006 (DD),,,,,,,,,,,,,,,,,,,,,,,,,,,,
72208013880,2013-02-28T10:00:00,FM-12,4,,SE,0.25,mi,"TEMP, PRECIP, SNOW",,,"MMTS, SRG, SNOWBOARD",,,WFO CHS,,,,,,,,,,,,,,,,,,,,,,,,,,,,33,54,,,-0.02,0,45,29.88,CLR:00,29.83,9.94,45,280,,15,,,,,,,,,,,,,,,,,,,,,,,,,,,,,,,,,,,,,SYN086AAXX  28154 72208 32966 02813 10122 20006 30102 40117 50006 91456 333 91020 555 92815;,,,,,,,,,,,,,,,,,,,,,,,,,,,,
72208013880,2013-03-01T09:56:00,FM-15,7,,SE,0.25,mi,"TEMP, PRECIP, SNOW",,,"MMTS, SRG, SNOWBOARD",,,WFO CHS,,,,,,,,,,,,,,,,,,,,,,,,,,,29.96,29,45,0.00,,-0.01,0,54,29.96,SCT:04 200 BKN:07 250,29.91,10.00,38,340,,5,,,,,,,,,,,,,,,,,,,,,,,,,,,,,,,,,,,,,MET11203/01/13 09:56:02 METAR KCHS 011456Z 34004KT 10SM SCT200 BKN250 07/M02 A2996 RMK AO2 SLP146 T00721017 50005 (DD),,,,,,,,,,,,,,,,,,,,,,,,,,,,
72208013880,2013-03-01T10:00:00,FM-12,4,,SE,0.25,mi,"TEMP, PRECIP, SNOW",,,"MMTS, SRG, SNOWBOARD",,,WFO CHS,,,,,,,,,,,,,,,,,,,,,,,,,,,,29,45,,,-0.01,0,54,29.96,,29.91,9.94,38,340,,5,,,,,,,,,,,,,,,,,,,,,,,,,,,,,,,,,,,,,SYN076AAXX  01154 72208 32966 63404 10072 21017 30129 40146 50005 91456 555 90115;,,,,,,,,,,,,,,,,,,,,,,,,,,,,
72208013880,2013-03-02T09:56:00,SY-MT,7,,SE,0.25,mi,"TEMP, PRECIP, SNOW",,,"MMTS, SRG, SNOWBOARD",,,WFO CHS,,,,,,,,,,,,,,,,,,,,,,,,,,,29.93,31,45,0.00,,+0.01,8,58,29.92,FEW:02 40,29.88,10.00,39,300,,9,,,,,,,,,,,,,,,,,,,,,,,,,,,,,,,,,,,,,SYN076AAXX  02154 72208 32666 23008 10072 21006 30119 40133 58002 91456 555 90215;MET10503/02/13 09:56:02 METAR KCHS 021456Z 30008KT 10SM FEW040 07/M01 A2993 RMK AO2 SLP133 T00721006 58002 (TF),,,,,,,,,,,,,,,,,,,,,,,,,,,,
72208013880,2013-03-05T09:56:00,SY-MT,7,,SE,0.25,mi,"TEMP, PRECIP, SNOW",,,"MMTS, SRG, SNOWBOARD",,,WFO CHS,,,,,,,,,,,,,,,,,,,,,,,,,,,30.09,35,62,0.00,,+0.05,8,37,30.09,FEW:02 120 SCT:04 150 SCT:04 200,30.04,10.00,49,190,,15,,,,,,,,,,,,,,,,,,,,,,,,,,,,,,,,,,,,,SYN076AAXX  05154 72208 32966 41913 10167 20017 30173 40188 58017 91456 555 90515;MET11803/05/13 09:56:02 METAR KCHS 051456Z 19013KT 10SM FEW120 SCT150 SCT200 17/02 A3009 RMK AO2 SLP188 T01670017 58017 (DD),,,,,,,,,,,,,,,,,,,,,,,,,,,,
72208013880,2013-03-08T09:56:00,SY-MT,7,,SE,0.25,mi,"TEMP, PRECIP, SNOW",,,"MMTS, SRG, SNOWBOARD",,,WFO CHS,,,,,,,,,,,,,,,,,,,,,,,,,,,30.30,26,46,0.00,,-0.03,0,45,30.29,,30.25,10.00,38,010,,10,,,,,,,,,,,,,,,,,,,,,,,,,,,,,,,,,,,,,SYN076AAXX  08154 72208 32966 00109 10080 21033 30244 40259 50010 91456 555 90815;MET10203/08/13 09:56:02 METAR KCHS 081456Z 01009KT 10SM CLR 08/M03 A3030 RMK AO2 SLP259 T00801033 50010 (DD),,,,,,,,,,,,,,,,,,,,,,,,,,,,
72208013880,2013-03-11T09:56:00,FM-15,7,,SE,0.25,mi,"TEMP, PRECIP, SNOW",,,"MMTS, SRG, SNOWBOARD",,,WFO CHS,,,,,,,,,,,,,,,,,,,,,,,,,,,30.12,54,68,0.00,,+0.00,7,61,30.12,BKN:07 50 BKN:07 250,30.07,10.00,60,160,,6,,,,,,,,,,,,,,,,,,,,,,,,,,,,,,,,,,,,,MET11103/11/13 09:56:02 METAR KCHS 111456Z 16005KT 10SM BKN050 BKN250 20/12 A3012 RMK AO2 SLP199 T02000122 57000 (DD),,,,,,,,,,,,,,,,,,,,,,,,,,,,
72208013880,2013-03-11T10:00:00,FM-12,4,,SE,0.25,mi,"TEMP, PRECIP, SNOW",,,"MMTS, SRG, SNOWBOARD",,,WFO CHS,,,,,,,,,,,,,,,,,,,,,,,,,,,,54,68,,,+0.00,7,61,30.12,,30.07,9.94,60,160,,6,,,,,,,,,,,,,,,,,,,,,,,,,,,,,,,,,,,,,SYN076AAXX  11154 72208 32766 61605 10200 20122 30184 40199 57000 91456 555 91115;,,,,,,,,,,,,,,,,,,,,,,,,,,,,
72208013880,2013-03-13T09:56:00,SY-MT,7,,SE,0.25,mi,"TEMP, PRECIP, SNOW",,,"MMTS, SRG, SNOWBOARD",,,WFO CHS,,,,,,,,,,,,,,,,,,,,,,,,,,,30.14,31,60,0.00,,-0.03,0,33,30.14,,30.09,10.00,47,320,,8,,,,,,,,,,,,,,,,,,,,,,,,,,,,,,,,,,,,,SYN076AAXX  13154 72208 32966 03207 10156 21006 30190 40205 50010 91456 555 91315;MET09703/13/13 09:56:02 METAR KCHS 131456Z 32007KT 10SM CLR 16/M01 A3014 RMK AO2 SLP205 T01561006 50010,,,,,,,,,,,,,,,,,,,,,,,,,,,,
72208013880,2013-03-14T09:56:00,SY-MT,7,,SE,0.25,mi,"TEMP, PRECIP, SNOW",,,"MMTS, SRG, SNOWBOARD",,,WFO CHS,,,,,,,,,,,,,,,,,,,,,,,,,,,30.32,18,48,0.00,,-0.04,0,30,30.31,,30.27,10.00,37,360,18,10,,,,,,,,,,,,,,,,,,,,,,,,,,,,,,,,,,,,,SYN086AAXX  14154 72208 32966 03609 10089 21078 30251 40265 50012 91456 333 91016 555 91415;MET10503/14/13 09:56:02 METAR KCHS 141456Z 36009G16KT 10SM CLR 09/M08 A3032 RMK AO2 SLP265 T00891078 50012 (DD),,,,,,,,,,,,,,,,,,,,,,,,,,,,
72208013880,2013-03-15T09:56:00,SY-MT,7,,SE,0.25,mi,"TEMP, PRECIP, SNOW",,,"MMTS, SRG, SNOWBOARD",,,WFO CHS,,,,,,,,,,,,,,,,,,,,,,,,,,,30.23,29,54,0.00,,-0.01,0,38,30.23,,30.18,10.00,43,100,,3,,,,,,,,,,,,,,,,,,,,,,,,,,,,,,,,,,,,,SYN076AAXX  15154 72208 32966 01003 10122 21017 30221 40236 50002 91456 555 91515;MET10203/15/13 09:56:02 METAR KCHS 151456Z 10003KT 10SM CLR 12/M02 A3023 RMK AO2 SLP236 T01221017 50002 (DD),,,,,,,,,,,,,,,,,,,,,,,,,,,,
72208013880,2013-03-16T09:56:00,FM-15,7,,SE,0.25,mi,"TEMP, PRECIP, SNOW",,,"MMTS, SRG, SNOWBOARD",,,WFO CHS,,,,,,,,,,,,,,,,,,,,,,,,,,,30.02,42,68,0.00,,-0.00,0,39,30.02,FEW:02 250,29.97,10.00,55,250,23,15,,,,,,,,,,,,,,,,,,,,,,,,,,,,,,,,,,,,,MET10703/16/13 09:56:02 METAR KCHS 161456Z 25013G20KT 10SM FEW250 20/06 A3002 RMK AO2 SLP166 T02000056 50000 (TF),,,,,,,,,,,,,,,,,,,,,,,,,,,,
72208013880,2013-03-16T10:00:00,FM-12,4,,SE,0.25,mi,"TEMP, PRECIP, SNOW",,,"MMTS, SRG, SNOWBOARD",,,WFO CHS,,,,,,,,,,,,,,,,,,,,,,,,,,,,42,68,,,-0.00,0,39,30.02,,29.97,9.94,55,250,,15,,,,,,,,,,,,,,,,,,,,,,,,,,,,,,,,,,,,,SYN086AAXX  16154 72208 32966 22513 10200 20056 30150 40166 50000 91456 333 91020 555 91615;,,,,,,,,,,,,,,,,,,,,,,,,,,,,
72208013880,2013-03-17T09:56:00,SY-MT,7,,SE,0.25,mi,"TEMP, PRECIP, SNOW",,,"MMTS, SRG, SNOWBOARD",,,WFO CHS,,,,,,,,,,,,,,,,,,,,,,,,,,,30.04,51,70,0.00,,-0.01,0,51,30.04,BKN:07 250,29.99,10.00,59,270,21,13,,,,,,,,,,,,,,,,,,,,,,,,,,,,,,,,,,,,,SYN086AAXX  17154 72208 32966 62711 10211 20106 30157 40172 50004 91456 333 91018 555 91715;MET10903/17/13 09:56:02 METAR KCHS 171456Z 27011G18KT 10SM BKN250 21/11 A3004 RMK AO2 SLP172 T02110106 50004 $ (TF),,,,,,,,,,,,,,,,,,,,,,,,,,,,
72208013880,2013-03-18T09:56:00,FM-15,7,,SE,0.25,mi,"TEMP, PRECIP, SNOW",,,"MMTS, SRG, SNOWBOARD",,,WFO CHS,,,,,,,,,,,,,,,,,,,,,,,,,,,30.09,57,64,0.00,,-0.02,0,78,30.09,FEW:02 20 SCT:04 45 BKN:07 65,30.04,10.00,60,110,,6,,,,,,,,,,,,,,,,,,,,,,,,,,,,,,,,,,,,,MET12403/18/13 09:56:02 METAR KCHS 181456Z 11005KT 10SM FEW020 SCT045 BKN065 18/14 A3009 RMK AO2 SLP188 60000 T01780139 50006 (DD),,,,,,,,,,,,,,,,,,,,,,,,,,,,
72208013880,2013-03-18T10:00:00,FM-12,4,,SE,0.25,mi,"TEMP, PRECIP, SNOW",,,"MMTS, SRG, SNOWBOARD",,,WFO CHS,,,,,,,,,,,,,,,,,,,,,,,,,,,,57,64,,,-0.02,0,78,30.09,,30.04,9.94,60,110,,6,,,,,,,,,,,,,,,,,,,,,,,,,,,,,,,,,,,,,SYN082AAXX  18154 72208 12566 61105 10178 20139 30173 40188 50006 69907 91456 555 91815;,,,,,,,,,,,,,,,,,,,,,,,,,,,,
72208013880,2013-03-20T09:56:00,FM-15,7,,SE,0.25,mi,"TEMP, PRECIP, SNOW",,,"MMTS, SRG, SNOWBOARD",,,WFO CHS,,,,,,,,,,,,,,,,,,,,,,,,,,,30.11,15,58,,,-0.04,0,18,30.11,SCT:04 110 BKN:07 250,30.06,10.00,42,060,20,13,,,,,,,,,,,,,,,,,,,,,,,,,,,,,,,,,,,,,MET11703/20/13 09:56:02 METAR KCHS 201456Z 06011G17KT 10SM SCT110 BKN250 14/M09 A3011 RMK AO2 SLP196 T01441094 50013 $ (DD),,,,,,,,,,,,,,,,,,,,,,,,,,,,
72208013880,2013-03-20T10:00:00,FM-12,4,,SE,0.25,mi,"TEMP, PRECIP, SNOW",,,"MMTS, SRG, SNOWBOARD",,,WFO CHS,,,,,,,,,,,,,,,,,,,,,,,,,,,,15,58,,,-0.04,0,18,30.11,,30.06,9.94,42,060,,13,,,,,,,,,,,,,,,,,,,,,,,,,,,,,,,,,,,,,SYN086AAXX  20154 72208 32966 60611 10144 21094 30180 40196 50013 91456 333 91017 555 92015;,,,,,,,,,,,,,,,,,,,,,,,,,,,,
72208013880,2013-03-21T09:56:00,FM-15,7,,SE,0.25,mi,"TEMP, PRECIP, SNOW",,,"MMTS, SRG, SNOWBOARD",,,WFO CHS,,,,,,,,,,,,,,,,,,,,,,,,,,,29.87,20,50,0.00,,+0.01,8,30,29.86,SCT:04 250,29.82,10.00,38,310,21,15,,,,,,,,,,,,,,,,,,,,,,,,,,,,,,,,,,,,,MET10803/21/13 09:56:02 METAR KCHS 211456Z 31013G18KT 10SM SCT250 10/M07 A2987 RMK AO2 SLP112 T01001067 58002 (DD),,,,,,,,,,,,,,,,,,,,,,,,,,,,
72208013880,2013-03-21T10:00:00,FM-12,4,,SE,0.25,mi,"TEMP, PRECIP, SNOW",,,"MMTS, SRG, SNOWBOARD",,,WFO CHS,,,,,,,,,,,,,,,,,,,,,,,,,,,,20,50,,,+0.01,8,30,29.86,,29.82,9.94,38,310,,15,,,,,,,,,,,,,,,,,,,,,,,,,,,,,,,,,,,,,SYN086AAXX  21154 72208 32966 43113 10100 21067 30099 40112 58002 91456 333 91018 555 92115;,,,,,,,,,,,,,,,,,,,,,,,,,,,,
72208013880,2013-03-22T09:56:00,FM-15,7,,SE,0.25,mi,"TEMP, PRECIP, SNOW",,,"MMTS, SRG, SNOWBOARD",,,WFO CHS,,,,,,,,,,,,,,,,,,,,,,,,,,,30.09,18,46,0.00,,-0.00,0,32,30.09,SCT:04 100 SCT:04 250,30.04,10.00,36,030,,7,,,,,,,,,,,,,,,,,,,,,,,,,,,,,,,,,,,,,MET11203/22/13 09:56:02 METAR KCHS 221456Z 03006KT 10SM SCT100 SCT250 08/M08 A3009 RMK AO2 SLP190 T00781078 50001 (DD),,,,,,,,,,,,,,,,,,,,,,,,,,,,
72208013880,2013-03-22T10:00:00,FM-12,4,,SE,0.25,mi,"TEMP, PRECIP, SNOW",,,"MMTS, SRG, SNOWBOARD",,,WFO CHS,,,,,,,,,,,,,,,,,,,,,,,,,,,,18,46,,,-0.00,0,32,30.09,,30.04,9.94,36,030,,7,,,,,,,,,,,,,,,,,,,,,,,,,,,,,,,,,,,,,SYN076AAXX  22154 72208 32966 40306 10078 21078 30173 40190 50001 91456 555 92215;,,,,,,,,,,,,,,,,,,,,,,,,,,,,
72208013880,2013-03-24T09:56:00,FM-15,7,,SE,0.25,mi,"TEMP, PRECIP, SNOW",,,"MMTS, SRG, SNOWBOARD",,,WFO CHS,,,,,,,,,,,,,,,,,,,,,,,,,,,29.60,52,54,0.13,-RA:02 |RA |RA,+0.11,6,93,29.60,SCT:04 5 BKN:07 75 OVC:08 110,29.55,9.00,53,140,,8,,,,,,,,,,,,,,,,,,,,,,,,,,,,,,,,,,,,,MET13403/24/13 09:56:02 METAR KCHS 241456Z 14007KT 9SM -RA SCT005 BKN075 OVC110 12/11 A2960 RMK AO2 SLP023 P0014 60145 T01220111 56036 (WRB),,,,,,,,,,,,,,,,,,,,,,,,,,,,
72208013880,2013-03-24T10:00:00,FM-12,4,,SE,0.25,mi,"TEMP, PRECIP, SNOW",,,"MMTS, SRG, SNOWBOARD",,,WFO CHS,,,,,,,,,,,,,,,,,,,,,,,,,,,,52,54,,||RA,+0.11,6,93,29.60,,29.55,8.70,53,140,,8,,,,,,,,,,,,,,,,,,,,,,,,,,,,,,,,,,,,,SYN088AAXX  24154 72208 11264 81407 10122 20111 30008 40023 56036 60377 761// 91456 555 92415;,,,,,,,,,,,,,,,,,,,,,,,,,,,,
72208013880,2013-03-26T09:56:00,FM-15,7,,SE,0.25,mi,"TEMP, PRECIP, SNOW",,,"MMTS, SRG, SNOWBOARD",,,WFO CHS,,,,,,,,,,,,,,,,,,,,,,,,,,,30.04,25,46,0.00,,-0.01,0,44,30.04,,29.99,10.00,38,290,18,11,,,,,,,,,,,,,,,,,,,,,,,,,,,,,,,,,,,,,MET10503/26/13 09:56:02 METAR KCHS 261456Z 29010G16KT 10SM CLR 08/M04 A3004 RMK AO2 SLP173 T00781039 50004 (DD),,,,,,,,,,,,,,,,,,,,,,,,,,,,
72208013880,2013-03-26T10:00:00,FM-12,4,,SE,0.25,mi,"TEMP, PRECIP, SNOW",,,"MMTS, SRG, SNOWBOARD",,,WFO CHS,,,,,,,,,,,,,,,,,,,,,,,,,,,,25,46,,,-0.01,0,44,30.04,CLR:00,29.99,9.94,38,290,,11,,,,,,,,,,,,,,,,,,,,,,,,,,,,,,,,,,,,,SYN086AAXX  26154 72208 32966 02910 10078 21039 30157 40173 50004 91456 333 91016 555 92615;,,,,,,,,,,,,,,,,,,,,,,,,,,,,
72208013880,2013-03-28T09:56:00,FM-15,7,,SE,0.25,mi,"TEMP, PRECIP, SNOW",,,"MMTS, SRG, SNOWBOARD",,,WFO CHS,,,,,,,,,,,,,,,,,,,,,,,,,,,30.31,24,52,0.00,,-0.02,0,34,30.31,,30.26,10.00,41,350,,8,,,,,,,,,,,,,,,,,,,,,,,,,,,,,,,,,,,,,MET10203/28/13 09:56:02 METAR KCHS 281456Z 35007KT 10SM CLR 11/M04 A3031 RMK AO2 SLP264 T01111044 50008 (DD),,,,,,,,,,,,,,,,,,,,,,,,,,,,
72208013880,2013-03-28T10:00:00,FM-12,4,,SE,0.25,mi,"TEMP, PRECIP, SNOW",,,"MMTS, SRG, SNOWBOARD",,,WFO CHS,,,,,,,,,,,,,,,,,,,,,,,,,,,,24,52,,,-0.02,0,34,30.31,CLR:00,30.26,9.94,41,350,,8,,,,,,,,,,,,,,,,,,,,,,,,,,,,,,,,,,,,,SYN076AAXX  28154 72208 32966 03507 10111 21044 30248 40264 50008 91456 555 92815;,,,,,,,,,,,,,,,,,,,,,,,,,,,,
72208013880,2013-03-29T09:56:00,FM-15,7,,SE,0.25,mi,"TEMP, PRECIP, SNOW",,,"MMTS, SRG, SNOWBOARD",,,WFO CHS,,,,,,,,,,,,,,,,,,,,,,,,,,,30.36,29,58,0.00,,-0.01,0,33,30.35,,30.31,10.00,45,VRB,,6,,,,,,,,,,,,,,,,,,,,,,,,,,,,,,,,,,,,,MET10203/29/13 09:56:02 METAR KCHS 291456Z VRB05KT 10SM CLR 14/M02 A3036 RMK AO2 SLP279 T01441017 50003 (DD),,,,,,,,,,,,,,,,,,,,,,,,,,,,
72208013880,2013-03-29T10:00:00,FM-12,4,,SE,0.25,mi,"TEMP, PRECIP, SNOW",,,"MMTS, SRG, SNOWBOARD",,,WFO CHS,,,,,,,,,,,,,,,,,,,,,,,,,,,,29,58,,,-0.01,0,33,30.35,CLR:00,30.31,9.94,45,,,,,,,,,,,,,,,,,,,,,,,,,,,,,,,,,,,,,,,,SYN076AAXX  29154 72208 32966 0//05 10144 21017 30265 40279 50003 91456 555 92915;,,,,,,,,,,,,,,,,,,,,,,,,,,,,
72208013880,2013-03-31T09:56:00,FM-15,7,,SE,0.25,mi,"TEMP, PRECIP, SNOW",,,"MMTS, SRG, SNOWBOARD",,,WFO CHS,,,,,,,,,,,,,,,,,,,,,,,,,,,30.05,53,64,0.00,,+0.01,8,68,30.05,FEW:02 30 BKN:07 120 BKN:07 250,30.00,10.00,58,240,,8,,,,,,,,,,,,,,,,,,,,,,,,,,,,,,,,,,,,,MET12603/31/13 09:56:02 METAR KCHS 311456Z 24007KT 10SM FEW030 BKN120 BKN250 18/12 A3005 RMK AO2 SLP176 60005 T01780117 58002 $ (TF),,,,,,,,,,,,,,,,,,,,,,,,,,,,
72208013880,2013-03-31T10:00:00,FM-12,4,,SE,0.25,mi,"TEMP, PRECIP, SNOW",,,"MMTS, SRG, SNOWBOARD",,,WFO CHS,,,,,,,,,,,,,,,,,,,,,,,,,,,,53,64,,,+0.01,8,68,30.05,,30.00,9.94,58,240,,8,,,,,,,,,,,,,,,,,,,,,,,,,,,,,,,,,,,,,SYN082AAXX  31154 72208 12566 62407 10178 20117 30160 40176 58002 60017 91456 555 93115;,,,,,,,,,,,,,,,,,,,,,,,,,,,,
72208013880,2013-04-01T09:56:00,FM-15,7,,SE,0.25,mi,"TEMP, PRECIP, SNOW",,,"MMTS, SRG, SNOWBOARD",,,WFO CHS,,,,,,,,,,,,,,,,,,,,,,,,,,,29.93,59,70,0.00,,-0.01,0,68,29.93,BKN:07 20 BKN:07 30 BKN:07 100,29.88,10.00,63,270,17,9,,,,,,,,,,,,,,,,,,,,,,,,,,,,,,,,,,,,,MET12704/01/13 09:56:02 METAR KCHS 011456Z 27008G15KT 10SM BKN020 BKN030 BKN100 21/15 A2993 RMK AO2 SLP135 60000 T02110150 50004 (DD),,,,,,,,,,,,,,,,,,,,,,,,,,,,
72208013880,2013-04-01T10:00:00,FM-12,4,,SE,0.25,mi,"TEMP, PRECIP, SNOW",,,"MMTS, SRG, SNOWBOARD",,,WFO CHS,,,,,,,,,,,,,,,,,,,,,,,,,,,,59,70,,,-0.01,0,68,29.93,,29.88,9.94,63,270,,9,,,,,,,,,,,,,,,,,,,,,,,,,,,,,,,,,,,,,SYN092AAXX  01154 72208 12566 62708 10211 20150 30119 40135 50004 69907 91456 333 91015 555 90115;,,,,,,,,,,,,,,,,,,,,,,,,,,,,
72208013880,2013-04-04T09:56:00,SY-MT,7,,SE,0.25,mi,"TEMP, PRECIP, SNOW",,,"MMTS, SRG, SNOWBOARD",,,WFO CHS,,,,,,,,,,,,,,,,,,,,,,,,,,,30.09,50,55,0.01,-RA:02 |RA |RA,+0.06,6,83,30.09,BKN:07 15 OVC:08 50,30.04,10.00,52,070,21,14,,,,,,,,,,,,,,,,,,,,,,,,,,,,,,,,,,,,,SYN098AAXX  04154 72208 11466 80712 10128 20100 30173 40189 56019 69937 761// 91456 333 91018 555 90415;MET13004/04/13 09:56:02 METAR KCHS 041456Z 07012G18KT 10SM -RA BKN015 OVC050 13/10 A3009 RMK AO2 SLP189 P0001 60001 T01280100 56019 (DD),,,,,,,,,,,,,,,,,,,,,,,,,,,,
72208013880,2013-04-05T09:56:00,FM-15,7,,SE,0.25,mi,"TEMP, PRECIP, SNOW",,,"MMTS, SRG, SNOWBOARD",,,WFO CHS,,,,,,,,,,,,,,,,,,,,,,,,,,,29.95,43,49,0.00,,-0.01,0,80,29.95,BKN:07 12 BKN:07 17 BKN:07 80,29.90,10.00,46,350,,15,,,,,,,,,,,,,,,,,,,,,,,,,,,,,,,,,,,,,MET12404/05/13 09:56:02 METAR KCHS 051456Z 35013KT 10SM BKN012 BKN017 BKN080 09/06 A2995 RMK AO2 SLP142 60000 T00940061 50002 (DD),,,,,,,,,,,,,,,,,,,,,,,,,,,,
72208013880,2013-04-05T10:00:00,FM-12,4,,SE,0.25,mi,"TEMP, PRECIP, SNOW",,,"MMTS, SRG, SNOWBOARD",,,WFO CHS,,,,,,,,,,,,,,,,,,,,,,,,,,,,43,49,,,-0.01,0,80,29.95,,29.90,9.94,46,350,,15,,,,,,,,,,,,,,,,,,,,,,,,,,,,,,,,,,,,,SYN082AAXX  05154 72208 12466 63513 10094 20061 30126 40142 50002 69907 91456 555 90515;,,,,,,,,,,,,,,,,,,,,,,,,,,,,
72208013880,2013-04-11T09:56:00,SY-MT,7,,SE,0.25,mi,"TEMP, PRECIP, SNOW",,,"MMTS, SRG, SNOWBOARD",,,WFO CHS,,,,,,,,,,,,,,,,,,,,,,,,,,,30.02,67,77,0.00,,-0.00,0,71,30.02,SCT:04 20 BKN:07 35,29.97,10.00,70,220,24,15,,,,,,,,,,,,,,,,,,,,,,,,,,,,,,,,,,,,,SYN086AAXX  11154 72208 32566 62213 10250 20194 30150 40166 50000 91456 333 91021 555 91115;MET12404/11/13 09:56:02 METAR KCHS 111456Z 22013G21KT 10SM SCT020 BKN035 25/19 A3002 RMK AO2 SLP166 SCT V BKN T02500194 50000 (DD),,,,,,,,,,,,,,,,,,,,,,,,,,,,
72208013880,2013-04-12T09:56:00,FM-15,7,,SE,0.25,mi,"TEMP, PRECIP, SNOW",,,"MMTS, SRG, SNOWBOARD",,,WFO CHS,,,,,,,,,,,,,,,,,,,,,,,,,,,29.82,69,77,0.00,,-0.01,0,77,29.82,BKN:07 15 BKN:07 20 BKN:07 80,29.77,10.00,72,210,,18,,,,,,,,,,,,,,,,,,,,,,,,,,,,,,,,,,,,,MET11804/12/13 09:56:02 METAR KCHS 121456Z 21016KT 10SM BKN015 BKN020 BKN080 25/21 A2982 RMK AO2 SLP098 T02500206 50004 (DD),,,,,,,,,,,,,,,,,,,,,,,,,,,,
72208013880,2013-04-12T10:00:00,FM-12,4,,SE,0.25,mi,"TEMP, PRECIP, SNOW",,,"MMTS, SRG, SNOWBOARD",,,WFO CHS,,,,,,,,,,,,,,,,,,,,,,,,,,,,69,77,,,-0.01,0,77,29.82,,29.77,9.94,72,210,,18,,,,,,,,,,,,,,,,,,,,,,,,,,,,,,,,,,,,,SYN076AAXX  12154 72208 32466 62116 10250 20206 30082 40098 50004 91456 555 91215;,,,,,,,,,,,,,,,,,,,,,,,,,,,,
72208013880,2013-04-17T09:56:00,SY-MT,7,,SE,0.25,mi,"TEMP, PRECIP, SNOW",,,"MMTS, SRG, SNOWBOARD",,,WFO CHS,,,,,,,,,,,,,,,,,,,,,,,,,,,30.22,62,77,0.00,,+0.02,8,60,30.22,SCT:04 30 SCT:04 250,30.17,10.00,68,000,,0,,,,,,,,,,,,,,,,,,,,,,,,,,,,,,,,,,,,,SYN076AAXX  17154 72208 32566 40000 10250 20167 30217 40234 58007 91456 555 91715;MET11104/17/13 09:56:02 METAR KCHS 171456Z 00000KT 10SM SCT030 SCT250 25/17 A3022 RMK AO2 SLP234 T02500167 58007 (DD),,,,,,,,,,,,,,,,,,,,,,,,,,,,
72208013880,2013-04-19T09:56:00,SY-MT,7,,SE,0.25,mi,"TEMP, PRECIP, SNOW",,,"MMTS, SRG, SNOWBOARD",,,WFO CHS,,,,,,,,,,,,,,,,,,,,,,,,,,,29.98,68,79,0.00,,+0.01,8,69,29.98,FEW:02 25 SCT:04 110 BKN:07 200,29.93,10.00,72,220,24,14,,,,,,,,,,,,,,,,,,,,,,,,,,,,,,,,,,,,,SYN086AAXX  19154 72208 32566 62212 10261 20200 30136 40153 58002 91456 333 91021 555 91915;MET13904/19/13 09:56:02 METAR KCHS 191456Z 22012G21KT 10SM FEW025 SCT110 BKN200 26/20 A2998 RMK AO2 PK WND 20028/1434 SLP153 T02610200 58002 (DD),,,,,,,,,,,,,,,,,,,,,,,,,,,,
72208013880,2013-04-24T09:56:00,FM-15,7,,SE,0.25,mi,"TEMP, PRECIP, SNOW",,,"MMTS, SRG, SNOWBOARD",,,WFO CHS,,,,,,,,,,,,,,,,,,,,,,,,,,,30.18,55,72,0.00,,+0.01,8,55,30.18,FEW:02 35,30.13,10.00,62,VRB,,5,,,,,,,,,,,,,,,,,,,,,,,,,,,,,,,,,,,,,MET10404/24/13 09:56:02 METAR KCHS 241456Z VRB04KT 10SM FEW035 22/13 A3018 RMK AO2 SLP219 T02220128 58003 (DD),,,,,,,,,,,,,,,,,,,,,,,,,,,,
72208013880,2013-04-24T10:00:00,FM-12,4,,SE,0.25,mi,"TEMP, PRECIP, SNOW",,,"MMTS, SRG, SNOWBOARD",,,WFO CHS,,,,,,,,,,,,,,,,,,,,,,,,,,,,55,72,,,+0.01,8,55,30.18,,30.13,9.94,62,,,,,,,,,,,,,,,,,,,,,,,,,,,,,,,,,,,,,,,,SYN076AAXX  24154 72208 32666 2//04 10222 20128 30204 40219 58003 91456 555 92415;,,,,,,,,,,,,,,,,,,,,,,,,,,,,
72208013880,2013-04-27T09:56:00,FM-15,7,,SE,0.25,mi,"TEMP, PRECIP, SNOW",,,"MMTS, SRG, SNOWBOARD",,,WFO CHS,,,,,,,,,,,,,,,,,,,,,,,,,,,30.31,57,67,T,-RA:02 |RA |RA,+0.01,8,71,30.31,FEW:02 47 BKN:07 70 OVC:08 90,30.26,10.00,61,090,,7,,,,,,,,,,,,,,,,,,,,,,,,,,,,,,,,,,,,,MET14104/27/13 09:56:02 METAR KCHS 271456Z 09006KT 10SM -RA FEW047 BKN070 OVC090 19/14 A3031 RMK AO2 RAB42 SLP263 P0000 60001 T01940139 58005 (WRB),,,,,,,,,,,,,,,,,,,,,,,,,,,,
72208013880,2013-04-27T10:00:00,FM-12,4,,SE,0.25,mi,"TEMP, PRECIP, SNOW",,,"MMTS, SRG, SNOWBOARD",,,WFO CHS,,,,,,,,,,,,,,,,,,,,,,,,,,,,57,67,,||RA,+0.01,8,71,30.31,,30.26,9.94,61,090,,7,,,,,,,,,,,,,,,,,,,,,,,,,,,,,,,,,,,,,SYN088AAXX  27154 72208 11666 80906 10194 20139 30248 40263 58005 69937 761// 91456 555 92715;,,,,,,,,,,,,,,,,,,,,,,,,,,,,
72208013880,2013-04-29T10:00:00,FM-12,4,,SE,0.25,mi,"TEMP, PRECIP, SNOW",,,"MMTS, SRG, SNOWBOARD",,,WFO CHS,,,,,,,,,,,,,,,,,,,,,,,,,,,,67,76,,,0.00,4,74,30.04,,29.99,9.94,70,240,,8,,,,,,,,,,,,,,,,,,,,,,,,,,,,,,,,,,,,,SYN076AAXX  29154 72208 32466 62407 10244 20194 30157 40172 53000 91456 555 92915;,,,,,,,,,,,,,,,,,,,,,,,,,,,,
72208013880,2013-05-05T09:56:00,FM-15,7,,SE,0.25,mi,"TEMP, PRECIP, SNOW",,,"MMTS, SRG, SNOWBOARD",,,WFO CHS,,,,,,,,,,,,,,,,,,,,,,,,,,,29.85,63,67,0.22,-RA:02 |RA |,-0.00,0,87,29.85,FEW:02 10 BKN:07 32 BKN:07 50,29.80,10.00,65,090,23,17,,,,,,,,,,,,,,,,,,,,,,,,,,,,,,,,,,,,,MET15505/05/13 09:56:02 METAR KCHS 051456Z 09015G20KT 10SM -RA FEW010 BKN032 BKN050 19/17 A2985 RMK AO2 PK WND 14026/1359 SLP107 P0022 60023 T01940172 50000 (TF),,,,,,,,,,,,,,,,,,,,,,,,,,,,
72208013880,2013-05-09T09:56:00,FM-15,7,,SE,0.25,mi,"TEMP, PRECIP, SNOW",,,"MMTS, SRG, SNOWBOARD",,,WFO CHS,,,,,,,,,,,,,,,,,,,,,,,,,,,30.10,59,77,0.00,,-0.02,0,54,30.09,CLR:00,30.05,10.00,66,270,,6,,,,,,,,,,,,,,,,,,,,,,,,,,,,,,,,,,,,,MET10105/09/13 09:56:02 METAR KCHS 091456Z 27005KT 10SM CLR 25/15 A3010 RMK AO2 SLP191 T02500150 50006 (DD),,,,,,,,,,,,,,,,,,,,,,,,,,,,
72208013880,2013-05-10T09:56:00,FM-15,7,,SE,0.25,mi,"TEMP, PRECIP, SNOW",,,"MMTS, SRG, SNOWBOARD",,,WFO CHS,,,,,,,,,,,,,,,,,,,,,,,,,,,30.09,61,82,0.00,,+0.00,8,49,30.09,FEW:02 250,30.04,10.00,69,160,,3,,,,,,,,,,,,,,,,,,,,,,,,,,,,,,,,,,,,,MET10405/10/13 09:56:02 METAR KCHS 101456Z 16003KT 10SM FEW250 28/16 A3009 RMK AO2 SLP189 T02780161 58001 (DD),,,,,,,,,,,,,,,,,,,,,,,,,,,,
72208013880,2013-05-10T10:00:00,FM-12,4,,SE,0.25,mi,"TEMP, PRECIP, SNOW",,,"MMTS, SRG, SNOWBOARD",,,WFO CHS,,,,,,,,,,,,,,,,,,,,,,,,,,,,61,82,,,+0.00,8,49,30.09,,30.04,9.94,69,160,,3,,,,,,,,,,,,,,,,,,,,,,,,,,,,,,,,,,,,,SYN06472208 32966 21603 10278 20161 30173 40189 58001 91456 555 91015=,,,,,,,,,,,,,,,,,,,,,,,,,,,,
72208013880,2013-05-15T09:56:00,FM-15,7,,SE,0.25,mi,"TEMP, PRECIP, SNOW",,,"MMTS, SRG, SNOWBOARD",,,WFO CHS,,,,,,,,,,,,,,,,,,,,,,,,,,,30.17,52,80,0.00,,+0.01,8,38,30.17,CLR:00,30.12,10.00,64,250,,13,,,,,,,,,,,,,,,,,,,,,,,,,,,,,,,,,,,,,MET10105/15/13 09:56:02 METAR KCHS 151456Z 25011KT 10SM CLR 27/11 A3017 RMK AO2 SLP216 T02670111 58004 (DD),,,,,,,,,,,,,,,,,,,,,,,,,,,,
72208013880,2013-05-15T10:00:00,FM-12,4,,SE,0.25,mi,"TEMP, PRECIP, SNOW",,,"MMTS, SRG, SNOWBOARD",,,WFO CHS,,,,,,,,,,,,,,,,,,,,,,,,,,,,52,80,,,+0.01,8,38,30.17,,30.12,9.94,64,250,,13,,,,,,,,,,,,,,,,,,,,,,,,,,,,,,,,,,,,,SYN06472208 32966 02511 10267 20111 30201 40216 58004 91456 555 91515=,,,,,,,,,,,,,,,,,,,,,,,,,,,,
72208013880,2013-05-18T09:56:00,FM-15,7,,SE,0.25,mi,"TEMP, PRECIP, SNOW",,,"MMTS, SRG, SNOWBOARD",,,WFO CHS,,,,,,,,,,,,,,,,,,,,,,,,,,,30.16,65,82,0.00,,-0.01,0,56,30.15,BKN:07 30 BKN:07 180 BKN:07 250,30.11,10.00,71,190,,10,,,,,,,,,,,,,,,,,,,,,,,,,,,,,,,,,,,,,MET12005/18/13 09:56:02 METAR KCHS 181456Z 19009KT 10SM BKN030 BKN180 BKN250 28/18 A3016 RMK AO2 SLP211 T02780183 50002 $ (TF),,,,,,,,,,,,,,,,,,,,,,,,,,,,
72208013880,2013-05-19T09:56:00,FM-15,7,,SE,0.25,mi,"TEMP, PRECIP, SNOW",,,"MMTS, SRG, SNOWBOARD",,,WFO CHS,,,,,,,,,,,,,,,,,,,,,,,,,,,30.13,67,81,0.00,,+0.01,8,62,30.13,SCT:04 26 BKN:07 44 BKN:07 150,30.08,10.00,72,170,,11,,,,,,,,,,,,,,,,,,,,,,,,,,,,,,,,,,,,,MET12005/19/13 09:56:02 METAR KCHS 191456Z 17010KT 10SM SCT026 BKN044 BKN150 27/19 A3013 RMK AO2 SLP203 T02720194 58004 $ (TF),,,,,,,,,,,,,,,,,,,,,,,,,,,,
72208013880,2013-05-19T10:00:00,FM-12,4,,SE,0.25,mi,"TEMP, PRECIP, SNOW",,,"MMTS, SRG, SNOWBOARD",,,WFO CHS,,,,,,,,,,,,,,,,,,,,,,,,,,,,67,81,,,+0.01,8,62,30.13,,30.08,9.94,72,170,,11,,,,,,,,,,,,,,,,,,,,,,,,,,,,,,,,,,,,,SYN06472208 32566 61710 10272 20194 30187 40203 58004 91456 555 91915=,,,,,,,,,,,,,,,,,,,,,,,,,,,,
72208013880,2013-05-20T09:56:00,FM-15,7,,SE,0.25,mi,"TEMP, PRECIP, SNOW",,,"MMTS, SRG, SNOWBOARD",,,WFO CHS,,,,,,,,,,,,,,,,,,,,,,,,,,,30.11,69,79,0.00,,-0.00,0,72,30.11,SCT:04 25 BKN:07 40 BKN:07 75,30.06,10.00,72,200,,10,,,,,,,,,,,,,,,,,,,,,,,,,,,,,,,,,,,,,MET15805/20/13 09:56:02 METAR KCHS 201456Z 20009KT 10SM SCT025 BKN040 BKN075 26/21 A3011 RMK AO2 SLP196 CB DSNT N-E MOVG NE TCU DSNT SW-W 60001 T02610206 50001 (DD),,,,,,,,,,,,,,,,,,,,,,,,,,,,
72208013880,2013-05-23T09:56:00,FM-15,7,,SE,0.25,mi,"TEMP, PRECIP, SNOW",,,"MMTS, SRG, SNOWBOARD",,,WFO CHS,,,,,,,,,,,,,,,,,,,,,,,,,,,29.95,69,78,T,-RA:02 |RA |,+0.00,6,74,29.95,SCT:04 25 SCT:04 50 BKN:07 75,29.90,10.00,72,300,,10,,,,,,,,,,,,,,,,,,,,,,,,,,,,,,,,,,,,,MET15705/23/13 09:56:02 METAR KCHS 231456Z 30009KT 10SM -RA SCT025TCU SCT050 BKN075 26/21 A2995 RMK AO2 RAB47 SLP142 TCU N-E-S-OHD P0000 60000 T02560206 56001 (DD),,,,,,,,,,,,,,,,,,,,,,,,,,,,
72208013880,2013-05-23T10:00:00,FM-12,4,,SE,0.25,mi,"TEMP, PRECIP, SNOW",,,"MMTS, SRG, SNOWBOARD",,,WFO CHS,,,,,,,,,,,,,,,,,,,,,,,,,,,,69,78,,||RA,+0.00,6,74,29.95,,29.90,9.94,72,300,,10,,,,,,,,,,,,,,,,,,,,,,,,,,,,,,,,,,,,,SYN07672208 11566 63009 10256 20206 30126 40142 56001 69907 761// 91456 555 92315=,,,,,,,,,,,,,,,,,,,,,,,,,,,,
72208013880,2013-05-25T09:56:00,FM-15,7,,SE,0.25,mi,"TEMP, PRECIP, SNOW",,,"MMTS, SRG, SNOWBOARD",,,WFO CHS,,,,,,,,,,,,,,,,,,,,,,,,,,,30.31,39,69,0.00,,-0.02,0,33,30.30,SCT:04 250,30.26,10.00,54,350,,10,,,,,,,,,,,,,,,,,,,,,,,,,,,,,,,,,,,,,MET10505/25/13 09:56:02 METAR KCHS 251456Z 35009KT 10SM SCT250 21/04 A3031 RMK AO2 SLP261 T02060039 50008 (WRB),,,,,,,,,,,,,,,,,,,,,,,,,,,,
72208013880,2013-05-26T09:56:00,FM-15,7,,SE,0.25,mi,"TEMP, PRECIP, SNOW",,,"MMTS, SRG, SNOWBOARD",,,WFO CHS,,,,,,,,,,,,,,,,,,,,,,,,,,,30.27,56,76,0.00,,-0.03,0,50,30.27,FEW:02 180 SCT:04 220,30.22,10.00,64,290,,9,,,,,,,,,,,,,,,,,,,,,,,,,,,,,,,,,,,,,MET11205/26/13 09:56:02 METAR KCHS 261456Z 29008KT 10SM FEW180 SCT220 24/13 A3027 RMK AO2 SLP249 T02440133 50009 (WRB),,,,,,,,,,,,,,,,,,,,,,,,,,,,
72208013880,2013-05-27T09:56:00,FM-15,7,,SE,0.25,mi,"TEMP, PRECIP, SNOW",,,"MMTS, SRG, SNOWBOARD",,,WFO CHS,,,,,,,,,,,,,,,,,,,,,,,,,,,30.25,60,79,0.00,,-0.00,0,52,30.25,SCT:04 40,30.20,10.00,67,000,,0,,,,,,,,,,,,,,,,,,,,,,,,,,,,,,,,,,,,,MET10405/27/13 09:56:02 METAR KCHS 271456Z 00000KT 10SM SCT040 26/16 A3025 RMK AO2 SLP243 T02610156 50000 (DD),,,,,,,,,,,,,,,,,,,,,,,,,,,,
72208013880,2013-05-30T09:56:00,FM-15,7,,SE,0.25,mi,"TEMP, PRECIP, SNOW",,,"MMTS, SRG, SNOWBOARD",,,WFO CHS,,,,,,,,,,,,,,,,,,,,,,,,,,,30.26,66,82,0.00,,-0.00,0,58,30.26,SCT:04 40 BKN:07 55,30.21,10.00,71,VRB,16,7,,,,,,,,,,,,,,,,,,,,,,,,,,,,,,,,,,,,,MET11405/30/13 09:56:02 METAR KCHS 301456Z VRB06G14KT 10SM SCT040 BKN055 28/19 A3026 RMK AO2 SLP246 T02780189 50001 (DD),,,,,,,,,,,,,,,,,,,,,,,,,,,,
72208013880,2013-06-01T09:56:00,FM-15,7,,SE,0.25,mi,"TEMP, PRECIP, SNOW",,,"MMTS, SRG, SNOWBOARD",,,WFO CHS,,,,,,,,,,,,,,,,,,,,,,,,,,,30.15,68,84,0.00,,+0.01,8,59,30.15,BKN:07 30,30.10,10.00,73,130,,13,,,,,,,,,,,,,,,,,,,,,,,,,,,,,,,,,,,,,MET10406/01/13 09:56:02 METAR KCHS 011456Z 13011KT 10SM BKN030 29/20 A3015 RMK AO2 SLP210 T02890200 58004 (TF),,,,,,,,,,,,,,,,,,,,,,,,,,,,
72208013880,2013-06-01T10:00:00,FM-12,4,,SE,0.25,mi,"TEMP, PRECIP, SNOW",,,"MMTS, SRG, SNOWBOARD",,,WFO CHS,,,,,,,,,,,,,,,,,,,,,,,,,,,,68,84,,,+0.01,8,59,30.15,,30.10,9.94,73,130,,13,,,,,,,,,,,,,,,,,,,,,,,,,,,,,,,,,,,,,SYN06472208 32566 61311 10289 20200 30194 40210 58004 91456 555 90115=,,,,,,,,,,,,,,,,,,,,,,,,,,,,
72208013880,2013-06-02T09:56:00,FM-15,7,,SE,0.25,mi,"TEMP, PRECIP, SNOW",,,"MMTS, SRG, SNOWBOARD",,,WFO CHS,,,,,,,,,,,,,,,,,,,,,,,,,,,30.05,69,82,0.00,,+0.00,7,65,30.04,SCT:04 25 BKN:07 35 BKN:07 180,30.00,10.00,73,190,,10,,,,,,,,,,,,,,,,,,,,,,,,,,,,,,,,,,,,,MET12006/02/13 09:56:02 METAR KCHS 021456Z 19009KT 10SM SCT025 BKN035 BKN180 28/21 A3005 RMK AO2 SLP174 T02780206 57001 $ (TF),,,,,,,,,,,,,,,,,,,,,,,,,,,,
72208013880,2013-06-02T10:00:00,FM-12,4,,SE,0.25,mi,"TEMP, PRECIP, SNOW",,,"MMTS, SRG, SNOWBOARD",,,WFO CHS,,,,,,,,,,,,,,,,,,,,,,,,,,,,69,82,,,+0.00,7,65,30.04,,30.00,9.94,73,190,,10,,,,,,,,,,,,,,,,,,,,,,,,,,,,,,,,,,,,,SYN06472208 32566 61909 10278 20206 30160 40174 57001 91456 555 90215=,,,,,,,,,,,,,,,,,,,,,,,,,,,,
72208013880,2013-06-10T09:56:00,FM-15,7,,SE,0.25,mi,"TEMP, PRECIP, SNOW",,,"MMTS, SRG, SNOWBOARD",,,WFO CHS,,,,,,,,,,,,,,,,,,,,,,,,,,,30.10,73,85,0.00,,+0.00,8,68,30.10,FEW:02 25 SCT:04 50 SCT:04 100,30.05,10.00,77,210,,15,,,,,,,,,,,,,,,,,,,,,,,,,,,,,,,,,,,,,MET11806/10/13 09:56:02 METAR KCHS 101456Z 21013KT 10SM FEW025 SCT050 SCT100 29/23 A3010 RMK AO2 SLP192 T02940228 58001 (DD),,,,,,,,,,,,,,,,,,,,,,,,,,,,
72208013880,2013-06-10T10:00:00,FM-12,4,,SE,0.25,mi,"TEMP, PRECIP, SNOW",,,"MMTS, SRG, SNOWBOARD",,,WFO CHS,,,,,,,,,,,,,,,,,,,,,,,,,,,,73,85,,,+0.00,8,68,30.10,,30.05,9.94,77,210,,15,,,,,,,,,,,,,,,,,,,,,,,,,,,,,,,,,,,,,SYN06472208 32566 42113 10294 20228 30177 40192 58001 91456 555 91015=,,,,,,,,,,,,,,,,,,,,,,,,,,,,
72208013880,2013-06-12T09:56:00,FM-15,7,,SE,0.25,mi,"TEMP, PRECIP, SNOW",,,"MMTS, SRG, SNOWBOARD",,,WFO CHS,,,,,,,,,,,,,,,,,,,,,,,,,,,30.00,73,88,0.00,,+0.00,8,61,29.99,FEW:02 250,29.95,10.00,77,280,,7,,,,,,,,,,,,,,,,,,,,,,,,,,,,,,,,,,,,,MET10406/12/13 09:56:02 METAR KCHS 121456Z 28006KT 10SM FEW250 31/23 A3000 RMK AO2 SLP157 T03110228 58001 (DD),,,,,,,,,,,,,,,,,,,,,,,,,,,,
72208013880,2013-06-12T10:00:00,FM-12,4,,SE,0.25,mi,"TEMP, PRECIP, SNOW",,,"MMTS, SRG, SNOWBOARD",,,WFO CHS,,,,,,,,,,,,,,,,,,,,,,,,,,,,73,88,,,+0.00,8,61,29.99,,29.95,9.94,77,280,,7,,,,,,,,,,,,,,,,,,,,,,,,,,,,,,,,,,,,,SYN06472208 32966 22806 10311 20228 30143 40157 58001 91456 555 91215=,,,,,,,,,,,,,,,,,,,,,,,,,,,,
72208013880,2013-06-13T09:56:00,FM-15,7,,SE,0.25,mi,"TEMP, PRECIP, SNOW",,,"MMTS, SRG, SNOWBOARD",,,WFO CHS,,,,,,,,,,,,,,,,,,,,,,,,,,,29.89,75,91,0.00,,+0.02,8,59,29.89,FEW:02 35,29.84,10.00,79,250,,11,,,,,,,,,,,,,,,,,,,,,,,,,,,,,,,,,,,,,MET10406/13/13 09:56:02 METAR KCHS 131456Z 25010KT 10SM FEW035 33/24 A2989 RMK AO2 SLP122 T03280239 58006 (DD),,,,,,,,,,,,,,,,,,,,,,,,,,,,
72208013880,2013-06-13T10:00:00,FM-12,4,,SE,0.25,mi,"TEMP, PRECIP, SNOW",,,"MMTS, SRG, SNOWBOARD",,,WFO CHS,,,,,,,,,,,,,,,,,,,,,,,,,,,,75,91,,,+0.02,8,59,29.89,,29.84,9.94,79,250,,11,,,,,,,,,,,,,,,,,,,,,,,,,,,,,,,,,,,,,SYN06472208 32666 22510 10328 20239 30106 40122 58006 91456 555 91315=,,,,,,,,,,,,,,,,,,,,,,,,,,,,
72208013880,2013-06-16T09:56:00,FM-15,7,,SE,0.25,mi,"TEMP, PRECIP, SNOW",,,"MMTS, SRG, SNOWBOARD",,,WFO CHS,,,,,,,,,,,,,,,,,,,,,,,,,,,30.17,62,80,0.00,,-0.00,0,54,30.16,FEW:02 40 SCT:04 50,30.12,10.00,69,000,,0,,,,,,,,,,,,,,,,,,,,,,,,,,,,,,,,,,,,,MET11106/16/13 09:56:02 METAR KCHS 161456Z 00000KT 10SM FEW040 SCT050 27/17 A3017 RMK AO2 SLP215 T02670167 50000 (TF),,,,,,,,,,,,,,,,,,,,,,,,,,,,
72208013880,2013-06-17T09:56:00,FM-15,7,,SE,0.25,mi,"TEMP, PRECIP, SNOW",,,"MMTS, SRG, SNOWBOARD",,,WFO CHS,,,,,,,,,,,,,,,,,,,,,,,,,,,30.06,70,85,0.00,,+0.02,8,61,30.06,FEW:02 30 SCT:04 65 SCT:04 100,30.01,10.00,75,VRB,,7,,,,,,,,,,,,,,,,,,,,,,,,,,,,,,,,,,,,,MET13206/17/13 09:56:02 METAR KCHS 171456Z VRB06KT 10SM FEW030 SCT065 SCT100 29/21 A3006 RMK AO2 SLP179 TCU DSNT S-SW T02940211 58007 (DD),,,,,,,,,,,,,,,,,,,,,,,,,,,,
72208013880,2013-06-17T10:00:00,FM-12,4,,SE,0.25,mi,"TEMP, PRECIP, SNOW",,,"MMTS, SRG, SNOWBOARD",,,WFO CHS,,,,,,,,,,,,,,,,,,,,,,,,,,,,70,85,,,+0.02,8,61,30.06,,30.01,9.94,75,,,7,,,,,,,,,,,,,,,,,,,,,,,,,,,,,,,,,,,,,SYN06472208 32566 4//06 10294 20211 30163 40179 58007 91456 555 91715=,,,,,,,,,,,,,,,,,,,,,,,,,,,,
72208013880,2013-06-18T09:56:00,SY-MT,7,,SE,0.25,mi,"TEMP, PRECIP, SNOW",,,"MMTS, SRG, SNOWBOARD",,,WFO CHS,,,,,,,,,,,,,,,,,,,,,,,,,,,29.97,73,85,0.00,,-0.01,0,68,29.96,SCT:04 25 SCT:04 250,29.92,10.00,77,260,,8,,,,,,,,,,,,,,,,,,,,,,,,,,,,,,,,,,,,,SYN06472208 32566 42607 10294 20228 30133 40146 50003 91456 555 91815=MET11106/18/13 09:56:02 METAR KCHS 181456Z 26007KT 10SM SCT025 SCT250 29/23 A2997 RMK AO2 SLP146 T02940228 50003 (DD),,,,,,,,,,,,,,,,,,,,,,,,,,,,
72208013880,2013-06-22T09:56:00,FM-15,7,,SE,0.25,mi,"TEMP, PRECIP, SNOW",,,"MMTS, SRG, SNOWBOARD",,,WFO CHS,,,,,,,,,,,,,,,,,,,,,,,,,,,30.16,69,80,0.00,,-0.01,0,69,30.16,BKN:07 25 BKN:07 150 BKN:07 250,30.11,10.00,73,340,,6,,,,,,,,,,,,,,,,,,,,,,,,,,,,,,,,,,,,,MET11806/22/13 09:56:02 METAR KCHS 221456Z 34005KT 10SM BKN025 BKN150 BKN250 27/21 A3016 RMK AO2 SLP213 T02670206 50002 (TF),,,,,,,,,,,,,,,,,,,,,,,,,,,,
72208013880,2013-06-25T09:56:00,FM-15,7,,SE,0.25,mi,"TEMP, PRECIP, SNOW",,,"MMTS, SRG, SNOWBOARD",,,WFO CHS,,,,,,,,,,,,,,,,,,,,,,,,,,,30.17,71,86,0.00,,+0.01,8,61,30.16,FEW:02 35 SCT:04 50 SCT:04 65,30.12,10.00,76,210,,7,,,,,,,,,,,,,,,,,,,,,,,,,,,,,,,,,,,,,MET11806/25/13 09:56:02 METAR KCHS 251456Z 21006KT 10SM FEW035 SCT050 SCT065 30/22 A3017 RMK AO2 SLP214 T03000217 58002 (DD),,,,,,,,,,,,,,,,,,,,,,,,,,,,
72208013880,2013-06-25T10:00:00,FM-12,4,,SE,0.25,mi,"TEMP, PRECIP, SNOW",,,"MMTS, SRG, SNOWBOARD",,,WFO CHS,,,,,,,,,,,,,,,,,,,,,,,,,,,,71,86,,,+0.01,8,61,30.16,,30.12,9.94,76,210,,7,,,,,,,,,,,,,,,,,,,,,,,,,,,,,,,,,,,,,SYN06472208 32666 42106 10300 20217 30201 40214 58002 91456 555 92515=,,,,,,,,,,,,,,,,,,,,,,,,,,,,
72208013880,2013-06-26T09:56:00,FM-15,7,,SE,0.25,mi,"TEMP, PRECIP, SNOW",,,"MMTS, SRG, SNOWBOARD",,,WFO CHS,,,,,,,,,,,,,,,,,,,,,,,,,,,30.08,70,86,0.00,,+0.01,8,59,30.08,SCT:04 30 SCT:04 65,30.03,10.00,75,250,,14,,,,,,,,,,,,,,,,,,,,,,,,,,,,,,,,,,,,,MET11106/26/13 09:56:02 METAR KCHS 261456Z 25012KT 10SM SCT030 SCT065 30/21 A3008 RMK AO2 SLP185 T03000211 58004 (DD),,,,,,,,,,,,,,,,,,,,,,,,,,,,
72208013880,2013-06-26T10:00:00,FM-12,4,,SE,0.25,mi,"TEMP, PRECIP, SNOW",,,"MMTS, SRG, SNOWBOARD",,,WFO CHS,,,,,,,,,,,,,,,,,,,,,,,,,,,,70,86,,,+0.01,8,59,30.08,,30.03,9.94,75,250,,14,,,,,,,,,,,,,,,,,,,,,,,,,,,,,,,,,,,,,SYN06472208 32566 42512 10300 20211 30170 40185 58004 91456 555 92615=,,,,,,,,,,,,,,,,,,,,,,,,,,,,
72208013880,2013-06-27T09:56:00,FM-15,7,,SE,0.25,mi,"TEMP, PRECIP, SNOW",,,"MMTS, SRG, SNOWBOARD",,,WFO CHS,,,,,,,,,,,,,,,,,,,,,,,,,,,29.95,74,88,0.00,,+0.02,8,63,29.94,FEW:02 30 SCT:04 200,29.90,10.00,78,VRB,,8,,,,,,,,,,,,,,,,,,,,,,,,,,,,,,,,,,,,,MET11106/27/13 09:56:02 METAR KCHS 271456Z 25007KT 10SM FEW030 SCT200 31/23 A2995 RMK AO2 SLP140 T03110233 58006 (DD),,,,,,,,,,,,,,,,,,,,,,,,,,,,
72208013880,2013-06-27T10:00:00,FM-12,4,,SE,0.25,mi,"TEMP, PRECIP, SNOW",,,"MMTS, SRG, SNOWBOARD",,,WFO CHS,,,,,,,,,,,,,,,,,,,,,,,,,,,,74,88,,,+0.02,8,63,29.94,,29.90,9.94,78,250,,8,,,,,,,,,,,,,,,,,,,,,,,,,,,,,,,,,,,,,SYN06472208 32566 42507 10311 20233 30126 40140 58006 91456 555 92715=,,,,,,,,,,,,,,,,,,,,,,,,,,,,
72208013880,2013-06-28T09:56:00,FM-15,7,,SE,0.25,mi,"TEMP, PRECIP, SNOW",,,"MMTS, SRG, SNOWBOARD",,,WFO CHS,,,,,,,,,,,,,,,,,,,,,,,,,,,29.79,74,86,0.00,,+0.01,8,67,29.79,SCT:04 25,29.74,10.00,78,250,,13,,,,,,,,,,,,,,,,,,,,,,,,,,,,,,,,,,,,,MET11406/28/13 09:56:02 METAR KCHS 281456Z 25011KT 10SM SCT025 30/23 A2979 RMK AO2 SLP088 SCT V BKN T03000233 58005 (DD),,,,,,,,,,,,,,,,,,,,,,,,,,,,
72208013880,2013-06-28T10:00:00,FM-12,4,,SE,0.25,mi,"TEMP, PRECIP, SNOW",,,"MMTS, SRG, SNOWBOARD",,,WFO CHS,,,,,,,,,,,,,,,,,,,,,,,,,,,,74,86,,,+0.01,8,67,29.79,,29.74,9.94,78,250,,13,,,,,,,,,,,,,,,,,,,,,,,,,,,,,,,,,,,,,SYN06472208 32566 42511 10300 20233 30072 40088 58005 91456 555 92815=,,,,,,,,,,,,,,,,,,,,,,,,,,,,
72208013880,2013-06-30T09:56:00,FM-15,7,,SE,0.25,mi,"TEMP, PRECIP, SNOW",,,"MMTS, SRG, SNOWBOARD",,,WFO CHS,,,,,,,,,,,,,,,,,,,,,,,,,,,29.81,74,85,0.00,,-0.00,0,70,29.81,FEW:02 20 SCT:04 24 BKN:07 30,29.76,10.00,77,260,,8,,,,,,,,,,,,,,,,,,,,,,,,,,,,,,,,,,,,,MET13506/30/13 09:56:02 METAR KCHS 301456Z 26007KT 10SM FEW020 SCT024 BKN030 29/23 A2981 RMK AO2 SLP094 TCU DSNT NE-SE T02940233 50001 $ (TF),,,,,,,,,,,,,,,,,,,,,,,,,,,,
72208013880,2013-07-04T09:56:00,FM-15,7,,SE,0.25,mi,"TEMP, PRECIP, SNOW",,,"MMTS, SRG, SNOWBOARD",,,WFO CHS,,,,,,,,,,,,,,,,,,,,,,,,,,,30.22,75,85,0.07,,+0.00,8,72,30.22,SCT:04 25 SCT:04 50 BKN:07 75,30.17,10.00,78,130,21,16,,,,,,,,,,,,,,,,,,,,,,,,,,,,,,,,,,,,,MET18507/04/13 09:56:02 METAR KCHS 041456Z 13014G18KT 10SM SCT025 SCT050 BKN075 29/24 A3022 RMK AO2 PK WND 18027/1423 RAB21E36 SLP233 TCU DSNT NW-NE SCT V BKN P0007 60007 T02940239 58001 (DD),,,,,,,,,,,,,,,,,,,,,,,,,,,,
72208013880,2013-07-04T10:00:00,FM-12,4,,SE,0.25,mi,"TEMP, PRECIP, SNOW",,,"MMTS, SRG, SNOWBOARD",,,WFO CHS,,,,,,,,,,,,,,,,,,,,,,,,,,,,75,85,,,+0.00,8,72,30.22,,30.17,9.94,78,130,,16,,,,,,,,,,,,,,,,,,,,,,,,,,,,,,,,,,,,,SYN08072208 12566 61314 10294 20239 30217 40233 58001 60027 91456 333 91018 555 90415=,,,,,,,,,,,,,,,,,,,,,,,,,,,,
72208013880,2013-07-05T09:56:00,FM-15,7,,SE,0.25,mi,"TEMP, PRECIP, SNOW",,,"MMTS, SRG, SNOWBOARD",,,WFO CHS,,,,,,,,,,,,,,,,,,,,,,,,,,,30.24,73,84,0.00,,-0.01,0,70,30.23,SCT:04 35 SCT:04 70 BKN:07 180,30.19,10.00,76,170,,7,,,,,,,,,,,,,,,,,,,,,,,,,,,,,,,,,,,,,MET11807/05/13 09:56:02 METAR KCHS 051456Z 17006KT 10SM SCT035 SCT070 BKN180 29/23 A3024 RMK AO2 SLP238 T02890228 50004 (DD),,,,,,,,,,,,,,,,,,,,,,,,,,,,
72208013880,2013-07-07T09:56:00,FM-15,7,,SE,0.25,mi,"TEMP, PRECIP, SNOW",,,"MMTS, SRG, SNOWBOARD",,,WFO CHS,,,,,,,,,,,,,,,,,,,,,,,,,,,30.20,71,86,0.00,,-0.01,0,61,30.19,FEW:02 30 BKN:07 45 BKN:07 250,30.15,10.00,76,160,,6,,,,,,,,,,,,,,,,,,,,,,,,,,,,,,,,,,,,,MET12907/07/13 09:56:02 METAR KCHS 071456Z 16005KT 10SM FEW030TCU BKN045 BKN250 30/22 A3020 RMK AO2 SLP225 TCU W T03000217 50004 $ (TF),,,,,,,,,,,,,,,,,,,,,,,,,,,,
72208013880,2013-07-10T09:56:00,FM-15,7,,SE,0.25,mi,"TEMP, PRECIP, SNOW",,,"MMTS, SRG, SNOWBOARD",,,WFO CHS,,,,,,,,,,,,,,,,,,,,,,,,,,,30.11,72,84,0.00,,-0.00,0,67,30.11,FEW:02 30 SCT:04 45 SCT:04 120,30.06,10.00,76,200,,7,,,,,,,,,,,,,,,,,,,,,,,,,,,,,,,,,,,,,MET11807/10/13 09:56:02 METAR KCHS 101456Z 20006KT 10SM FEW030 SCT045 SCT120 29/22 A3011 RMK AO2 SLP195 T02890222 50001 (DD),,,,,,,,,,,,,,,,,,,,,,,,,,,,
72208013880,2013-07-11T09:56:00,FM-15,7,,SE,0.25,mi,"TEMP, PRECIP, SNOW",,,"MMTS, SRG, SNOWBOARD",,,WFO CHS,,,,,,,,,,,,,,,,,,,,,,,,,,,30.00,72,87,0.00,,-0.00,0,61,30.00,SCT:04 30 SCT:04 60,29.95,10.00,77,240,,8,,,,,,,,,,,,,,,,,,,,,,,,,,,,,,,,,,,,,MET11107/11/13 09:56:02 METAR KCHS 111456Z 24007KT 10SM SCT030 SCT060 31/22 A3000 RMK AO2 SLP158 T03060222 50000 (DD),,,,,,,,,,,,,,,,,,,,,,,,,,,,
72208013880,2013-07-12T09:56:00,FM-15,7,,SE,0.25,mi,"TEMP, PRECIP, SNOW",,,"MMTS, SRG, SNOWBOARD",,,WFO CHS,,,,,,,,,,,,,,,,,,,,,,,,,,,29.94,73,78,0.02,,-0.03,0,85,29.94,SCT:04 7 BKN:07 12 BKN:07 70,29.89,10.00,75,030,,3,,,,,,,,,,,,,,,,,,,,,,,,,,,,,,,,,,,,,MET14607/12/13 09:56:02 METAR KCHS 121456Z 03003KT 10SM SCT007 BKN012 BKN070 26/23 A2994 RMK AO2 RAE50 SLP138 SCT V BKN P0002 60014 T02560228 50010 (DD),,,,,,,,,,,,,,,,,,,,,,,,,,,,
72208013880,2013-07-16T09:56:00,FM-15,7,,SE,0.25,mi,"TEMP, PRECIP, SNOW",,,"MMTS, SRG, SNOWBOARD",,,WFO CHS,,,,,,,,,,,,,,,,,,,,,,,,,,,30.27,72,87,0.00,,-0.00,0,61,30.27,SCT:04 30 SCT:04 40,30.22,10.00,77,070,,7,,,,,,,,,,,,,,,,,,,,,,,,,,,,,,,,,,,,,MET11107/16/13 09:56:02 METAR KCHS 161456Z 07006KT 10SM SCT030 SCT040 31/22 A3027 RMK AO2 SLP250 T03060222 50001 (DD),,,,,,,,,,,,,,,,,,,,,,,,,,,,
72208013880,2013-07-17T09:56:00,FM-15,7,,SE,0.25,mi,"TEMP, PRECIP, SNOW",,,"MMTS, SRG, SNOWBOARD",,,WFO CHS,,,,,,,,,,,,,,,,,,,,,,,,,,,30.22,72,89,0.00,,-0.00,0,57,30.22,FEW:02 35 SCT:04 50 SCT:04 75,30.17,10.00,77,330,,7,,,,,,,,,,,,,,,,,,,,,,,,,,,,,,,,,,,,,MET11807/17/13 09:56:02 METAR KCHS 171456Z 33006KT 10SM FEW035 SCT050 SCT075 32/22 A3022 RMK AO2 SLP234 T03170222 50001 (DD),,,,,,,,,,,,,,,,,,,,,,,,,,,,
72208013880,2013-07-22T09:56:00,SY-MT,7,,SE,0.25,mi,"TEMP, PRECIP, SNOW",,,"MMTS, SRG, SNOWBOARD",,,WFO CHS,,,,,,,,,,,,,,,,,,,,,,,,,,,30.03,72,84,0.00,,-0.02,0,67,30.02,SCT:04 25 BKN:07 35,29.98,10.00,76,290,20,11,,,,,,,,,,,,,,,,,,,,,,,,,,,,,,,,,,,,,SYN07472208 32566 62910 10289 20222 30153 40167 50006 91456 333 91017 555 92215=MET12407/22/13 09:56:02 METAR KCHS 221456Z 29010G17KT 10SM SCT025 BKN035 29/22 A3003 RMK AO2 SLP167 SCT V BKN T02890222 50006 (DD),,,,,,,,,,,,,,,,,,,,,,,,,,,,
72208013880,2013-07-23T09:56:00,FM-15,7,,SE,0.25,mi,"TEMP, PRECIP, SNOW",,,"MMTS, SRG, SNOWBOARD",,,WFO CHS,,,,,,,,,,,,,,,,,,,,,,,,,,,29.92,72,84,0.00,,+0.01,6,67,29.91,BKN:07 25 BKN:07 35,29.87,10.00,76,250,,13,,,,,,,,,,,,,,,,,,,,,,,,,,,,,,,,,,,,,MET11107/23/13 09:56:02 METAR KCHS 231456Z 25011KT 10SM BKN025 BKN035 29/22 A2992 RMK AO2 SLP130 T02890222 56005 (DD),,,,,,,,,,,,,,,,,,,,,,,,,,,,
72208013880,2013-07-23T10:00:00,FM-12,4,,SE,0.25,mi,"TEMP, PRECIP, SNOW",,,"MMTS, SRG, SNOWBOARD",,,WFO CHS,,,,,,,,,,,,,,,,,,,,,,,,,,,,72,84,,,+0.01,6,67,29.91,,29.87,9.94,76,250,,13,,,,,,,,,,,,,,,,,,,,,,,,,,,,,,,,,,,,,SYN06472208 32566 62511 10289 20222 30116 40130 56005 91456 555 92315=,,,,,,,,,,,,,,,,,,,,,,,,,,,,
72208013880,2013-07-30T09:56:00,FM-15,7,,SE,0.25,mi,"TEMP, PRECIP, SNOW",,,"MMTS, SRG, SNOWBOARD",,,WFO CHS,,,,,,,,,,,,,,,,,,,,,,,,,,,30.18,75,86,0.00,,-0.00,0,70,30.17,SCT:04 25 BKN:07 40,30.13,10.00,78,330,,6,,,,,,,,,,,,,,,,,,,,,,,,,,,,,,,,,,,,,MET12207/30/13 09:56:02 METAR KCHS 301456Z 33005KT 10SM SCT025 BKN040 30/24 A3018 RMK AO2 SLP218 CB MOVD E T03000239 50001 (KPL),,,,,,,,,,,,,,,,,,,,,,,,,,,,
72208013880,2013-07-31T09:56:00,FM-15,7,,SE,0.25,mi,"TEMP, PRECIP, SNOW",,,"MMTS, SRG, SNOWBOARD",,,WFO CHS,,,,,,,,,,,,,,,,,,,,,,,,,,,30.13,74,86,0.00,,+0.00,8,67,30.12,FEW:02 30 SCT:04 120 BKN:07 180,30.08,10.00,78,000,,0,,,,,,,,,,,,,,,,,,,,,,,,,,,,,,,,,,,,,MET11807/31/13 09:56:02 METAR KCHS 311456Z 00000KT 10SM FEW030 SCT120 BKN180 30/23 A3013 RMK AO2 SLP201 T03000233 58001 (DD),,,,,,,,,,,,,,,,,,,,,,,,,,,,
72208013880,2013-07-31T10:00:00,FM-12,4,,SE,0.25,mi,"TEMP, PRECIP, SNOW",,,"MMTS, SRG, SNOWBOARD",,,WFO CHS,,,,,,,,,,,,,,,,,,,,,,,,,,,,74,86,,,+0.00,8,67,30.12,,30.08,9.94,78,000,,0,,,,,,,,,,,,,,,,,,,,,,,,,,,,,,,,,,,,,SYN06472208 32566 60000 10300 20233 30187 40201 58001 91456 555 93115=,,,,,,,,,,,,,,,,,,,,,,,,,,,,
72208013880,2013-08-03T09:56:00,FM-15,7,,SE,0.25,mi,"TEMP, PRECIP, SNOW",,,"MMTS, SRG, SNOWBOARD",,,WFO CHS,,,,,,,,,,,,,,,,,,,,,,,,,,,30.03,74,88,0.00,,+0.01,8,63,30.03,FEW:02 30 SCT:04 180,29.98,10.00,78,000,,0,,,,,,,,,,,,,,,,,,,,,,,,,,,,,,,,,,,,,MET11108/03/13 09:56:02 METAR KCHS 031456Z 00000KT 10SM FEW030 SCT180 31/23 A3003 RMK AO2 SLP168 T03110233 58002 (TF),,,,,,,,,,,,,,,,,,,,,,,,,,,,
72208013880,2013-08-03T10:00:00,FM-12,4,,SE,0.25,mi,"TEMP, PRECIP, SNOW",,,"MMTS, SRG, SNOWBOARD",,,WFO CHS,,,,,,,,,,,,,,,,,,,,,,,,,,,,74,88,,,+0.01,8,63,30.03,,29.98,9.94,78,000,,0,,,,,,,,,,,,,,,,,,,,,,,,,,,,,,,,,,,,,SYN06472208 32566 40000 10311 20233 30153 40168 58002 91456 555 90315=,,,,,,,,,,,,,,,,,,,,,,,,,,,,
72208013880,2013-08-04T09:56:00,FM-15,7,,SE,0.25,mi,"TEMP, PRECIP, SNOW",,,"MMTS, SRG, SNOWBOARD",,,WFO CHS,,,,,,,,,,,,,,,,,,,,,,,,,,,29.97,73,88,0.00,,-0.00,0,61,29.96,SCT:04 150 BKN:07 250,29.92,10.00,77,270,,9,,,,,,,,,,,,,,,,,,,,,,,,,,,,,,,,,,,,,MET11308/04/13 09:56:02 METAR KCHS 041456Z 27008KT 10SM SCT150 BKN250 31/23 A2997 RMK AO2 SLP147 T03110228 50000 $ (TF),,,,,,,,,,,,,,,,,,,,,,,,,,,,
72208013880,2013-08-07T09:56:00,FM-15,7,,SE,0.25,mi,"TEMP, PRECIP, SNOW",,,"MMTS, SRG, SNOWBOARD",,,WFO CHS,,,,,,,,,,,,,,,,,,,,,,,,,,,30.08,68,84,0.00,,-0.02,0,59,30.07,SCT:04 35 SCT:04 100,30.03,10.00,73,100,,6,,,,,,,,,,,,,,,,,,,,,,,,,,,,,,,,,,,,,MET11108/07/13 09:56:02 METAR KCHS 071456Z 10005KT 10SM SCT035 SCT100 29/20 A3008 RMK AO2 SLP184 T02890200 50006 (DD),,,,,,,,,,,,,,,,,,,,,,,,,,,,
72208013880,2013-08-12T09:56:00,FM-15,7,,SE,0.25,mi,"TEMP, PRECIP, SNOW",,,"MMTS, SRG, SNOWBOARD",,,WFO CHS,,,,,,,,,,,,,,,,,,,,,,,,,,,30.07,74,91,0.00,,+0.01,8,57,30.07,FEW:02 35,30.02,10.00,79,290,,6,,,,,,,,,,,,,,,,,,,,,,,,,,,,,,,,,,,,,MET10408/12/13 09:56:02 METAR KCHS 121456Z 29005KT 10SM FEW035 33/23 A3007 RMK AO2 SLP183 T03280233 58005 (DD),,,,,,,,,,,,,,,,,,,,,,,,,,,,
72208013880,2013-08-12T10:00:00,FM-12,4,,SE,0.25,mi,"TEMP, PRECIP, SNOW",,,"MMTS, SRG, SNOWBOARD",,,WFO CHS,,,,,,,,,,,,,,,,,,,,,,,,,,,,74,91,,,+0.01,8,57,30.07,,30.02,9.94,79,290,,6,,,,,,,,,,,,,,,,,,,,,,,,,,,,,,,,,,,,,SYN06472208 32666 22905 10328 20233 30167 40183 58005 91456 555 91215=,,,,,,,,,,,,,,,,,,,,,,,,,,,,
72208013880,2013-08-13T09:56:00,FM-15,7,,SE,0.25,mi,"TEMP, PRECIP, SNOW",,,"MMTS, SRG, SNOWBOARD",,,WFO CHS,,,,,,,,,,,,,,,,,,,,,,,,,,,29.97,76,89,0.00,,-0.00,0,65,29.97,FEW:02 25 SCT:04 250,29.92,10.00,80,260,,9,,,,,,,,,,,,,,,,,,,,,,,,,,,,,,,,,,,,,MET11108/13/13 09:56:02 METAR KCHS 131456Z 26008KT 10SM FEW025 SCT250 32/24 A2997 RMK AO2 SLP149 T03170244 50001 (DD),,,,,,,,,,,,,,,,,,,,,,,,,,,,
72208013880,2013-08-22T09:56:00,FM-15,7,,SE,0.25,mi,"TEMP, PRECIP, SNOW",,,"MMTS, SRG, SNOWBOARD",,,WFO CHS,,,,,,,,,,,,,,,,,,,,,,,,,,,30.16,73,82,0.00,,+0.01,7,74,30.15,FEW:02 25 BKN:07 180,30.11,10.00,76,330,,5,,,,,,,,,,,,,,,,,,,,,,,,,,,,,,,,,,,,,MET11108/22/13 09:56:02 METAR KCHS 221456Z 33004KT 10SM FEW025 BKN180 28/23 A3016 RMK AO2 SLP211 T02780228 57003 (DD),,,,,,,,,,,,,,,,,,,,,,,,,,,,
72208013880,2013-08-22T10:00:00,FM-12,4,,SE,0.25,mi,"TEMP, PRECIP, SNOW",,,"MMTS, SRG, SNOWBOARD",,,WFO CHS,,,,,,,,,,,,,,,,,,,,,,,,,,,,73,82,,,+0.01,7,74,30.15,,30.11,9.94,76,330,,5,,,,,,,,,,,,,,,,,,,,,,,,,,,,,,,,,,,,,SYN06472208 32566 63304 10278 20228 30197 40211 57003 91456 555 92215=,,,,,,,,,,,,,,,,,,,,,,,,,,,,
72208013880,2013-08-29T09:56:00,FM-15,7,,SE,0.25,mi,"TEMP, PRECIP, SNOW",,,"MMTS, SRG, SNOWBOARD",,,WFO CHS,,,,,,,,,,,,,,,,,,,,,,,,,,,29.95,71,87,0.00,,+0.01,7,59,29.95,FEW:02 150,29.90,10.00,76,240,,10,,,,,,,,,,,,,,,,,,,,,,,,,,,,,,,,,,,,,MET10408/29/13 09:56:02 METAR KCHS 291456Z 24009KT 10SM FEW150 31/22 A2995 RMK AO2 SLP143 T03060217 57004 (DD),,,,,,,,,,,,,,,,,,,,,,,,,,,,
72208013880,2013-08-29T10:00:00,FM-12,4,,SE,0.25,mi,"TEMP, PRECIP, SNOW",,,"MMTS, SRG, SNOWBOARD",,,WFO CHS,,,,,,,,,,,,,,,,,,,,,,,,,,,,71,87,,,+0.01,7,59,29.95,,29.90,9.94,76,240,,10,,,,,,,,,,,,,,,,,,,,,,,,,,,,,,,,,,,,,SYN06472208 32966 22409 10306 20217 30126 40143 57004 91456 555 92915=,,,,,,,,,,,,,,,,,,,,,,,,,,,,
72208013880,2013-08-30T09:56:00,FM-15,7,,SE,0.25,mi,"TEMP, PRECIP, SNOW",,,"MMTS, SRG, SNOWBOARD",,,WFO CHS,,,,,,,,,,,,,,,,,,,,,,,,,,,30.00,74,85,0.00,,-0.02,0,70,30.00,SCT:04 15 SCT:04 30,29.95,10.00,77,050,,6,,,,,,,,,,,,,,,,,,,,,,,,,,,,,,,,,,,,,MET11108/30/13 09:56:02 METAR KCHS 301456Z 05005KT 10SM SCT015 SCT030 29/23 A3000 RMK AO2 SLP159 T02940233 50007 (DD),,,,,,,,,,,,,,,,,,,,,,,,,,,,
72208013880,2013-08-31T09:56:00,FM-15,7,,SE,0.25,mi,"TEMP, PRECIP, SNOW",,,"MMTS, SRG, SNOWBOARD",,,WFO CHS,,,,,,,,,,,,,,,,,,,,,,,,,,,29.99,74,83,0.00,,-0.02,0,74,29.98,BKN:07 20,29.94,10.00,77,VRB,,5,,,,,,,,,,,,,,,,,,,,,,,,,,,,,,,,,,,,,MET10608/31/13 09:56:02 METAR KCHS 311456Z VRB04KT 10SM BKN020 28/23 A2999 RMK AO2 SLP154 T02830233 50007 $ (TF),,,,,,,,,,,,,,,,,,,,,,,,,,,,
72208013880,2013-09-01T09:56:00,FM-15,7,,SE,0.25,mi,"TEMP, PRECIP, SNOW",,,"MMTS, SRG, SNOWBOARD",,,WFO CHS,,,,,,,,,,,,,,,,,,,,,,,,,,,29.96,73,88,0.00,,-0.02,0,61,29.96,FEW:02 40 SCT:04 250,29.91,10.00,77,230,,6,,,,,,,,,,,,,,,,,,,,,,,,,,,,,,,,,,,,,MET11309/01/13 09:56:02 METAR KCHS 011456Z 23005KT 10SM FEW040 SCT250 31/23 A2996 RMK AO2 SLP145 T03110228 50008 $ (TF),,,,,,,,,,,,,,,,,,,,,,,,,,,,
72208013880,2013-09-08T09:56:00,FM-15,7,,SE,0.25,mi,"TEMP, PRECIP, SNOW",,,"MMTS, SRG, SNOWBOARD",,,WFO CHS,,,,,,,,,,,,,,,,,,,,,,,,,,,30.00,68,84,0.00,,+0.00,8,59,29.99,FEW:02 30 SCT:04 250,29.95,10.00,73,VRB,,3,,,,,,,,,,,,,,,,,,,,,,,,,,,,,,,,,,,,,MET11109/08/13 09:56:02 METAR KCHS 081456Z VRB03KT 10SM FEW030 SCT250 29/20 A3000 RMK AO2 SLP157 T02890200 58001 (TF),,,,,,,,,,,,,,,,,,,,,,,,,,,,
72208013880,2013-09-08T10:00:00,FM-12,4,,SE,0.25,mi,"TEMP, PRECIP, SNOW",,,"MMTS, SRG, SNOWBOARD",,,WFO CHS,,,,,,,,,,,,,,,,,,,,,,,,,,,,68,84,,,+0.00,8,59,29.99,,29.95,9.94,73,,,3,,,,,,,,,,,,,,,,,,,,,,,,,,,,,,,,,,,,,SYN06472208 32566 4//03 10289 20200 30143 40157 58001 91456 555 90815=,,,,,,,,,,,,,,,,,,,,,,,,,,,,
72208013880,2013-09-11T09:56:00,FM-15,7,,SE,0.25,mi,"TEMP, PRECIP, SNOW",,,"MMTS, SRG, SNOWBOARD",,,WFO CHS,,,,,,,,,,,,,,,,,,,,,,,,,,,30.19,72,85,0.00,,-0.00,0,65,30.19,SCT:04 25 SCT:04 180 BKN:07 250,30.14,10.00,76,070,,10,,,,,,,,,,,,,,,,,,,,,,,,,,,,,,,,,,,,,MET11809/11/13 09:56:02 METAR KCHS 111456Z 07009KT 10SM SCT025 SCT180 BKN250 29/22 A3019 RMK AO2 SLP222 T02940222 50000 (DD),,,,,,,,,,,,,,,,,,,,,,,,,,,,
72208013880,2013-09-12T09:56:00,FM-15,7,,SE,0.25,mi,"TEMP, PRECIP, SNOW",,,"MMTS, SRG, SNOWBOARD",,,WFO CHS,,,,,,,,,,,,,,,,,,,,,,,,,,,30.05,67,85,0.00,,+0.01,8,55,30.04,FEW:02 40 SCT:04 250,30.00,10.00,73,000,,0,,,,,,,,,,,,,,,,,,,,,,,,,,,,,,,,,,,,,MET11109/12/13 09:56:02 METAR KCHS 121456Z 00000KT 10SM FEW040 SCT250 29/19 A3005 RMK AO2 SLP173 T02940194 58005 (DD),,,,,,,,,,,,,,,,,,,,,,,,,,,,
72208013880,2013-09-12T10:00:00,FM-12,4,,SE,0.25,mi,"TEMP, PRECIP, SNOW",,,"MMTS, SRG, SNOWBOARD",,,WFO CHS,,,,,,,,,,,,,,,,,,,,,,,,,,,,67,85,,,+0.01,8,55,30.04,,30.00,9.94,73,000,,0,,,,,,,,,,,,,,,,,,,,,,,,,,,,,,,,,,,,,SYN06472208 32666 40000 10294 20194 30160 40173 58005 91456 555 91215=,,,,,,,,,,,,,,,,,,,,,,,,,,,,
72208013880,2013-09-13T09:56:00,FM-15,7,,SE,0.25,mi,"TEMP, PRECIP, SNOW",,,"MMTS, SRG, SNOWBOARD",,,WFO CHS,,,,,,,,,,,,,,,,,,,,,,,,,,,29.83,71,85,0.00,,-0.00,0,63,29.83,FEW:02 180,29.78,10.00,75,330,,6,,,,,,,,,,,,,,,,,,,,,,,,,,,,,,,,,,,,,MET10509/13/13 09:56:02 METAR KCHS 131456Z 33005KT 10SM FEW180 29/22 A2983 RMK AO2 SLP102 T02940217 50000 (KPL),,,,,,,,,,,,,,,,,,,,,,,,,,,,
72208013880,2013-09-16T09:56:00,FM-15,7,,SE,0.25,mi,"TEMP, PRECIP, SNOW",,,"MMTS, SRG, SNOWBOARD",,,WFO CHS,,,,,,,,,,,,,,,,,,,,,,,,,,,30.13,72,85,0.00,,-0.01,0,65,30.13,SCT:04 25 SCT:04 50 BKN:07 100,30.08,10.00,76,340,,7,,,,,,,,,,,,,,,,,,,,,,,,,,,,,,,,,,,,,MET11809/16/13 09:56:02 METAR KCHS 161456Z 34006KT 10SM SCT025 SCT050 BKN100 29/22 A3013 RMK AO2 SLP203 T02940222 50005 (DD),,,,,,,,,,,,,,,,,,,,,,,,,,,,
72208013880,2013-09-20T09:56:00,FM-15,7,,SE,0.25,mi,"TEMP, PRECIP, SNOW",,,"MMTS, SRG, SNOWBOARD",,,WFO CHS,,,,,,,,,,,,,,,,,,,,,,,,,,,30.10,65,81,0.00,,-0.01,0,58,30.09,SCT:04 30,30.05,10.00,71,350,,3,,,,,,,,,,,,,,,,,,,,,,,,,,,,,,,,,,,,,MET10409/20/13 09:56:02 METAR KCHS 201456Z 35003KT 10SM SCT030 27/18 A3010 RMK AO2 SLP190 T02720183 50003 (DD),,,,,,,,,,,,,,,,,,,,,,,,,,,,
72208013880,2013-09-21T09:56:00,FM-15,7,,SE,0.25,mi,"TEMP, PRECIP, SNOW",,,"MMTS, SRG, SNOWBOARD",,,WFO CHS,,,,,,,,,,,,,,,,,,,,,,,,,,,29.90,68,83,0.00,,+0.01,8,61,29.90,BKN:07 30 BKN:07 40 BKN:07 250,29.85,10.00,73,200,,13,,,,,,,,,,,,,,,,,,,,,,,,,,,,,,,,,,,,,MET12909/21/13 09:56:02 METAR KCHS 211456Z 20011KT 10SM BKN030TCU BKN040 BKN250 28/20 A2990 RMK AO2 SLP124 TCU W-N T02830200 58002 (TF),,,,,,,,,,,,,,,,,,,,,,,,,,,,
72208013880,2013-09-21T10:00:00,FM-12,4,,SE,0.25,mi,"TEMP, PRECIP, SNOW",,,"MMTS, SRG, SNOWBOARD",,,WFO CHS,,,,,,,,,,,,,,,,,,,,,,,,,,,,68,83,,,+0.01,8,61,29.90,,29.85,9.94,73,200,,13,,,,,,,,,,,,,,,,,,,,,,,,,,,,,,,,,,,,,SYN06472208 32566 62011 10283 20200 30109 40124 58002 91456 555 92115=,,,,,,,,,,,,,,,,,,,,,,,,,,,,
72208013880,2013-09-24T09:56:00,FM-15,7,,SE,0.25,mi,"TEMP, PRECIP, SNOW",,,"MMTS, SRG, SNOWBOARD",,,WFO CHS,,,,,,,,,,,,,,,,,,,,,,,,,,,30.05,60,78,0.00,,+0.01,8,54,30.04,FEW:02 45 SCT:04 70,30.00,10.00,67,050,,11,,,,,,,,,,,,,,,,,,,,,,,,,,,,,,,,,,,,,MET11109/24/13 09:56:02 METAR KCHS 241456Z 05010KT 10SM FEW045 SCT070 26/16 A3005 RMK AO2 SLP174 T02560156 58002 (DD),,,,,,,,,,,,,,,,,,,,,,,,,,,,
72208013880,2013-09-24T10:00:00,FM-12,4,,SE,0.25,mi,"TEMP, PRECIP, SNOW",,,"MMTS, SRG, SNOWBOARD",,,WFO CHS,,,,,,,,,,,,,,,,,,,,,,,,,,,,60,78,,,+0.01,8,54,30.04,,30.00,9.94,67,050,,11,,,,,,,,,,,,,,,,,,,,,,,,,,,,,,,,,,,,,SYN06472208 32666 40510 10256 20156 30160 40174 58002 91456 555 92415=,,,,,,,,,,,,,,,,,,,,,,,,,,,,
72208013880,2013-09-30T09:56:00,FM-15,7,,SE,0.25,mi,"TEMP, PRECIP, SNOW",,,"MMTS, SRG, SNOWBOARD",,,WFO CHS,,,,,,,,,,,,,,,,,,,,,,,,,,,30.07,53,76,0.00,,-0.00,0,45,30.07,FEW:02 40 SCT:04 150 SCT:04 250,30.02,10.00,63,040,,7,,,,,,,,,,,,,,,,,,,,,,,,,,,,,,,,,,,,,MET11809/30/13 09:56:02 METAR KCHS 301456Z 04006KT 10SM FEW040 SCT150 SCT250 24/12 A3007 RMK AO2 SLP182 T02440117 50000 (TF),,,,,,,,,,,,,,,,,,,,,,,,,,,,
72208013880,2013-10-01T09:56:00,FM-15,7,,SE,0.25,mi,"TEMP, PRECIP, SNOW",,,"MMTS, SRG, SNOWBOARD",,,WFO CHS,,,,,,,,,,,,,,,,,,,,,,,,,,,30.14,58,77,0.00,,-0.03,0,52,30.14,CLR:00,30.09,10.00,65,350,,8,,,,,,,,,,,,,,,,,,,,,,,,,,,,,,,,,,,,,MET10110/01/13 09:56:02 METAR KCHS 011456Z 35007KT 10SM CLR 25/14 A3014 RMK AO2 SLP206 T02500144 50009 (DD),,,,,,,,,,,,,,,,,,,,,,,,,,,,
72208013880,2013-10-02T09:56:00,FM-15,7,,SE,0.25,mi,"TEMP, PRECIP, SNOW",,,"MMTS, SRG, SNOWBOARD",,,WFO CHS,,,,,,,,,,,,,,,,,,,,,,,,,,,30.15,60,79,0.00,,-0.02,0,52,30.15,CLR:00,30.10,10.00,67,350,,8,,,,,,,,,,,,,,,,,,,,,,,,,,,,,,,,,,,,,MET10110/02/13 09:56:02 METAR KCHS 021456Z 35007KT 10SM CLR 26/16 A3015 RMK AO2 SLP209 T02610156 50006 (DD),,,,,,,,,,,,,,,,,,,,,,,,,,,,
72208013880,2013-10-04T09:56:00,FM-15,7,,SE,0.25,mi,"TEMP, PRECIP, SNOW",,,"MMTS, SRG, SNOWBOARD",,,WFO CHS,,,,,,,,,,,,,,,,,,,,,,,,,,,30.15,69,82,0.00,,-0.02,0,65,30.14,SCT:04 25,30.10,10.00,73,VRB,,7,,,,,,,,,,,,,,,,,,,,,,,,,,,,,,,,,,,,,MET10410/04/13 09:56:02 METAR KCHS 041456Z VRB06KT 10SM SCT025 28/21 A3015 RMK AO2 SLP207 T02780206 50007 (DD),,,,,,,,,,,,,,,,,,,,,,,,,,,,
72208013880,2013-10-05T09:56:00,FM-15,7,,SE,0.25,mi,"TEMP, PRECIP, SNOW",,,"MMTS, SRG, SNOWBOARD",,,WFO CHS,,,,,,,,,,,,,,,,,,,,,,,,,,,30.12,68,83,0.00,,-0.00,0,61,30.12,CLR:00,30.07,10.00,73,010,,6,,,,,,,,,,,,,,,,,,,,,,,,,,,,,,,,,,,,,MET10110/05/13 09:56:02 METAR KCHS 051456Z 01005KT 10SM CLR 28/20 A3012 RMK AO2 SLP199 T02830200 50000 (TF),,,,,,,,,,,,,,,,,,,,,,,,,,,,
72208013880,2013-10-06T09:56:00,FM-15,7,,SE,0.25,mi,"TEMP, PRECIP, SNOW",,,"MMTS, SRG, SNOWBOARD",,,WFO CHS,,,,,,,,,,,,,,,,,,,,,,,,,,,30.04,72,83,0.00,,-0.01,0,70,30.03,SCT:04 20 BKN:07 30,29.99,10.00,75,090,,5,,,,,,,,,,,,,,,,,,,,,,,,,,,,,,,,,,,,,MET11110/06/13 09:56:02 METAR KCHS 061456Z 09004KT 10SM SCT020 BKN030 28/22 A3004 RMK AO2 SLP170 T02830222 50005 (TF),,,,,,,,,,,,,,,,,,,,,,,,,,,,
72208013880,2013-10-07T09:56:00,FM-15,7,,SE,0.25,mi,"TEMP, PRECIP, SNOW",,,"MMTS, SRG, SNOWBOARD",,,WFO CHS,,,,,,,,,,,,,,,,,,,,,,,,,,,29.89,73,78,0.01,-RA:02 |RA |,-0.01,0,85,29.89,SCT:04 10 BKN:07 30 BKN:07 60,29.84,10.00,75,110,,6,,,,,,,,,,,,,,,,,,,,,,,,,,,,,,,,,,,,,MET15310/07/13 09:56:02 METAR KCHS 071456Z 11005KT 10SM -RA SCT010 BKN030 BKN060 26/23 A2989 RMK AO2 RAE32B52 SLP121 SCT V BKN P0005 60045 T02560228 50003 (DD),,,,,,,,,,,,,,,,,,,,,,,,,,,,
72208013880,2013-10-09T09:56:00,FM-15,7,,SE,0.25,mi,"TEMP, PRECIP, SNOW",,,"MMTS, SRG, SNOWBOARD",,,WFO CHS,,,,,,,,,,,,,,,,,,,,,,,,,,,30.09,56,68,0.00,,-0.00,0,65,30.09,FEW:02 25,30.04,10.00,61,350,22,17,,,,,,,,,,,,,,,,,,,,,,,,,,,,,,,,,,,,,MET10710/09/13 09:56:02 METAR KCHS 091456Z 35015G19KT 10SM FEW025 20/13 A3009 RMK AO2 SLP189 T02000133 50001 (DD),,,,,,,,,,,,,,,,,,,,,,,,,,,,
72208013880,2013-10-10T09:56:00,FM-15,7,,SE,0.25,mi,"TEMP, PRECIP, SNOW",,,"MMTS, SRG, SNOWBOARD",,,WFO CHS,,,,,,,,,,,,,,,,,,,,,,,,,,,30.05,55,68,0.00,,-0.00,0,63,30.05,CLR:00,30.00,10.00,60,310,,10,,,,,,,,,,,,,,,,,,,,,,,,,,,,,,,,,,,,,MET10110/10/13 09:56:02 METAR KCHS 101456Z 31009KT 10SM CLR 20/13 A3005 RMK AO2 SLP176 T02000128 50001 (DD),,,,,,,,,,,,,,,,,,,,,,,,,,,,
72208013880,2013-10-11T09:56:00,FM-15,7,,SE,0.25,mi,"TEMP, PRECIP, SNOW",,,"MMTS, SRG, SNOWBOARD",,,WFO CHS,,,,,,,,,,,,,,,,,,,,,,,,,,,30.02,59,72,0.00,,-0.02,0,64,30.01,BKN:07 50,29.97,10.00,64,260,,6,,,,,,,,,,,,,,,,,,,,,,,,,,,,,,,,,,,,,MET10410/11/13 09:56:02 METAR KCHS 111456Z 26005KT 10SM BKN050 22/15 A3002 RMK AO2 SLP164 T02220150 50008 (DD),,,,,,,,,,,,,,,,,,,,,,,,,,,,
72208013880,2013-10-14T09:56:00,FM-15,7,,SE,0.25,mi,"TEMP, PRECIP, SNOW",,,"MMTS, SRG, SNOWBOARD",,,WFO CHS,,,,,,,,,,,,,,,,,,,,,,,,,,,30.12,64,71,0.00,,-0.01,0,79,30.12,BKN:07 17 OVC:08 22,30.07,10.00,67,020,,10,,,,,,,,,,,,,,,,,,,,,,,,,,,,,,,,,,,,,MET11110/14/13 09:56:02 METAR KCHS 141456Z 02009KT 10SM BKN017 OVC022 22/18 A3012 RMK AO2 SLP200 T02170178 50005 (DD),,,,,,,,,,,,,,,,,,,,,,,,,,,,
72208013880,2013-10-19T09:56:00,FM-15,7,,SE,0.25,mi,"TEMP, PRECIP, SNOW",,,"MMTS, SRG, SNOWBOARD",,,WFO CHS,,,,,,,,,,,,,,,,,,,,,,,,,,,29.94,69,78,0.00,,-0.02,0,74,29.94,BKN:07 15 BKN:07 180,29.89,10.00,72,300,,7,,,,,,,,,,,,,,,,,,,,,,,,,,,,,,,,,,,,,MET11110/19/13 09:56:02 METAR KCHS 191456Z 30006KT 10SM BKN015 BKN180 26/21 A2994 RMK AO2 SLP139 T02560206 50008 (TF),,,,,,,,,,,,,,,,,,,,,,,,,,,,
72208013880,2013-10-24T09:56:00,FM-15,7,,SE,0.25,mi,"TEMP, PRECIP, SNOW",,,"MMTS, SRG, SNOWBOARD",,,WFO CHS,,,,,,,,,,,,,,,,,,,,,,,,,,,30.20,32,57,0.00,,-0.04,0,39,30.20,FEW:02 250,30.15,10.00,46,010,,9,,,,,,,,,,,,,,,,,,,,,,,,,,,,,,,,,,,,,MET10410/24/13 09:56:02 METAR KCHS 241456Z 01008KT 10SM FEW250 14/00 A3020 RMK AO2 SLP226 T01390000 50012 (DD),,,,,,,,,,,,,,,,,,,,,,,,,,,,
72208013880,2013-10-27T09:56:00,FM-15,7,,SE,0.25,mi,"TEMP, PRECIP, SNOW",,,"MMTS, SRG, SNOWBOARD",,,WFO CHS,,,,,,,,,,,,,,,,,,,,,,,,,,,30.16,38,63,0.00,,-0.02,0,40,30.15,FEW:02 220,30.11,10.00,51,330,,5,,,,,,,,,,,,,,,,,,,,,,,,,,,,,,,,,,,,,MET10410/27/13 09:56:02 METAR KCHS 271456Z 33004KT 10SM FEW220 17/03 A3016 RMK AO2 SLP211 T01720033 50007 (TF),,,,,,,,,,,,,,,,,,,,,,,,,,,,
72208013880,2013-10-29T09:56:00,FM-15,7,,SE,0.25,mi,"TEMP, PRECIP, SNOW",,,"MMTS, SRG, SNOWBOARD",,,WFO CHS,,,,,,,,,,,,,,,,,,,,,,,,,,,30.33,57,72,0.00,,-0.03,0,59,30.32,FEW:02 65,30.28,10.00,63,040,,6,,,,,,,,,,,,,,,,,,,,,,,,,,,,,,,,,,,,,MET10410/29/13 09:56:02 METAR KCHS 291456Z 04005KT 10SM FEW065 22/14 A3033 RMK AO2 SLP269 T02220139 50009 (DD),,,,,,,,,,,,,,,,,,,,,,,,,,,,
72208013880,2013-10-30T09:56:00,FM-15,7,,SE,0.25,mi,"TEMP, PRECIP, SNOW",,,"MMTS, SRG, SNOWBOARD",,,WFO CHS,,,,,,,,,,,,,,,,,,,,,,,,,,,30.32,60,71,0.00,,-0.02,0,68,30.32,FEW:02 180 SCT:04 250,30.27,10.00,64,000,,0,,,,,,,,,,,,,,,,,,,,,,,,,,,,,,,,,,,,,MET11110/30/13 09:56:02 METAR KCHS 301456Z 00000KT 10SM FEW180 SCT250 22/16 A3032 RMK AO2 SLP267 T02170156 50007 (DD),,,,,,,,,,,,,,,,,,,,,,,,,,,,
72208013880,2013-10-31T09:56:00,FM-15,7,,SE,0.25,mi,"TEMP, PRECIP, SNOW",,,"MMTS, SRG, SNOWBOARD",,,WFO CHS,,,,,,,,,,,,,,,,,,,,,,,,,,,30.18,60,76,0.00,,+0.01,8,58,30.17,FEW:02 150 SCT:04 250,30.13,10.00,66,130,,8,,,,,,,,,,,,,,,,,,,,,,,,,,,,,,,,,,,,,MET11110/31/13 09:56:02 METAR KCHS 311456Z 13007KT 10SM FEW150 SCT250 24/16 A3018 RMK AO2 SLP218 T02440156 58003 (DD),,,,,,,,,,,,,,,,,,,,,,,,,,,,
72208013880,2013-10-31T10:00:00,FM-12,4,,SE,0.25,mi,"TEMP, PRECIP, SNOW",,,"MMTS, SRG, SNOWBOARD",,,WFO CHS,,,,,,,,,,,,,,,,,,,,,,,,,,,,60,76,,,+0.01,8,58,30.17,,30.13,9.94,66,130,,8,,,,,,,,,,,,,,,,,,,,,,,,,,,,,,,,,,,,,SYN06472208 32966 41307 10244 20156 30204 40218 58003 91456 555 93115=,,,,,,,,,,,,,,,,,,,,,,,,,,,,
72208013880,2013-11-01T09:56:00,FM-15,7,,SE,0.25,mi,"TEMP, PRECIP, SNOW",,,"MMTS, SRG, SNOWBOARD",,,WFO CHS,,,,,,,,,,,,,,,,,,,,,,,,,,,29.91,67,77,0.00,,-0.02,0,71,29.91,FEW:02 20 BKN:07 70 OVC:08 200,29.86,10.00,70,210,22,18,,,,,,,,,,,,,,,,,,,,,,,,,,,,,,,,,,,,,MET12111/01/13 09:56:02 METAR KCHS 011456Z 21016G19KT 10SM FEW020 BKN070 OVC200 25/19 A2991 RMK AO2 SLP128 T02500194 50006 (DD),,,,,,,,,,,,,,,,,,,,,,,,,,,,
72208013880,2013-11-05T09:56:00,FM-15,7,,SE,0.25,mi,"TEMP, PRECIP, SNOW",,,"MMTS, SRG, SNOWBOARD",,,WFO CHS,,,,,,,,,,,,,,,,,,,,,,,,,,,30.42,45,56,0.00,,-0.01,0,67,30.42,FEW:02 25 SCT:04 70 SCT:04 250,30.37,10.00,50,030,,10,,,,,,,,,,,,,,,,,,,,,,,,,,,,,,,,,,,,,MET11811/05/13 09:56:02 METAR KCHS 051456Z 03009KT 10SM FEW025 SCT070 SCT250 13/07 A3042 RMK AO2 SLP302 T01330072 50004 (DD),,,,,,,,,,,,,,,,,,,,,,,,,,,,
72208013880,2013-11-07T09:56:00,FM-15,7,,SE,0.25,mi,"TEMP, PRECIP, SNOW",,,"MMTS, SRG, SNOWBOARD",,,WFO CHS,,,,,,,,,,,,,,,,,,,,,,,,,,,30.06,62,69,0.00,,-0.03,0,78,30.05,FEW:02 10 SCT:04 120 OVC:08 180,30.01,10.00,65,260,,3,,,,,,,,,,,,,,,,,,,,,,,,,,,,,,,,,,,,,MET11811/07/13 09:56:02 METAR KCHS 071456Z 26003KT 10SM FEW010 SCT120 OVC180 21/17 A3006 RMK AO2 SLP177 T02060167 50011 (DD),,,,,,,,,,,,,,,,,,,,,,,,,,,,
72208013880,2013-11-12T09:56:00,FM-15,7,,SE,0.25,mi,"TEMP, PRECIP, SNOW",,,"MMTS, SRG, SNOWBOARD",,,WFO CHS,,,,,,,,,,,,,,,,,,,,,,,,,,,30.12,46,64,0.00,,-0.00,0,52,30.12,FEW:02 250,30.07,10.00,55,280,,7,,,,,,,,,,,,,,,,,,,,,,,,,,,,,,,,,,,,,MET10411/12/13 09:56:02 METAR KCHS 121456Z 28006KT 10SM FEW250 18/08 A3012 RMK AO2 SLP200 T01780078 50000 (DD),,,,,,,,,,,,,,,,,,,,,,,,,,,,
72208013880,2013-11-15T09:56:00,FM-15,7,,SE,0.25,mi,"TEMP, PRECIP, SNOW",,,"MMTS, SRG, SNOWBOARD",,,WFO CHS,,,,,,,,,,,,,,,,,,,,,,,,,,,30.32,51,57,0.00,,-0.01,0,81,30.32,FEW:02 80 OVC:08 200,30.27,10.00,54,050,,8,,,,,,,,,,,,,,,,,,,,,,,,,,,,,,,,,,,,,MET11211/15/13 09:56:02 METAR KCHS 151456Z 05007KT 10SM FEW080 OVC200 14/11 A3032 RMK AO2 SLP266 T01390106 50005 (KPL),,,,,,,,,,,,,,,,,,,,,,,,,,,,
72208013880,2013-11-21T09:56:00,FM-15,7,,SE,0.25,mi,"TEMP, PRECIP, SNOW",,,"MMTS, SRG, SNOWBOARD",,,WFO CHS,,,,,,,,,,,,,,,,,,,,,,,,,,,30.39,48,58,0.00,,-0.04,0,70,30.38,OVC:08 12,30.34,10.00,53,020,,11,,,,,,,,,,,,,,,,,,,,,,,,,,,,,,,,,,,,,MET10411/21/13 09:56:02 METAR KCHS 211456Z 02010KT 10SM OVC012 14/09 A3039 RMK AO2 SLP289 T01440089 50012 (DD),,,,,,,,,,,,,,,,,,,,,,,,,,,,
72208013880,2013-11-22T10:00:00,FM-12,4,,SE,0.25,mi,"TEMP, PRECIP, SNOW",,,"MMTS, SRG, SNOWBOARD",,,WFO CHS,,,,,,,,,,,,,,,,,,,,,,,,,,,,63,70,,,0.00,4,79,30.31,,30.27,9.94,66,120,,7,,,,,,,,,,,,,,,,,,,,,,,,,,,,,,,,,,,,,SYN07072208 12666 61206 10211 20172 30251 40265 53000 69907 91456 555 92215=,,,,,,,,,,,,,,,,,,,,,,,,,,,,
72208013880,2013-11-23T09:56:00,FM-15,7,,SE,0.25,mi,"TEMP, PRECIP, SNOW",,,"MMTS, SRG, SNOWBOARD",,,WFO CHS,,,,,,,,,,,,,,,,,,,,,,,,,,,30.11,63,69,0.00,,+0.00,8,81,30.10,FEW:02 15 BKN:07 75 BKN:07 150,30.06,10.00,65,260,,11,,,,,,,,,,,,,,,,,,,,,,,,,,,,,,,,,,,,,MET11811/23/13 09:56:02 METAR KCHS 231456Z 26010KT 10SM FEW015 BKN075 BKN150 21/17 A3011 RMK AO2 SLP194 T02060172 58001 (TF),,,,,,,,,,,,,,,,,,,,,,,,,,,,
72208013880,2013-11-23T10:00:00,FM-12,4,,SE,0.25,mi,"TEMP, PRECIP, SNOW",,,"MMTS, SRG, SNOWBOARD",,,WFO CHS,,,,,,,,,,,,,,,,,,,,,,,,,,,,63,69,,,+0.00,8,81,30.10,,30.06,9.94,65,260,,11,,,,,,,,,,,,,,,,,,,,,,,,,,,,,,,,,,,,,SYN06472208 32466 62610 10206 20172 30180 40194 58001 91456 555 92315=,,,,,,,,,,,,,,,,,,,,,,,,,,,,
72208013880,2013-11-25T09:56:00,FM-15,7,,SE,0.25,mi,"TEMP, PRECIP, SNOW",,,"MMTS, SRG, SNOWBOARD",,,WFO CHS,,,,,,,,,,,,,,,,,,,,,,,,,,,30.52,16,43,0.00,,-0.00,0,34,30.52,SCT:04 250,30.47,10.00,34,050,31,16,,,,,,,,,,,,,,,,,,,,,,,,,,,,,,,,,,,,,MET12611/25/13 09:56:02 METAR KCHS 251456Z 05014G27KT 10SM SCT250 06/M09 A3052 RMK AO2 PK WND 05027/1447 SLP335 T00611089 50000 (TF),,,,,,,,,,,,,,,,,,,,,,,,,,,,
72208013880,2013-11-26T09:56:00,FM-15,7,,SE,0.25,mi,"TEMP, PRECIP, SNOW",,,"MMTS, SRG, SNOWBOARD",,,WFO CHS,,,,,,,,,,,,,,,,,,,,,,,,,,,30.03,59,66,T,,+0.06,8,78,30.03,SCT:04 40 SCT:04 70 OVC:08 120,29.98,10.00,62,130,,15,,,,,,,,,,,,,,,,,,,,,,,,,,,,,,,,,,,,,MET13911/26/13 09:56:02 METAR KCHS 261456Z 13013KT 10SM SCT040 SCT070 OVC120 19/15 A3003 RMK AO2 RAB26E36 SLP169 P0000 60000 T01890150 58019 (DD),,,,,,,,,,,,,,,,,,,,,,,,,,,,
72208013880,2013-11-26T10:00:00,FM-12,4,,SE,0.25,mi,"TEMP, PRECIP, SNOW",,,"MMTS, SRG, SNOWBOARD",,,WFO CHS,,,,,,,,,,,,,,,,,,,,,,,,,,,,59,66,,,+0.06,8,78,30.03,,29.98,9.94,62,130,,15,,,,,,,,,,,,,,,,,,,,,,,,,,,,,,,,,,,,,SYN07072208 12666 81313 10189 20150 30153 40169 58019 69907 91456 555 92615=,,,,,,,,,,,,,,,,,,,,,,,,,,,,
72208013880,2013-11-30T09:56:00,FM-15,7,,SE,0.25,mi,"TEMP, PRECIP, SNOW",,,"MMTS, SRG, SNOWBOARD",,,WFO CHS,,,,,,,,,,,,,,,,,,,,,,,,,,,30.53,32,45,0.00,,-0.01,0,61,30.53,FEW:02 60 SCT:04 250,30.47,10.00,40,030,,9,,,,,,,,,,,,,,,,,,,,,,,,,,,,,,,,,,,,,MET11111/30/13 09:56:02 METAR KCHS 301456Z 03008KT 10SM FEW060 SCT250 07/00 A3053 RMK AO2 SLP338 T00720000 50004 (TF),,,,,,,,,,,,,,,,,,,,,,,,,,,,
72208013880,2013-12-09T09:56:00,FM-15,7,,SE,0.25,mi,"TEMP, PRECIP, SNOW",,,"MMTS, SRG, SNOWBOARD",,,WFO CHS,,,,,,,,,,,,,,,,,,,,,,,,,,,30.20,49,50,0.00,FG:2 |FG |,+0.00,8,96,30.19,BKN:07 1 OVC:08 2,30.15,0.25,49,100,,6,,,,,,,,,,,,,,,,,,,,,,,,,,,,,,,,,,,,,MET13812/09/13 09:56:02 METAR KCHS 091456Z 10005KT 1/4SM R15/2000V2400FT FG BKN001 OVC002 10/09 A3020 RMK AO2 SLP225 BKN000 T01000094 58001 (DD),,,,,,,,,,,,,,,,,,,,,,,,,,,,
72208013880,2013-12-09T10:00:00,FM-12,4,,SE,0.25,mi,"TEMP, PRECIP, SNOW",,,"MMTS, SRG, SNOWBOARD",,,WFO CHS,,,,,,,,,,,,,,,,,,,,,,,,,,,,49,50,,||FG,+0.00,8,96,30.19,,30.15,0.25,49,100,,6,,,,,,,,,,,,,,,,,,,,,,,,,,,,,,,,,,,,,SYN07072208 31004 81005 10100 20094 30211 40225 58001 741// 91456 555 90915=,,,,,,,,,,,,,,,,,,,,,,,,,,,,
72208013880,2013-12-14T09:56:00,FM-15,7,,SE,0.25,mi,"TEMP, PRECIP, SNOW",,,"MMTS, SRG, SNOWBOARD",,,WFO CHS,,,,,,,,,,,,,,,,,,,,,,,,,,,30.14,56,60,0.00,,+0.03,8,86,30.14,FEW:02 55 SCT:04 90 BKN:07 250,30.09,10.00,58,090,,5,,,,,,,,,,,,,,,,,,,,,,,,,,,,,,,,,,,,,MET12412/14/13 09:56:02 METAR KCHS 141456Z 09004KT 10SM FEW055 SCT090 BKN250 16/13 A3014 RMK AO2 SLP206 60002 T01560133 58010 (TF),,,,,,,,,,,,,,,,,,,,,,,,,,,,
72208013880,2013-12-14T10:00:00,FM-12,4,,SE,0.25,mi,"TEMP, PRECIP, SNOW",,,"MMTS, SRG, SNOWBOARD",,,WFO CHS,,,,,,,,,,,,,,,,,,,,,,,,,,,,56,60,,,+0.03,8,86,30.14,,30.09,9.94,58,090,,5,,,,,,,,,,,,,,,,,,,,,,,,,,,,,,,,,,,,,SYN07072208 12766 60904 10156 20133 30190 40206 58010 69957 91456 555 91415=,,,,,,,,,,,,,,,,,,,,,,,,,,,,
72208013880,2013-12-17T09:56:00,FM-15,7,,SE,0.25,mi,"TEMP, PRECIP, SNOW",,,"MMTS, SRG, SNOWBOARD",,,WFO CHS,,,,,,,,,,,,,,,,,,,,,,,,,,,30.24,33,56,0.00,,-0.02,0,42,30.24,CLR:00,30.19,10.00,46,270,,9,,,,,,,,,,,,,,,,,,,,,,,,,,,,,,,,,,,,,MET10112/17/13 09:56:02 METAR KCHS 171456Z 27008KT 10SM CLR 13/01 A3024 RMK AO2 SLP240 T01330006 50006 (DD),,,,,,,,,,,,,,,,,,,,,,,,,,,,
72208013880,2014-01-01T09:56:00,FM-15,7,,SE,0.25,mi,"TEMP, PRECIP, SNOW",,,"MMTS, SRG, SNOWBOARD",,,WFO CHS,,,,,,,,,,,,,,,,,,,,,,,,,,,30.37,40,50,T,-RA:02 |RA |,-0.01,0,68,30.37,SCT:04 40 SCT:04 70 OVC:08 100,30.32,10.00,45,070,,7,,,,,,,,,,,,,,,,,,,,,,,,,,,,,,,,,,,,,MET14301/01/14 09:56:02 METAR KCHS 011456Z 07006KT 10SM -RA SCT040 SCT070 OVC100 10/04 A3037 RMK AO2 RAE00B27 SLP284 P0000 60000 T01000044 50005 (DD),,,,,,,,,,,,,,,,,,,,,,,,,,,,
72208013880,2014-01-02T09:56:00,FM-15,7,,SE,0.25,mi,"TEMP, PRECIP, SNOW",,,"MMTS, SRG, SNOWBOARD",,,WFO CHS,,,,,,,,,,,,,,,,,,,,,,,,,,,29.96,49,51,0.05,-RA:02 |RA |,+0.05,8,92,29.95,SCT:04 5 BKN:07 50 OVC:08 100,29.91,8.00,50,090,,5,,,,,,,,,,,,,,,,,,,,,,,,,,,,,,,,,,,,,MET13501/02/14 09:56:02 METAR KCHS 021456Z 09004KT 8SM -RA SCT005 BKN050 OVC100 11/09 A2996 RMK AO2 SLP143 P0005 60024 T01060094 58016 $ (DD),,,,,,,,,,,,,,,,,,,,,,,,,,,,
72208013880,2014-01-02T10:00:00,FM-12,4,,SE,0.25,mi,"TEMP, PRECIP, SNOW",,,"MMTS, SRG, SNOWBOARD",,,WFO CHS,,,,,,,,,,,,,,,,,,,,,,,,,,,,49,51,,||RA,+0.05,8,92,29.95,,29.91,7.46,50,090,,5,,,,,,,,,,,,,,,,,,,,,,,,,,,,,,,,,,,,,SYN07672208 11262 80904 10106 20094 30129 40143 58016 60067 761// 91456 555 90215=,,,,,,,,,,,,,,,,,,,,,,,,,,,,
72208013880,2014-01-04T09:56:00,FM-15,7,,SE,0.25,mi,"TEMP, PRECIP, SNOW",,,"MMTS, SRG, SNOWBOARD",,,WFO CHS,,,,,,,,,,,,,,,,,,,,,,,,,,,30.44,21,38,0.00,,-0.02,0,51,30.44,OVC:08 17,30.39,10.00,32,030,,11,,,,,,,,,,,,,,,,,,,,,,,,,,,,,,,,,,,,,MET10701/04/14 09:56:02 METAR KCHS 041456Z 03010KT 10SM OVC017 03/M06 A3044 RMK AO2 SLP308 T00331061 50008 $ (TF),,,,,,,,,,,,,,,,,,,,,,,,,,,,
72208013880,2014-01-05T09:56:00,FM-15,7,,SE,0.25,mi,"TEMP, PRECIP, SNOW",,,"MMTS, SRG, SNOWBOARD",,,WFO CHS,,,,,,,,,,,,,,,,,,,,,,,,,,,30.11,46,53,0.00,,+0.01,6,77,30.11,FEW:02 20 BKN:07 65 BKN:07 75,30.06,10.00,49,000,,0,,,,,,,,,,,,,,,,,,,,,,,,,,,,,,,,,,,,,MET12001/05/14 09:56:02 METAR KCHS 051456Z 00000KT 10SM FEW020 BKN065 BKN075 12/08 A3011 RMK AO2 SLP195 T01170078 56005 $ (TF),,,,,,,,,,,,,,,,,,,,,,,,,,,,
72208013880,2014-01-05T10:00:00,FM-12,4,,SE,0.25,mi,"TEMP, PRECIP, SNOW",,,"MMTS, SRG, SNOWBOARD",,,WFO CHS,,,,,,,,,,,,,,,,,,,,,,,,,,,,46,53,,,+0.01,6,77,30.11,,30.06,9.94,49,000,,0,,,,,,,,,,,,,,,,,,,,,,,,,,,,,,,,,,,,,SYN06472208 32566 60000 10117 20078 30180 40195 56005 91456 555 90515=,,,,,,,,,,,,,,,,,,,,,,,,,,,,
72208013880,2014-01-11T09:56:00,FM-15,7,,SE,0.25,mi,"TEMP, PRECIP, SNOW",,,"MMTS, SRG, SNOWBOARD",,,WFO CHS,,,,,,,,,,,,,,,,,,,,,,,,,,,29.96,67,69,T,,+0.01,8,93,29.96,OVC:08 2,29.91,10.00,68,210,30,20,,,,,,,,,,,,,,,,,,,,,,,,,,,,,,,,,,,,,MET14601/11/14 09:56:02 METAR KCHS 111456Z 21017G26KT 10SM OVC002 21/19 A2996 RMK AO2 PK WND 21026/1447 DZB20E44 SLP144 P0000 60000 T02060194 58005 (TF),,,,,,,,,,,,,,,,,,,,,,,,,,,,
72208013880,2014-01-11T10:00:00,FM-12,4,,SE,0.25,mi,"TEMP, PRECIP, SNOW",,,"MMTS, SRG, SNOWBOARD",,,WFO CHS,,,,,,,,,,,,,,,,,,,,,,,,,,,,67,69,,,+0.01,8,93,29.96,,29.91,9.94,68,210,,20,,,,,,,,,,,,,,,,,,,,,,,,,,,,,,,,,,,,,SYN08072208 12166 82117 10206 20194 30129 40144 58005 69907 91456 333 91026 555 91115=,,,,,,,,,,,,,,,,,,,,,,,,,,,,
72208013880,2014-01-13T09:56:00,FM-15,7,,SE,0.25,mi,"TEMP, PRECIP, SNOW",,,"MMTS, SRG, SNOWBOARD",,,WFO CHS,,,,,,,,,,,,,,,,,,,,,,,,,,,30.21,41,54,0.00,,-0.00,0,62,30.21,FEW:02 120 BKN:07 250,30.16,10.00,48,000,,0,,,,,,,,,,,,,,,,,,,,,,,,,,,,,,,,,,,,,MET11101/13/14 09:56:02 METAR KCHS 131456Z 00000KT 10SM FEW120 BKN250 12/05 A3021 RMK AO2 SLP230 T01220050 50000 (DD),,,,,,,,,,,,,,,,,,,,,,,,,,,,
72208013880,2014-01-17T09:56:00,FM-15,7,,SE,0.25,mi,"TEMP, PRECIP, SNOW",,,"MMTS, SRG, SNOWBOARD",,,WFO CHS,,,,,,,,,,,,,,,,,,,,,,,,,,,30.12,29,50,0.00,,-0.01,0,44,30.11,FEW:02 120,30.07,10.00,41,230,18,8,,,,,,,,,,,,,,,,,,,,,,,,,,,,,,,,,,,,,MET10801/17/14 09:56:02 METAR KCHS 171456Z 23007G16KT 10SM FEW120 10/M02 A3012 RMK AO2 SLP198 T01001017 50005 (DD),,,,,,,,,,,,,,,,,,,,,,,,,,,,
72208013880,2014-01-21T09:56:00,FM-15,7,,SE,0.25,mi,"TEMP, PRECIP, SNOW",,,"MMTS, SRG, SNOWBOARD",,,WFO CHS,,,,,,,,,,,,,,,,,,,,,,,,,,,29.78,41,56,0.00,,+0.04,8,57,29.78,CLR:00,29.73,10.00,49,230,,10,,,,,,,,,,,,,,,,,,,,,,,,,,,,,,,,,,,,,MET10101/21/14 09:56:02 METAR KCHS 211456Z 23009KT 10SM CLR 13/05 A2978 RMK AO2 SLP085 T01330050 58013 (DD),,,,,,,,,,,,,,,,,,,,,,,,,,,,
72208013880,2014-01-21T10:00:00,FM-12,4,,SE,0.25,mi,"TEMP, PRECIP, SNOW",,,"MMTS, SRG, SNOWBOARD",,,WFO CHS,,,,,,,,,,,,,,,,,,,,,,,,,,,,41,56,,,+0.04,8,57,29.78,,29.73,9.94,49,230,,10,,,,,,,,,,,,,,,,,,,,,,,,,,,,,,,,,,,,,SYN06472208 32966 02309 10133 20050 30069 40085 58013 91456 555 92115=,,,,,,,,,,,,,,,,,,,,,,,,,,,,
72208013880,2014-01-25T09:56:00,FM-15,7,,SE,0.25,mi,"TEMP, PRECIP, SNOW",,,"MMTS, SRG, SNOWBOARD",,,WFO CHS,,,,,,,,,,,,,,,,,,,,,,,,,,,30.11,20,41,0.00,,+0.06,8,43,30.11,FEW:02 180 SCT:04 250,30.06,10.00,33,240,17,11,,,,,,,,,,,,,,,,,,,,,,,,,,,,,,,,,,,,,MET11501/25/14 09:56:02 METAR KCHS 251456Z 24010G15KT 10SM FEW180 SCT250 05/M07 A3011 RMK AO2 SLP197 T00501067 58022 (TF),,,,,,,,,,,,,,,,,,,,,,,,,,,,
72208013880,2014-01-25T10:00:00,FM-12,4,,SE,0.25,mi,"TEMP, PRECIP, SNOW",,,"MMTS, SRG, SNOWBOARD",,,WFO CHS,,,,,,,,,,,,,,,,,,,,,,,,,,,,20,41,,,+0.06,8,43,30.11,,30.06,9.94,33,240,,11,,,,,,,,,,,,,,,,,,,,,,,,,,,,,,,,,,,,,SYN07472208 32966 42410 10050 21067 30180 40197 58022 91456 333 91015 555 92515=,,,,,,,,,,,,,,,,,,,,,,,,,,,,
72208013880,2014-02-09T09:56:00,FM-15,7,,SE,0.25,mi,"TEMP, PRECIP, SNOW",,,"MMTS, SRG, SNOWBOARD",,,WFO CHS,,,,,,,,,,,,,,,,,,,,,,,,,,,30.21,41,50,0.00,,-0.04,0,71,30.20,SCT:04 80 BKN:07 120 BKN:07 250,30.16,9.00,46,000,,0,,,,,,,,,,,,,,,,,,,,,,,,,,,,,,,,,,,,,MET11902/09/14 09:56:02 METAR KCHS 091456Z 00000KT 9SM SCT080 BKN120 BKN250 10/05 A3021 RMK AO2 SLP228 T01000050 50013 $ (TF),,,,,,,,,,,,,,,,,,,,,,,,,,,,
72208013880,2014-02-12T09:56:00,FM-15,7,,SE,0.25,mi,"TEMP, PRECIP, SNOW",,,"MMTS, SRG, SNOWBOARD",,,WFO CHS,,,,,,,,,,,,,,,,,,,,,,,,,,,30.20,30,33,0.14,RA:02 BR:1 |RA |,+0.00,8,89,30.20,BKN:07 7 OVC:08 12,30.15,3.00,32,050,23,13,,,,,,,,,,,,,,,,,,,,,,,,,,,,,,,,,,,,,MET14502/12/14 09:56:02 METAR KCHS 121456Z 05011G20KT 3SM RA BR BKN007 OVC012 01/M01 A3020 RMK AO2 RAB56FZRAE56 SLP228 P0013 60036 T00061011 58001 (DD),,,,,,,,,,,,,,,,,,,,,,,,,,,,
72208013880,2014-02-12T10:00:00,FM-12,4,,SE,0.25,mi,"TEMP, PRECIP, SNOW",,,"MMTS, SRG, SNOWBOARD",,,WFO CHS,,,,,,,,,,,,,,,,,,,,,,,,,,,,30,33,,||RA,+0.00,8,89,30.20,,30.15,2.98,32,050,,13,,,,,,,,,,,,,,,,,,,,,,,,,,,,,,,,,,,,,SYN09272208 11348 80511 10006 21011 30211 40228 58001 60097 763// 91456 333 91020 96010 555 91215=,,,,,,,,,,,,,,,,,,,,,,,,,,,,
72208013880,2014-02-16T09:56:00,FM-15,7,,SE,0.25,mi,"TEMP, PRECIP, SNOW",,,"MMTS, SRG, SNOWBOARD",,,WFO CHS,,,,,,,,,,,,,,,,,,,,,,,,,,,30.17,25,45,0.00,,-0.03,0,46,30.16,SCT:04 100 SCT:04 150,30.12,10.00,37,000,,0,,,,,,,,,,,,,,,,,,,,,,,,,,,,,,,,,,,,,MET11202/16/14 09:56:02 METAR KCHS 161456Z 00000KT 10SM SCT100 SCT150 07/M04 A3017 RMK AO2 SLP215 T00721039 50009 (TF),,,,,,,,,,,,,,,,,,,,,,,,,,,,
72208013880,2014-02-21T09:56:00,FM-15,7,,SE,0.25,mi,"TEMP, PRECIP, SNOW",,,"MMTS, SRG, SNOWBOARD",,,WFO CHS,,,,,,,,,,,,,,,,,,,,,,,,,,,29.99,65,71,0.00,,+0.01,8,81,29.99,BKN:07 10,29.94,10.00,67,200,31,24,,,,,,,,,,,,,,,,,,,,,,,,,,,,,,,,,,,,,MET12602/21/14 09:56:02 METAR KCHS 211456Z 20021G27KT 10SM BKN010 22/18 A2999 RMK AO2 PK WND 20027/1451 SLP155 T02170183 58003 (JMB),,,,,,,,,,,,,,,,,,,,,,,,,,,,
72208013880,2014-02-21T10:00:00,FM-12,4,,SE,0.25,mi,"TEMP, PRECIP, SNOW",,,"MMTS, SRG, SNOWBOARD",,,WFO CHS,,,,,,,,,,,,,,,,,,,,,,,,,,,,65,71,,,+0.01,8,81,29.99,,29.94,9.94,67,200,,24,,,,,,,,,,,,,,,,,,,,,,,,,,,,,,,,,,,,,SYN07472208 32466 62021 10217 20183 30140 40155 58003 91456 333 91027 555 92115=,,,,,,,,,,,,,,,,,,,,,,,,,,,,
72208013880,2014-02-25T09:56:00,FM-15,7,,SE,0.25,mi,"TEMP, PRECIP, SNOW",,,"MMTS, SRG, SNOWBOARD",,,WFO CHS,,,,,,,,,,,,,,,,,,,,,,,,,,,30.05,53,69,0.00,,+0.00,8,57,30.04,FEW:02 250,30.00,10.00,60,230,,11,,,,,,,,,,,,,,,,,,,,,,,,,,,,,,,,,,,,,MET10502/25/14 09:56:02 METAR KCHS 251456Z 23010KT 10SM FEW250 21/12 A3005 RMK AO2 SLP174 T02060117 58001 (JMB),,,,,,,,,,,,,,,,,,,,,,,,,,,,
72208013880,2014-02-25T10:00:00,FM-12,4,,SE,0.25,mi,"TEMP, PRECIP, SNOW",,,"MMTS, SRG, SNOWBOARD",,,WFO CHS,,,,,,,,,,,,,,,,,,,,,,,,,,,,53,69,,,+0.00,8,57,30.04,,30.00,9.94,60,230,,11,,,,,,,,,,,,,,,,,,,,,,,,,,,,,,,,,,,,,SYN06472208 32966 22310 10206 20117 30160 40174 58001 91456 555 92515=,,,,,,,,,,,,,,,,,,,,,,,,,,,,
72208013880,2014-02-26T09:56:00,FM-15,7,,SE,0.25,mi,"TEMP, PRECIP, SNOW",,,"MMTS, SRG, SNOWBOARD",,,WFO CHS,,,,,,,,,,,,,,,,,,,,,,,,,,,29.88,50,54,0.04s,-RA:02 BR:1 |RA |,-0.04,0,87,29.88,BKN:07 40 BKN:07 50 OVC:08 70,29.83,3.00,52,010,,3,,,,,,,,,,,,,,,,,,,,,,,,,,,,,,,,,,,,,MET14802/26/14 09:56:02 METAR KCHS 261456Z 01003KT 3SM -RA BR BKN040 BKN050 OVC070 12/10 A2988 RMK AO2 TWR VIS 10 SLP117 P0003 60003 T01220100 50013 (JMB),,,,,,,,,,,,,,,,,,,,,,,,,,,,
72208013880,2014-02-27T09:56:00,FM-15,7,,SE,0.25,mi,"TEMP, PRECIP, SNOW",,,"MMTS, SRG, SNOWBOARD",,,WFO CHS,,,,,,,,,,,,,,,,,,,,,,,,,,,29.92,39,46,0.00,,-0.03,0,77,29.92,FEW:02 10 SCT:04 250,29.87,10.00,43,VRB,,3,,,,,,,,,,,,,,,,,,,,,,,,,,,,,,,,,,,,,MET11202/27/14 09:56:02 METAR KCHS 271456Z VRB03KT 10SM FEW010 SCT250 08/04 A2992 RMK AO2 SLP132 T00780039 50010 (JMB),,,,,,,,,,,,,,,,,,,,,,,,,,,,
72208013880,2014-03-02T09:56:00,FM-15,7,,SE,0.25,mi,"TEMP, PRECIP, SNOW",,,"MMTS, SRG, SNOWBOARD",,,WFO CHS,,,,,,,,,,,,,,,,,,,,,,,,,,,30.25,46,61,0.00,,-0.01,0,58,30.24,FEW:02 250,30.20,10.00,53,000,,0,,,,,,,,,,,,,,,,,,,,,,,,,,,,,,,,,,,,,MET10403/02/14 09:56:02 METAR KCHS 021456Z 00000KT 10SM FEW250 16/08 A3025 RMK AO2 SLP241 T01610078 50005 (TF),,,,,,,,,,,,,,,,,,,,,,,,,,,,
72208013880,2014-03-04T09:56:00,FM-15,7,,SE,0.25,mi,"TEMP, PRECIP, SNOW",,,"MMTS, SRG, SNOWBOARD",,,WFO CHS,,,,,,,,,,,,,,,,,,,,,,,,,,,30.25,26,34,0.00,,-0.03,0,73,30.25,OVC:08 15,30.20,10.00,31,030,,13,,,,,,,,,,,,,,,,,,,,,,,,,,,,,,,,,,,,,MET10603/04/14 09:56:02 METAR KCHS 041456Z 03011KT 10SM OVC015 01/M03 A3025 RMK AO2 SLP243 T00111033 50009 (JMB),,,,,,,,,,,,,,,,,,,,,,,,,,,,
72208013880,2014-03-05T09:56:00,FM-15,7,,SE,0.25,mi,"TEMP, PRECIP, SNOW",,,"MMTS, SRG, SNOWBOARD",,,WFO CHS,,,,,,,,,,,,,,,,,,,,,,,,,,,30.16,34,38,0.02,-RA:02 |RA |,-0.01,0,86,30.16,FEW:02 35 BKN:07 45 OVC:08 55,30.11,7.00,36,010,,10,,,,,,,,,,,,,,,,,,,,,,,,,,,,,,,,,,,,,MET13403/05/14 09:56:02 METAR KCHS 051456Z 01009KT 7SM -RA FEW035 BKN045 OVC055 03/01 A3016 RMK AO2 SLP214 P0002 60008 T00330011 50004 (JMB),,,,,,,,,,,,,,,,,,,,,,,,,,,,
72208013880,2014-03-06T09:56:00,FM-15,7,,SE,0.25,mi,"TEMP, PRECIP, SNOW",,,"MMTS, SRG, SNOWBOARD",,,WFO CHS,,,,,,,,,,,,,,,,,,,,,,,,,,,30.16,34,40,T,-RA:02 |RA |,+0.00,8,79,30.15,BKN:07 15 OVC:08 25,30.11,5.00,37,030,24,17,,,,,,,,,,,,,,,,,,,,,,,,,,,,,,,,,,,,,MET13603/06/14 09:56:02 METAR KCHS 061456Z 03015G21KT 5SM -RA BKN015 OVC025 04/01 A3016 RMK AO2 RAB15 SLP211 P0000 60000 T00440011 58000 (JMB),,,,,,,,,,,,,,,,,,,,,,,,,,,,
72208013880,2014-03-06T10:00:00,FM-12,4,,SE,0.25,mi,"TEMP, PRECIP, SNOW",,,"MMTS, SRG, SNOWBOARD",,,WFO CHS,,,,,,,,,,,,,,,,,,,,,,,,,,,,34,40,,||RA,+0.00,8,79,30.15,,30.11,4.97,37,030,,17,,,,,,,,,,,,,,,,,,,,,,,,,,,,,,,,,,,,,SYN08672208 11458 80315 10044 20011 30197 40211 58000 69907 761// 91456 333 91021 555 90615=,,,,,,,,,,,,,,,,,,,,,,,,,,,,
72208013880,2014-03-09T09:56:00,FM-15,7,,SE,0.25,mi,"TEMP, PRECIP, SNOW",,,"MMTS, SRG, SNOWBOARD",,,WFO CHS,,,,,,,,,,,,,,,,,,,,,,,,,,,30.13,45,66,0.00,,-0.02,0,47,30.13,FEW:02 250,30.08,10.00,55,290,,10,,,,,,,,,,,,,,,,,,,,,,,,,,,,,,,,,,,,,MET10403/09/14 09:56:02 METAR KCHS 091456Z 29009KT 10SM FEW250 19/07 A3013 RMK AO2 SLP203 T01890072 50007 (TF),,,,,,,,,,,,,,,,,,,,,,,,,,,,
72208013880,2014-03-10T09:56:00,FM-15,7,,SE,0.25,mi,"TEMP, PRECIP, SNOW",,,"MMTS, SRG, SNOWBOARD",,,WFO CHS,,,,,,,,,,,,,,,,,,,,,,,,,,,30.04,37,68,0.00,,-0.02,0,32,30.04,FEW:02 250,29.99,10.00,53,310,,5,,,,,,,,,,,,,,,,,,,,,,,,,,,,,,,,,,,,,MET10403/10/14 09:56:02 METAR KCHS 101456Z 31004KT 10SM FEW250 20/03 A3004 RMK AO2 SLP173 T02000028 50006 (TF),,,,,,,,,,,,,,,,,,,,,,,,,,,,
72208013880,2014-03-11T09:56:00,FM-15,7,,SE,0.25,mi,"TEMP, PRECIP, SNOW",,,"MMTS, SRG, SNOWBOARD",,,WFO CHS,,,,,,,,,,,,,,,,,,,,,,,,,,,29.89,49,72,0.00,,-0.00,0,44,29.89,CLR:00,29.84,10.00,59,260,,9,,,,,,,,,,,,,,,,,,,,,,,,,,,,,,,,,,,,,MET10203/11/14 09:56:02 METAR KCHS 111456Z 26008KT 10SM CLR 22/09 A2989 RMK AO2 SLP122 T02220094 50001 (JMB),,,,,,,,,,,,,,,,,,,,,,,,,,,,
72208013880,2014-03-12T09:56:00,FM-15,7,,SE,0.25,mi,"TEMP, PRECIP, SNOW",,,"MMTS, SRG, SNOWBOARD",,,WFO CHS,,,,,,,,,,,,,,,,,,,,,,,,,,,29.65,58,68,0.00,,+0.02,8,70,29.65,FEW:02 8 SCT:04 55 SCT:04 250,29.60,10.00,62,200,,14,,,,,,,,,,,,,,,,,,,,,,,,,,,,,,,,,,,,,MET11903/12/14 09:56:02 METAR KCHS 121456Z 20012KT 10SM FEW008 SCT055 SCT250 20/14 A2965 RMK AO2 SLP041 T02000144 58007 (JMB),,,,,,,,,,,,,,,,,,,,,,,,,,,,
72208013880,2014-03-12T10:00:00,FM-12,4,,SE,0.25,mi,"TEMP, PRECIP, SNOW",,,"MMTS, SRG, SNOWBOARD",,,WFO CHS,,,,,,,,,,,,,,,,,,,,,,,,,,,,58,68,,,+0.02,8,70,29.65,,29.60,9.94,62,200,,14,,,,,,,,,,,,,,,,,,,,,,,,,,,,,,,,,,,,,SYN06472208 32366 42012 10200 20144 30025 40041 58007 91456 555 91215=,,,,,,,,,,,,,,,,,,,,,,,,,,,,
72208013880,2014-03-16T09:56:00,FM-15,7,,SE,0.25,mi,"TEMP, PRECIP, SNOW",,,"MMTS, SRG, SNOWBOARD",,,WFO CHS,,,,,,,,,,,,,,,,,,,,,,,,,,,29.92,56,66,0.00,,+0.04,8,70,29.92,FEW:02 45 BKN:07 110 OVC:08 150,29.87,10.00,60,130,,9,,,,,,,,,,,,,,,,,,,,,,,,,,,,,,,,,,,,,MET11803/16/14 09:56:02 METAR KCHS 161456Z 13008KT 10SM FEW045 BKN110 OVC150 19/13 A2992 RMK AO2 SLP131 T01890133 58014 (TF),,,,,,,,,,,,,,,,,,,,,,,,,,,,
72208013880,2014-03-16T10:00:00,FM-12,4,,SE,0.25,mi,"TEMP, PRECIP, SNOW",,,"MMTS, SRG, SNOWBOARD",,,WFO CHS,,,,,,,,,,,,,,,,,,,,,,,,,,,,56,66,,,+0.04,8,70,29.92,,29.87,9.94,60,130,,9,,,,,,,,,,,,,,,,,,,,,,,,,,,,,,,,,,,,,SYN06472208 32666 81308 10189 20133 30116 40131 58014 91456 555 91615=,,,,,,,,,,,,,,,,,,,,,,,,,,,,
72208013880,2014-03-20T09:56:00,FM-15,7,,SE,0.25,mi,"TEMP, PRECIP, SNOW",,,"MMTS, SRG, SNOWBOARD",,,WFO CHS,,,,,,,,,,,,,,,,,,,,,,,,,,,30.08,49,63,0.00,,-0.03,0,60,30.08,BKN:07 250,30.03,10.00,55,310,,6,,,,,,,,,,,,,,,,,,,,,,,,,,,,,,,,,,,,,MET10503/20/14 09:56:02 METAR KCHS 201456Z 31005KT 10SM BKN250 17/09 A3008 RMK AO2 SLP186 T01720094 50009 (JMB),,,,,,,,,,,,,,,,,,,,,,,,,,,,
72208013880,2014-03-22T09:56:00,FM-15,7,,SE,0.25,mi,"TEMP, PRECIP, SNOW",,,"MMTS, SRG, SNOWBOARD",,,WFO CHS,,,,,,,,,,,,,,,,,,,,,,,,,,,30.09,57,75,0.00,,+0.00,8,54,30.09,FEW:02 80 SCT:04 110 BKN:07 250,30.04,10.00,64,230,,10,,,,,,,,,,,,,,,,,,,,,,,,,,,,,,,,,,,,,MET11803/22/14 09:56:02 METAR KCHS 221456Z 23009KT 10SM FEW080 SCT110 BKN250 24/14 A3009 RMK AO2 SLP188 T02390139 58001 (TF),,,,,,,,,,,,,,,,,,,,,,,,,,,,
72208013880,2014-03-22T10:00:00,FM-12,4,,SE,0.25,mi,"TEMP, PRECIP, SNOW",,,"MMTS, SRG, SNOWBOARD",,,WFO CHS,,,,,,,,,,,,,,,,,,,,,,,,,,,,57,75,,,+0.00,8,54,30.09,,30.04,9.94,64,230,,10,,,,,,,,,,,,,,,,,,,,,,,,,,,,,,,,,,,,,SYN06472208 32866 62309 10239 20139 30173 40188 58001 91456 555 92215=,,,,,,,,,,,,,,,,,,,,,,,,,,,,
72208013880,2014-03-23T09:56:00,FM-15,7,,SE,0.25,mi,"TEMP, PRECIP, SNOW",,,"MMTS, SRG, SNOWBOARD",,,WFO CHS,,,,,,,,,,,,,,,,,,,,,,,,,,,29.97,60,69,0.00,,-0.01,0,73,29.96,FEW:02 150 OVC:08 250,29.92,10.00,64,VRB,,5,,,,,,,,,,,,,,,,,,,,,,,,,,,,,,,,,,,,,MET11103/23/14 09:56:02 METAR KCHS 231456Z VRB04KT 10SM FEW150 OVC250 21/16 A2997 RMK AO2 SLP147 T02060156 50004 (TF),,,,,,,,,,,,,,,,,,,,,,,,,,,,
72208013880,2014-03-25T09:56:00,FM-15,7,,SE,0.25,mi,"TEMP, PRECIP, SNOW",,,"MMTS, SRG, SNOWBOARD",,,WFO CHS,,,,,,,,,,,,,,,,,,,,,,,,,,,29.87,49,55,0.00,,+0.05,6,80,29.87,FEW:02 8 BKN:07 40 BKN:07 75,29.82,10.00,52,120,,7,,,,,,,,,,,,,,,,,,,,,,,,,,,,,,,,,,,,,MET12503/25/14 09:56:02 METAR KCHS 251456Z 12006KT 10SM FEW008 BKN040 BKN075 13/09 A2987 RMK AO2 SLP115 60001 T01280094 56016 (JMB),,,,,,,,,,,,,,,,,,,,,,,,,,,,
72208013880,2014-03-25T10:00:00,FM-12,4,,SE,0.25,mi,"TEMP, PRECIP, SNOW",,,"MMTS, SRG, SNOWBOARD",,,WFO CHS,,,,,,,,,,,,,,,,,,,,,,,,,,,,49,55,,,+0.05,6,80,29.87,,29.82,9.94,52,120,,7,,,,,,,,,,,,,,,,,,,,,,,,,,,,,,,,,,,,,SYN07072208 12366 61206 10128 20094 30099 40115 56016 69937 91456 555 92515=,,,,,,,,,,,,,,,,,,,,,,,,,,,,
72208013880,2014-03-28T09:56:00,FM-15,7,,SE,0.25,mi,"TEMP, PRECIP, SNOW",,,"MMTS, SRG, SNOWBOARD",,,WFO CHS,,,,,,,,,,,,,,,,,,,,,,,,,,,30.24,62,70,0.00,,-0.01,0,76,30.23,FEW:02 20 BKN:07 45 BKN:07 120,30.19,10.00,65,170,,11,,,,,,,,,,,,,,,,,,,,,,,,,,,,,,,,,,,,,MET12503/28/14 09:56:02 METAR KCHS 281456Z 17010KT 10SM FEW020 BKN045 BKN120 21/17 A3024 RMK AO2 SLP238 60000 T02110167 50004 (JMB),,,,,,,,,,,,,,,,,,,,,,,,,,,,
72208013880,2014-03-29T09:56:00,FM-15,7,,SE,0.25,mi,"TEMP, PRECIP, SNOW",,,"MMTS, SRG, SNOWBOARD",,,WFO CHS,,,,,,,,,,,,,,,,,,,,,,,,,,,29.93,64,68,0.01,,+0.04,6,87,29.93,OVC:08 7,29.88,7.00,66,220,,9,,,,,,,,,,,,,,,,,,,,,,,,,,,,,,,,,,,,,MET11703/29/14 09:56:02 METAR KCHS 291456Z 22008KT 7SM OVC007 20/18 A2993 RMK AO2 SLP136 P0001 60001 T02000178 56014 $ (TF),,,,,,,,,,,,,,,,,,,,,,,,,,,,
72208013880,2014-03-29T10:00:00,FM-12,4,,SE,0.25,mi,"TEMP, PRECIP, SNOW",,,"MMTS, SRG, SNOWBOARD",,,WFO CHS,,,,,,,,,,,,,,,,,,,,,,,,,,,,64,68,,,+0.04,6,87,29.93,,29.88,6.84,66,220,,9,,,,,,,,,,,,,,,,,,,,,,,,,,,,,,,,,,,,,SYN07072208 12361 82208 10200 20178 30119 40136 56014 69937 91456 555 92915=,,,,,,,,,,,,,,,,,,,,,,,,,,,,
72208013880,2014-04-01T09:56:00,FM-15,7,,SE,0.25,mi,"TEMP, PRECIP, SNOW",,,"MMTS, SRG, SNOWBOARD",,,WFO CHS,,,,,,,,,,,,,,,,,,,,,,,,,,,30.18,43,71,0.00,,-0.01,0,36,30.17,FEW:02 150 BKN:07 250,30.13,10.00,56,000,,0,,,,,,,,,,,,,,,,,,,,,,,,,,,,,,,,,,,,,MET11204/01/14 09:56:02 METAR KCHS 011456Z 00000KT 10SM FEW150 BKN250 22/06 A3018 RMK AO2 SLP218 T02170061 50004 (JMB),,,,,,,,,,,,,,,,,,,,,,,,,,,,
72208013880,2014-04-03T09:56:00,FM-15,7,,SE,0.25,mi,"TEMP, PRECIP, SNOW",,,"MMTS, SRG, SNOWBOARD",,,WFO CHS,,,,,,,,,,,,,,,,,,,,,,,,,,,30.13,51,76,0.00,,-0.01,0,42,30.13,BKN:07 250,30.08,10.00,62,280,,5,,,,,,,,,,,,,,,,,,,,,,,,,,,,,,,,,,,,,MET10504/03/14 09:56:02 METAR KCHS 031456Z 28004KT 10SM BKN250 24/11 A3013 RMK AO2 SLP202 T02440106 50005 (JMB),,,,,,,,,,,,,,,,,,,,,,,,,,,,
72208013880,2014-04-07T09:56:00,FM-15,7,,SE,0.25,mi,"TEMP, PRECIP, SNOW",,,"MMTS, SRG, SNOWBOARD",,,WFO CHS,,,,,,,,,,,,,,,,,,,,,,,,,,,29.90,66,76,0.00,,+0.03,8,72,29.90,FEW:02 15 SCT:04 30 BKN:07 120,29.85,10.00,70,200,,16,,,,,,,,,,,,,,,,,,,,,,,,,,,,,,,,,,,,,MET13704/07/14 09:56:02 METAR KCHS 071456Z 20014KT 10SM FEW015 SCT030 BKN120 24/19 A2990 RMK AO2 PK WND 20026/1439 SLP124 T02440189 58009 (JMB),,,,,,,,,,,,,,,,,,,,,,,,,,,,
72208013880,2014-04-07T10:00:00,FM-12,4,,SE,0.25,mi,"TEMP, PRECIP, SNOW",,,"MMTS, SRG, SNOWBOARD",,,WFO CHS,,,,,,,,,,,,,,,,,,,,,,,,,,,,66,76,,,+0.03,8,72,29.90,,29.85,9.94,70,200,,16,,,,,,,,,,,,,,,,,,,,,,,,,,,,,,,,,,,,,SYN06472208 32466 62014 10244 20189 30109 40124 58009 91456 555 90715=,,,,,,,,,,,,,,,,,,,,,,,,,,,,
72208013880,2014-04-22T09:56:00,FM-15,7,,SE,0.25,mi,"TEMP, PRECIP, SNOW",,,"MMTS, SRG, SNOWBOARD",,,WFO CHS,,,,,,,,,,,,,,,,,,,,,,,,,,,29.88,56,76,0.00,,+0.03,8,50,29.87,FEW:02 80 SCT:04 250,29.83,10.00,64,250,,9,,,,,,,,,,,,,,,,,,,,,,,,,,,,,,,,,,,,,MET11204/22/14 09:56:02 METAR KCHS 221456Z 25008KT 10SM FEW080 SCT250 24/13 A2988 RMK AO2 SLP116 T02440133 58011 (JMB),,,,,,,,,,,,,,,,,,,,,,,,,,,,
72208013880,2014-04-22T10:00:00,FM-12,4,,SE,0.25,mi,"TEMP, PRECIP, SNOW",,,"MMTS, SRG, SNOWBOARD",,,WFO CHS,,,,,,,,,,,,,,,,,,,,,,,,,,,,56,76,,,+0.03,8,50,29.87,,29.83,9.94,64,250,,9,,,,,,,,,,,,,,,,,,,,,,,,,,,,,,,,,,,,,SYN06472208 32866 42508 10244 20133 30102 40116 58011 91456 555 92215=,,,,,,,,,,,,,,,,,,,,,,,,,,,,
72208013880,2014-04-25T09:56:00,FM-15,7,,SE,0.25,mi,"TEMP, PRECIP, SNOW",,,"MMTS, SRG, SNOWBOARD",,,WFO CHS,,,,,,,,,,,,,,,,,,,,,,,,,,,29.92,63,81,0.00,,+0.01,8,54,29.91,FEW:02 250,29.87,10.00,69,200,,11,,,,,,,,,,,,,,,,,,,,,,,,,,,,,,,,,,,,,MET10504/25/14 09:56:02 METAR KCHS 251456Z 20010KT 10SM FEW250 27/17 A2992 RMK AO2 SLP130 T02720172 58005 (JMB),,,,,,,,,,,,,,,,,,,,,,,,,,,,
72208013880,2014-04-25T10:00:00,FM-12,4,,SE,0.25,mi,"TEMP, PRECIP, SNOW",,,"MMTS, SRG, SNOWBOARD",,,WFO CHS,,,,,,,,,,,,,,,,,,,,,,,,,,,,63,81,,,+0.01,8,54,29.91,,29.87,9.94,69,200,,11,,,,,,,,,,,,,,,,,,,,,,,,,,,,,,,,,,,,,SYN06472208 32966 22010 10272 20172 30116 40130 58005 91456 555 92515=,,,,,,,,,,,,,,,,,,,,,,,,,,,,
72208013880,2014-04-30T09:56:00,FM-15,7,,SE,0.25,mi,"TEMP, PRECIP, SNOW",,,"MMTS, SRG, SNOWBOARD",,,WFO CHS,,,,,,,,,,,,,,,,,,,,,,,,,,,30.03,72,77,0.05,TS:7 -RA:02 |RA TS TS |,+0.01,7,85,30.02,FEW:02 10 BKN:07 20 OVC:08 40,29.98,7.00,74,200,,13,,,,,,,,,,,,,,,,,,,,,,,,,,,,,,,,,,,,,MET17804/30/14 09:56:02 METAR KCHS 301456Z 20011KT 7SM -TSRA FEW010 BKN020 OVC040CB 25/22 A3003 RMK AO2 TSB37RAB18 SLP167 OCNL LTGIC SW TS SW MOV NE P0005 60005 T02500222 57002 $ (JMB),,,,,,,,,,,,,,,,,,,,,,,,,,,,
72208013880,2014-04-30T10:00:00,FM-12,4,,SE,0.25,mi,"TEMP, PRECIP, SNOW",,,"MMTS, SRG, SNOWBOARD",,,WFO CHS,,,,,,,,,,,,,,,,,,,,,,,,,,,,72,77,,,+0.01,7,85,30.02,15,29.98,6.84,74,200,,13,,,,,,,,,,,,,,,,,,,,,,,,,,,,,,,,,,,,,SYN07072208 11461 82011 10250 20222 30153 40167 57002 60017 91456 555 93015=,,,,,,,,,,,,,,,,,,,,,,,,,,,,
72208013880,2014-05-01T09:56:00,FM-15,7,,SE,0.25,mi,"TEMP, PRECIP, SNOW",,,"MMTS, SRG, SNOWBOARD",,,WFO CHS,,,,,,,,,,,,,,,,,,,,,,,,,,,29.97,65,79,0.00,,+0.01,8,62,29.96,BKN:07 40,29.92,10.00,70,250,,8,,,,,,,,,,,,,,,,,,,,,,,,,,,,,,,,,,,,,MET10505/01/14 09:56:02 METAR KCHS 011456Z 25007KT 10SM BKN040 26/18 A2997 RMK AO2 SLP147 T02610183 58003 (JMB),,,,,,,,,,,,,,,,,,,,,,,,,,,,
72208013880,2014-05-01T10:00:00,FM-12,4,,SE,0.25,mi,"TEMP, PRECIP, SNOW",,,"MMTS, SRG, SNOWBOARD",,,WFO CHS,,,,,,,,,,,,,,,,,,,,,,,,,,,,65,79,,,+0.01,8,62,29.96,41,29.92,9.94,70,250,,8,,,,,,,,,,,,,,,,,,,,,,,,,,,,,,,,,,,,,SYN06472208 32666 62507 10261 20183 30133 40147 58003 91456 555 90115=,,,,,,,,,,,,,,,,,,,,,,,,,,,,
72208013880,2014-05-03T09:56:00,FM-15,7,,SE,0.25,mi,"TEMP, PRECIP, SNOW",,,"MMTS, SRG, SNOWBOARD",,,WFO CHS,,,,,,,,,,,,,,,,,,,,,,,,,,,29.95,51,73,0.00,,-0.01,0,46,29.94,FEW:02 100 SCT:04 180,29.90,10.00,60,VRB,,3,,,,,,,,,,,,,,,,,,,,,,,,,,,,,,,,,,,,,MET11205/03/14 09:56:02 METAR KCHS 031456Z VRB03KT 10SM FEW100 SCT180 23/11 A2995 RMK AO2 SLP140 T02280106 50004 (DAW),,,,,,,,,,,,,,,,,,,,,,,,,,,,
72208013880,2014-05-05T09:56:00,FM-15,7,,SE,0.25,mi,"TEMP, PRECIP, SNOW",,,"MMTS, SRG, SNOWBOARD",,,WFO CHS,,,,,,,,,,,,,,,,,,,,,,,,,,,30.00,55,86,0.00,,+0.00,8,35,29.99,CLR:00,29.95,10.00,67,300,20,14,,,,,,,,,,,,,,,,,,,,,,,,,,,,,,,,,,,,,MET10505/05/14 09:56:02 METAR KCHS 051456Z 30012G17KT 10SM CLR 30/13 A3000 RMK AO2 SLP157 T03000128 58001 (JMB),,,,,,,,,,,,,,,,,,,,,,,,,,,,
72208013880,2014-05-05T10:00:00,FM-12,4,,SE,0.25,mi,"TEMP, PRECIP, SNOW",,,"MMTS, SRG, SNOWBOARD",,,WFO CHS,,,,,,,,,,,,,,,,,,,,,,,,,,,,55,86,,,+0.00,8,35,29.99,,29.95,9.94,67,300,,14,,,,,,,,,,,,,,,,,,,,,,,,,,,,,,,,,,,,,SYN07472208 32966 03012 10300 20128 30143 40157 58001 91456 333 91017 555 90515=,,,,,,,,,,,,,,,,,,,,,,,,,,,,
72208013880,2014-05-09T09:56:00,FM-15,7,,SE,0.25,mi,"TEMP, PRECIP, SNOW",,,"MMTS, SRG, SNOWBOARD",,,WFO CHS,,,,,,,,,,,,,,,,,,,,,,,,,,,30.21,65,83,0.00,,-0.00,0,55,30.21,FEW:02 20 SCT:04 120 BKN:07 250,30.16,10.00,71,220,18,13,,,,,,,,,,,,,,,,,,,,,,,,,,,,,,,,,,,,,MET12205/09/14 09:56:02 METAR KCHS 091456Z 22011G16KT 10SM FEW020 SCT120 BKN250 28/18 A3021 RMK AO2 SLP230 T02830183 50000 (JMB),,,,,,,,,,,,,,,,,,,,,,,,,,,,
72208013880,2014-05-10T09:56:00,FM-15,7,,SE,0.25,mi,"TEMP, PRECIP, SNOW",,,"MMTS, SRG, SNOWBOARD",,,WFO CHS,,,,,,,,,,,,,,,,,,,,,,,,,,,30.17,66,83,0.00,,-0.01,0,57,30.16,SCT:04 30 SCT:04 250,30.12,10.00,72,220,24,18,,,,,,,,,,,,,,,,,,,,,,,,,,,,,,,,,,,,,MET11505/10/14 09:56:02 METAR KCHS 101456Z 22016G21KT 10SM SCT030 SCT250 28/19 A3017 RMK AO2 SLP215 T02830189 50004 (BBE),,,,,,,,,,,,,,,,,,,,,,,,,,,,
72208013880,2014-05-13T09:56:00,FM-15,7,,SE,0.25,mi,"TEMP, PRECIP, SNOW",,,"MMTS, SRG, SNOWBOARD",,,WFO CHS,,,,,,,,,,,,,,,,,,,,,,,,,,,30.19,65,82,0.00,,-0.01,0,56,30.19,SCT:04 30,30.14,10.00,71,190,,6,,,,,,,,,,,,,,,,,,,,,,,,,,,,,,,,,,,,,MET10505/13/14 09:56:02 METAR KCHS 131456Z 19005KT 10SM SCT030 28/18 A3019 RMK AO2 SLP223 T02780183 50003 (JMB),,,,,,,,,,,,,,,,,,,,,,,,,,,,
72208013880,2014-05-15T09:56:00,FM-15,7,,SE,0.25,mi,"TEMP, PRECIP, SNOW",,,"MMTS, SRG, SNOWBOARD",,,WFO CHS,,,,,,,,,,,,,,,,,,,,,,,,,,,30.00,71,82,0.00,,+0.01,6,69,30.00,FEW:02 25 SCT:04 40 BKN:07 55,29.95,10.00,74,170,,16,,,,,,,,,,,,,,,,,,,,,,,,,,,,,,,,,,,,,MET12505/15/14 09:56:02 METAR KCHS 151456Z 17014KT 10SM FEW025 SCT040 BKN055 28/22 A3000 RMK AO2 SLP159 60000 T02780217 56002 (JMB),,,,,,,,,,,,,,,,,,,,,,,,,,,,
72208013880,2014-05-15T10:00:00,FM-12,4,,SE,0.25,mi,"TEMP, PRECIP, SNOW",,,"MMTS, SRG, SNOWBOARD",,,WFO CHS,,,,,,,,,,,,,,,,,,,,,,,,,,,,71,82,,,+0.01,6,69,30.00,26,29.95,9.94,74,170,,16,,,,,,,,,,,,,,,,,,,,,,,,,,,,,,,,,,,,,SYN07072208 12566 61714 10278 20217 30143 40159 56002 69907 91456 555 91515=,,,,,,,,,,,,,,,,,,,,,,,,,,,,
72208013880,2014-05-18T09:56:00,FM-15,7,,SE,0.25,mi,"TEMP, PRECIP, SNOW",,,"MMTS, SRG, SNOWBOARD",,,WFO CHS,,,,,,,,,,,,,,,,,,,,,,,,,,,30.20,51,74,0.00,,-0.00,0,45,30.20,CLR:00,30.15,10.00,61,000,,0,,,,,,,,,,,,,,,,,,,,,,,,,,,,,,,,,,,,,MET10205/18/14 09:56:02 METAR KCHS 181456Z 00000KT 10SM CLR 23/11 A3020 RMK AO2 SLP227 T02330106 50001 (JSN),,,,,,,,,,,,,,,,,,,,,,,,,,,,
72208013880,2014-05-20T09:56:00,FM-15,7,,SE,0.25,mi,"TEMP, PRECIP, SNOW",,,"MMTS, SRG, SNOWBOARD",,,WFO CHS,,,,,,,,,,,,,,,,,,,,,,,,,,,30.30,50,76,0.00,,-0.01,0,40,30.30,FEW:02 250,30.25,10.00,61,160,,3,,,,,,,,,,,,,,,,,,,,,,,,,,,,,,,,,,,,,MET10505/20/14 09:56:02 METAR KCHS 201456Z 16003KT 10SM FEW250 24/10 A3030 RMK AO2 SLP261 T02440100 50004 (JMB),,,,,,,,,,,,,,,,,,,,,,,,,,,,
72208013880,2014-05-21T09:56:00,FM-15,7,,SE,0.25,mi,"TEMP, PRECIP, SNOW",,,"MMTS, SRG, SNOWBOARD",,,WFO CHS,,,,,,,,,,,,,,,,,,,,,,,,,,,30.18,60,81,0.00,,+0.01,8,49,30.17,SCT:04 250,30.13,10.00,68,240,,13,,,,,,,,,,,,,,,,,,,,,,,,,,,,,,,,,,,,,MET10505/21/14 09:56:02 METAR KCHS 211456Z 24011KT 10SM SCT250 27/16 A3018 RMK AO2 SLP218 T02720156 58002 (JMB),,,,,,,,,,,,,,,,,,,,,,,,,,,,
72208013880,2014-05-21T10:00:00,FM-12,4,,SE,0.25,mi,"TEMP, PRECIP, SNOW",,,"MMTS, SRG, SNOWBOARD",,,WFO CHS,,,,,,,,,,,,,,,,,,,,,,,,,,,,60,81,,,+0.01,8,49,30.17,,30.13,9.94,68,240,,13,,,,,,,,,,,,,,,,,,,,,,,,,,,,,,,,,,,,,SYN06472208 32966 42411 10272 20156 30204 40218 58002 91456 555 92115=,,,,,,,,,,,,,,,,,,,,,,,,,,,,
72208013880,2014-05-22T09:56:00,FM-15,7,,SE,0.25,mi,"TEMP, PRECIP, SNOW",,,"MMTS, SRG, SNOWBOARD",,,WFO CHS,,,,,,,,,,,,,,,,,,,,,,,,,,,30.03,63,87,0.00,,-0.02,0,45,30.03,FEW:02 250,29.98,10.00,71,320,,8,,,,,,,,,,,,,,,,,,,,,,,,,,,,,,,,,,,,,MET10505/22/14 09:56:02 METAR KCHS 221456Z 32007KT 10SM FEW250 31/17 A3003 RMK AO2 SLP168 T03060172 50006 (JMB),,,,,,,,,,,,,,,,,,,,,,,,,,,,
72208013880,2014-05-27T09:56:00,FM-15,7,,SE,0.25,mi,"TEMP, PRECIP, SNOW",,,"MMTS, SRG, SNOWBOARD",,,WFO CHS,,,,,,,,,,,,,,,,,,,,,,,,,,,30.16,69,84,0.00,,+0.01,8,61,30.16,FEW:02 20 SCT:04 120 SCT:04 250,30.11,10.00,74,240,17,7,,,,,,,,,,,,,,,,,,,,,,,,,,,,,,,,,,,,,MET12205/27/14 09:56:02 METAR KCHS 271456Z 24006G15KT 10SM FEW020 SCT120 SCT250 29/21 A3016 RMK AO2 SLP212 T02890206 58003 (JMB),,,,,,,,,,,,,,,,,,,,,,,,,,,,
72208013880,2014-05-27T10:00:00,FM-12,4,,SE,0.25,mi,"TEMP, PRECIP, SNOW",,,"MMTS, SRG, SNOWBOARD",,,WFO CHS,,,,,,,,,,,,,,,,,,,,,,,,,,,,69,84,,,+0.01,8,61,30.16,26,30.11,9.94,74,240,,7,,,,,,,,,,,,,,,,,,,,,,,,,,,,,,,,,,,,,SYN07472208 32566 42406 10289 20206 30197 40212 58003 91456 333 91015 555 92715=,,,,,,,,,,,,,,,,,,,,,,,,,,,,
72208013880,2014-05-28T09:56:00,FM-15,7,,SE,0.25,mi,"TEMP, PRECIP, SNOW",,,"MMTS, SRG, SNOWBOARD",,,WFO CHS,,,,,,,,,,,,,,,,,,,,,,,,,,,30.06,70,86,0.00,,-0.00,0,59,30.06,FEW:02 30 SCT:04 120 SCT:04 250,30.01,10.00,75,VRB,,7,,,,,,,,,,,,,,,,,,,,,,,,,,,,,,,,,,,,,MET11905/28/14 09:56:02 METAR KCHS 281456Z VRB06KT 10SM FEW030 SCT120 SCT250 30/21 A3006 RMK AO2 SLP180 T03000211 50000 (JMB),,,,,,,,,,,,,,,,,,,,,,,,,,,,
72208013880,2014-05-30T09:56:00,FM-15,7,,SE,0.25,mi,"TEMP, PRECIP, SNOW",,,"MMTS, SRG, SNOWBOARD",,,WFO CHS,,,,,,,,,,,,,,,,,,,,,,,,,,,30.08,68,83,0.00,,-0.03,0,61,30.08,SCT:04 25 SCT:04 120 BKN:07 250,30.03,10.00,73,VRB,,3,,,,,,,,,,,,,,,,,,,,,,,,,,,,,,,,,,,,,MET13405/30/14 09:56:02 METAR KCHS 301456Z VRB03KT 10SM SCT025 SCT120 BKN250 28/20 A3008 RMK AO2 SLP185 MDT CU ALQDS T02830200 50009 $ (JMB),,,,,,,,,,,,,,,,,,,,,,,,,,,,
72208013880,2014-06-02T09:56:00,FM-15,7,,SE,0.25,mi,"TEMP, PRECIP, SNOW",,,"MMTS, SRG, SNOWBOARD",,,WFO CHS,,,,,,,,,,,,,,,,,,,,,,,,,,,30.24,62,80,0.00,,-0.00,0,54,30.24,FEW:02 30 SCT:04 50 BKN:07 250,30.19,10.00,69,100,,11,,,,,,,,,,,,,,,,,,,,,,,,,,,,,,,,,,,,,MET11906/02/14 09:56:02 METAR KCHS 021456Z 10010KT 10SM FEW030 SCT050 BKN250 27/17 A3024 RMK AO2 SLP241 T02670167 50001 (JMB),,,,,,,,,,,,,,,,,,,,,,,,,,,,
72208013880,2014-06-03T09:56:00,FM-15,7,,SE,0.25,mi,"TEMP, PRECIP, SNOW",,,"MMTS, SRG, SNOWBOARD",,,WFO CHS,,,,,,,,,,,,,,,,,,,,,,,,,,,30.12,61,82,0.00,,+0.02,8,49,30.12,FEW:02 35 SCT:04 120 BKN:07 250,30.07,10.00,69,260,,6,,,,,,,,,,,,,,,,,,,,,,,,,,,,,,,,,,,,,MET11906/03/14 09:56:02 METAR KCHS 031456Z 26005KT 10SM FEW035 SCT120 BKN250 28/16 A3012 RMK AO2 SLP199 T02780161 58006 (JMB),,,,,,,,,,,,,,,,,,,,,,,,,,,,
72208013880,2014-06-03T10:00:00,FM-12,4,,SE,0.25,mi,"TEMP, PRECIP, SNOW",,,"MMTS, SRG, SNOWBOARD",,,WFO CHS,,,,,,,,,,,,,,,,,,,,,,,,,,,,61,82,,,+0.02,8,49,30.12,41,30.07,9.94,69,260,,6,,,,,,,,,,,,,,,,,,,,,,,,,,,,,,,,,,,,,SYN06472208 32666 62605 10278 20161 30184 40199 58006 91456 555 90315=,,,,,,,,,,,,,,,,,,,,,,,,,,,,
72208013880,2014-06-05T09:56:00,FM-15,7,,SE,0.25,mi,"TEMP, PRECIP, SNOW",,,"MMTS, SRG, SNOWBOARD",,,WFO CHS,,,,,,,,,,,,,,,,,,,,,,,,,,,29.85,69,88,0.00,,+0.02,8,54,29.85,FEW:02 250,29.80,10.00,75,220,,11,,,,,,,,,,,,,,,,,,,,,,,,,,,,,,,,,,,,,MET10506/05/14 09:56:02 METAR KCHS 051456Z 22010KT 10SM FEW250 31/21 A2985 RMK AO2 SLP107 T03110206 58007 (JMB),,,,,,,,,,,,,,,,,,,,,,,,,,,,
72208013880,2014-06-05T10:00:00,FM-12,4,,SE,0.25,mi,"TEMP, PRECIP, SNOW",,,"MMTS, SRG, SNOWBOARD",,,WFO CHS,,,,,,,,,,,,,,,,,,,,,,,,,,,,69,88,,,+0.02,8,54,29.85,,29.80,9.94,75,220,,11,,,,,,,,,,,,,,,,,,,,,,,,,,,,,,,,,,,,,SYN06472208 32966 22210 10311 20206 30092 40107 58007 91456 555 90515=,,,,,,,,,,,,,,,,,,,,,,,,,,,,
72208013880,2014-06-06T09:56:00,FM-15,7,,SE,0.25,mi,"TEMP, PRECIP, SNOW",,,"MMTS, SRG, SNOWBOARD",,,WFO CHS,,,,,,,,,,,,,,,,,,,,,,,,,,,29.92,69,77,T,,-0.02,0,77,29.92,SCT:04 45 BKN:07 60 OVC:08 100,29.87,10.00,72,220,,5,,,,,,,,,,,,,,,,,,,,,,,,,,,,,,,,,,,,,MET13706/06/14 09:56:02 METAR KCHS 061456Z 22004KT 10SM SCT045 BKN060 OVC100 25/21 A2992 RMK AO2 RAE56 SLP131 P0000 60000 T02500206 50006 (JMB),,,,,,,,,,,,,,,,,,,,,,,,,,,,
72208013880,2014-06-07T09:56:00,FM-15,7,,SE,0.25,mi,"TEMP, PRECIP, SNOW",,,"MMTS, SRG, SNOWBOARD",,,WFO CHS,,,,,,,,,,,,,,,,,,,,,,,,,,,29.97,71,84,0.00,,+0.00,8,65,29.96,FEW:02 20,29.92,10.00,75,080,,9,,,,,,,,,,,,,,,,,,,,,,,,,,,,,,,,,,,,,MET10506/07/14 09:56:02 METAR KCHS 071456Z 08008KT 10SM FEW020 29/22 A2997 RMK AO2 SLP147 T02890217 58000 (JSN),,,,,,,,,,,,,,,,,,,,,,,,,,,,
72208013880,2014-06-07T10:00:00,FM-12,4,,SE,0.25,mi,"TEMP, PRECIP, SNOW",,,"MMTS, SRG, SNOWBOARD",,,WFO CHS,,,,,,,,,,,,,,,,,,,,,,,,,,,,71,84,,,0.00,4,65,29.96,26,29.92,9.94,75,080,,9,,,,,,,,,,,,,,,,,,,,,,,,,,,,,,,,,,,,,SYN06472208 32566 20808 10289 20217 30133 40147 58000 91456 555 90715=,,,,,,,,,,,,,,,,,,,,,,,,,,,,
72208013880,2014-06-12T09:56:00,FM-15,6,,SE,0.25,mi,"TEMP, PRECIP, SNOW",,,"MMTS, SRG, SNOWBOARD",,,WFO CHS,,,,,,,,,,,,,,,,,,,,,,,,,,,29.95,70,85,0.00,,-0.02,0,61,29.94,SCT:04 25 SCT:04 45 BKN:07 250,29.90,10.00,75,260,,6,,,,,,,,,,,,,,,,,,,,,,,,,,,,,,,,,,,,,MET11906/12/14 09:56:02 METAR KCHS 121456Z 26005KT 10SM SCT025 SCT045 BKN250 29/21 A2995 RMK AO2 SLP140 T02940211 50006 (JMB),,,,,,,,,,,,,,,,,,,,,,,,,,,,
72208013880,2014-06-13T09:56:00,FM-15,7,,SE,0.25,mi,"TEMP, PRECIP, SNOW",,,"MMTS, SRG, SNOWBOARD",,,WFO CHS,,,,,,,,,,,,,,,,,,,,,,,,,,,29.91,68,87,0.00,,-0.00,0,53,29.91,FEW:02 25 SCT:04 250,29.86,10.00,74,250,18,9,,,,,,,,,,,,,,,,,,,,,,,,,,,,,,,,,,,,,MET11506/13/14 09:56:02 METAR KCHS 131456Z 25008G16KT 10SM FEW025 SCT250 31/20 A2991 RMK AO2 SLP128 T03060200 50001 (JMB),,,,,,,,,,,,,,,,,,,,,,,,,,,,
72208013880,2014-06-16T09:56:00,FM-15,7,,SE,0.25,mi,"TEMP, PRECIP, SNOW",,,"MMTS, SRG, SNOWBOARD",,,WFO CHS,,,,,,,,,,,,,,,,,,,,,,,,,,,30.18,70,87,0.00,,-0.01,0,57,30.18,FEW:02 25 SCT:04 250,30.13,10.00,75,000,,0,,,,,,,,,,,,,,,,,,,,,,,,,,,,,,,,,,,,,MET11206/16/14 09:56:02 METAR KCHS 161456Z 00000KT 10SM FEW025 SCT250 31/21 A3018 RMK AO2 SLP221 T03060211 50004 (JMB),,,,,,,,,,,,,,,,,,,,,,,,,,,,
72208013880,2014-06-17T09:56:00,FM-15,7,,SE,0.25,mi,"TEMP, PRECIP, SNOW",,,"MMTS, SRG, SNOWBOARD",,,WFO CHS,,,,,,,,,,,,,,,,,,,,,,,,,,,30.20,68,86,0.00,,-0.02,0,55,30.20,SCT:04 30 SCT:04 250,30.15,10.00,74,000,,0,,,,,,,,,,,,,,,,,,,,,,,,,,,,,,,,,,,,,MET11206/17/14 09:56:02 METAR KCHS 171456Z 00000KT 10SM SCT030 SCT250 30/20 A3020 RMK AO2 SLP226 T03000200 50007 (JMB),,,,,,,,,,,,,,,,,,,,,,,,,,,,
72208013880,2014-06-18T09:56:00,FM-15,7,,SE,0.25,mi,"TEMP, PRECIP, SNOW",,,"MMTS, SRG, SNOWBOARD",,,WFO CHS,,,,,,,,,,,,,,,,,,,,,,,,,,,30.17,69,86,0.00,,-0.00,0,57,30.17,SCT:04 25,30.12,10.00,74,250,,9,,,,,,,,,,,,,,,,,,,,,,,,,,,,,,,,,,,,,MET10506/18/14 09:56:02 METAR KCHS 181456Z 25008KT 10SM SCT025 30/21 A3017 RMK AO2 SLP216 T03000206 50000 (JMB),,,,,,,,,,,,,,,,,,,,,,,,,,,,
72208013880,2014-06-19T09:56:00,FM-15,7,,SE,0.25,mi,"TEMP, PRECIP, SNOW",,,"MMTS, SRG, SNOWBOARD",,,WFO CHS,,,,,,,,,,,,,,,,,,,,,,,,,,,30.16,68,86,0.00,,-0.01,0,55,30.15,SCT:04 25,30.11,10.00,74,280,,8,,,,,,,,,,,,,,,,,,,,,,,,,,,,,,,,,,,,,MET10506/19/14 09:56:02 METAR KCHS 191456Z 28007KT 10SM SCT025 30/20 A3016 RMK AO2 SLP211 T03000200 50003 (JMB),,,,,,,,,,,,,,,,,,,,,,,,,,,,
72208013880,2014-06-20T09:56:00,FM-15,7,,SE,0.25,mi,"TEMP, PRECIP, SNOW",,,"MMTS, SRG, SNOWBOARD",,,WFO CHS,,,,,,,,,,,,,,,,,,,,,,,,,,,30.05,71,88,0.00,,+0.00,8,57,30.05,FEW:02 25 SCT:04 250,30.00,10.00,76,230,,6,,,,,,,,,,,,,,,,,,,,,,,,,,,,,,,,,,,,,MET11206/20/14 09:56:02 METAR KCHS 201456Z 23005KT 10SM FEW025 SCT250 31/22 A3005 RMK AO2 SLP175 T03110217 58001 (JMB),,,,,,,,,,,,,,,,,,,,,,,,,,,,
72208013880,2014-06-20T10:00:00,FM-12,4,,SE,0.25,mi,"TEMP, PRECIP, SNOW",,,"MMTS, SRG, SNOWBOARD",,,WFO CHS,,,,,,,,,,,,,,,,,,,,,,,,,,,,71,88,,,+0.00,8,57,30.05,26,30.00,9.94,76,230,,6,,,,,,,,,,,,,,,,,,,,,,,,,,,,,,,,,,,,,SYN06472208 32566 42305 10311 20217 30160 40175 58001 91456 555 92015=,,,,,,,,,,,,,,,,,,,,,,,,,,,,
72208013880,2014-06-21T09:56:00,FM-15,7,,SE,0.25,mi,"TEMP, PRECIP, SNOW",,,"MMTS, SRG, SNOWBOARD",,,WFO CHS,,,,,,,,,,,,,,,,,,,,,,,,,,,29.93,71,89,0.00,,+0.01,8,55,29.93,CLR:00,29.88,10.00,76,230,,8,,,,,,,,,,,,,,,,,,,,,,,,,,,,,,,,,,,,,MET10206/21/14 09:56:02 METAR KCHS 211456Z 23007KT 10SM CLR 32/22 A2993 RMK AO2 SLP135 T03170217 58002 (JSN),,,,,,,,,,,,,,,,,,,,,,,,,,,,
72208013880,2014-06-21T10:00:00,FM-12,4,,SE,0.25,mi,"TEMP, PRECIP, SNOW",,,"MMTS, SRG, SNOWBOARD",,,WFO CHS,,,,,,,,,,,,,,,,,,,,,,,,,,,,71,89,,,+0.01,8,55,29.93,,29.88,9.94,76,230,,8,,,,,,,,,,,,,,,,,,,,,,,,,,,,,,,,,,,,,SYN06472208 32966 02307 10317 20217 30119 40135 58002 91456 555 92115=,,,,,,,,,,,,,,,,,,,,,,,,,,,,
72208013880,2014-06-24T09:56:00,FM-15,7,,SE,0.25,mi,"TEMP, PRECIP, SNOW",,,"MMTS, SRG, SNOWBOARD",,,WFO CHS,,,,,,,,,,,,,,,,,,,,,,,,,,,30.10,71,85,0.00,,-0.01,0,63,30.10,FEW:02 20 SCT:04 100 BKN:07 200,30.05,10.00,75,240,,7,,,,,,,,,,,,,,,,,,,,,,,,,,,,,,,,,,,,,MET12306/24/14 09:56:02 METAR KCHS 241456Z 24006KT 10SM FEW020 SCT100 BKN200 29/22 A3010 RMK AO2 SLP193 T02940217 50002 RTX (JMB),,,,,,,,,,,,,,,,,,,,,,,,,,,,
72208013880,2014-06-25T09:56:00,FM-15,7,,SE,0.25,mi,"TEMP, PRECIP, SNOW",,,"MMTS, SRG, SNOWBOARD",,,WFO CHS,,,,,,,,,,,,,,,,,,,,,,,,,,,30.07,72,85,0.00,,+0.00,8,65,30.07,FEW:02 20 BKN:07 120 BKN:07 200,30.02,10.00,76,300,,8,,,,,,,,,,,,,,,,,,,,,,,,,,,,,,,,,,,,,MET12306/25/14 09:56:02 METAR KCHS 251456Z 30007KT 10SM FEW020 BKN120 BKN200 29/22 A3007 RMK AO2 SLP182 T02940222 58001 RTX (JMB),,,,,,,,,,,,,,,,,,,,,,,,,,,,
72208013880,2014-06-25T10:00:00,FM-12,4,,SE,0.25,mi,"TEMP, PRECIP, SNOW",,,"MMTS, SRG, SNOWBOARD",,,WFO CHS,,,,,,,,,,,,,,,,,,,,,,,,,,,,72,85,,,+0.00,8,65,30.07,26,30.02,9.94,76,300,,8,,,,,,,,,,,,,,,,,,,,,,,,,,,,,,,,,,,,,SYN06472208 32566 63007 10294 20222 30167 40182 58001 91456 555 92515=,,,,,,,,,,,,,,,,,,,,,,,,,,,,
72208013880,2014-06-26T09:56:00,FM-15,7,,SE,0.25,mi,"TEMP, PRECIP, SNOW",,,"MMTS, SRG, SNOWBOARD",,,WFO CHS,,,,,,,,,,,,,,,,,,,,,,,,,,,30.01,71,89,0.00,,+0.00,8,55,30.01,BKN:07 250,29.96,10.00,76,250,,5,,,,,,,,,,,,,,,,,,,,,,,,,,,,,,,,,,,,,MET10506/26/14 09:56:02 METAR KCHS 261456Z 25004KT 10SM BKN250 32/22 A3001 RMK AO2 SLP163 T03170217 58001 (JMB),,,,,,,,,,,,,,,,,,,,,,,,,,,,
72208013880,2014-06-26T10:00:00,FM-12,4,,SE,0.25,mi,"TEMP, PRECIP, SNOW",,,"MMTS, SRG, SNOWBOARD",,,WFO CHS,,,,,,,,,,,,,,,,,,,,,,,,,,,,71,89,,,+0.00,8,55,30.01,,29.96,9.94,76,250,,5,,,,,,,,,,,,,,,,,,,,,,,,,,,,,,,,,,,,,SYN06472208 32966 62504 10317 20217 30146 40163 58001 91456 555 92615=,,,,,,,,,,,,,,,,,,,,,,,,,,,,
72208013880,2014-06-27T09:56:00,FM-15,7,,SE,0.25,mi,"TEMP, PRECIP, SNOW",,,"MMTS, SRG, SNOWBOARD",,,WFO CHS,,,,,,,,,,,,,,,,,,,,,,,,,,,30.03,68,88,0.00,,-0.00,0,52,30.03,FEW:02 20 BKN:07 250,29.98,10.00,74,300,,10,,,,,,,,,,,,,,,,,,,,,,,,,,,,,,,,,,,,,MET11206/27/14 09:56:02 METAR KCHS 271456Z 30009KT 10SM FEW020 BKN250 31/20 A3003 RMK AO2 SLP169 T03110200 50001 (JMB),,,,,,,,,,,,,,,,,,,,,,,,,,,,
72208013880,2014-06-29T09:56:00,FM-15,7,,SE,0.25,mi,"TEMP, PRECIP, SNOW",,,"MMTS, SRG, SNOWBOARD",,,WFO CHS,,,,,,,,,,,,,,,,,,,,,,,,,,,30.16,72,84,0.00,,+0.00,6,67,30.16,SCT:04 20 SCT:04 30,30.11,10.00,76,040,16,11,,,,,,,,,,,,,,,,,,,,,,,,,,,,,,,,,,,,,MET11506/29/14 09:56:02 METAR KCHS 291456Z 04010G14KT 10SM SCT020 SCT030 29/22 A3016 RMK AO2 SLP213 T02890222 56001 (JSN),,,,,,,,,,,,,,,,,,,,,,,,,,,,
72208013880,2014-06-29T10:00:00,FM-12,4,,SE,0.25,mi,"TEMP, PRECIP, SNOW",,,"MMTS, SRG, SNOWBOARD",,,WFO CHS,,,,,,,,,,,,,,,,,,,,,,,,,,,,72,84,,,+0.00,6,67,30.16,26,30.11,9.94,76,040,,11,,,,,,,,,,,,,,,,,,,,,,,,,,,,,,,,,,,,,SYN07472208 32566 40410 10289 20222 30197 40213 56001 91456 333 91014 555 92915=,,,,,,,,,,,,,,,,,,,,,,,,,,,,
72208013880,2014-06-30T09:56:00,FM-15,7,,SE,0.25,mi,"TEMP, PRECIP, SNOW",,,"MMTS, SRG, SNOWBOARD",,,WFO CHS,,,,,,,,,,,,,,,,,,,,,,,,,,,30.11,70,87,0.00,,-0.01,0,57,30.10,FEW:02 20 SCT:04 250,30.06,10.00,75,000,,0,,,,,,,,,,,,,,,,,,,,,,,,,,,,,,,,,,,,,MET11206/30/14 09:56:02 METAR KCHS 301456Z 00000KT 10SM FEW020 SCT250 31/21 A3011 RMK AO2 SLP194 T03060211 50004 (JMB),,,,,,,,,,,,,,,,,,,,,,,,,,,,
72208013880,2014-07-02T09:56:00,FM-15,7,,SE,0.25,mi,"TEMP, PRECIP, SNOW",,,"MMTS, SRG, SNOWBOARD",,,WFO CHS,,,,,,,,,,,,,,,,,,,,,,,,,,,29.99,72,89,0.00,,-0.00,0,57,29.98,FEW:02 30 SCT:04 250,29.94,10.00,77,160,,9,,,,,,,,,,,,,,,,,,,,,,,,,,,,,,,,,,,,,MET11207/02/14 09:56:02 METAR KCHS 021456Z 16008KT 10SM FEW030 SCT250 32/22 A2999 RMK AO2 SLP154 T03170222 50000 (JMB),,,,,,,,,,,,,,,,,,,,,,,,,,,,
72208013880,2014-07-03T09:56:00,FM-15,7,,SE,0.25,mi,"TEMP, PRECIP, SNOW",,,"MMTS, SRG, SNOWBOARD",,,WFO CHS,,,,,,,,,,,,,,,,,,,,,,,,,,,29.80,72,81,0.00,,+0.07,8,74,29.80,FEW:02 15 SCT:04 60 BKN:07 100,29.75,10.00,75,010,25,13,,,,,,,,,,,,,,,,,,,,,,,,,,,,,,,,,,,,,MET12807/03/14 09:56:02 METAR KCHS 031456Z 01011G22KT 10SM FEW015 SCT060 BKN100 27/22 A2980 RMK AO2 SLP091 60000 T02720222 58024 (JMB),,,,,,,,,,,,,,,,,,,,,,,,,,,,
72208013880,2014-07-03T10:00:00,FM-12,4,,SE,0.25,mi,"TEMP, PRECIP, SNOW",,,"MMTS, SRG, SNOWBOARD",,,WFO CHS,,,,,,,,,,,,,,,,,,,,,,,,,,,,72,81,,,+0.07,8,74,29.80,15,29.75,9.94,75,010,,13,,,,,,,,,,,,,,,,,,,,,,,,,,,,,,,,,,,,,SYN08072208 12466 60111 10272 20222 30075 40091 58024 69907 91456 333 91022 555 90315=,,,,,,,,,,,,,,,,,,,,,,,,,,,,
72208013880,2014-07-08T09:56:00,FM-15,7,,SE,0.25,mi,"TEMP, PRECIP, SNOW",,,"MMTS, SRG, SNOWBOARD",,,WFO CHS,,,,,,,,,,,,,,,,,,,,,,,,,,,30.08,71,89,0.00,,-0.01,0,55,30.08,CLR:00,30.03,10.00,76,250,,7,,,,,,,,,,,,,,,,,,,,,,,,,,,,,,,,,,,,,MET10207/08/14 09:56:02 METAR KCHS 081456Z 25006KT 10SM CLR 32/22 A3008 RMK AO2 SLP187 T03170217 50004 (JMB),,,,,,,,,,,,,,,,,,,,,,,,,,,,
72208013880,2014-07-13T09:56:00,FM-15,7,,SE,0.25,mi,"TEMP, PRECIP, SNOW",,,"MMTS, SRG, SNOWBOARD",,,WFO CHS,,,,,,,,,,,,,,,,,,,,,,,,,,,30.16,72,83,0.00,,-0.02,0,70,30.15,FEW:02 25 SCT:04 46 BKN:07 75,30.11,10.00,75,330,,7,,,,,,,,,,,,,,,,,,,,,,,,,,,,,,,,,,,,,MET12107/13/14 09:56:02 METAR KCHS 131456Z 33006KT 10SM FEW025 SCT046 BKN075 28/22 A3016 RMK AO2 SLP211 T02830222 50006 $ (JSN),,,,,,,,,,,,,,,,,,,,,,,,,,,,
72208013880,2014-07-14T09:56:00,FM-15,7,,SE,0.25,mi,"TEMP, PRECIP, SNOW",,,"MMTS, SRG, SNOWBOARD",,,WFO CHS,,,,,,,,,,,,,,,,,,,,,,,,,,,30.04,75,88,0.00,,+0.02,8,66,30.04,FEW:02 15 SCT:04 25 BKN:07 250,29.99,10.00,79,280,,7,,,,,,,,,,,,,,,,,,,,,,,,,,,,,,,,,,,,,MET11907/14/14 09:56:02 METAR KCHS 141456Z 28006KT 10SM FEW015 SCT025 BKN250 31/24 A3004 RMK AO2 SLP172 T03110239 58007 (JMB),,,,,,,,,,,,,,,,,,,,,,,,,,,,
72208013880,2014-07-14T10:00:00,FM-12,4,,SE,0.25,mi,"TEMP, PRECIP, SNOW",,,"MMTS, SRG, SNOWBOARD",,,WFO CHS,,,,,,,,,,,,,,,,,,,,,,,,,,,,75,88,,,+0.02,8,66,30.04,15,29.99,9.94,79,280,,7,,,,,,,,,,,,,,,,,,,,,,,,,,,,,,,,,,,,,SYN06472208 32466 62806 10311 20239 30157 40172 58007 91456 555 91415=,,,,,,,,,,,,,,,,,,,,,,,,,,,,
72208013880,2014-07-15T09:56:00,FM-15,7,,SE,0.25,mi,"TEMP, PRECIP, SNOW",,,"MMTS, SRG, SNOWBOARD",,,WFO CHS,,,,,,,,,,,,,,,,,,,,,,,,,,,29.92,75,89,0.00,,+0.00,8,63,29.92,FEW:02 40 SCT:04 250,29.87,10.00,79,230,,11,,,,,,,,,,,,,,,,,,,,,,,,,,,,,,,,,,,,,MET11407/15/14 09:56:02 METAR KCHS 151456Z 23010KT 10SM FEW040 SCT250 32/24 A2992 RMK AO2 SLP132 T03170239 58000 $ (JMB),,,,,,,,,,,,,,,,,,,,,,,,,,,,
72208013880,2014-07-15T10:00:00,FM-12,4,,SE,0.25,mi,"TEMP, PRECIP, SNOW",,,"MMTS, SRG, SNOWBOARD",,,WFO CHS,,,,,,,,,,,,,,,,,,,,,,,,,,,,75,89,,,0.00,4,63,29.92,41,29.87,9.94,79,230,,11,,,,,,,,,,,,,,,,,,,,,,,,,,,,,,,,,,,,,SYN06472208 32666 42310 10317 20239 30116 40132 58000 91456 555 91515=,,,,,,,,,,,,,,,,,,,,,,,,,,,,
72208013880,2014-07-18T09:56:00,FM-15,7,,SE,0.25,mi,"TEMP, PRECIP, SNOW",,,"MMTS, SRG, SNOWBOARD",,,WFO CHS,,,,,,,,,,,,,,,,,,,,,,,,,,,30.13,63,87,0.00,,-0.01,0,45,30.13,FEW:02 250,30.08,10.00,71,090,17,9,,,,,,,,,,,,,,,,,,,,,,,,,,,,,,,,,,,,,MET10807/18/14 09:56:02 METAR KCHS 181456Z 09008G15KT 10SM FEW250 31/17 A3013 RMK AO2 SLP202 T03060172 50004 (JMB),,,,,,,,,,,,,,,,,,,,,,,,,,,,
72208013880,2014-07-21T10:00:00,FM-12,4,,SE,0.25,mi,"TEMP, PRECIP, SNOW",,,"MMTS, SRG, SNOWBOARD",,,WFO CHS,,,,,,,,,,,,,,,,,,,,,,,,,,,,73,81,,,0.00,4,77,30.09,41,30.04,9.94,75,000,,0,,,,,,,,,,,,,,,,,,,,,,,,,,,,,,,,,,,,,SYN06472208 32666 60000 10272 20228 30173 40189 51000 91456 555 92115=,,,,,,,,,,,,,,,,,,,,,,,,,,,,
72208013880,2014-07-27T09:56:00,FM-15,7,,SE,0.25,mi,"TEMP, PRECIP, SNOW",,,"MMTS, SRG, SNOWBOARD",,,WFO CHS,,,,,,,,,,,,,,,,,,,,,,,,,,,29.99,73,90,0.00,,-0.01,0,58,29.99,FEW:02 100 SCT:04 200,29.94,10.00,78,240,,8,,,,,,,,,,,,,,,,,,,,,,,,,,,,,,,,,,,,,MET11207/27/14 09:56:02 METAR KCHS 271456Z 24007KT 10SM FEW100 SCT200 32/23 A2999 RMK AO2 SLP155 T03220228 50003 (DAW),,,,,,,,,,,,,,,,,,,,,,,,,,,,
72208013880,2014-07-28T09:56:00,FM-15,7,,SE,0.25,mi,"TEMP, PRECIP, SNOW",,,"MMTS, SRG, SNOWBOARD",,,WFO CHS,,,,,,,,,,,,,,,,,,,,,,,,,,,29.88,76,91,0.00,,+0.01,6,61,29.88,BKN:07 120 BKN:07 250,29.83,10.00,80,250,17,11,,,,,,,,,,,,,,,,,,,,,,,,,,,,,,,,,,,,,MET11507/28/14 09:56:02 METAR KCHS 281456Z 25010G15KT 10SM BKN120 BKN250 33/24 A2988 RMK AO2 SLP117 T03280244 56002 (JMB),,,,,,,,,,,,,,,,,,,,,,,,,,,,
72208013880,2014-07-28T10:00:00,FM-12,4,,SE,0.25,mi,"TEMP, PRECIP, SNOW",,,"MMTS, SRG, SNOWBOARD",,,WFO CHS,,,,,,,,,,,,,,,,,,,,,,,,,,,,76,91,,,+0.01,6,61,29.88,,29.83,9.94,80,250,,11,,,,,,,,,,,,,,,,,,,,,,,,,,,,,,,,,,,,,SYN07472208 32966 62510 10328 20244 30102 40117 56002 91456 333 91015 555 92815=,,,,,,,,,,,,,,,,,,,,,,,,,,,,
72208013880,2014-08-06T09:56:00,FM-15,7,,SE,0.25,mi,"TEMP, PRECIP, SNOW",,,"MMTS, SRG, SNOWBOARD",,,WFO CHS,,,,,,,,,,,,,,,,,,,,,,,,,,,30.01,72,89,0.00,,-0.00,0,57,30.01,FEW:02 250,29.96,10.00,77,VRB,,6,,,,,,,,,,,,,,,,,,,,,,,,,,,,,,,,,,,,,MET10508/06/14 09:56:02 METAR KCHS 061456Z VRB05KT 10SM FEW250 32/22 A3001 RMK AO2 SLP163 T03170222 50000 (JMB),,,,,,,,,,,,,,,,,,,,,,,,,,,,
72208013880,2014-08-10T09:56:00,FM-15,7,,SE,0.25,mi,"TEMP, PRECIP, SNOW",,,"MMTS, SRG, SNOWBOARD",,,WFO CHS,,,,,,,,,,,,,,,,,,,,,,,,,,,30.03,74,85,0.00,,-0.03,0,70,30.03,BKN:07 100,29.98,10.00,77,100,,3,,,,,,,,,,,,,,,,,,,,,,,,,,,,,,,,,,,,,MET10508/10/14 09:56:02 METAR KCHS 101456Z 10003KT 10SM BKN100 29/23 A3003 RMK AO2 SLP169 T02940233 50009 (JSN),,,,,,,,,,,,,,,,,,,,,,,,,,,,
72208013880,2014-08-22T09:56:00,FM-15,7,,SE,0.25,mi,"TEMP, PRECIP, SNOW",,,"MMTS, SRG, SNOWBOARD",,,WFO CHS,,,,,,,,,,,,,,,,,,,,,,,,,,,30.04,71,93,0.00,,-0.01,0,49,30.04,SCT:04 250,29.99,10.00,78,290,,6,,,,,,,,,,,,,,,,,,,,,,,,,,,,,,,,,,,,,MET10508/22/14 09:56:02 METAR KCHS 221456Z 29005KT 10SM SCT250 34/22 A3004 RMK AO2 SLP173 T03390217 50005 (JMB),,,,,,,,,,,,,,,,,,,,,,,,,,,,
72208013880,2014-08-23T09:56:00,FM-15,7,,SE,0.25,mi,"TEMP, PRECIP, SNOW",,,"MMTS, SRG, SNOWBOARD",,,WFO CHS,,,,,,,,,,,,,,,,,,,,,,,,,,,29.92,74,94,0.00,,-0.00,0,52,29.92,FEW:02 70 SCT:04 250,29.87,10.00,80,270,,3,,,,,,,,,,,,,,,,,,,,,,,,,,,,,,,,,,,,,MET11208/23/14 09:56:02 METAR KCHS 231456Z 27003KT 10SM FEW070 SCT250 34/23 A2992 RMK AO2 SLP131 T03440233 50001 (DAW),,,,,,,,,,,,,,,,,,,,,,,,,,,,
72208013880,2014-08-25T09:56:00,FM-15,7,,SE,0.25,mi,"TEMP, PRECIP, SNOW",,,"MMTS, SRG, SNOWBOARD",,,WFO CHS,,,,,,,,,,,,,,,,,,,,,,,,,,,30.02,61,78,0.00,,+0.00,6,56,30.02,FEW:02 160,29.97,10.00,67,030,,15,,,,,,,,,,,,,,,,,,,,,,,,,,,,,,,,,,,,,MET10708/25/14 09:56:02 METAR KCHS 251456Z 03013KT 10SM FEW160 26/16 A3002 RMK AO2 SLP166 T02560161 56000 $ (JMB),,,,,,,,,,,,,,,,,,,,,,,,,,,,
72208013880,2014-08-25T10:00:00,FM-12,4,,SE,0.25,mi,"TEMP, PRECIP, SNOW",,,"MMTS, SRG, SNOWBOARD",,,WFO CHS,,,,,,,,,,,,,,,,,,,,,,,,,,,,61,78,,,+0.00,6,56,30.02,,29.97,9.94,67,030,,15,,,,,,,,,,,,,,,,,,,,,,,,,,,,,,,,,,,,,SYN06472208 32966 20313 10256 20161 30150 40166 56000 91456 555 92515=,,,,,,,,,,,,,,,,,,,,,,,,,,,,
72208013880,2014-08-31T09:56:00,FM-15,7,,SE,0.25,mi,"TEMP, PRECIP, SNOW",,,"MMTS, SRG, SNOWBOARD",,,WFO CHS,,,,,,,,,,,,,,,,,,,,,,,,,,,30.16,75,90,0.00,,+0.00,8,62,30.15,SCT:04 23 SCT:04 250,30.11,10.00,79,VRB,,6,,,,,,,,,,,,,,,,,,,,,,,,,,,,,,,,,,,,,MET11408/31/14 09:56:02 METAR KCHS 311456Z VRB05KT 10SM SCT023 SCT250 32/24 A3016 RMK AO2 SLP211 T03220239 58001 $ (DAW),,,,,,,,,,,,,,,,,,,,,,,,,,,,
72208013880,2014-08-31T10:00:00,FM-12,4,,SE,0.25,mi,"TEMP, PRECIP, SNOW",,,"MMTS, SRG, SNOWBOARD",,,WFO CHS,,,,,,,,,,,,,,,,,,,,,,,,,,,,75,90,,,+0.00,8,62,30.15,26,30.11,9.94,79,,,6,,,,,,,,,,,,,,,,,,,,,,,,,,,,,,,,,,,,,SYN06472208 32566 4//05 10322 20239 30197 40211 58001 91456 555 93115=,,,,,,,,,,,,,,,,,,,,,,,,,,,,
72208013880,2014-09-02T09:56:00,FM-15,7,,SE,0.25,mi,"TEMP, PRECIP, SNOW",,,"MMTS, SRG, SNOWBOARD",,,WFO CHS,,,,,,,,,,,,,,,,,,,,,,,,,,,30.09,74,90,0.00,,+0.00,8,59,30.09,FEW:02 35 SCT:04 120 SCT:04 250,30.04,10.00,79,220,,3,,,,,,,,,,,,,,,,,,,,,,,,,,,,,,,,,,,,,MET11909/02/14 09:56:02 METAR KCHS 021456Z 22003KT 10SM FEW035 SCT120 SCT250 32/23 A3009 RMK AO2 SLP190 T03220233 58001 (JMB),,,,,,,,,,,,,,,,,,,,,,,,,,,,
72208013880,2014-09-02T10:00:00,FM-12,4,,SE,0.25,mi,"TEMP, PRECIP, SNOW",,,"MMTS, SRG, SNOWBOARD",,,WFO CHS,,,,,,,,,,,,,,,,,,,,,,,,,,,,74,90,,,+0.00,8,59,30.09,41,30.04,9.94,79,220,,3,,,,,,,,,,,,,,,,,,,,,,,,,,,,,,,,,,,,,SYN06472208 32666 42203 10322 20233 30173 40190 58001 91456 555 90215=,,,,,,,,,,,,,,,,,,,,,,,,,,,,
72208013880,2014-09-06T09:56:00,FM-15,7,,SE,0.25,mi,"TEMP, PRECIP, SNOW",,,"MMTS, SRG, SNOWBOARD",,,WFO CHS,,,,,,,,,,,,,,,,,,,,,,,,,,,30.05,75,83,0.00,,-0.00,0,77,30.05,SCT:04 8 BKN:07 20 BKN:07 100,30.00,10.00,77,VRB,,6,,,,,,,,,,,,,,,,,,,,,,,,,,,,,,,,,,,,,MET14309/06/14 09:56:02 METAR KCHS 061456Z VRB05KT 10SM SCT008 BKN020CB BKN100 28/24 A3005 RMK AO2 SLP176 CB S MOV N VCSH 60000 T02830239 50001 (DAW),,,,,,,,,,,,,,,,,,,,,,,,,,,,
72208013880,2014-09-11T09:56:00,FM-15,7,,SE,0.25,mi,"TEMP, PRECIP, SNOW",,,"MMTS, SRG, SNOWBOARD",,,WFO CHS,,,,,,,,,,,,,,,,,,,,,,,,,,,30.07,73,86,0.00,,-0.00,0,65,30.07,SCT:04 20 BKN:07 35 BKN:07 70,30.02,10.00,77,290,,8,,,,,,,,,,,,,,,,,,,,,,,,,,,,,,,,,,,,,MET11909/11/14 09:56:02 METAR KCHS 111456Z 29007KT 10SM SCT020 BKN035 BKN070 30/23 A3007 RMK AO2 SLP183 T03000228 50001 (JMB),,,,,,,,,,,,,,,,,,,,,,,,,,,,
72208013880,2014-09-12T09:56:00,FM-15,7,,SE,0.25,mi,"TEMP, PRECIP, SNOW",,,"MMTS, SRG, SNOWBOARD",,,WFO CHS,,,,,,,,,,,,,,,,,,,,,,,,,,,30.05,68,88,0.00,,-0.01,0,52,30.05,FEW:02 40 SCT:04 120 BKN:07 250,30.00,10.00,74,250,,7,,,,,,,,,,,,,,,,,,,,,,,,,,,,,,,,,,,,,MET11909/12/14 09:56:02 METAR KCHS 121456Z 25006KT 10SM FEW040 SCT120 BKN250 31/20 A3005 RMK AO2 SLP176 T03110200 50002 (JMB),,,,,,,,,,,,,,,,,,,,,,,,,,,,
72208013880,2014-09-22T09:56:00,SY-MT,7,,SE,0.25,mi,"TEMP, PRECIP, SNOW",,,"MMTS, SRG, SNOWBOARD",,,WFO CHS,,,,,,,,,,,,,,,,,,,,,,,,,,,30.02,66,82,0.00,,-0.03,0,58,30.02,FEW:02 250,29.97,10.00,71,350,,7,,,,,,,,,,,,,,,,,,,,,,,,,,,,,,,,,,,,,SYN06472208 32966 23506 10278 20189 30150 40165 50010 91456 555 92215=MET10509/22/14 09:56:02 METAR KCHS 221456Z 35006KT 10SM FEW250 28/19 A3002 RMK AO2 SLP165 T02780189 50010 (JMB),,,,,,,,,,,,,,,,,,,,,,,,,,,,
72208013880,2014-09-23T09:56:00,FM-15,7,,SE,0.25,mi,"TEMP, PRECIP, SNOW",,,"MMTS, SRG, SNOWBOARD",,,WFO CHS,,,,,,,,,,,,,,,,,,,,,,,,,,,30.15,65,68,0.02,-RA:02 |RA |,-0.03,0,90,30.15,SCT:04 10 BKN:07 35 OVC:08 70,30.10,10.00,66,040,,10,,,,,,,,,,,,,,,,,,,,,,,,,,,,,,,,,,,,,MET14509/23/14 09:56:02 METAR KCHS 231456Z 04009KT 10SM -RA SCT010 BKN035 OVC070 20/18 A3015 RMK AO2 SLP210 SCT V BKN P0002 60049 T02000183 50009 (JMB),,,,,,,,,,,,,,,,,,,,,,,,,,,,
72208013880,2014-09-28T09:56:00,FM-15,7,,SE,0.25,mi,"TEMP, PRECIP, SNOW",,,"MMTS, SRG, SNOWBOARD",,,WFO CHS,,,,,,,,,,,,,,,,,,,,,,,,,,,30.11,70,78,0.00,,-0.00,0,76,30.10,OVC:08 10,30.06,10.00,73,030,,9,,,,,,,,,,,,,,,,,,,,,,,,,,,,,,,,,,,,,MET10509/28/14 09:56:02 METAR KCHS 281456Z 03008KT 10SM OVC010 26/21 A3011 RMK AO2 SLP194 T02560211 50001 (SLL),,,,,,,,,,,,,,,,,,,,,,,,,,,,
72208013880,2014-09-30T09:56:00,FM-15,7,,SE,0.25,mi,"TEMP, PRECIP, SNOW",,,"MMTS, SRG, SNOWBOARD",,,WFO CHS,,,,,,,,,,,,,,,,,,,,,,,,,,,29.91,63,75,0.00,,-0.01,0,66,29.90,FEW:02 30,29.86,10.00,67,030,,11,,,,,,,,,,,,,,,,,,,,,,,,,,,,,,,,,,,,,MET10509/30/14 09:56:02 METAR KCHS 301456Z 03010KT 10SM FEW030 24/17 A2991 RMK AO2 SLP126 T02390172 50004 (JMB),,,,,,,,,,,,,,,,,,,,,,,,,,,,
72208013880,2014-10-03T09:56:00,FM-15,7,,SE,0.25,mi,"TEMP, PRECIP, SNOW",,,"MMTS, SRG, SNOWBOARD",,,WFO CHS,,,,,,,,,,,,,,,,,,,,,,,,,,,30.04,69,83,0.00,,-0.01,0,63,30.04,BKN:07 35,29.99,10.00,74,210,,8,,,,,,,,,,,,,,,,,,,,,,,,,,,,,,,,,,,,,MET10510/03/14 09:56:02 METAR KCHS 031456Z 21007KT 10SM BKN035 28/21 A3004 RMK AO2 SLP173 T02830206 50004 (JMB),,,,,,,,,,,,,,,,,,,,,,,,,,,,
72208013880,2014-10-08T09:56:00,FM-15,7,,SE,0.25,mi,"TEMP, PRECIP, SNOW",,,"MMTS, SRG, SNOWBOARD",,,WFO CHS,,,,,,,,,,,,,,,,,,,,,,,,,,,30.13,67,81,0.00,,-0.02,0,62,30.12,FEW:02 250,30.08,10.00,72,280,,10,,,,,,,,,,,,,,,,,,,,,,,,,,,,,,,,,,,,,MET10510/08/14 09:56:02 METAR KCHS 081456Z 28009KT 10SM FEW250 27/19 A3013 RMK AO2 SLP201 T02720194 50006 (JMB),,,,,,,,,,,,,,,,,,,,,,,,,,,,
72208013880,2014-10-11T09:56:00,FM-15,7,,SE,0.25,mi,"TEMP, PRECIP, SNOW",,,"MMTS, SRG, SNOWBOARD",,,WFO CHS,,,,,,,,,,,,,,,,,,,,,,,,,,,30.07,68,83,0.00,,-0.02,0,61,30.07,SCT:04 250,30.02,10.00,73,290,,9,,,,,,,,,,,,,,,,,,,,,,,,,,,,,,,,,,,,,MET10510/11/14 09:56:02 METAR KCHS 111456Z 29008KT 10SM SCT250 28/20 A3007 RMK AO2 SLP183 T02830200 50007 (MBT),,,,,,,,,,,,,,,,,,,,,,,,,,,,
72208013880,2014-10-13T09:56:00,FM-15,7,,SE,0.25,mi,"TEMP, PRECIP, SNOW",,,"MMTS, SRG, SNOWBOARD",,,WFO CHS,,,,,,,,,,,,,,,,,,,,,,,,,,,30.18,73,83,0.00,,-0.01,0,72,30.18,FEW:02 6 SCT:04 25 SCT:04 250,30.13,10.00,76,VRB,,7,,,,,,,,,,,,,,,,,,,,,,,,,,,,,,,,,,,,,MET11910/13/14 09:56:02 METAR KCHS 131456Z VRB06KT 10SM FEW006 SCT025 SCT250 28/23 A3018 RMK AO2 SLP220 T02830228 50004 (JMB),,,,,,,,,,,,,,,,,,,,,,,,,,,,
72208013880,2014-10-14T09:56:00,FM-15,7,,SE,0.25,mi,"TEMP, PRECIP, SNOW",,,"MMTS, SRG, SNOWBOARD",,,WFO CHS,,,,,,,,,,,,,,,,,,,,,,,,,,,30.04,68,85,0.00,,+0.01,7,57,30.03,SCT:04 30 SCT:04 120 BKN:07 250,29.99,10.00,74,180,28,17,,,,,,,,,,,,,,,,,,,,,,,,,,,,,,,,,,,,,MET12210/14/14 09:56:02 METAR KCHS 141456Z 18015G24KT 10SM SCT030 SCT120 BKN250 29/20 A3004 RMK AO2 SLP171 T02940200 57005 (JMB),,,,,,,,,,,,,,,,,,,,,,,,,,,,
72208013880,2014-10-14T10:00:00,FM-12,4,,SE,0.25,mi,"TEMP, PRECIP, SNOW",,,"MMTS, SRG, SNOWBOARD",,,WFO CHS,,,,,,,,,,,,,,,,,,,,,,,,,,,,68,85,,,+0.01,7,57,30.03,26,29.99,9.94,74,180,,17,,,,,,,,,,,,,,,,,,,,,,,,,,,,,,,,,,,,,SYN07472208 32566 61815 10294 20200 30157 40171 57005 91456 333 91024 555 91415=,,,,,,,,,,,,,,,,,,,,,,,,,,,,
72208013880,2014-10-16T09:56:00,FM-15,7,,SE,0.25,mi,"TEMP, PRECIP, SNOW",,,"MMTS, SRG, SNOWBOARD",,,WFO CHS,,,,,,,,,,,,,,,,,,,,,,,,,,,29.89,51,71,0.00,,-0.02,0,49,29.89,CLR:00,29.84,10.00,60,250,,9,,,,,,,,,,,,,,,,,,,,,,,,,,,,,,,,,,,,,MET10210/16/14 09:56:02 METAR KCHS 161456Z 25008KT 10SM CLR 22/11 A2989 RMK AO2 SLP121 T02170106 50007 (JMB),,,,,,,,,,,,,,,,,,,,,,,,,,,,
72208013880,2014-10-17T09:56:00,FM-15,7,,SE,0.25,mi,"TEMP, PRECIP, SNOW",,,"MMTS, SRG, SNOWBOARD",,,WFO CHS,,,,,,,,,,,,,,,,,,,,,,,,,,,29.98,55,67,0.00,,-0.01,0,66,29.98,CLR:00,29.93,10.00,60,000,,0,,,,,,,,,,,,,,,,,,,,,,,,,,,,,,,,,,,,,MET10210/17/14 09:56:02 METAR KCHS 171456Z 00000KT 10SM CLR 19/13 A2998 RMK AO2 SLP151 T01940128 50004 (JMB),,,,,,,,,,,,,,,,,,,,,,,,,,,,
72208013880,2014-10-18T09:56:00,FM-15,7,,SE,0.25,mi,"TEMP, PRECIP, SNOW",,,"MMTS, SRG, SNOWBOARD",,,WFO CHS,,,,,,,,,,,,,,,,,,,,,,,,,,,29.88,59,75,0.00,,-0.00,0,58,29.87,CLR:00,29.83,10.00,65,260,,8,,,,,,,,,,,,,,,,,,,,,,,,,,,,,,,,,,,,,MET10210/18/14 09:56:02 METAR KCHS 181456Z 26007KT 10SM CLR 24/15 A2988 RMK AO2 SLP116 T02390150 50001 (DAW),,,,,,,,,,,,,,,,,,,,,,,,,,,,
72208013880,2014-10-20T09:56:00,FM-15,7,,SE,0.25,mi,"TEMP, PRECIP, SNOW",,,"MMTS, SRG, SNOWBOARD",,,WFO CHS,,,,,,,,,,,,,,,,,,,,,,,,,,,30.14,54,71,0.00,,-0.01,0,55,30.14,FEW:02 100,30.09,10.00,61,060,,3,,,,,,,,,,,,,,,,,,,,,,,,,,,,,,,,,,,,,MET10510/20/14 09:56:02 METAR KCHS 201456Z 06003KT 10SM FEW100 22/12 A3014 RMK AO2 SLP205 T02170122 50003 (JMB),,,,,,,,,,,,,,,,,,,,,,,,,,,,
72208013880,2014-10-21T09:56:00,FM-15,7,,SE,0.25,mi,"TEMP, PRECIP, SNOW",,,"MMTS, SRG, SNOWBOARD",,,WFO CHS,,,,,,,,,,,,,,,,,,,,,,,,,,,29.97,54,75,0.00,,-0.01,0,48,29.97,CLR:00,29.92,10.00,63,330,,10,,,,,,,,,,,,,,,,,,,,,,,,,,,,,,,,,,,,,MET10210/21/14 09:56:02 METAR KCHS 211456Z 33009KT 10SM CLR 24/12 A2997 RMK AO2 SLP148 T02390122 50003 (JMB),,,,,,,,,,,,,,,,,,,,,,,,,,,,
72208013880,2014-10-22T09:56:00,FM-15,7,,SE,0.25,mi,"TEMP, PRECIP, SNOW",,,"MMTS, SRG, SNOWBOARD",,,WFO CHS,,,,,,,,,,,,,,,,,,,,,,,,,,,30.05,42,64,0.00,,-0.02,0,45,30.04,CLR:00,30.00,10.00,53,020,,15,,,,,,,,,,,,,,,,,,,,,,,,,,,,,,,,,,,,,MET10210/22/14 09:56:02 METAR KCHS 221456Z 02013KT 10SM CLR 18/06 A3005 RMK AO2 SLP173 T01780056 50007 (JMB),,,,,,,,,,,,,,,,,,,,,,,,,,,,
72208013880,2014-10-25T09:56:00,FM-15,7,,SE,0.25,mi,"TEMP, PRECIP, SNOW",,,"MMTS, SRG, SNOWBOARD",,,WFO CHS,,,,,,,,,,,,,,,,,,,,,,,,,,,30.02,49,69,0.00,,-0.00,0,49,30.01,CLR:00,29.97,10.00,58,360,,5,,,,,,,,,,,,,,,,,,,,,,,,,,,,,,,,,,,,,MET10210/25/14 09:56:02 METAR KCHS 251456Z 36004KT 10SM CLR 21/09 A3002 RMK AO2 SLP164 T02060094 50001 (DAW),,,,,,,,,,,,,,,,,,,,,,,,,,,,
72208013880,2014-10-26T09:56:00,FM-15,7,,SE,0.25,mi,"TEMP, PRECIP, SNOW",,,"MMTS, SRG, SNOWBOARD",,,WFO CHS,,,,,,,,,,,,,,,,,,,,,,,,,,,29.97,53,72,0.00,,-0.03,0,52,29.96,CLR:00,29.92,10.00,61,330,,5,,,,,,,,,,,,,,,,,,,,,,,,,,,,,,,,,,,,,MET10210/26/14 09:56:02 METAR KCHS 261456Z 33004KT 10SM CLR 22/12 A2997 RMK AO2 SLP146 T02220117 50009 (DAW),,,,,,,,,,,,,,,,,,,,,,,,,,,,
72208013880,2014-10-28T09:56:00,FM-15,7,,SE,0.25,mi,"TEMP, PRECIP, SNOW",,,"MMTS, SRG, SNOWBOARD",,,WFO CHS,,,,,,,,,,,,,,,,,,,,,,,,,,,30.18,68,73,0.00,,-0.01,0,84,30.18,FEW:02 7,30.13,10.00,70,210,,10,,,,,,,,,,,,,,,,,,,,,,,,,,,,,,,,,,,,,MET10510/28/14 09:56:02 METAR KCHS 281456Z 21009KT 10SM FEW007 23/20 A3018 RMK AO2 SLP220 T02280200 50003 (JMB),,,,,,,,,,,,,,,,,,,,,,,,,,,,
72208013880,2014-10-29T09:56:00,FM-15,7,,SE,0.25,mi,"TEMP, PRECIP, SNOW",,,"MMTS, SRG, SNOWBOARD",,,WFO CHS,,,,,,,,,,,,,,,,,,,,,,,,,,,30.11,64,74,0.00,,-0.01,0,71,30.11,FEW:02 35 BKN:07 200,30.06,10.00,68,240,,7,,,,,,,,,,,,,,,,,,,,,,,,,,,,,,,,,,,,,MET11210/29/14 09:56:02 METAR KCHS 291456Z 24006KT 10SM FEW035 BKN200 23/18 A3011 RMK AO2 SLP195 T02330178 50004 (JMB),,,,,,,,,,,,,,,,,,,,,,,,,,,,
72208013880,2014-10-30T09:56:00,FM-15,7,,SE,0.25,mi,"TEMP, PRECIP, SNOW",,,"MMTS, SRG, SNOWBOARD",,,WFO CHS,,,,,,,,,,,,,,,,,,,,,,,,,,,29.99,53,68,0.00,,-0.01,0,59,29.99,CLR:00,29.94,10.00,59,010,,10,,,,,,,,,,,,,,,,,,,,,,,,,,,,,,,,,,,,,MET10210/30/14 09:56:02 METAR KCHS 301456Z 01009KT 10SM CLR 20/12 A2999 RMK AO2 SLP155 T02000117 50003 (JMB),,,,,,,,,,,,,,,,,,,,,,,,,,,,
72208013880,2014-11-01T09:56:00,FM-15,7,,SE,0.25,mi,"TEMP, PRECIP, SNOW",,,"MMTS, SRG, SNOWBOARD",,,WFO CHS,,,,,,,,,,,,,,,,,,,,,,,,,,,29.72,37,43,T,-RA:02 |RA |,+0.02,8,80,29.72,OVC:08 28,29.67,10.00,40,260,24,15,,,,,,,,,,,,,,,,,,,,,,,,,,,,,,,,,,,,,MET13011/01/14 09:56:02 METAR KCHS 011456Z 26013G21KT 10SM -RA OVC028 06/03 A2972 RMK AO2 RAB16 SLP063 P0000 60000 T00610028 58006 (DAW),,,,,,,,,,,,,,,,,,,,,,,,,,,,
72208013880,2014-11-01T10:00:00,FM-12,4,,SE,0.25,mi,"TEMP, PRECIP, SNOW",,,"MMTS, SRG, SNOWBOARD",,,WFO CHS,,,,,,,,,,,,,,,,,,,,,,,,,,,,37,43,,||RA,+0.02,8,80,29.72,26,29.67,9.94,40,260,,15,,,,,,,,,,,,,,,,,,,,,,,,,,,,,,,,,,,,,SYN08672208 11566 82613 10061 20028 30048 40063 58006 69907 761// 91456 333 91021 555 90115=,,,,,,,,,,,,,,,,,,,,,,,,,,,,
72208013880,2014-11-02T09:56:00,FM-15,7,,SE,0.25,mi,"TEMP, PRECIP, SNOW",,,"MMTS, SRG, SNOWBOARD",,,WFO CHS,,,,,,,,,,,,,,,,,,,,,,,,,,,30.27,32,50,0.00,,-0.05,0,50,30.27,CLR:00,30.22,10.00,42,360,23,16,,,,,,,,,,,,,,,,,,,,,,,,,,,,,,,,,,,,,MET10511/02/14 09:56:02 METAR KCHS 021456Z 36014G20KT 10SM CLR 10/00 A3027 RMK AO2 SLP249 T01000000 50016 (DAW),,,,,,,,,,,,,,,,,,,,,,,,,,,,
72208013880,2014-11-03T09:56:00,FM-15,7,,SE,0.25,mi,"TEMP, PRECIP, SNOW",,,"MMTS, SRG, SNOWBOARD",,,WFO CHS,,,,,,,,,,,,,,,,,,,,,,,,,,,30.47,29,54,0.00,,-0.05,0,38,30.47,CLR:00,30.42,10.00,43,040,,6,,,,,,,,,,,,,,,,,,,,,,,,,,,,,,,,,,,,,MET10311/03/14 09:56:02 METAR KCHS 031456Z 04005KT 10SM CLR 12/M02 A3047 RMK AO2 SLP318 T01221017 50017 (JMB),,,,,,,,,,,,,,,,,,,,,,,,,,,,
72208013880,2014-11-04T09:56:00,FM-15,7,,SE,0.25,mi,"TEMP, PRECIP, SNOW",,,"MMTS, SRG, SNOWBOARD",,,WFO CHS,,,,,,,,,,,,,,,,,,,,,,,,,,,30.42,40,61,0.00,,-0.03,0,46,30.42,BKN:07 200,30.37,10.00,51,000,,0,,,,,,,,,,,,,,,,,,,,,,,,,,,,,,,,,,,,,MET10511/04/14 09:56:02 METAR KCHS 041456Z 00000KT 10SM BKN200 16/04 A3042 RMK AO2 SLP301 T01610044 50011 (JMB),,,,,,,,,,,,,,,,,,,,,,,,,,,,
72208013880,2014-11-06T09:56:00,FM-15,7,,SE,0.25,mi,"TEMP, PRECIP, SNOW",,,"MMTS, SRG, SNOWBOARD",,,WFO CHS,,,,,,,,,,,,,,,,,,,,,,,,,,,30.10,62,75,0.00,,+0.02,8,64,30.09,SCT:04 120 BKN:07 200,30.05,10.00,67,230,,13,,,,,,,,,,,,,,,,,,,,,,,,,,,,,,,,,,,,,MET11211/06/14 09:56:02 METAR KCHS 061456Z 23011KT 10SM SCT120 BKN200 24/17 A3010 RMK AO2 SLP190 T02390167 58006 (JMB),,,,,,,,,,,,,,,,,,,,,,,,,,,,
72208013880,2014-11-06T10:00:00,FM-12,4,,SE,0.25,mi,"TEMP, PRECIP, SNOW",,,"MMTS, SRG, SNOWBOARD",,,WFO CHS,,,,,,,,,,,,,,,,,,,,,,,,,,,,62,75,,,+0.02,8,64,30.09,,30.05,9.94,67,230,,13,,,,,,,,,,,,,,,,,,,,,,,,,,,,,,,,,,,,,SYN06472208 32966 62311 10239 20167 30177 40190 58006 91456 555 90615=,,,,,,,,,,,,,,,,,,,,,,,,,,,,
72208013880,2014-11-08T09:56:00,FM-15,7,,SE,0.25,mi,"TEMP, PRECIP, SNOW",,,"MMTS, SRG, SNOWBOARD",,,WFO CHS,,,,,,,,,,,,,,,,,,,,,,,,,,,30.05,48,62,0.00,,-0.01,0,60,30.05,BKN:07 100,30.00,10.00,55,050,,7,,,,,,,,,,,,,,,,,,,,,,,,,,,,,,,,,,,,,MET10511/08/14 09:56:02 METAR KCHS 081456Z 05006KT 10SM BKN100 17/09 A3005 RMK AO2 SLP176 T01670089 50002 (DAW),,,,,,,,,,,,,,,,,,,,,,,,,,,,
72208013880,2014-11-13T09:56:00,FM-15,7,,SE,0.25,mi,"TEMP, PRECIP, SNOW",,,"MMTS, SRG, SNOWBOARD",,,WFO CHS,,,,,,,,,,,,,,,,,,,,,,,,,,,30.04,56,69,0.00,,-0.02,0,63,30.03,SCT:04 120 BKN:07 200,29.99,10.00,61,270,,6,,,,,,,,,,,,,,,,,,,,,,,,,,,,,,,,,,,,,MET11211/13/14 09:56:02 METAR KCHS 131456Z 27005KT 10SM SCT120 BKN200 21/13 A3004 RMK AO2 SLP171 T02060133 50006 (JMB),,,,,,,,,,,,,,,,,,,,,,,,,,,,
72208013880,2014-11-16T09:56:00,FM-15,7,,SE,0.25,mi,"TEMP, PRECIP, SNOW",,,"MMTS, SRG, SNOWBOARD",,,WFO CHS,,,,,,,,,,,,,,,,,,,,,,,,,,,30.28,44,49,0.02,-RA:02 |RA |,+0.01,6,83,30.28,OVC:08 27,30.23,1.75,47,010,,8,,,,,,,,,,,,,,,,,,,,,,,,,,,,,,,,,,,,,MET14211/16/14 09:56:02 METAR KCHS 161456Z 01007KT 1 3/4SM -RA OVC027 09/07 A3028 RMK AO2 SFC VIS 3 RAB1358 SLP254 P0002 60002 T00940067 56005 (DAW),,,,,,,,,,,,,,,,,,,,,,,,,,,,
72208013880,2014-11-16T10:00:00,FM-12,4,,SE,0.25,mi,"TEMP, PRECIP, SNOW",,,"MMTS, SRG, SNOWBOARD",,,WFO CHS,,,,,,,,,,,,,,,,,,,,,,,,,,,,44,49,,||RA,+0.01,6,83,30.28,26,30.23,1.74,47,010,,8,,,,,,,,,,,,,,,,,,,,,,,,,,,,,,,,,,,,,SYN07672208 11528 80107 10094 20067 30238 40254 56005 69957 761// 91456 555 91615=,,,,,,,,,,,,,,,,,,,,,,,,,,,,
72208013880,2014-11-17T09:56:00,FM-15,7,,SE,0.25,mi,"TEMP, PRECIP, SNOW",,,"MMTS, SRG, SNOWBOARD",,,WFO CHS,,,,,,,,,,,,,,,,,,,,,,,,,,,29.87,67,74,0.00,,+0.04,8,79,29.87,SCT:04 15 BKN:07 25,29.82,10.00,69,220,38,25,,,,,,,,,,,,,,,,,,,,,,,,,,,,,,,,,,,,,MET13311/17/14 09:56:02 METAR KCHS 171456Z 22022G33KT 10SM SCT015 BKN025 23/19 A2987 RMK AO2 PK WND 20033/1453 SLP116 T02330194 58013 (JMB),,,,,,,,,,,,,,,,,,,,,,,,,,,,
72208013880,2014-11-17T10:00:00,FM-12,4,,SE,0.25,mi,"TEMP, PRECIP, SNOW",,,"MMTS, SRG, SNOWBOARD",,,WFO CHS,,,,,,,,,,,,,,,,,,,,,,,,,,,,67,74,,,+0.04,8,79,29.87,15,29.82,9.94,69,220,,25,,,,,,,,,,,,,,,,,,,,,,,,,,,,,,,,,,,,,SYN07472208 32466 62222 10233 20194 30099 40116 58013 91456 333 91033 555 91715=,,,,,,,,,,,,,,,,,,,,,,,,,,,,
72208013880,2014-11-23T09:56:00,FM-15,7,,SE,0.25,mi,"TEMP, PRECIP, SNOW",,,"MMTS, SRG, SNOWBOARD",,,WFO CHS,,,,,,,,,,,,,,,,,,,,,,,,,,,30.09,59,61,0.25,RA:02 BR:1 |RA |,+0.06,8,93,30.09,OVC:08 7,30.04,3.00,60,090,,14,,,,,,,,,,,,,,,,,,,,,,,,,,,,,,,,,,,,,MET12411/23/14 09:56:02 METAR KCHS 231456Z 09012KT 3SM RA BR OVC007 16/15 A3009 RMK AO2 SLP189 P0024 60062 T01610150 58022 $ (DAW),,,,,,,,,,,,,,,,,,,,,,,,,,,,
72208013880,2014-11-23T10:00:00,FM-12,4,,SE,0.25,mi,"TEMP, PRECIP, SNOW",,,"MMTS, SRG, SNOWBOARD",,,WFO CHS,,,,,,,,,,,,,,,,,,,,,,,,,,,,59,61,,||RA,+0.06,8,93,30.09,8,30.04,2.98,60,090,,14,,,,,,,,,,,,,,,,,,,,,,,,,,,,,,,,,,,,,SYN08672208 11348 80912 10161 20150 30173 40189 58022 60167 763// 91456 333 96010 555 92315=,,,,,,,,,,,,,,,,,,,,,,,,,,,,
72208013880,2014-11-26T09:56:00,FM-15,7,,SE,0.25,mi,"TEMP, PRECIP, SNOW",,,"MMTS, SRG, SNOWBOARD",,,WFO CHS,,,,,,,,,,,,,,,,,,,,,,,,,,,29.94,50,53,0.01,-RA:02 |RA |,-0.07,0,89,29.93,BKN:07 9 BKN:07 14 OVC:08 28,29.89,7.00,51,330,,11,,,,,,,,,,,,,,,,,,,,,,,,,,,,,,,,,,,,,MET13311/26/14 09:56:02 METAR KCHS 261456Z 33010KT 7SM -RA BKN009 BKN014 OVC028 12/10 A2994 RMK AO2 SLP137 P0001 60006 T01170100 50023 (KJ),,,,,,,,,,,,,,,,,,,,,,,,,,,,
72208013880,2014-11-29T09:56:00,FM-15,7,,SE,0.25,mi,"TEMP, PRECIP, SNOW",,,"MMTS, SRG, SNOWBOARD",,,WFO CHS,,,,,,,,,,,,,,,,,,,,,,,,,,,30.38,27,50,0.00,,-0.03,0,41,30.38,CLR:00,30.33,10.00,41,000,,0,,,,,,,,,,,,,,,,,,,,,,,,,,,,,,,,,,,,,MET10511/29/14 09:56:02 METAR KCHS 291456Z 00000KT 10SM CLR 10/M03 A3038 RMK AO2 SLP288 T01001028 50011 $ (KLJ),,,,,,,,,,,,,,,,,,,,,,,,,,,,
72208013880,2014-12-06T09:56:00,FM-15,7,,SE,0.25,mi,"TEMP, PRECIP, SNOW",,,"MMTS, SRG, SNOWBOARD",,,WFO CHS,,,,,,,,,,,,,,,,,,,,,,,,,,,30.25,53,58,0.00,HZ:7 |FU |HZ,+0.01,8,84,30.24,FEW:02 5 SCT:04 150 BKN:07 230,30.20,4.00,55,000,,0,,,,,,,,,,,,,,,,,,,,,,,,,,,,,,,,,,,,,MET12112/06/14 09:56:02 METAR KCHS 061456Z 00000KT 4SM HZ FEW005 SCT150 BKN230 14/12 A3025 RMK AO2 SLP242 T01440117 58003 (KLJ),,,,,,,,,,,,,,,,,,,,,,,,,,,,
72208013880,2014-12-06T10:00:00,FM-12,4,,SE,0.25,mi,"TEMP, PRECIP, SNOW",,,"MMTS, SRG, SNOWBOARD",,,WFO CHS,,,,,,,,,,,,,,,,,,,,,,,,,,,,53,58,,||HZ,+0.01,8,84,30.24,5,30.20,3.73,55,000,,0,,,,,,,,,,,,,,,,,,,,,,,,,,,,,,,,,,,,,SYN07072208 31256 60000 10144 20117 30228 40242 58003 705// 91456 555 90615=,,,,,,,,,,,,,,,,,,,,,,,,,,,,
72208013880,2015-01-09T09:56:00,FM-15,7,,SE,0.25,mi,"TEMP, PRECIP, SNOW",,,"MMTS, SRG, SNOWBOARD",,,WFO CHS,,,,,,,,,,,,,,,,,,,,,,,,,,,30.36,26,38,0.00,,-0.01,0,62,30.36,BKN:07 15 OVC:08 20,30.31,10.00,33,290,,8,,,,,,,,,,,,,,,,,,,,,,,,,,,,,,,,,,,,,MET11301/09/15 09:56:02 METAR KCHS 091456Z 29007KT 10SM BKN015 OVC020 03/M03 A3036 RMK AO2 SLP280 T00331033 50004 (JMB),,,,,,,,,,,,,,,,,,,,,,,,,,,,
72208013880,2015-01-26T09:56:00,FM-15,7,,SE,0.25,mi,"TEMP, PRECIP, SNOW",,,"MMTS, SRG, SNOWBOARD",,,WFO CHS,,,,,,,,,,,,,,,,,,,,,,,,,,,29.70,42,53,0.00,,+0.01,8,66,29.70,FEW:02 25,29.65,10.00,48,290,,13,,,,,,,,,,,,,,,,,,,,,,,,,,,,,,,,,,,,,MET10501/26/15 09:56:02 METAR KCHS 261456Z 29011KT 10SM FEW025 12/06 A2970 RMK AO2 SLP056 T01170056 58005 (JMB),,,,,,,,,,,,,,,,,,,,,,,,,,,,
72208013880,2015-01-26T10:00:00,FM-12,4,,SE,0.25,mi,"TEMP, PRECIP, SNOW",,,"MMTS, SRG, SNOWBOARD",,,WFO CHS,,,,,,,,,,,,,,,,,,,,,,,,,,,,42,53,,,+0.01,8,66,29.70,26,29.65,9.94,48,290,,13,,,,,,,,,,,,,,,,,,,,,,,,,,,,,,,,,,,,,SYN06472208 32566 22911 10117 20056 30042 40056 58005 91456 555 92615=,,,,,,,,,,,,,,,,,,,,,,,,,,,,
72208013880,2015-02-01T09:56:00,FM-15,7,,SE,0.25,mi,"TEMP, PRECIP, SNOW",,,"MMTS, SRG, SNOWBOARD",,,WFO CHS,,,,,,,,,,,,,,,,,,,,,,,,,,,30.30,40,55,0.00,,+0.02,8,57,30.30,FEW:02 110 BKN:07 180 BKN:07 230,30.25,10.00,48,140,,9,,,,,,,,,,,,,,,,,,,,,,,,,,,,,,,,,,,,,MET12102/01/15 09:56:02 METAR KCHS 011456Z 14008KT 10SM FEW110 BKN180 BKN230 13/04 A3030 RMK AO2 SLP260 T01280044 58006 $ (KLJ),,,,,,,,,,,,,,,,,,,,,,,,,,,,
72208013880,2015-02-01T10:00:00,FM-12,4,,SE,0.25,mi,"TEMP, PRECIP, SNOW",,,"MMTS, SRG, SNOWBOARD",,,WFO CHS,,,,,,,,,,,,,,,,,,,,,,,,,,,,40,55,,,+0.02,8,57,30.30,,30.25,9.94,48,140,,9,,,,,,,,,,,,,,,,,,,,,,,,,,,,,,,,,,,,,SYN06472208 32966 61408 10128 20044 30244 40260 58006 91456 555 90115=,,,,,,,,,,,,,,,,,,,,,,,,,,,,
72208013880,2015-02-02T09:56:00,FM-15,7,,SE,0.25,mi,"TEMP, PRECIP, SNOW",,,"MMTS, SRG, SNOWBOARD",,,WFO CHS,,,,,,,,,,,,,,,,,,,,,,,,,,,29.72,58,61,T,-RA:02 BR:1 |RA |,+0.03,6,90,29.71,SCT:04 10 OVC:08 15,29.67,5.00,59,220,33,22,,,,,,,,,,,,,,,,,,,,,,,,,,,,,,,,,,,,,MET15702/02/15 09:56:02 METAR KCHS 021456Z 22019G29KT 5SM -RA BR SCT010 OVC015 16/14 A2972 RMK AO2 PK WND 21035/1427 RAB25 SLP062 P0000 60000 T01610144 56009 (JMB),,,,,,,,,,,,,,,,,,,,,,,,,,,,
72208013880,2015-02-02T10:00:00,FM-12,4,,SE,0.25,mi,"TEMP, PRECIP, SNOW",,,"MMTS, SRG, SNOWBOARD",,,WFO CHS,,,,,,,,,,,,,,,,,,,,,,,,,,,,58,61,,||RA,+0.03,6,90,29.71,15,29.67,4.97,59,220,,22,,,,,,,,,,,,,,,,,,,,,,,,,,,,,,,,,,,,,SYN09272208 11458 82219 10161 20144 30048 40062 56009 69907 761// 91456 333 91029 96010 555 90215=,,,,,,,,,,,,,,,,,,,,,,,,,,,,
72208013880,2015-02-04T09:56:00,FM-15,7,,SE,0.25,mi,"TEMP, PRECIP, SNOW",,,"MMTS, SRG, SNOWBOARD",,,WFO CHS,,,,,,,,,,,,,,,,,,,,,,,,,,,30.33,28,49,0.00,,-0.03,0,44,30.32,FEW:02 50 BKN:07 200,30.28,10.00,40,040,,7,,,,,,,,,,,,,,,,,,,,,,,,,,,,,,,,,,,,,MET11302/04/15 09:56:02 METAR KCHS 041456Z 04006KT 10SM FEW050 BKN200 09/M02 A3033 RMK AO2 SLP268 T00941022 50009 (JMB),,,,,,,,,,,,,,,,,,,,,,,,,,,,
72208013880,2015-02-07T09:56:00,FM-15,7,,SE,0.25,mi,"TEMP, PRECIP, SNOW",,,"MMTS, SRG, SNOWBOARD",,,WFO CHS,,,,,,,,,,,,,,,,,,,,,,,,,,,30.34,34,49,0.00,,-0.01,0,56,30.33,FEW:02 10,30.29,10.00,42,260,,6,,,,,,,,,,,,,,,,,,,,,,,,,,,,,,,,,,,,,MET11502/07/15 09:56:02 METAR KCHS 071456Z 26005KT 10SM FEW010 09/01 A3034 RMK AO2 SLP272 FU FEW010 T00940011 50004 (KLJ),,,,,,,,,,,,,,,,,,,,,,,,,,,,
72208013880,2015-02-08T09:56:00,FM-15,7,,SE,0.25,mi,"TEMP, PRECIP, SNOW",,,"MMTS, SRG, SNOWBOARD",,,WFO CHS,,,,,,,,,,,,,,,,,,,,,,,,,,,30.19,46,60,0.00,,-0.01,0,60,30.19,CLR:00,30.14,10.00,53,240,,10,,,,,,,,,,,,,,,,,,,,,,,,,,,,,,,,,,,,,MET10402/08/15 09:56:02 METAR KCHS 081456Z 24009KT 10SM CLR 16/08 A3019 RMK AO2 SLP223 T01560078 50004 $ (KLJ),,,,,,,,,,,,,,,,,,,,,,,,,,,,
72208013880,2015-02-09T09:56:00,FM-15,7,,SE,0.25,mi,"TEMP, PRECIP, SNOW",,,"MMTS, SRG, SNOWBOARD",,,WFO CHS,,,,,,,,,,,,,,,,,,,,,,,,,,,29.90,51,59,0.00,,+0.02,8,75,29.90,BKN:07 200,29.85,10.00,55,250,,6,,,,,,,,,,,,,,,,,,,,,,,,,,,,,,,,,,,,,MET10502/09/15 09:56:02 METAR KCHS 091456Z 25005KT 10SM BKN200 15/11 A2990 RMK AO2 SLP125 T01500106 58006 (JMB),,,,,,,,,,,,,,,,,,,,,,,,,,,,
72208013880,2015-02-09T10:00:00,FM-12,4,,SE,0.25,mi,"TEMP, PRECIP, SNOW",,,"MMTS, SRG, SNOWBOARD",,,WFO CHS,,,,,,,,,,,,,,,,,,,,,,,,,,,,51,59,,,+0.02,8,75,29.90,,29.85,9.94,55,250,,6,,,,,,,,,,,,,,,,,,,,,,,,,,,,,,,,,,,,,SYN06472208 32966 62505 10150 20106 30109 40125 58006 91456 555 90915=,,,,,,,,,,,,,,,,,,,,,,,,,,,,
72208013880,2015-02-12T09:56:00,FM-15,7,,SE,0.25,mi,"TEMP, PRECIP, SNOW",,,"MMTS, SRG, SNOWBOARD",,,WFO CHS,,,,,,,,,,,,,,,,,,,,,,,,,,,29.94,42,55,0.00,,+0.01,8,62,29.94,SCT:04 250,29.89,10.00,49,280,,9,,,,,,,,,,,,,,,,,,,,,,,,,,,,,,,,,,,,,MET10502/12/15 09:56:02 METAR KCHS 121456Z 28008KT 10SM SCT250 13/06 A2994 RMK AO2 SLP138 T01280056 58004 (JMB),,,,,,,,,,,,,,,,,,,,,,,,,,,,
72208013880,2015-02-12T10:00:00,FM-12,4,,SE,0.25,mi,"TEMP, PRECIP, SNOW",,,"MMTS, SRG, SNOWBOARD",,,WFO CHS,,,,,,,,,,,,,,,,,,,,,,,,,,,,42,55,,,+0.01,8,62,29.94,,29.89,9.94,49,280,,9,,,,,,,,,,,,,,,,,,,,,,,,,,,,,,,,,,,,,SYN06472208 32966 42808 10128 20056 30123 40138 58004 91456 555 91215=,,,,,,,,,,,,,,,,,,,,,,,,,,,,
72208013880,2015-02-14T09:56:00,FM-15,7,,SE,0.25,mi,"TEMP, PRECIP, SNOW",,,"MMTS, SRG, SNOWBOARD",,,WFO CHS,,,,,,,,,,,,,,,,,,,,,,,,,,,30.13,17,45,0.00,,+0.03,6,33,30.13,CLR:00,30.08,10.00,35,260,,8,,,,,,,,,,,,,,,,,,,,,,,,,,,,,,,,,,,,,MET10502/14/15 09:56:02 METAR KCHS 141456Z 26007KT 10SM CLR 07/M08 A3013 RMK AO2 SLP204 T00721083 56009 $ (KLJ),,,,,,,,,,,,,,,,,,,,,,,,,,,,
72208013880,2015-02-14T10:00:00,FM-12,4,,SE,0.25,mi,"TEMP, PRECIP, SNOW",,,"MMTS, SRG, SNOWBOARD",,,WFO CHS,,,,,,,,,,,,,,,,,,,,,,,,,,,,17,45,,,+0.03,6,33,30.13,,30.08,9.94,35,260,,8,,,,,,,,,,,,,,,,,,,,,,,,,,,,,,,,,,,,,SYN06472208 32966 02607 10072 21083 30187 40204 56009 91456 555 91415=,,,,,,,,,,,,,,,,,,,,,,,,,,,,
72208013880,2015-02-16T09:56:00,FM-15,7,,SE,0.25,mi,"TEMP, PRECIP, SNOW",,,"MMTS, SRG, SNOWBOARD",,,WFO CHS,,,,,,,,,,,,,,,,,,,,,,,,,,,30.27,20,42,0.00,,+0.01,8,41,30.27,FEW:02 60 SCT:04 120 BKN:07 200,30.22,10.00,34,110,18,13,,,,,,,,,,,,,,,,,,,,,,,,,,,,,,,,,,,,,MET12502/16/15 09:56:02 METAR KCHS 161456Z 11011G16KT 10SM FEW060 SCT120 BKN200 06/M07 A3027 RMK AO2 SLP251 T00561067 58004 $ (JMB),,,,,,,,,,,,,,,,,,,,,,,,,,,,
72208013880,2015-02-16T10:00:00,FM-12,4,,SE,0.25,mi,"TEMP, PRECIP, SNOW",,,"MMTS, SRG, SNOWBOARD",,,WFO CHS,,,,,,,,,,,,,,,,,,,,,,,,,,,,20,42,,,+0.01,8,41,30.27,57,30.22,9.94,34,110,,13,,,,,,,,,,,,,,,,,,,,,,,,,,,,,,,,,,,,,SYN07472208 32766 61111 10056 21067 30234 40251 58004 91456 333 91016 555 91615=,,,,,,,,,,,,,,,,,,,,,,,,,,,,
72208013880,2015-02-18T09:56:00,FM-15,7,,SE,0.25,mi,"TEMP, PRECIP, SNOW",,,"MMTS, SRG, SNOWBOARD",,,WFO CHS,,,,,,,,,,,,,,,,,,,,,,,,,,,30.01,34,43,0.00,,-0.01,0,71,30.01,SCT:04 15,29.96,10.00,39,VRB,,5,,,,,,,,,,,,,,,,,,,,,,,,,,,,,,,,,,,,,MET10502/18/15 09:56:02 METAR KCHS 181456Z VRB04KT 10SM SCT015 06/01 A3001 RMK AO2 SLP162 T00610011 50002 (JMB),,,,,,,,,,,,,,,,,,,,,,,,,,,,
72208013880,2015-02-21T09:56:00,FM-15,7,,SE,0.25,mi,"TEMP, PRECIP, SNOW",,,"MMTS, SRG, SNOWBOARD",,,WFO CHS,,,,,,,,,,,,,,,,,,,,,,,,,,,30.39,35,49,0.00,,+0.01,8,59,30.39,FEW:02 25 BKN:07 200,30.34,10.00,43,000,,0,,,,,,,,,,,,,,,,,,,,,,,,,,,,,,,,,,,,,MET11202/21/15 09:56:02 METAR KCHS 211456Z 00000KT 10SM FEW025 BKN200 09/02 A3039 RMK AO2 SLP291 T00940017 58002 (KLJ),,,,,,,,,,,,,,,,,,,,,,,,,,,,
72208013880,2015-02-21T10:00:00,FM-12,4,,SE,0.25,mi,"TEMP, PRECIP, SNOW",,,"MMTS, SRG, SNOWBOARD",,,WFO CHS,,,,,,,,,,,,,,,,,,,,,,,,,,,,35,49,,,+0.01,8,59,30.39,26,30.34,9.94,43,000,,0,,,,,,,,,,,,,,,,,,,,,,,,,,,,,,,,,,,,,SYN06472208 32566 60000 10094 20017 30275 40291 58002 91456 555 92115=,,,,,,,,,,,,,,,,,,,,,,,,,,,,
72208013880,2015-02-24T09:56:00,FM-15,7,,SE,0.25,mi,"TEMP, PRECIP, SNOW",,,"MMTS, SRG, SNOWBOARD",,,WFO CHS,,,,,,,,,,,,,,,,,,,,,,,,,,,30.15,30,32,0.01,-FZ:8 RA:02 BR:1 |FZRA |,+0.03,6,92,30.15,OVC:08 8,30.10,3.00,31,020,,10,,,,,,,,,,,,,,,,,,,,,,,,,,,,,,,,,,,,,MET12602/24/15 09:56:02 METAR KCHS 241456Z 02009KT 3SM -FZRA BR OVC008 00/M01 A3015 RMK AO2 SLP210 P0000 60002 T00001011 56009 (JMB),,,,,,,,,,,,,,,,,,,,,,,,,,,,
72208013880,2015-02-24T10:00:00,FM-12,4,,SE,0.25,mi,"TEMP, PRECIP, SNOW",,,"MMTS, SRG, SNOWBOARD",,,WFO CHS,,,,,,,,,,,,,,,,,,,,,,,,,,,,30,32,,,+0.03,6,92,30.15,8,30.10,2.98,31,020,,10,,,,,,,,,,,,,,,,,,,,,,,,,,,,,,,,,,,,,SYN08672208 11348 80209 10000 21011 30194 40210 56009 69957 710// 91456 333 96010 555 92415=,,,,,,,,,,,,,,,,,,,,,,,,,,,,
72208013880,2015-03-01T09:56:00,FM-15,7,,SE,0.25,mi,"TEMP, PRECIP, SNOW",,,"MMTS, SRG, SNOWBOARD",,,WFO CHS,,,,,,,,,,,,,,,,,,,,,,,,,,,30.50,39,41,T,-DZ:01 |DZ |,-0.01,0,93,30.50,BKN:07 9 OVC:08 15,30.45,8.00,40,350,,8,,,,,,,,,,,,,,,,,,,,,,,,,,,,,,,,,,,,,MET13803/01/15 09:56:02 METAR KCHS 011456Z 35007KT 8SM -DZ BKN009 OVC015 05/04 A3050 RMK AO2 RAE54DZB54 SLP327 P0000 60000 T00500039 50003 (KLJ),,,,,,,,,,,,,,,,,,,,,,,,,,,,
72208013880,2015-03-02T09:56:00,FM-15,7,,SE,0.25,mi,"TEMP, PRECIP, SNOW",,,"MMTS, SRG, SNOWBOARD",,,WFO CHS,,,,,,,,,,,,,,,,,,,,,,,,,,,30.31,49,50,0.00,BR:1 ||,-0.03,0,96,30.31,BKN:07 2 OVC:08 6,30.26,1.00,49,270,,6,,,,,,,,,,,,,,,,,,,,,,,,,,,,,,,,,,,,,MET14003/02/15 09:56:02 METAR KCHS 021456Z 27005KT 1SM R15/P6000FT BR BKN002 OVC006 10/09 A3031 RMK AO2 TWR VIS 1 1/2 SLP264 T01000094 50011 (JMB),,,,,,,,,,,,,,,,,,,,,,,,,,,,
72208013880,2015-03-03T09:56:00,FM-15,7,,SE,0.25,mi,"TEMP, PRECIP, SNOW",,,"MMTS, SRG, SNOWBOARD",,,WFO CHS,,,,,,,,,,,,,,,,,,,,,,,,,,,30.30,47,55,0.00,,-0.03,0,74,30.29,BKN:07 15 OVC:08 20,30.25,10.00,51,070,,7,,,,,,,,,,,,,,,,,,,,,,,,,,,,,,,,,,,,,MET11203/03/15 09:56:02 METAR KCHS 031456Z 07006KT 10SM BKN015 OVC020 13/08 A3030 RMK AO2 SLP258 T01280083 50009 (JMB),,,,,,,,,,,,,,,,,,,,,,,,,,,,
72208013880,2015-03-04T09:56:00,FM-15,7,,SE,0.25,mi,"TEMP, PRECIP, SNOW",,,"MMTS, SRG, SNOWBOARD",,,WFO CHS,,,,,,,,,,,,,,,,,,,,,,,,,,,30.12,63,71,0.00,,-0.01,0,76,30.12,SCT:04 15 SCT:04 50 BKN:07 250,30.07,10.00,66,200,,17,,,,,,,,,,,,,,,,,,,,,,,,,,,,,,,,,,,,,MET12503/04/15 09:56:02 METAR KCHS 041456Z 20015KT 10SM SCT015 SCT050 BKN250 22/17 A3012 RMK AO2 SLP199 60001 T02170172 50005 (JMB),,,,,,,,,,,,,,,,,,,,,,,,,,,,
72208013880,2015-03-08T09:56:00,FM-15,7,,SE,0.25,mi,"TEMP, PRECIP, SNOW",,,"MMTS, SRG, SNOWBOARD",,,WFO CHS,,,,,,,,,,,,,,,,,,,,,,,,,,,30.36,39,59,0.00,,-0.01,0,48,30.35,FEW:02 180 BKN:07 250,30.31,10.00,49,230,,8,,,,,,,,,,,,,,,,,,,,,,,,,,,,,,,,,,,,,MET11203/08/15 09:56:02 METAR KCHS 081456Z 23007KT 10SM FEW180 BKN250 15/04 A3036 RMK AO2 SLP279 T01500039 50004 (KLJ),,,,,,,,,,,,,,,,,,,,,,,,,,,,
72208013880,2015-03-11T09:56:00,FM-15,7,,SE,0.25,mi,"TEMP, PRECIP, SNOW",,,"MMTS, SRG, SNOWBOARD",,,WFO CHS,,,,,,,,,,,,,,,,,,,,,,,,,,,30.20,65,77,0.00,,-0.01,0,66,30.19,FEW:02 120 SCT:04 250,30.15,10.00,69,230,,3,,,,,,,,,,,,,,,,,,,,,,,,,,,,,,,,,,,,,MET11203/11/15 09:56:02 METAR KCHS 111456Z 23003KT 10SM FEW120 SCT250 25/18 A3020 RMK AO2 SLP224 T02500183 50005 (JMB),,,,,,,,,,,,,,,,,,,,,,,,,,,,
72208013880,2015-03-13T09:56:00,FM-15,7,,SE,0.25,mi,"TEMP, PRECIP, SNOW",,,"MMTS, SRG, SNOWBOARD",,,WFO CHS,,,,,,,,,,,,,,,,,,,,,,,,,,,30.41,47,57,0.00,,-0.01,0,69,30.40,BKN:07 40 OVC:08 50,30.36,10.00,52,060,,9,,,,,,,,,,,,,,,,,,,,,,,,,,,,,,,,,,,,,MET11203/13/15 09:56:02 METAR KCHS 131456Z 06008KT 10SM BKN040 OVC050 14/08 A3041 RMK AO2 SLP296 T01390083 50002 (BBE),,,,,,,,,,,,,,,,,,,,,,,,,,,,
72208013880,2015-03-14T09:56:00,FM-15,7,,SE,0.25,mi,"TEMP, PRECIP, SNOW",,,"MMTS, SRG, SNOWBOARD",,,WFO CHS,,,,,,,,,,,,,,,,,,,,,,,,,,,30.12,66,72,0.00,,+0.01,8,82,30.11,SCT:04 17 BKN:07 20 OVC:08 28,30.07,8.00,68,200,28,21,,,,,,,,,,,,,,,,,,,,,,,,,,,,,,,,,,,,,MET12703/14/15 09:56:02 METAR KCHS 141456Z 20018G24KT 8SM SCT017 BKN020 OVC028 22/19 A3012 RMK AO2 SLP198 60001 T02220189 58004 (KLJ),,,,,,,,,,,,,,,,,,,,,,,,,,,,
72208013880,2015-03-14T10:00:00,FM-12,4,,SE,0.25,mi,"TEMP, PRECIP, SNOW",,,"MMTS, SRG, SNOWBOARD",,,WFO CHS,,,,,,,,,,,,,,,,,,,,,,,,,,,,66,72,,,+0.01,8,82,30.11,15,30.07,7.46,68,200,,21,,,,,,,,,,,,,,,,,,,,,,,,,,,,,,,,,,,,,SYN08072208 12462 82018 10222 20189 30184 40198 58004 69937 91456 333 91024 555 91415=,,,,,,,,,,,,,,,,,,,,,,,,,,,,
72208013880,2015-03-16T09:56:00,FM-15,7,,SE,0.25,mi,"TEMP, PRECIP, SNOW",,,"MMTS, SRG, SNOWBOARD",,,WFO CHS,,,,,,,,,,,,,,,,,,,,,,,,,,,30.17,37,70,0.00,,+0.01,8,30,30.17,SCT:04 250,30.12,10.00,53,160,,7,,,,,,,,,,,,,,,,,,,,,,,,,,,,,,,,,,,,,MET10503/16/15 09:56:02 METAR KCHS 161456Z 16006KT 10SM SCT250 21/03 A3017 RMK AO2 SLP216 T02110028 58003 (JMB),,,,,,,,,,,,,,,,,,,,,,,,,,,,
72208013880,2015-03-16T10:00:00,FM-12,4,,SE,0.25,mi,"TEMP, PRECIP, SNOW",,,"MMTS, SRG, SNOWBOARD",,,WFO CHS,,,,,,,,,,,,,,,,,,,,,,,,,,,,37,70,,,+0.01,8,30,30.17,,30.12,9.94,53,160,,7,,,,,,,,,,,,,,,,,,,,,,,,,,,,,,,,,,,,,SYN06472208 32966 41606 10211 20028 30201 40216 58003 91456 555 91615=,,,,,,,,,,,,,,,,,,,,,,,,,,,,
72208013880,2015-03-17T09:56:00,FM-15,7,,SE,0.25,mi,"TEMP, PRECIP, SNOW",,,"MMTS, SRG, SNOWBOARD",,,WFO CHS,,,,,,,,,,,,,,,,,,,,,,,,,,,29.94,47,73,0.00,,+0.01,8,40,29.94,BKN:07 250,29.89,10.00,59,280,,9,,,,,,,,,,,,,,,,,,,,,,,,,,,,,,,,,,,,,MET10503/17/15 09:56:02 METAR KCHS 171456Z 28008KT 10SM BKN250 23/08 A2994 RMK AO2 SLP138 T02280083 58004 (JMB),,,,,,,,,,,,,,,,,,,,,,,,,,,,
72208013880,2015-03-17T10:00:00,FM-12,4,,SE,0.25,mi,"TEMP, PRECIP, SNOW",,,"MMTS, SRG, SNOWBOARD",,,WFO CHS,,,,,,,,,,,,,,,,,,,,,,,,,,,,47,73,,,+0.01,8,40,29.94,,29.89,9.94,59,280,,9,,,,,,,,,,,,,,,,,,,,,,,,,,,,,,,,,,,,,SYN06472208 32966 62808 10228 20083 30123 40138 58004 91456 555 91715=,,,,,,,,,,,,,,,,,,,,,,,,,,,,
72208013880,2015-03-26T09:56:00,FM-15,7,,SE,0.25,mi,"TEMP, PRECIP, SNOW",,,"MMTS, SRG, SNOWBOARD",,,WFO CHS,,,,,,,,,,,,,,,,,,,,,,,,,,,30.01,62,69,0.00,,+0.01,8,78,30.01,SCT:04 15 BKN:07 50,29.96,10.00,65,220,,11,,,,,,,,,,,,,,,,,,,,,,,,,,,,,,,,,,,,,MET12203/26/15 09:56:02 METAR KCHS 261456Z 22010KT 10SM SCT015 BKN050 21/17 A3001 RMK AO2 SLP163 SCT V BKN T02060167 58005 (JMB),,,,,,,,,,,,,,,,,,,,,,,,,,,,
72208013880,2015-03-26T10:00:00,FM-12,4,,SE,0.25,mi,"TEMP, PRECIP, SNOW",,,"MMTS, SRG, SNOWBOARD",,,WFO CHS,,,,,,,,,,,,,,,,,,,,,,,,,,,,62,69,,,+0.01,8,78,30.01,15,29.96,9.94,65,220,,11,,,,,,,,,,,,,,,,,,,,,,,,,,,,,,,,,,,,,SYN06472208 32466 62210 10206 20167 30146 40163 58005 91456 555 92615=,,,,,,,,,,,,,,,,,,,,,,,,,,,,
72208013880,2015-03-27T09:56:00,FM-15,7,,SE,0.25,mi,"TEMP, PRECIP, SNOW",,,"MMTS, SRG, SNOWBOARD",,,WFO CHS,,,,,,,,,,,,,,,,,,,,,,,,,,,29.72,61,69,0.00,,-0.00,0,76,29.72,BKN:07 18,29.67,10.00,64,240,,16,,,,,,,,,,,,,,,,,,,,,,,,,,,,,,,,,,,,,MET10503/27/15 09:56:02 METAR KCHS 271456Z 24014KT 10SM BKN018 21/16 A2972 RMK AO2 SLP064 T02060161 50001 (JMB),,,,,,,,,,,,,,,,,,,,,,,,,,,,
72208013880,2015-03-31T09:56:00,FM-15,7,,SE,0.25,mi,"TEMP, PRECIP, SNOW",,,"MMTS, SRG, SNOWBOARD",,,WFO CHS,,,,,,,,,,,,,,,,,,,,,,,,,,,30.08,45,68,0.00,,-0.00,0,44,30.08,FEW:02 250,30.03,10.00,56,000,,0,,,,,,,,,,,,,,,,,,,,,,,,,,,,,,,,,,,,,MET10503/31/15 09:56:02 METAR KCHS 311456Z 00000KT 10SM FEW250 20/07 A3008 RMK AO2 SLP185 T02000072 50001 (JMB),,,,,,,,,,,,,,,,,,,,,,,,,,,,
72208013880,2015-04-08T09:56:00,FM-15,6,,SE,0.25,mi,"TEMP, PRECIP, SNOW",,,"MMTS, SRG, SNOWBOARD",,,WFO CHS,,,,,,,,,,,,,,,,,,,,,,,,,,,30.18,64,79,0.00,,-0.00,0,60,30.17,FEW:02 120 SCT:04 250,30.13,10.00,69,230,,7,,,,,,,,,,,,,,,,,,,,,,,,,,,,,,,,,,,,,MET11204/08/15 09:56:02 METAR KCHS 081456Z 23006KT 10SM FEW120 SCT250 26/18 A3018 RMK AO2 SLP218 T02610178 50000 (JMB),,,,,,,,,,,,,,,,,,,,,,,,,,,,
72208013880,2015-04-14T09:56:00,FM-15,6,,SE,0.25,mi,"TEMP, PRECIP, SNOW",,,"MMTS, SRG, SNOWBOARD",,,WFO CHS,,,,,,,,,,,,,,,,,,,,,,,,,,,30.13,71,78,0.00,,-0.00,0,79,30.12,SCT:04 15 BKN:07 50,30.08,10.00,73,220,,8,,,,,,,,,,,,,,,,,,,,,,,,,,,,,,,,,,,,,MET12204/14/15 09:56:02 METAR KCHS 141456Z 22007KT 10SM SCT015 BKN050 26/22 A3013 RMK AO2 SLP201 SCT V BKN T02560217 50000 (JMB),,,,,,,,,,,,,,,,,,,,,,,,,,,,
72208013880,2015-04-16T09:56:00,FM-15,6,,SE,0.25,mi,"TEMP, PRECIP, SNOW",,,"MMTS, SRG, SNOWBOARD",,,WFO CHS,,,,,,,,,,,,,,,,,,,,,,,,,,,30.23,52,56,0.00,,-0.01,0,87,30.22,OVC:08 11,30.18,10.00,54,360,,10,,,,,,,,,,,,,,,,,,,,,,,,,,,,,,,,,,,,,MET09904/16/15 09:56:01 METAR KCHS 161456Z 36009KT 10SM OVC011 13/11 A3023 RMK AO2 SLP235 T01330111 50005,,,,,,,,,,,,,,,,,,,,,,,,,,,,
72208013880,2015-04-19T09:56:00,FM-15,6,,SE,0.25,mi,"TEMP, PRECIP, SNOW",,,"MMTS, SRG, SNOWBOARD",,,WFO CHS,,,,,,,,,,,,,,,,,,,,,,,,,,,29.92,68,72,0.00,,+0.04,8,87,29.92,FEW:02 7 BKN:07 16 OVC:08 25,29.87,10.00,69,100,,10,,,,,,,,,,,,,,,,,,,,,,,,,,,,,,,,,,,,,MET12504/19/15 09:56:02 METAR KCHS 191456Z 10009KT 10SM FEW007 BKN016 OVC025 22/20 A2992 RMK AO2 SLP132 60000 T02220200 58013 (KLJ),,,,,,,,,,,,,,,,,,,,,,,,,,,,
72208013880,2015-04-23T09:56:00,FM-15,6,,SE,0.25,mi,"TEMP, PRECIP, SNOW",,,"MMTS, SRG, SNOWBOARD",,,WFO CHS,,,,,,,,,,,,,,,,,,,,,,,,,,,29.93,52,76,0.00,,+0.00,8,43,29.93,FEW:02 250,29.88,10.00,62,310,,10,,,,,,,,,,,,,,,,,,,,,,,,,,,,,,,,,,,,,MET10504/23/15 09:56:02 METAR KCHS 231456Z 31009KT 10SM FEW250 24/11 A2993 RMK AO2 SLP136 T02440111 58001 (JMB),,,,,,,,,,,,,,,,,,,,,,,,,,,,
72208013880,2015-04-29T09:56:00,FM-15,7,,SE,0.25,mi,"TEMP, PRECIP, SNOW",,,"MMTS, SRG, SNOWBOARD",,,WFO CHS,,,,,,,,,,,,,,,,,,,,,,,,,,,29.78,55,57,0.03,-RA:02 |RA |,+0.06,8,93,29.78,FEW:02 15 SCT:04 25 BKN:07 40,29.73,10.00,56,090,,7,,,,,,,,,,,,,,,,,,,,,,,,,,,,,,,,,,,,,MET13504/29/15 09:56:02 METAR KCHS 291456Z 09006KT 10SM -RA FEW015 SCT025 BKN040 14/13 A2978 RMK AO2 SLP084 P0004 60038 T01390128 58019 (JMB),,,,,,,,,,,,,,,,,,,,,,,,,,,,
72208013880,2015-04-29T10:00:00,FM-12,4,,SE,0.25,mi,"TEMP, PRECIP, SNOW",,,"MMTS, SRG, SNOWBOARD",,,WFO CHS,,,,,,,,,,,,,,,,,,,,,,,,,,,,55,57,,||RA,+0.06,8,93,29.78,15,29.73,9.94,56,090,,7,,,,,,,,,,,,,,,,,,,,,,,,,,,,,,,,,,,,,SYN07672208 11466 60906 10139 20128 30069 40084 58019 60107 761// 91456 555 92915=,,,,,,,,,,,,,,,,,,,,,,,,,,,,
72208013880,2015-05-02T09:56:00,FM-15,7,,SE,0.25,mi,"TEMP, PRECIP, SNOW",,,"MMTS, SRG, SNOWBOARD",,,WFO CHS,,,,,,,,,,,,,,,,,,,,,,,,,,,30.09,50,70,0.00,,-0.01,0,49,30.09,CLR:00,30.04,10.00,59,010,,10,,,,,,,,,,,,,,,,,,,,,,,,,,,,,,,,,,,,,MET10205/02/15 09:56:02 METAR KCHS 021456Z 01009KT 10SM CLR 21/10 A3009 RMK AO2 SLP188 T02110100 50005 (KLJ),,,,,,,,,,,,,,,,,,,,,,,,,,,,
72208013880,2015-05-06T09:56:00,FM-15,7,,SE,0.25,mi,"TEMP, PRECIP, SNOW",,,"MMTS, SRG, SNOWBOARD",,,WFO CHS,,,,,,,,,,,,,,,,,,,,,,,,,,,30.17,61,77,0.00,,+0.01,8,58,30.17,FEW:02 40 SCT:04 120 BKN:07 250,30.12,10.00,67,050,18,14,,,,,,,,,,,,,,,,,,,,,,,,,,,,,,,,,,,,,MET12205/06/15 09:56:02 METAR KCHS 061456Z 05012G16KT 10SM FEW040 SCT120 BKN250 25/16 A3017 RMK AO2 SLP216 T02500161 58004 (JMB),,,,,,,,,,,,,,,,,,,,,,,,,,,,
72208013880,2015-05-06T10:00:00,FM-12,4,,SE,0.25,mi,"TEMP, PRECIP, SNOW",,,"MMTS, SRG, SNOWBOARD",,,WFO CHS,,,,,,,,,,,,,,,,,,,,,,,,,,,,61,77,,,+0.01,8,58,30.17,41,30.12,9.94,67,050,,14,,,,,,,,,,,,,,,,,,,,,,,,,,,,,,,,,,,,,SYN07472208 32666 60512 10250 20161 30201 40216 58004 91456 333 91016 555 90615=,,,,,,,,,,,,,,,,,,,,,,,,,,,,
72208013880,2015-05-09T09:56:00,FM-15,7,,SE,0.25,mi,"TEMP, PRECIP, SNOW",,,"MMTS, SRG, SNOWBOARD",,,WFO CHS,,,,,,,,,,,,,,,,,,,,,,,,,,,29.99,64,73,0.00,,-0.00,0,74,29.99,BKN:07 19 OVC:08 30,29.94,10.00,67,340,28,20,,,,,,,,,,,,,,,,,,,,,,,,,,,,,,,,,,,,,MET12105/09/15 09:56:02 METAR KCHS 091456Z 34017G24KT 10SM BKN019 OVC030 23/18 A2999 RMK AO2 SLP155 60000 T02280178 50000 (KLJ),,,,,,,,,,,,,,,,,,,,,,,,,,,,
72208013880,2015-05-11T09:56:00,FM-15,7,,SE,0.25,mi,"TEMP, PRECIP, SNOW",,,"MMTS, SRG, SNOWBOARD",,,WFO CHS,,,,,,,,,,,,,,,,,,,,,,,,,,,30.13,70,84,0.00,,+0.01,6,63,30.12,FEW:02 200,30.08,10.00,74,250,,6,,,,,,,,,,,,,,,,,,,,,,,,,,,,,,,,,,,,,MET10505/11/15 09:56:02 METAR KCHS 111456Z 25005KT 10SM FEW200 29/21 A3013 RMK AO2 SLP201 T02890211 56003 (JMB),,,,,,,,,,,,,,,,,,,,,,,,,,,,
72208013880,2015-05-11T10:00:00,FM-12,4,,SE,0.25,mi,"TEMP, PRECIP, SNOW",,,"MMTS, SRG, SNOWBOARD",,,WFO CHS,,,,,,,,,,,,,,,,,,,,,,,,,,,,70,84,,,+0.01,6,63,30.12,,30.08,9.94,74,250,,6,,,,,,,,,,,,,,,,,,,,,,,,,,,,,,,,,,,,,SYN06472208 32966 22505 10289 20211 30187 40201 56003 91456 555 91115=,,,,,,,,,,,,,,,,,,,,,,,,,,,,
72208013880,2015-05-14T09:56:00,FM-15,7,,SE,0.25,mi,"TEMP, PRECIP, SNOW",,,"MMTS, SRG, SNOWBOARD",,,WFO CHS,,,,,,,,,,,,,,,,,,,,,,,,,,,30.31,67,77,0.00,,-0.02,0,71,30.31,FEW:02 15 SCT:04 25 BKN:07 120,30.26,10.00,70,040,16,11,,,,,,,,,,,,,,,,,,,,,,,,,,,,,,,,,,,,,MET12205/14/15 09:56:02 METAR KCHS 141456Z 04010G14KT 10SM FEW015 SCT025 BKN120 25/19 A3031 RMK AO2 SLP263 T02500194 50006 (JMB),,,,,,,,,,,,,,,,,,,,,,,,,,,,
72208013880,2015-05-17T09:56:00,FM-15,7,,SE,0.25,mi,"TEMP, PRECIP, SNOW",,,"MMTS, SRG, SNOWBOARD",,,WFO CHS,,,,,,,,,,,,,,,,,,,,,,,,,,,30.30,64,81,0.00,,-0.03,0,57,30.29,BKN:07 34 BKN:07 45 BKN:07 250,30.25,10.00,70,200,,7,,,,,,,,,,,,,,,,,,,,,,,,,,,,,,,,,,,,,MET11905/17/15 09:56:02 METAR KCHS 171456Z 20006KT 10SM BKN034 BKN045 BKN250 27/18 A3030 RMK AO2 SLP259 T02720178 50010 (KLJ),,,,,,,,,,,,,,,,,,,,,,,,,,,,
72208013880,2015-05-18T09:56:00,FM-15,7,,SE,0.25,mi,"TEMP, PRECIP, SNOW",,,"MMTS, SRG, SNOWBOARD",,,WFO CHS,,,,,,,,,,,,,,,,,,,,,,,,,,,30.23,65,81,0.00,,+0.00,8,58,30.22,FEW:02 35,30.18,10.00,71,VRB,,6,,,,,,,,,,,,,,,,,,,,,,,,,,,,,,,,,,,,,MET10505/18/15 09:56:02 METAR KCHS 181456Z VRB05KT 10SM FEW035 27/18 A3023 RMK AO2 SLP235 T02720183 58000 (JMB),,,,,,,,,,,,,,,,,,,,,,,,,,,,
72208013880,2015-05-18T10:00:00,FM-12,4,,SE,0.25,mi,"TEMP, PRECIP, SNOW",,,"MMTS, SRG, SNOWBOARD",,,WFO CHS,,,,,,,,,,,,,,,,,,,,,,,,,,,,65,81,,,0.00,4,58,30.22,41,30.18,9.94,71,,,6,,,,,,,,,,,,,,,,,,,,,,,,,,,,,,,,,,,,,SYN06472208 32666 2//05 10272 20183 30221 40235 58000 91456 555 91815=,,,,,,,,,,,,,,,,,,,,,,,,,,,,
72208013880,2015-05-19T09:56:00,FM-15,7,,SE,0.25,mi,"TEMP, PRECIP, SNOW",,,"MMTS, SRG, SNOWBOARD",,,WFO CHS,,,,,,,,,,,,,,,,,,,,,,,,,,,30.04,68,84,0.00,,+0.01,8,59,30.04,FEW:02 200,29.99,10.00,73,260,,9,,,,,,,,,,,,,,,,,,,,,,,,,,,,,,,,,,,,,MET10505/19/15 09:56:02 METAR KCHS 191456Z 26008KT 10SM FEW200 29/20 A3004 RMK AO2 SLP172 T02890200 58004 (JMB),,,,,,,,,,,,,,,,,,,,,,,,,,,,
72208013880,2015-05-19T10:00:00,FM-12,4,,SE,0.25,mi,"TEMP, PRECIP, SNOW",,,"MMTS, SRG, SNOWBOARD",,,WFO CHS,,,,,,,,,,,,,,,,,,,,,,,,,,,,68,84,,,+0.01,8,59,30.04,,29.99,9.94,73,260,,9,,,,,,,,,,,,,,,,,,,,,,,,,,,,,,,,,,,,,SYN06472208 32966 22608 10289 20200 30157 40172 58004 91456 555 91915=,,,,,,,,,,,,,,,,,,,,,,,,,,,,
72208013880,2015-05-21T09:56:00,FM-15,7,,SE,0.25,mi,"TEMP, PRECIP, SNOW",,,"MMTS, SRG, SNOWBOARD",,,WFO CHS,,,,,,,,,,,,,,,,,,,,,,,,,,,29.87,70,84,0.00,,+0.00,6,63,29.86,SCT:04 250,29.82,10.00,74,250,,11,,,,,,,,,,,,,,,,,,,,,,,,,,,,,,,,,,,,,MET10505/21/15 09:56:02 METAR KCHS 211456Z 25010KT 10SM SCT250 29/21 A2987 RMK AO2 SLP112 T02890211 56000 (JMB),,,,,,,,,,,,,,,,,,,,,,,,,,,,
72208013880,2015-05-21T10:00:00,FM-12,4,,SE,0.25,mi,"TEMP, PRECIP, SNOW",,,"MMTS, SRG, SNOWBOARD",,,WFO CHS,,,,,,,,,,,,,,,,,,,,,,,,,,,,70,84,,,+0.00,6,63,29.86,,29.82,9.94,74,250,,11,,,,,,,,,,,,,,,,,,,,,,,,,,,,,,,,,,,,,SYN06472208 32966 42510 10289 20211 30099 40112 56000 91456 555 92115=,,,,,,,,,,,,,,,,,,,,,,,,,,,,
72208013880,2015-05-26T09:56:00,FM-15,7,,SE,0.25,mi,"TEMP, PRECIP, SNOW",,,"MMTS, SRG, SNOWBOARD",,,WFO CHS,,,,,,,,,,,,,,,,,,,,,,,,,,,30.27,67,85,0.00,,+0.01,8,55,30.27,FEW:02 25 SCT:04 40 SCT:04 250,30.22,10.00,73,VRB,,6,,,,,,,,,,,,,,,,,,,,,,,,,,,,,,,,,,,,,MET12105/26/15 09:56:02 METAR KCHS 261456Z VRB05KT 10SM FEW025 SCT040 SCT250 29/19 A3027 RMK AO2 SLP250 T02940194 58002 $ (JMB),,,,,,,,,,,,,,,,,,,,,,,,,,,,
72208013880,2015-05-26T10:00:00,FM-12,4,,SE,0.25,mi,"TEMP, PRECIP, SNOW",,,"MMTS, SRG, SNOWBOARD",,,WFO CHS,,,,,,,,,,,,,,,,,,,,,,,,,,,,67,85,,,+0.01,8,55,30.27,26,30.22,9.94,73,,,6,,,,,,,,,,,,,,,,,,,,,,,,,,,,,,,,,,,,,SYN06472208 32566 4//05 10294 20194 30234 40250 58002 91456 555 92615=,,,,,,,,,,,,,,,,,,,,,,,,,,,,
72208013880,2015-05-27T09:56:00,FM-15,7,,SE,0.25,mi,"TEMP, PRECIP, SNOW",,,"MMTS, SRG, SNOWBOARD",,,WFO CHS,,,,,,,,,,,,,,,,,,,,,,,,,,,30.26,66,81,0.00,,-0.01,0,61,30.26,SCT:04 35 SCT:04 250,30.21,10.00,71,180,,7,,,,,,,,,,,,,,,,,,,,,,,,,,,,,,,,,,,,,MET11205/27/15 09:56:02 METAR KCHS 271456Z 18006KT 10SM SCT035 SCT250 27/19 A3026 RMK AO2 SLP247 T02720189 50004 (JMB),,,,,,,,,,,,,,,,,,,,,,,,,,,,
72208013880,2015-05-30T09:56:00,FM-15,7,,SE,0.25,mi,"TEMP, PRECIP, SNOW",,,"MMTS, SRG, SNOWBOARD",,,WFO CHS,,,,,,,,,,,,,,,,,,,,,,,,,,,30.18,66,84,0.00,,-0.00,0,55,30.18,FEW:02 25 SCT:04 30 SCT:04 35,30.13,10.00,72,100,,9,,,,,,,,,,,,,,,,,,,,,,,,,,,,,,,,,,,,,MET14105/30/15 09:56:02 METAR KCHS 301456Z 10008KT 10SM FEW025TCU SCT030 SCT035 29/19 A3018 RMK AO2 SLP219 TCU N CB DSNT SW-W T02890189 50000 (KLJ),,,,,,,,,,,,,,,,,,,,,,,,,,,,
72208013880,2015-05-31T09:56:00,FM-15,7,,SE,0.25,mi,"TEMP, PRECIP, SNOW",,,"MMTS, SRG, SNOWBOARD",,,WFO CHS,,,,,,,,,,,,,,,,,,,,,,,,,,,30.13,64,81,0.00,,-0.01,0,57,30.13,SCT:04 33 SCT:04 55,30.08,10.00,70,VRB,,3,,,,,,,,,,,,,,,,,,,,,,,,,,,,,,,,,,,,,MET11205/31/15 09:56:02 METAR KCHS 311456Z VRB03KT 10SM SCT033 SCT055 27/18 A3013 RMK AO2 SLP202 T02720178 50003 (KLJ),,,,,,,,,,,,,,,,,,,,,,,,,,,,
72208013880,2015-06-01T09:56:00,FM-15,7,,SE,0.25,mi,"TEMP, PRECIP, SNOW",,,"MMTS, SRG, SNOWBOARD",,,WFO CHS,,,,,,,,,,,,,,,,,,,,,,,,,,,30.10,67,83,0.00,,+0.00,8,59,30.09,FEW:02 30 SCT:04 250,30.05,10.00,72,000,,0,,,,,,,,,,,,,,,,,,,,,,,,,,,,,,,,,,,,,MET11206/01/15 09:56:02 METAR KCHS 011456Z 00000KT 10SM FEW030 SCT250 28/19 A3010 RMK AO2 SLP190 T02830194 58001 (JMB),,,,,,,,,,,,,,,,,,,,,,,,,,,,
72208013880,2015-06-01T10:00:00,FM-12,4,,SE,0.25,mi,"TEMP, PRECIP, SNOW",,,"MMTS, SRG, SNOWBOARD",,,WFO CHS,,,,,,,,,,,,,,,,,,,,,,,,,,,,67,83,,,+0.00,8,59,30.09,26,30.05,9.94,72,000,,0,,,,,,,,,,,,,,,,,,,,,,,,,,,,,,,,,,,,,SYN06472208 32566 40000 10283 20194 30177 40190 58001 91456 555 90115=,,,,,,,,,,,,,,,,,,,,,,,,,,,,
72208013880,2015-06-02T09:56:00,FM-15,7,,SE,0.25,mi,"TEMP, PRECIP, SNOW",,,"MMTS, SRG, SNOWBOARD",,,WFO CHS,,,,,,,,,,,,,,,,,,,,,,,,,,,30.03,67,82,0.00,,-0.00,0,60,30.02,SCT:04 30 BKN:07 120 BKN:07 250,29.98,10.00,72,190,,7,,,,,,,,,,,,,,,,,,,,,,,,,,,,,,,,,,,,,MET14306/02/15 09:56:02 METAR KCHS 021456Z 19006KT 10SM SCT030 BKN120 BKN250 28/19 A3003 RMK AO2 SLP167 CB DSNT SE-S MDT CU OHD T02780194 50001 (JMB),,,,,,,,,,,,,,,,,,,,,,,,,,,,
72208013880,2015-06-04T09:56:00,FM-15,7,,SE,0.25,mi,"TEMP, PRECIP, SNOW",,,"MMTS, SRG, SNOWBOARD",,,WFO CHS,,,,,,,,,,,,,,,,,,,,,,,,,,,30.04,68,77,0.00,,-0.01,0,74,30.03,FEW:02 10 SCT:04 60 SCT:04 120,29.99,10.00,71,050,,6,,,,,,,,,,,,,,,,,,,,,,,,,,,,,,,,,,,,,MET12506/04/15 09:56:02 METAR KCHS 041456Z 05005KT 10SM FEW010 SCT060 SCT120 25/20 A3004 RMK AO2 SLP170 60002 T02500200 50002 (JMB),,,,,,,,,,,,,,,,,,,,,,,,,,,,
72208013880,2015-06-06T09:56:00,FM-15,7,,SE,0.25,mi,"TEMP, PRECIP, SNOW",,,"MMTS, SRG, SNOWBOARD",,,WFO CHS,,,,,,,,,,,,,,,,,,,,,,,,,,,29.96,68,82,0.00,,-0.00,0,63,29.96,FEW:02 26 SCT:04 44 BKN:07 250,29.91,10.00,73,270,,9,,,,,,,,,,,,,,,,,,,,,,,,,,,,,,,,,,,,,MET11906/06/15 09:56:02 METAR KCHS 061456Z 27008KT 10SM FEW026 SCT044 BKN250 28/20 A2996 RMK AO2 SLP144 T02780200 50000 (KLJ),,,,,,,,,,,,,,,,,,,,,,,,,,,,
72208013880,2015-06-08T09:56:00,FM-15,7,,SE,0.25,mi,"TEMP, PRECIP, SNOW",,,"MMTS, SRG, SNOWBOARD",,,WFO CHS,,,,,,,,,,,,,,,,,,,,,,,,,,,30.10,67,83,0.00,,-0.00,0,59,30.10,SCT:04 25 SCT:04 250,30.05,10.00,72,VRB,,5,,,,,,,,,,,,,,,,,,,,,,,,,,,,,,,,,,,,,MET11206/08/15 09:56:02 METAR KCHS 081456Z VRB04KT 10SM SCT025 SCT250 28/19 A3010 RMK AO2 SLP192 T02830194 50000 (JMB),,,,,,,,,,,,,,,,,,,,,,,,,,,,
72208013880,2015-06-14T09:56:00,FM-15,7,,SE,0.25,mi,"TEMP, PRECIP, SNOW",,,"MMTS, SRG, SNOWBOARD",,,WFO CHS,,,,,,,,,,,,,,,,,,,,,,,,,,,30.12,70,90,0.00,,-0.01,0,52,30.11,CLR:00,30.07,10.00,76,340,,8,,,,,,,,,,,,,,,,,,,,,,,,,,,,,,,,,,,,,MET10406/14/15 09:56:02 METAR KCHS 141456Z 34007KT 10SM CLR 32/21 A3012 RMK AO2 SLP197 T03220211 50002 $ (KLJ),,,,,,,,,,,,,,,,,,,,,,,,,,,,
72208013880,2015-06-16T09:56:00,FM-15,7,,SE,0.25,mi,"TEMP, PRECIP, SNOW",,,"MMTS, SRG, SNOWBOARD",,,WFO CHS,,,,,,,,,,,,,,,,,,,,,,,,,,,30.10,72,91,0.00,,-0.01,0,54,30.10,CLR:00,30.05,10.00,78,VRB,,6,,,,,,,,,,,,,,,,,,,,,,,,,,,,,,,,,,,,,MET10406/16/15 09:56:02 METAR KCHS 161456Z VRB05KT 10SM CLR 33/22 A3010 RMK AO2 SLP192 T03280222 50002 $ (JMB),,,,,,,,,,,,,,,,,,,,,,,,,,,,
72208013880,2015-06-18T09:56:00,FM-15,7,,SE,0.25,mi,"TEMP, PRECIP, SNOW",,,"MMTS, SRG, SNOWBOARD",,,WFO CHS,,,,,,,,,,,,,,,,,,,,,,,,,,,30.10,72,90,0.00,,-0.00,0,56,30.09,FEW:02 250,30.05,10.00,77,220,,8,,,,,,,,,,,,,,,,,,,,,,,,,,,,,,,,,,,,,MET10506/18/15 09:56:02 METAR KCHS 181456Z 22007KT 10SM FEW250 32/22 A3010 RMK AO2 SLP191 T03220222 50001 (JMB),,,,,,,,,,,,,,,,,,,,,,,,,,,,
72208013880,2015-06-19T09:56:00,FM-15,7,,SE,0.25,mi,"TEMP, PRECIP, SNOW",,,"MMTS, SRG, SNOWBOARD",,,WFO CHS,,,,,,,,,,,,,,,,,,,,,,,,,,,30.05,77,90,0.00,,+0.01,8,66,30.05,FEW:02 25 SCT:04 250,30.00,10.00,81,300,,6,,,,,,,,,,,,,,,,,,,,,,,,,,,,,,,,,,,,,MET11406/19/15 09:56:02 METAR KCHS 191456Z 30005KT 10SM FEW025 SCT250 32/25 A3005 RMK AO2 SLP176 T03220250 58002 $ (JMB),,,,,,,,,,,,,,,,,,,,,,,,,,,,
72208013880,2015-06-19T10:00:00,FM-12,4,,SE,0.25,mi,"TEMP, PRECIP, SNOW",,,"MMTS, SRG, SNOWBOARD",,,WFO CHS,,,,,,,,,,,,,,,,,,,,,,,,,,,,77,90,,,+0.01,8,66,30.05,26,30.00,9.94,81,300,,6,,,,,,,,,,,,,,,,,,,,,,,,,,,,,,,,,,,,,SYN06472208 32566 43005 10322 20250 30160 40176 58002 91456 555 91915=,,,,,,,,,,,,,,,,,,,,,,,,,,,,
72208013880,2015-06-21T09:56:00,FM-15,7,,SE,0.25,mi,"TEMP, PRECIP, SNOW",,,"MMTS, SRG, SNOWBOARD",,,WFO CHS,,,,,,,,,,,,,,,,,,,,,,,,,,,30.04,73,90,0.00,,+0.00,8,58,30.03,FEW:02 50,29.99,10.00,78,VRB,,6,,,,,,,,,,,,,,,,,,,,,,,,,,,,,,,,,,,,,MET10706/21/15 09:56:02 METAR KCHS 211456Z VRB05KT 10SM FEW050 32/23 A3004 RMK AO2 SLP171 T03220228 58001 $ (KLJ),,,,,,,,,,,,,,,,,,,,,,,,,,,,
72208013880,2015-06-21T10:00:00,FM-12,4,,SE,0.25,mi,"TEMP, PRECIP, SNOW",,,"MMTS, SRG, SNOWBOARD",,,WFO CHS,,,,,,,,,,,,,,,,,,,,,,,,,,,,73,90,,,+0.00,8,58,30.03,57,29.99,9.94,78,,,6,,,,,,,,,,,,,,,,,,,,,,,,,,,,,,,,,,,,,SYN06472208 32766 2//05 10322 20228 30157 40171 58001 91456 555 92115=,,,,,,,,,,,,,,,,,,,,,,,,,,,,
72208013880,2015-06-22T09:56:00,FM-15,7,,SE,0.25,mi,"TEMP, PRECIP, SNOW",,,"MMTS, SRG, SNOWBOARD",,,WFO CHS,,,,,,,,,,,,,,,,,,,,,,,,,,,30.08,74,91,0.00,,-0.02,0,57,30.07,FEW:02 250,30.03,10.00,79,280,,6,,,,,,,,,,,,,,,,,,,,,,,,,,,,,,,,,,,,,MET10506/22/15 09:56:02 METAR KCHS 221456Z 28005KT 10SM FEW250 33/23 A3008 RMK AO2 SLP184 T03280233 50006 (JMB),,,,,,,,,,,,,,,,,,,,,,,,,,,,
72208013880,2015-06-23T09:56:00,FM-15,7,,SE,0.25,mi,"TEMP, PRECIP, SNOW",,,"MMTS, SRG, SNOWBOARD",,,WFO CHS,,,,,,,,,,,,,,,,,,,,,,,,,,,30.12,68,87,0.00,,+0.01,8,53,30.11,FEW:02 150 SCT:04 250,30.07,10.00,74,220,,14,,,,,,,,,,,,,,,,,,,,,,,,,,,,,,,,,,,,,MET11406/23/15 09:56:02 METAR KCHS 231456Z 22012KT 10SM FEW150 SCT250 31/20 A3012 RMK AO2 SLP198 T03060200 58003 $ (JMB),,,,,,,,,,,,,,,,,,,,,,,,,,,,
72208013880,2015-06-23T10:00:00,FM-12,4,,SE,0.25,mi,"TEMP, PRECIP, SNOW",,,"MMTS, SRG, SNOWBOARD",,,WFO CHS,,,,,,,,,,,,,,,,,,,,,,,,,,,,68,87,,,+0.01,8,53,30.11,,30.07,9.94,74,220,,14,,,,,,,,,,,,,,,,,,,,,,,,,,,,,,,,,,,,,SYN06472208 32966 42212 10306 20200 30184 40198 58003 91456 555 92315=,,,,,,,,,,,,,,,,,,,,,,,,,,,,
72208013880,2015-06-24T09:56:00,FM-15,7,,SE,0.25,mi,"TEMP, PRECIP, SNOW",,,"MMTS, SRG, SNOWBOARD",,,WFO CHS,,,,,,,,,,,,,,,,,,,,,,,,,,,30.09,72,88,0.00,,-0.01,0,59,30.08,CLR:00,30.04,10.00,77,240,,8,,,,,,,,,,,,,,,,,,,,,,,,,,,,,,,,,,,,,MET10406/24/15 09:56:02 METAR KCHS 241456Z 24007KT 10SM CLR 31/22 A3009 RMK AO2 SLP187 T03110222 50002 $ (JMB),,,,,,,,,,,,,,,,,,,,,,,,,,,,
72208013880,2015-06-26T09:56:00,FM-15,7,,SE,0.25,mi,"TEMP, PRECIP, SNOW",,,"MMTS, SRG, SNOWBOARD",,,WFO CHS,,,,,,,,,,,,,,,,,,,,,,,,,,,30.00,74,88,0.00,,+0.02,8,63,30.00,FEW:02 40 SCT:04 250,29.95,10.00,78,290,,6,,,,,,,,,,,,,,,,,,,,,,,,,,,,,,,,,,,,,MET12206/26/15 09:56:02 METAR KCHS 261456Z 29005KT 10SM FEW040 SCT250 31/23 A3000 RMK AO2 SLP159 CB DSNT S T03110233 58006 (KLJ),,,,,,,,,,,,,,,,,,,,,,,,,,,,
72208013880,2015-06-26T10:00:00,FM-12,4,,SE,0.25,mi,"TEMP, PRECIP, SNOW",,,"MMTS, SRG, SNOWBOARD",,,WFO CHS,,,,,,,,,,,,,,,,,,,,,,,,,,,,74,88,,,+0.02,8,63,30.00,41,29.95,9.94,78,290,,6,,,,,,,,,,,,,,,,,,,,,,,,,,,,,,,,,,,,,SYN06472208 32666 42905 10311 20233 30143 40159 58006 91456 555 92615=,,,,,,,,,,,,,,,,,,,,,,,,,,,,
72208013880,2015-06-27T09:56:00,FM-15,7,,SE,0.25,mi,"TEMP, PRECIP, SNOW",,,"MMTS, SRG, SNOWBOARD",,,WFO CHS,,,,,,,,,,,,,,,,,,,,,,,,,,,29.94,73,84,0.00,,+0.01,6,70,29.93,SCT:04 18 BKN:07 30 BKN:07 150,29.89,10.00,76,230,,11,,,,,,,,,,,,,,,,,,,,,,,,,,,,,,,,,,,,,MET12506/27/15 09:56:02 METAR KCHS 271456Z 23010KT 10SM SCT018 BKN030 BKN150 29/23 A2994 RMK AO2 SLP136 60000 T02890228 56004 (KLJ),,,,,,,,,,,,,,,,,,,,,,,,,,,,
72208013880,2015-06-27T10:00:00,FM-12,4,,SE,0.25,mi,"TEMP, PRECIP, SNOW",,,"MMTS, SRG, SNOWBOARD",,,WFO CHS,,,,,,,,,,,,,,,,,,,,,,,,,,,,73,84,,,+0.01,6,70,29.93,15,29.89,9.94,76,230,,11,,,,,,,,,,,,,,,,,,,,,,,,,,,,,,,,,,,,,SYN07072208 12466 62310 10289 20228 30123 40136 56004 69907 91456 555 92715=,,,,,,,,,,,,,,,,,,,,,,,,,,,,
72208013880,2015-06-28T09:56:00,FM-15,7,,SE,0.25,mi,"TEMP, PRECIP, SNOW",,,"MMTS, SRG, SNOWBOARD",,,WFO CHS,,,,,,,,,,,,,,,,,,,,,,,,,,,29.92,72,83,0.00,,-0.01,0,70,29.92,SCT:04 21 BKN:07 27,29.87,10.00,75,260,,9,,,,,,,,,,,,,,,,,,,,,,,,,,,,,,,,,,,,,MET11206/28/15 09:56:02 METAR KCHS 281456Z 26008KT 10SM SCT021 BKN027 28/22 A2992 RMK AO2 SLP132 T02830222 50003 (KLJ),,,,,,,,,,,,,,,,,,,,,,,,,,,,
72208013880,2015-06-29T09:56:00,FM-15,7,,SE,0.25,mi,"TEMP, PRECIP, SNOW",,,"MMTS, SRG, SNOWBOARD",,,WFO CHS,,,,,,,,,,,,,,,,,,,,,,,,,,,29.99,59,85,0.00,,-0.01,0,42,29.99,FEW:02 60 SCT:04 250,29.94,10.00,69,310,,9,,,,,,,,,,,,,,,,,,,,,,,,,,,,,,,,,,,,,MET11206/29/15 09:56:02 METAR KCHS 291456Z 31008KT 10SM FEW060 SCT250 29/15 A2999 RMK AO2 SLP156 T02940150 50005 (JMB),,,,,,,,,,,,,,,,,,,,,,,,,,,,
72208013880,2015-07-03T09:56:00,FM-15,7,,SE,0.25,mi,"TEMP, PRECIP, SNOW",,,"MMTS, SRG, SNOWBOARD",,,WFO CHS,,,,,,,,,,,,,,,,,,,,,,,,,,,30.02,72,80,0.00,,+0.00,8,76,30.02,SCT:04 10 SCT:04 35 BKN:07 80,29.97,10.00,75,250,,7,,,,,,,,,,,,,,,,,,,,,,,,,,,,,,,,,,,,,MET12507/03/15 09:56:02 METAR KCHS 031456Z 25006KT 10SM SCT010 SCT035 BKN080 27/22 A3002 RMK AO2 SLP166 60000 T02670222 58000 (JMB),,,,,,,,,,,,,,,,,,,,,,,,,,,,
72208013880,2015-07-03T10:00:00,FM-12,4,,SE,0.25,mi,"TEMP, PRECIP, SNOW",,,"MMTS, SRG, SNOWBOARD",,,WFO CHS,,,,,,,,,,,,,,,,,,,,,,,,,,,,72,80,,,0.00,4,76,30.02,15,29.97,9.94,75,250,,7,,,,,,,,,,,,,,,,,,,,,,,,,,,,,,,,,,,,,SYN07072208 12466 62506 10267 20222 30150 40166 58000 69907 91456 555 90315=,,,,,,,,,,,,,,,,,,,,,,,,,,,,
72208013880,2015-07-05T09:56:00,FM-15,7,,SE,0.25,mi,"TEMP, PRECIP, SNOW",,,"MMTS, SRG, SNOWBOARD",,,WFO CHS,,,,,,,,,,,,,,,,,,,,,,,,,,,30.16,72,84,0.00,,-0.01,0,67,30.15,FEW:02 42,30.11,10.00,76,220,,10,,,,,,,,,,,,,,,,,,,,,,,,,,,,,,,,,,,,,MET10707/05/15 09:56:02 METAR KCHS 051456Z 22009KT 10SM FEW042 29/22 A3016 RMK AO2 SLP211 T02890222 50003 $ (KLJ),,,,,,,,,,,,,,,,,,,,,,,,,,,,
72208013880,2015-07-06T09:56:00,FM-15,7,,SE,0.25,mi,"TEMP, PRECIP, SNOW",,,"MMTS, SRG, SNOWBOARD",,,WFO CHS,,,,,,,,,,,,,,,,,,,,,,,,,,,30.17,71,79,0.00,,-0.02,0,77,30.17,FEW:02 10 SCT:04 250,30.12,10.00,74,300,,3,,,,,,,,,,,,,,,,,,,,,,,,,,,,,,,,,,,,,MET11207/06/15 09:56:02 METAR KCHS 061456Z 30003KT 10SM FEW010 SCT250 26/22 A3017 RMK AO2 SLP216 T02610217 50008 (JMB),,,,,,,,,,,,,,,,,,,,,,,,,,,,
72208013880,2015-07-07T09:56:00,FM-15,7,,SE,0.25,mi,"TEMP, PRECIP, SNOW",,,"MMTS, SRG, SNOWBOARD",,,WFO CHS,,,,,,,,,,,,,,,,,,,,,,,,,,,30.15,72,86,0.00,,-0.00,0,63,30.15,SCT:04 40,30.10,10.00,76,220,,8,,,,,,,,,,,,,,,,,,,,,,,,,,,,,,,,,,,,,MET10507/07/15 09:56:02 METAR KCHS 071456Z 22007KT 10SM SCT040 30/22 A3015 RMK AO2 SLP210 T03000222 50001 (JMB),,,,,,,,,,,,,,,,,,,,,,,,,,,,
72208013880,2015-07-08T09:56:00,FM-15,7,,SE,0.25,mi,"TEMP, PRECIP, SNOW",,,"MMTS, SRG, SNOWBOARD",,,WFO CHS,,,,,,,,,,,,,,,,,,,,,,,,,,,30.17,72,86,0.00,,-0.00,0,63,30.17,FEW:02 30 BKN:07 250,30.12,10.00,76,260,,8,,,,,,,,,,,,,,,,,,,,,,,,,,,,,,,,,,,,,MET11207/08/15 09:56:02 METAR KCHS 081456Z 26007KT 10SM FEW030 BKN250 30/22 A3017 RMK AO2 SLP216 T03000222 50001 (JMB),,,,,,,,,,,,,,,,,,,,,,,,,,,,
72208013880,2015-07-09T09:56:00,FM-15,7,,SE,0.25,mi,"TEMP, PRECIP, SNOW",,,"MMTS, SRG, SNOWBOARD",,,WFO CHS,,,,,,,,,,,,,,,,,,,,,,,,,,,30.17,75,87,0.00,,-0.00,0,67,30.16,FEW:02 30 SCT:04 120 BKN:07 250,30.12,10.00,78,250,,6,,,,,,,,,,,,,,,,,,,,,,,,,,,,,,,,,,,,,MET11907/09/15 09:56:02 METAR KCHS 091456Z 25005KT 10SM FEW030 SCT120 BKN250 31/24 A3017 RMK AO2 SLP215 T03060239 50001 (JMB),,,,,,,,,,,,,,,,,,,,,,,,,,,,
72208013880,2015-07-11T09:56:00,FM-15,7,,SE,0.25,mi,"TEMP, PRECIP, SNOW",,,"MMTS, SRG, SNOWBOARD",,,WFO CHS,,,,,,,,,,,,,,,,,,,,,,,,,,,30.09,72,91,0.00,,+0.00,8,54,30.09,CLR:00,30.04,10.00,78,310,,5,,,,,,,,,,,,,,,,,,,,,,,,,,,,,,,,,,,,,MET10207/11/15 09:56:02 METAR KCHS 111456Z 31004KT 10SM CLR 33/22 A3009 RMK AO2 SLP188 T03280222 58000 (KLJ),,,,,,,,,,,,,,,,,,,,,,,,,,,,
72208013880,2015-07-11T10:00:00,FM-12,4,,SE,0.25,mi,"TEMP, PRECIP, SNOW",,,"MMTS, SRG, SNOWBOARD",,,WFO CHS,,,,,,,,,,,,,,,,,,,,,,,,,,,,72,91,,,0.00,4,54,30.09,,30.04,9.94,78,310,,5,,,,,,,,,,,,,,,,,,,,,,,,,,,,,,,,,,,,,SYN06472208 32966 03104 10328 20222 30173 40188 58000 91456 555 91115=,,,,,,,,,,,,,,,,,,,,,,,,,,,,
72208013880,2015-07-13T09:56:00,FM-15,7,,SE,0.25,mi,"TEMP, PRECIP, SNOW",,,"MMTS, SRG, SNOWBOARD",,,WFO CHS,,,,,,,,,,,,,,,,,,,,,,,,,,,29.93,75,89,0.00,,+0.00,8,63,29.93,FEW:02 30 SCT:04 80 SCT:04 250,29.88,10.00,79,210,,7,,,,,,,,,,,,,,,,,,,,,,,,,,,,,,,,,,,,,MET11907/13/15 09:56:02 METAR KCHS 131456Z 21006KT 10SM FEW030 SCT080 SCT250 32/24 A2993 RMK AO2 SLP134 T03170239 58001 (JMB),,,,,,,,,,,,,,,,,,,,,,,,,,,,
72208013880,2015-07-13T10:00:00,FM-12,4,,SE,0.25,mi,"TEMP, PRECIP, SNOW",,,"MMTS, SRG, SNOWBOARD",,,WFO CHS,,,,,,,,,,,,,,,,,,,,,,,,,,,,75,89,,,+0.00,8,63,29.93,26,29.88,9.94,79,210,,7,,,,,,,,,,,,,,,,,,,,,,,,,,,,,,,,,,,,,SYN06472208 32566 42106 10317 20239 30119 40134 58001 91456 555 91315=,,,,,,,,,,,,,,,,,,,,,,,,,,,,
72208013880,2015-07-15T09:56:00,FM-15,7,,SE,0.25,mi,"TEMP, PRECIP, SNOW",,,"MMTS, SRG, SNOWBOARD",,,WFO CHS,,,,,,,,,,,,,,,,,,,,,,,,,,,29.78,70,89,0.00,,+0.04,8,53,29.78,FEW:02 120 SCT:04 250,29.73,10.00,76,290,21,13,,,,,,,,,,,,,,,,,,,,,,,,,,,,,,,,,,,,,MET11507/15/15 09:56:02 METAR KCHS 151456Z 29011G18KT 10SM FEW120 SCT250 32/21 A2978 RMK AO2 SLP085 T03170211 58015 (JMB),,,,,,,,,,,,,,,,,,,,,,,,,,,,
72208013880,2015-07-15T10:00:00,FM-12,4,,SE,0.25,mi,"TEMP, PRECIP, SNOW",,,"MMTS, SRG, SNOWBOARD",,,WFO CHS,,,,,,,,,,,,,,,,,,,,,,,,,,,,70,89,,,+0.04,8,53,29.78,,29.73,9.94,76,290,,13,,,,,,,,,,,,,,,,,,,,,,,,,,,,,,,,,,,,,SYN07472208 32966 42911 10317 20211 30069 40085 58015 91456 333 91018 555 91515=,,,,,,,,,,,,,,,,,,,,,,,,,,,,
72208013880,2015-07-18T09:56:00,FM-15,7,,SE,0.25,mi,"TEMP, PRECIP, SNOW",,,"MMTS, SRG, SNOWBOARD",,,WFO CHS,,,,,,,,,,,,,,,,,,,,,,,,,,,30.05,73,86,0.00,,-0.01,0,65,30.04,FEW:02 24 SCT:04 40 SCT:04 250,30.00,10.00,77,VRB,,3,,,,,,,,,,,,,,,,,,,,,,,,,,,,,,,,,,,,,MET11907/18/15 09:56:02 METAR KCHS 181456Z VRB03KT 10SM FEW024 SCT040 SCT250 30/23 A3005 RMK AO2 SLP173 T03000228 50002 (KLJ),,,,,,,,,,,,,,,,,,,,,,,,,,,,
72208013880,2015-07-20T09:56:00,FM-15,7,,SE,0.25,mi,"TEMP, PRECIP, SNOW",,,"MMTS, SRG, SNOWBOARD",,,WFO CHS,,,,,,,,,,,,,,,,,,,,,,,,,,,29.92,75,84,0.00,,-0.01,0,74,29.91,FEW:02 30 SCT:04 180 BKN:07 250,29.87,10.00,78,200,,5,,,,,,,,,,,,,,,,,,,,,,,,,,,,,,,,,,,,,MET11307/20/15 09:56:02 METAR KCHS 201456Z 20004KT 10SM FEW030 SCT180 BKN250 29/24 A2992 RMK AO2 SLP129 T02890239 50002,,,,,,,,,,,,,,,,,,,,,,,,,,,,
72208013880,2015-07-23T09:56:00,FM-15,7,,SE,0.25,mi,"TEMP, PRECIP, SNOW",,,"MMTS, SRG, SNOWBOARD",,,WFO CHS,,,,,,,,,,,,,,,,,,,,,,,,,,,29.94,72,91,0.00,,-0.02,0,54,29.93,FEW:02 50 FEW:02 160 FEW:02 250,29.89,10.00,78,280,,11,,,,,,,,,,,,,,,,,,,,,,,,,,,,,,,,,,,,,MET11907/23/15 09:56:02 METAR KCHS 231456Z 28010KT 10SM FEW050 FEW160 FEW250 33/22 A2994 RMK AO2 SLP137 T03280222 50006 (KLJ),,,,,,,,,,,,,,,,,,,,,,,,,,,,
72208013880,2015-07-27T09:56:00,FM-15,7,,SE,0.25,mi,"TEMP, PRECIP, SNOW",,,"MMTS, SRG, SNOWBOARD",,,WFO CHS,,,,,,,,,,,,,,,,,,,,,,,,,,,29.98,75,81,0.00,,-0.02,0,82,29.98,SCT:04 15 BKN:07 250,29.93,10.00,77,000,,0,,,,,,,,,,,,,,,,,,,,,,,,,,,,,,,,,,,,,MET11207/27/15 09:56:02 METAR KCHS 271456Z 00000KT 10SM SCT015 BKN250 27/24 A2998 RMK AO2 SLP152 T02720239 50006 (JMB),,,,,,,,,,,,,,,,,,,,,,,,,,,,
72208013880,2015-08-06T09:56:00,FM-15,7,,SE,0.25,mi,"TEMP, PRECIP, SNOW",,,"MMTS, SRG, SNOWBOARD",,,WFO CHS,,,,,,,,,,,,,,,,,,,,,,,,,,,29.99,74,86,0.00,,+0.00,8,67,29.99,SCT:04 25 BKN:07 120,29.94,10.00,78,260,17,10,,,,,,,,,,,,,,,,,,,,,,,,,,,,,,,,,,,,,MET11508/06/15 09:56:02 METAR KCHS 061456Z 26009G15KT 10SM SCT025 BKN120 30/23 A2999 RMK AO2 SLP155 T03000233 58000 (JMB),,,,,,,,,,,,,,,,,,,,,,,,,,,,
72208013880,2015-08-06T10:00:00,FM-12,4,,SE,0.25,mi,"TEMP, PRECIP, SNOW",,,"MMTS, SRG, SNOWBOARD",,,WFO CHS,,,,,,,,,,,,,,,,,,,,,,,,,,,,74,86,,,0.00,4,67,29.99,26,29.94,9.94,78,260,,10,,,,,,,,,,,,,,,,,,,,,,,,,,,,,,,,,,,,,SYN07472208 32566 62609 10300 20233 30140 40155 58000 91456 333 91015 555 90615=,,,,,,,,,,,,,,,,,,,,,,,,,,,,
72208013880,2015-08-07T09:56:00,FM-15,7,,SE,0.25,mi,"TEMP, PRECIP, SNOW",,,"MMTS, SRG, SNOWBOARD",,,WFO CHS,,,,,,,,,,,,,,,,,,,,,,,,,,,29.80,74,82,0.00,,+0.02,8,77,29.80,SCT:04 20 SCT:04 25 BKN:07 32,29.75,10.00,76,270,,9,,,,,,,,,,,,,,,,,,,,,,,,,,,,,,,,,,,,,MET13308/07/15 09:56:02 METAR KCHS 071456Z 27008KT 10SM SCT020 SCT025 BKN032 28/23 A2980 RMK AO2 SLP092 SCT V BKN T02780233 58006 RTX (JMB),,,,,,,,,,,,,,,,,,,,,,,,,,,,
72208013880,2015-08-07T10:00:00,FM-12,4,,SE,0.25,mi,"TEMP, PRECIP, SNOW",,,"MMTS, SRG, SNOWBOARD",,,WFO CHS,,,,,,,,,,,,,,,,,,,,,,,,,,,,74,82,,,+0.02,8,77,29.80,26,29.75,9.94,76,270,,9,,,,,,,,,,,,,,,,,,,,,,,,,,,,,,,,,,,,,SYN06472208 32566 62708 10278 20233 30075 40092 58006 91456 555 90715=,,,,,,,,,,,,,,,,,,,,,,,,,,,,
72208013880,2015-08-11T09:56:00,FM-15,7,,SE,0.25,mi,"TEMP, PRECIP, SNOW",,,"MMTS, SRG, SNOWBOARD",,,WFO CHS,,,,,,,,,,,,,,,,,,,,,,,,,,,29.97,73,87,0.00,,-0.01,0,63,29.97,FEW:02 30 SCT:04 55 BKN:07 120,29.92,10.00,77,210,,9,,,,,,,,,,,,,,,,,,,,,,,,,,,,,,,,,,,,,MET12308/11/15 09:56:02 METAR KCHS 111456Z 21008KT 10SM FEW030 SCT055 BKN120 31/23 A2997 RMK AO2 SLP149 T03060228 50004 RTX (JMB),,,,,,,,,,,,,,,,,,,,,,,,,,,,
72208013880,2015-08-14T09:56:00,FM-15,7,,SE,0.25,mi,"TEMP, PRECIP, SNOW",,,"MMTS, SRG, SNOWBOARD",,,WFO CHS,,,,,,,,,,,,,,,,,,,,,,,,,,,30.14,65,85,0.00,,-0.02,0,51,30.13,FEW:02 40 FEW:02 200,30.09,10.00,72,060,,11,,,,,,,,,,,,,,,,,,,,,,,,,,,,,,,,,,,,,MET11208/14/15 09:56:02 METAR KCHS 141456Z 06010KT 10SM FEW040 FEW200 29/18 A3014 RMK AO2 SLP204 T02940183 50007 (JMB),,,,,,,,,,,,,,,,,,,,,,,,,,,,
72208013880,2015-08-17T09:56:00,FM-15,7,,SE,0.25,mi,"TEMP, PRECIP, SNOW",,,"MMTS, SRG, SNOWBOARD",,,WFO CHS,,,,,,,,,,,,,,,,,,,,,,,,,,,30.15,72,85,0.00,,+0.01,8,65,30.15,FEW:02 25 BKN:07 35 BKN:07 120,30.10,10.00,76,000,,0,,,,,,,,,,,,,,,,,,,,,,,,,,,,,,,,,,,,,MET11908/17/15 09:56:02 METAR KCHS 171456Z 00000KT 10SM FEW025 BKN035 BKN120 29/22 A3015 RMK AO2 SLP209 T02940222 58004 (JMB),,,,,,,,,,,,,,,,,,,,,,,,,,,,
72208013880,2015-08-17T10:00:00,FM-12,4,,SE,0.25,mi,"TEMP, PRECIP, SNOW",,,"MMTS, SRG, SNOWBOARD",,,WFO CHS,,,,,,,,,,,,,,,,,,,,,,,,,,,,72,85,,,+0.01,8,65,30.15,26,30.10,9.94,76,000,,0,,,,,,,,,,,,,,,,,,,,,,,,,,,,,,,,,,,,,SYN06472208 32566 60000 10294 20222 30194 40209 58004 91456 555 91715=,,,,,,,,,,,,,,,,,,,,,,,,,,,,
72208013880,2015-08-19T09:56:00,FM-15,7,,SE,0.25,mi,"TEMP, PRECIP, SNOW",,,"MMTS, SRG, SNOWBOARD",,,WFO CHS,,,,,,,,,,,,,,,,,,,,,,,,,,,30.03,76,86,0.00,,-0.03,0,72,30.03,FEW:02 25 SCT:04 250,29.98,10.00,79,210,,6,,,,,,,,,,,,,,,,,,,,,,,,,,,,,,,,,,,,,MET11208/19/15 09:56:02 METAR KCHS 191456Z 21005KT 10SM FEW025 SCT250 30/24 A3003 RMK AO2 SLP169 T03000244 50009 (JMB),,,,,,,,,,,,,,,,,,,,,,,,,,,,
72208013880,2015-08-26T09:56:00,FM-15,7,,SE,0.25,mi,"TEMP, PRECIP, SNOW",,,"MMTS, SRG, SNOWBOARD",,,WFO CHS,,,,,,,,,,,,,,,,,,,,,,,,,,,29.93,66,87,0.00,,-0.02,0,50,29.93,FEW:02 35 FEW:02 90,29.88,10.00,73,VRB,,6,,,,,,,,,,,,,,,,,,,,,,,,,,,,,,,,,,,,,MET11208/26/15 09:56:02 METAR KCHS 261456Z VRB05KT 10SM FEW035 FEW090 31/19 A2993 RMK AO2 SLP135 T03060189 50008 (JMB),,,,,,,,,,,,,,,,,,,,,,,,,,,,
72208013880,2015-09-01T09:56:00,FM-15,7,,SE,0.25,mi,"TEMP, PRECIP, SNOW",,,"MMTS, SRG, SNOWBOARD",,,WFO CHS,,,,,,,,,,,,,,,,,,,,,,,,,,,30.12,71,85,0.00,,+0.00,8,63,30.11,FEW:02 30 FEW:02 200,30.07,10.00,75,VRB,,5,,,,,,,,,,,,,,,,,,,,,,,,,,,,,,,,,,,,,MET11209/01/15 09:56:02 METAR KCHS 011456Z VRB04KT 10SM FEW030 FEW200 29/22 A3012 RMK AO2 SLP197 T02940217 58001 (JMB),,,,,,,,,,,,,,,,,,,,,,,,,,,,
72208013880,2015-09-01T10:00:00,FM-12,4,,SE,0.25,mi,"TEMP, PRECIP, SNOW",,,"MMTS, SRG, SNOWBOARD",,,WFO CHS,,,,,,,,,,,,,,,,,,,,,,,,,,,,71,85,,,+0.00,8,63,30.11,26,30.07,9.94,75,,,5,,,,,,,,,,,,,,,,,,,,,,,,,,,,,,,,,,,,,SYN06472208 32566 2//04 10294 20217 30184 40197 58001 91456 555 90115=,,,,,,,,,,,,,,,,,,,,,,,,,,,,
72208013880,2015-09-02T09:56:00,FM-15,7,,SE,0.25,mi,"TEMP, PRECIP, SNOW",,,"MMTS, SRG, SNOWBOARD",,,WFO CHS,,,,,,,,,,,,,,,,,,,,,,,,,,,30.10,72,86,0.00,,+0.00,8,63,30.09,FEW:02 35 SCT:04 120 BKN:07 250,30.05,10.00,76,000,,0,,,,,,,,,,,,,,,,,,,,,,,,,,,,,,,,,,,,,MET11909/02/15 09:56:02 METAR KCHS 021456Z 00000KT 10SM FEW035 SCT120 BKN250 30/22 A3010 RMK AO2 SLP190 T03000222 58000 (JMB),,,,,,,,,,,,,,,,,,,,,,,,,,,,
72208013880,2015-09-02T10:00:00,FM-12,4,,SE,0.25,mi,"TEMP, PRECIP, SNOW",,,"MMTS, SRG, SNOWBOARD",,,WFO CHS,,,,,,,,,,,,,,,,,,,,,,,,,,,,72,86,,,+0.00,8,63,30.09,41,30.05,9.94,76,000,,0,,,,,,,,,,,,,,,,,,,,,,,,,,,,,,,,,,,,,SYN06472208 32666 60000 10300 20222 30177 40190 58000 91456 555 90215=,,,,,,,,,,,,,,,,,,,,,,,,,,,,
72208013880,2015-09-11T09:56:00,FM-15,7,,SE,0.25,mi,"TEMP, PRECIP, SNOW",,,"MMTS, SRG, SNOWBOARD",,,WFO CHS,,,,,,,,,,,,,,,,,,,,,,,,,,,29.90,72,81,0.00,,-0.02,0,74,29.90,SCT:04 20 SCT:04 150,29.85,10.00,75,270,,9,,,,,,,,,,,,,,,,,,,,,,,,,,,,,,,,,,,,,MET11209/11/15 09:56:02 METAR KCHS 111456Z 27008KT 10SM SCT020 SCT150 27/22 A2990 RMK AO2 SLP125 T02720222 50006 (JMB),,,,,,,,,,,,,,,,,,,,,,,,,,,,
72208013880,2015-09-16T09:56:00,FM-15,7,,SE,0.25,mi,"TEMP, PRECIP, SNOW",,,"MMTS, SRG, SNOWBOARD",,,WFO CHS,,,,,,,,,,,,,,,,,,,,,,,,,,,30.29,65,77,0.00,,-0.01,0,66,30.29,FEW:02 65 SCT:04 120 BKN:07 200,30.24,10.00,69,040,,9,,,,,,,,,,,,,,,,,,,,,,,,,,,,,,,,,,,,,MET11909/16/15 09:56:02 METAR KCHS 161456Z 04008KT 10SM FEW065 SCT120 BKN200 25/18 A3029 RMK AO2 SLP256 T02500183 50005 (JMB),,,,,,,,,,,,,,,,,,,,,,,,,,,,
72208013880,2015-09-18T09:56:00,FM-15,7,,SE,0.25,mi,"TEMP, PRECIP, SNOW",,,"MMTS, SRG, SNOWBOARD",,,WFO CHS,,,,,,,,,,,,,,,,,,,,,,,,,,,29.94,69,79,0.00,,-0.00,0,72,29.93,FEW:02 60 SCT:04 120 BKN:07 200,29.89,10.00,72,030,21,16,,,,,,,,,,,,,,,,,,,,,,,,,,,,,,,,,,,,,MET12209/18/15 09:56:02 METAR KCHS 181456Z 03014G18KT 10SM FEW060 SCT120 BKN200 26/21 A2994 RMK AO2 SLP137 T02610206 50000 (JMB),,,,,,,,,,,,,,,,,,,,,,,,,,,,
72208013880,2015-09-25T09:56:00,FM-15,7,,SE,0.25,mi,"TEMP, PRECIP, SNOW",,,"MMTS, SRG, SNOWBOARD",,,WFO CHS,,,,,,,,,,,,,,,,,,,,,,,,,,,29.98,69,75,0.00,,-0.01,0,82,29.98,BKN:07 13,29.93,10.00,71,180,,7,,,,,,,,,,,,,,,,,,,,,,,,,,,,,,,,,,,,,MET10509/25/15 09:56:02 METAR KCHS 251456Z 18006KT 10SM BKN013 24/21 A2998 RMK AO2 SLP151 T02390206 50004 (JMB),,,,,,,,,,,,,,,,,,,,,,,,,,,,
72208013880,2015-09-28T09:56:00,FM-15,7,,SE,0.25,mi,"TEMP, PRECIP, SNOW",,,"MMTS, SRG, SNOWBOARD",,,WFO CHS,,,,,,,,,,,,,,,,,,,,,,,,,,,29.99,73,76,0.00,,-0.02,0,91,29.98,OVC:08 8,29.94,10.00,74,020,,6,,,,,,,,,,,,,,,,,,,,,,,,,,,,,,,,,,,,,MET10509/28/15 09:56:02 METAR KCHS 281456Z 02005KT 10SM OVC008 24/23 A2999 RMK AO2 SLP154 T02440228 50006 (JMB),,,,,,,,,,,,,,,,,,,,,,,,,,,,
72208013880,2015-10-05T09:56:00,FM-15,7,,SE,0.25,mi,"TEMP, PRECIP, SNOW",,,"MMTS, SRG, SNOWBOARD",,,WFO CHS,,,,,,,,,,,,,,,,,,,,,,,,,,,29.82,63,66,T,-DZ:01 BR:1 |DZ |,-0.03,0,90,29.81,SCT:04 9 OVC:08 12,29.77,4.00,64,010,,15,,,,,,,,,,,,,,,,,,,,,,,,,,,,,,,,,,,,,MET14110/05/15 09:56:02 METAR KCHS 051456Z 01013KT 4SM -DZ BR SCT009 OVC012 19/17 A2982 RMK AO2 RAE20DZB25 SLP096 P0000 60000 T01890172 50010 (KLJ),,,,,,,,,,,,,,,,,,,,,,,,,,,,
72208013880,2015-10-09T09:56:00,FM-15,7,,SE,0.25,mi,"TEMP, PRECIP, SNOW",,,"MMTS, SRG, SNOWBOARD",,,WFO CHS,,,,,,,,,,,,,,,,,,,,,,,,,,,30.15,66,79,0.00,,-0.02,0,65,30.14,FEW:02 30 FEW:02 120 BKN:07 250,30.10,10.00,71,VRB,,5,,,,,,,,,,,,,,,,,,,,,,,,,,,,,,,,,,,,,MET11910/09/15 09:56:02 METAR KCHS 091456Z VRB04KT 10SM FEW030 FEW120 BKN250 26/19 A3015 RMK AO2 SLP207 T02610189 50006 (JMB),,,,,,,,,,,,,,,,,,,,,,,,,,,,
72208013880,2015-10-10T09:56:00,FM-15,7,,SE,0.25,mi,"TEMP, PRECIP, SNOW",,,"MMTS, SRG, SNOWBOARD",,,WFO CHS,,,,,,,,,,,,,,,,,,,,,,,,,,,29.96,69,78,0.00,,-0.01,0,74,29.95,FEW:02 30 SCT:04 70 BKN:07 140,29.91,10.00,72,210,,7,,,,,,,,,,,,,,,,,,,,,,,,,,,,,,,,,,,,,MET14410/10/15 09:56:02 METAR KCHS 101456Z 21006KT 10SM FEW030 SCT070 BKN140 26/21 A2996 RMK AO2 SLP143 CB DSNT SW-NW TCU DSNT S T02560206 50002 (KLJ),,,,,,,,,,,,,,,,,,,,,,,,,,,,
72208013880,2015-10-12T09:56:00,FM-15,7,,SE,0.25,mi,"TEMP, PRECIP, SNOW",,,"MMTS, SRG, SNOWBOARD",,,WFO CHS,,,,,,,,,,,,,,,,,,,,,,,,,,,29.92,56,73,0.00,,-0.01,0,55,29.91,FEW:02 90,29.87,10.00,63,VRB,,5,,,,,,,,,,,,,,,,,,,,,,,,,,,,,,,,,,,,,MET10710/12/15 09:56:02 METAR KCHS 121456Z VRB04KT 10SM FEW090 23/13 A2992 RMK AO2 SLP130 T02280133 50004 $ (JMB),,,,,,,,,,,,,,,,,,,,,,,,,,,,
72208013880,2015-10-13T09:56:00,FM-15,7,,SE,0.25,mi,"TEMP, PRECIP, SNOW",,,"MMTS, SRG, SNOWBOARD",,,WFO CHS,,,,,,,,,,,,,,,,,,,,,,,,,,,29.86,61,76,0.00,,-0.00,0,60,29.85,FEW:02 65 FEW:02 200,29.81,10.00,67,250,,10,,,,,,,,,,,,,,,,,,,,,,,,,,,,,,,,,,,,,MET11210/13/15 09:56:02 METAR KCHS 131456Z 25009KT 10SM FEW065 FEW200 24/16 A2986 RMK AO2 SLP110 T02440161 50001 (JMB),,,,,,,,,,,,,,,,,,,,,,,,,,,,
72208013880,2015-10-16T09:56:00,FM-15,7,,SE,0.25,mi,"TEMP, PRECIP, SNOW",,,"MMTS, SRG, SNOWBOARD",,,WFO CHS,,,,,,,,,,,,,,,,,,,,,,,,,,,30.15,54,75,0.00,,-0.01,0,48,30.14,CLR:00,30.10,10.00,63,240,,9,,,,,,,,,,,,,,,,,,,,,,,,,,,,,,,,,,,,,MET10210/16/15 09:56:02 METAR KCHS 161456Z 24008KT 10SM CLR 24/12 A3015 RMK AO2 SLP208 T02390122 50004 (JMB),,,,,,,,,,,,,,,,,,,,,,,,,,,,
72208013880,2015-10-20T09:56:00,FM-15,7,,SE,0.25,mi,"TEMP, PRECIP, SNOW",,,"MMTS, SRG, SNOWBOARD",,,WFO CHS,,,,,,,,,,,,,,,,,,,,,,,,,,,30.41,47,65,0.00,,-0.01,0,52,30.41,CLR:00,30.36,10.00,55,040,,10,,,,,,,,,,,,,,,,,,,,,,,,,,,,,,,,,,,,,MET10210/20/15 09:56:02 METAR KCHS 201456Z 04009KT 10SM CLR 18/08 A3041 RMK AO2 SLP298 T01830083 50004 (JMB),,,,,,,,,,,,,,,,,,,,,,,,,,,,
72208013880,2015-10-23T09:56:00,FM-15,7,,SE,0.25,mi,"TEMP, PRECIP, SNOW",,,"MMTS, SRG, SNOWBOARD",,,WFO CHS,,,,,,,,,,,,,,,,,,,,,,,,,,,30.20,61,76,0.00,,-0.01,0,60,30.20,FEW:02 250,30.15,10.00,67,000,,0,,,,,,,,,,,,,,,,,,,,,,,,,,,,,,,,,,,,,MET10510/23/15 09:56:02 METAR KCHS 231456Z 00000KT 10SM FEW250 24/16 A3020 RMK AO2 SLP226 T02440161 50004 (JMB),,,,,,,,,,,,,,,,,,,,,,,,,,,,
72208013880,2015-10-25T09:56:00,FM-15,7,,SE,0.25,mi,"TEMP, PRECIP, SNOW",,,"MMTS, SRG, SNOWBOARD",,,WFO CHS,,,,,,,,,,,,,,,,,,,,,,,,,,,30.18,66,76,0.00,,-0.02,0,72,30.17,BKN:07 49 BKN:07 250,30.13,10.00,70,160,,6,,,,,,,,,,,,,,,,,,,,,,,,,,,,,,,,,,,,,MET11210/25/15 09:56:02 METAR KCHS 251456Z 16005KT 10SM BKN049 BKN250 24/19 A3018 RMK AO2 SLP218 T02440189 50008 (KLJ),,,,,,,,,,,,,,,,,,,,,,,,,,,,
72208013880,2015-10-27T09:56:00,FM-15,7,,SE,0.25,mi,"TEMP, PRECIP, SNOW",,,"MMTS, SRG, SNOWBOARD",,,WFO CHS,,,,,,,,,,,,,,,,,,,,,,,,,,,30.14,61,63,0.03,BR:1 ||,+0.01,8,93,30.14,BKN:07 8 OVC:08 15,30.09,5.00,62,050,,15,,,,,,,,,,,,,,,,,,,,,,,,,,,,,,,,,,,,,MET13210/27/15 09:56:02 METAR KCHS 271456Z 05013KT 5SM BR BKN008 OVC015 17/16 A3014 RMK AO2 RAE37 SLP205 P0003 60019 T01720161 58004 (JMB),,,,,,,,,,,,,,,,,,,,,,,,,,,,
72208013880,2015-10-27T10:00:00,FM-12,4,,SE,0.25,mi,"TEMP, PRECIP, SNOW",,,"MMTS, SRG, SNOWBOARD",,,WFO CHS,,,,,,,,,,,,,,,,,,,,,,,,,,,,61,63,,,+0.01,8,93,30.14,8,30.09,4.97,62,050,,15,,,,,,,,,,,,,,,,,,,,,,,,,,,,,,,,,,,,,SYN07672208 11358 80513 10172 20161 30190 40205 58004 60057 710// 91456 555 92715=,,,,,,,,,,,,,,,,,,,,,,,,,,,,
72208013880,2015-10-31T09:56:00,FM-15,7,,SE,0.25,mi,"TEMP, PRECIP, SNOW",,,"MMTS, SRG, SNOWBOARD",,,WFO CHS,,,,,,,,,,,,,,,,,,,,,,,,,,,30.16,58,67,0.00,,-0.04,0,73,30.15,FEW:02 50 BKN:07 150 BKN:07 250,30.11,10.00,62,050,,7,,,,,,,,,,,,,,,,,,,,,,,,,,,,,,,,,,,,,MET11910/31/15 09:56:02 METAR KCHS 311456Z 05006KT 10SM FEW050 BKN150 BKN250 19/14 A3016 RMK AO2 SLP211 T01940144 50013 (KLJ),,,,,,,,,,,,,,,,,,,,,,,,,,,,
72208013880,2015-11-01T09:56:00,FM-15,7,,SE,0.25,mi,"TEMP, PRECIP, SNOW",,,"MMTS, SRG, SNOWBOARD",,,WFO CHS,,,,,,,,,,,,,,,,,,,,,,,,,,,30.05,66,74,0.00,,-0.03,0,76,30.04,SCT:04 48 BKN:07 120,30.00,10.00,69,190,,6,,,,,,,,,,,,,,,,,,,,,,,,,,,,,,,,,,,,,MET11211/01/15 09:56:02 METAR KCHS 011456Z 19005KT 10SM SCT048 BKN120 23/19 A3005 RMK AO2 SLP173 T02330189 50011 (KLJ),,,,,,,,,,,,,,,,,,,,,,,,,,,,
72208013880,2015-11-06T09:56:00,FM-15,7,,SE,0.25,mi,"TEMP, PRECIP, SNOW",,,"MMTS, SRG, SNOWBOARD",,,WFO CHS,,,,,,,,,,,,,,,,,,,,,,,,,,,30.23,68,72,0.00,,-0.02,0,87,30.23,BKN:07 8,30.18,10.00,69,000,,0,,,,,,,,,,,,,,,,,,,,,,,,,,,,,,,,,,,,,MET10511/06/15 09:56:02 METAR KCHS 061456Z 00000KT 10SM BKN008 22/20 A3023 RMK AO2 SLP237 T02220200 50008 (JMB),,,,,,,,,,,,,,,,,,,,,,,,,,,,
72208013880,2015-11-07T09:56:00,FM-15,7,,SE,0.25,mi,"TEMP, PRECIP, SNOW",,,"MMTS, SRG, SNOWBOARD",,,WFO CHS,,,,,,,,,,,,,,,,,,,,,,,,,,,30.15,71,76,0.00,,-0.01,0,85,30.14,FEW:02 8,30.10,10.00,73,270,,6,,,,,,,,,,,,,,,,,,,,,,,,,,,,,,,,,,,,,MET10511/07/15 09:56:02 METAR KCHS 071456Z 27005KT 10SM FEW008 24/22 A3015 RMK AO2 SLP208 T02440217 50004 (KLJ),,,,,,,,,,,,,,,,,,,,,,,,,,,,
72208013880,2015-11-12T09:56:00,FM-15,7,,SE,0.25,mi,"TEMP, PRECIP, SNOW",,,"MMTS, SRG, SNOWBOARD",,,WFO CHS,,,,,,,,,,,,,,,,,,,,,,,,,,,30.02,60,69,0.00,,-0.01,0,73,30.01,SCT:04 250,29.97,10.00,64,230,,11,,,,,,,,,,,,,,,,,,,,,,,,,,,,,,,,,,,,,MET10511/12/15 09:56:02 METAR KCHS 121456Z 23010KT 10SM SCT250 21/16 A3002 RMK AO2 SLP164 T02060156 50004 (JMB),,,,,,,,,,,,,,,,,,,,,,,,,,,,
72208013880,2015-11-18T09:56:00,FM-15,7,,SE,0.25,mi,"TEMP, PRECIP, SNOW",,,"MMTS, SRG, SNOWBOARD",,,WFO CHS,,,,,,,,,,,,,,,,,,,,,,,,,,,30.18,63,75,0.00,,+0.00,8,66,30.18,FEW:02 40 SCT:04 70 BKN:07 200,30.13,10.00,67,140,21,14,,,,,,,,,,,,,,,,,,,,,,,,,,,,,,,,,,,,,MET12211/18/15 09:56:02 METAR KCHS 181456Z 14012G18KT 10SM FEW040 SCT070 BKN200 24/17 A3018 RMK AO2 SLP219 T02390172 58001 (JMB),,,,,,,,,,,,,,,,,,,,,,,,,,,,
72208013880,2015-11-18T10:00:00,FM-12,4,,SE,0.25,mi,"TEMP, PRECIP, SNOW",,,"MMTS, SRG, SNOWBOARD",,,WFO CHS,,,,,,,,,,,,,,,,,,,,,,,,,,,,63,75,,,+0.00,8,66,30.18,41,30.13,9.94,67,140,,14,,,,,,,,,,,,,,,,,,,,,,,,,,,,,,,,,,,,,SYN07472208 32666 61412 10239 20172 30204 40219 58001 91456 333 91018 555 91815=,,,,,,,,,,,,,,,,,,,,,,,,,,,,
72208013880,2015-11-19T09:56:00,FM-15,7,,SE,0.25,mi,"TEMP, PRECIP, SNOW",,,"MMTS, SRG, SNOWBOARD",,,WFO CHS,,,,,,,,,,,,,,,,,,,,,,,,,,,30.03,71,74,T,,-0.01,0,91,30.03,SCT:04 10 BKN:07 15 BKN:07 40,29.98,10.00,72,210,,15,,,,,,,,,,,,,,,,,,,,,,,,,,,,,,,,,,,,,MET14311/19/15 09:56:02 METAR KCHS 191456Z 21013KT 10SM SCT010 BKN015 BKN040 23/22 A3003 RMK AO2 RAE05B23E33 SLP169 P0000 60003 T02330217 50003 (JMB),,,,,,,,,,,,,,,,,,,,,,,,,,,,
72208013880,2015-11-21T09:56:00,FM-15,7,,SE,0.25,mi,"TEMP, PRECIP, SNOW",,,"MMTS, SRG, SNOWBOARD",,,WFO CHS,,,,,,,,,,,,,,,,,,,,,,,,,,,30.14,44,60,0.00,,+0.01,8,56,30.14,FEW:02 20 FEW:02 140 FEW:02 200,30.09,10.00,52,030,,8,,,,,,,,,,,,,,,,,,,,,,,,,,,,,,,,,,,,,MET11911/21/15 09:56:02 METAR KCHS 211456Z 03007KT 10SM FEW020 FEW140 FEW200 16/07 A3014 RMK AO2 SLP205 T01560067 58002 (KLJ),,,,,,,,,,,,,,,,,,,,,,,,,,,,
72208013880,2015-11-21T10:00:00,FM-12,4,,SE,0.25,mi,"TEMP, PRECIP, SNOW",,,"MMTS, SRG, SNOWBOARD",,,WFO CHS,,,,,,,,,,,,,,,,,,,,,,,,,,,,44,60,,,+0.01,8,56,30.14,26,30.09,9.94,52,030,,8,,,,,,,,,,,,,,,,,,,,,,,,,,,,,,,,,,,,,SYN06472208 32566 20307 10156 20067 30190 40205 58002 91456 555 92115=,,,,,,,,,,,,,,,,,,,,,,,,,,,,
72208013880,2015-11-27T09:56:00,FM-15,7,,SE,0.25,mi,"TEMP, PRECIP, SNOW",,,"MMTS, SRG, SNOWBOARD",,,WFO CHS,,,,,,,,,,,,,,,,,,,,,,,,,,,30.45,57,69,0.00,,-0.00,0,66,30.45,FEW:02 180,30.40,10.00,62,050,,9,,,,,,,,,,,,,,,,,,,,,,,,,,,,,,,,,,,,,MET10511/27/15 09:56:02 METAR KCHS 271456Z 05008KT 10SM FEW180 21/14 A3045 RMK AO2 SLP311 T02060139 50001 (KLJ),,,,,,,,,,,,,,,,,,,,,,,,,,,,
72208013880,2015-12-01T09:56:00,FM-15,7,,SE,0.25,mi,"TEMP, PRECIP, SNOW",,,"MMTS, SRG, SNOWBOARD",,,WFO CHS,,,,,,,,,,,,,,,,,,,,,,,,,,,30.14,60,61,0.00,BR:1 |s |,-0.02,0,97,30.13,OVC:08 5,30.09,0.50,60,060,,3,,,,,,,,,,,,,,,,,,,,,,,,,,,,,,,,,,,,,MET13012/01/15 09:56:01 METAR KCHS 011456Z 06003KT 1/2SM R15/6000VP6000FT BR OVC005 16/16 A3014 RMK AO2 SFC VIS 1 SLP204 T01610156 50007,,,,,,,,,,,,,,,,,,,,,,,,,,,,
72208013880,2016-01-07T09:56:00,FM-15,7,,SE,0.25,mi,"TEMP, PRECIP, SNOW",,,"MMTS, SRG, SNOWBOARD",,,WFO CHS,,,,,,,,,,,,,,,,,,,,,,,,,,,30.15,41,49,0.00,,+0.01,8,74,30.15,FEW:02 15 SCT:04 120 BKN:07 200,30.10,10.00,45,030,,11,,,,,,,,,,,,,,,,,,,,,,,,,,,,,,,,,,,,,MET11901/07/16 09:56:02 METAR KCHS 071456Z 03010KT 10SM FEW015 SCT120 BKN200 09/05 A3015 RMK AO2 SLP209 T00940050 58002 (JMB),,,,,,,,,,,,,,,,,,,,,,,,,,,,2009-06-10
72208013880,2016-01-07T10:00:00,FM-12,4,,SE,0.25,mi,"TEMP, PRECIP, SNOW",,,"MMTS, SRG, SNOWBOARD",,,WFO CHS,,,,,,,,,,,,,,,,,,,,,,,,,,,,41,49,,,+0.01,8,74,30.15,15,30.10,9.94,45,030,,11,,,,,,,,,,,,,,,,,,,,,,,,,,,,,,,,,,,,,SYN06472208 32466 60310 10094 20050 30194 40209 58002 91456 555 90715=,,,,,,,,,,,,,,,,,,,,,,,,,,,,2009-06-10
72208013880,2016-01-15T09:56:00,FM-15,7,,SE,0.25,mi,"TEMP, PRECIP, SNOW",,,"MMTS, SRG, SNOWBOARD",,,WFO CHS,,,,,,,,,,,,,,,,,,,,,,,,,,,29.78,56,62,0.04s,RA:02 |RA |,+0.09,6,80,29.78,FEW:02 25 BKN:07 50 OVC:08 90,29.73,10.00,59,130,,10,,,,,,,,,,,,,,,,,,,,,,,,,,,,,,,,,,,,,MET13401/15/16 09:56:02 METAR KCHS 151456Z 13009KT 10SM RA FEW025 BKN050 OVC090 17/13 A2978 RMK AO2 SLP083 P0003 60003 T01670133 56030 (JMB),,,,,,,,,,,,,,,,,,,,,,,,,,,,2009-06-10
72208013880,2016-01-15T10:00:00,FM-12,4,,SE,0.25,mi,"TEMP, PRECIP, SNOW",,,"MMTS, SRG, SNOWBOARD",,,WFO CHS,,,,,,,,,,,,,,,,,,,,,,,,,,,,56,62,,||RA,+0.09,6,80,29.78,26,29.73,9.94,59,130,,10,,,,,,,,,,,,,,,,,,,,,,,,,,,,,,,,,,,,,SYN07672208 11566 81309 10167 20133 30069 40083 56030 69987 763// 91456 555 91515=,,,,,,,,,,,,,,,,,,,,,,,,,,,,2009-06-10
72208013880,2016-01-22T09:56:00,FM-15,7,,SE,0.25,mi,"TEMP, PRECIP, SNOW",,,"MMTS, SRG, SNOWBOARD",,,WFO CHS,,,,,,,,,,,,,,,,,,,,,,,,,,,29.91,46,48,0.05,-RA:02 BR:1 |RA |,+0.05,8,93,29.90,BKN:07 8 OVC:08 15,29.86,5.00,47,050,,13,,,,,,,,,,,,,,,,,,,,,,,,,,,,,,,,,,,,,MET13001/22/16 09:56:02 METAR KCHS 221456Z 05011KT 5SM -RA BR BKN008 OVC015 09/08 A2991 RMK AO2 SLP126 P0006 60021 T00890078 58016 (JMB),,,,,,,,,,,,,,,,,,,,,,,,,,,,2009-06-10
72208013880,2016-01-22T10:00:00,FM-12,4,,SE,0.25,mi,"TEMP, PRECIP, SNOW",,,"MMTS, SRG, SNOWBOARD",,,WFO CHS,,,,,,,,,,,,,,,,,,,,,,,,,,,,46,48,,||RA,+0.05,8,93,29.90,8,29.86,4.97,47,050,,13,,,,,,,,,,,,,,,,,,,,,,,,,,,,,,,,,,,,,SYN08672208 11358 80511 10089 20078 30113 40126 58016 60057 761// 91456 333 96010 555 92215=,,,,,,,,,,,,,,,,,,,,,,,,,,,,2009-06-10
72208013880,2016-01-28T09:56:00,FM-15,7,,SE,0.25,mi,"TEMP, PRECIP, SNOW",,,"MMTS, SRG, SNOWBOARD",,,WFO CHS,,,,,,,,,,,,,,,,,,,,,,,,,,,29.95,43,50,0.00,,+0.00,8,77,29.94,SCT:04 13 OVC:08 40,29.90,10.00,47,060,,8,,,,,,,,,,,,,,,,,,,,,,,,,,,,,,,,,,,,,MET11201/28/16 09:56:02 METAR KCHS 281456Z 06007KT 10SM SCT013 OVC040 10/06 A2995 RMK AO2 SLP139 T01000061 58001 (JMB),,,,,,,,,,,,,,,,,,,,,,,,,,,,2009-06-10
72208013880,2016-01-28T10:00:00,FM-12,4,,SE,0.25,mi,"TEMP, PRECIP, SNOW",,,"MMTS, SRG, SNOWBOARD",,,WFO CHS,,,,,,,,,,,,,,,,,,,,,,,,,,,,43,50,,,+0.00,8,77,29.94,15,29.90,9.94,47,060,,8,,,,,,,,,,,,,,,,,,,,,,,,,,,,,,,,,,,,,SYN06472208 32466 80607 10100 20061 30126 40139 58001 91456 555 92815=,,,,,,,,,,,,,,,,,,,,,,,,,,,,2009-06-10
72208013880,2016-02-06T09:56:00,FM-15,7,,SE,0.25,mi,"TEMP, PRECIP, SNOW",,,"MMTS, SRG, SNOWBOARD",,,WFO CHS,,,,,,,,,,,,,,,,,,,,,,,,,,,30.37,26,45,0.00,,-0.01,0,48,30.37,FEW:02 40 BKN:07 60 BKN:07 80,30.32,10.00,37,050,,11,,,,,,,,,,,,,,,,,,,,,,,,,,,,,,,,,,,,,MET12002/06/16 09:56:02 METAR KCHS 061456Z 05010KT 10SM FEW040 BKN060 BKN080 07/M03 A3037 RMK AO2 SLP285 T00721033 50003 (KLJ),,,,,,,,,,,,,,,,,,,,,,,,,,,,2009-06-10
72208013880,2016-02-08T09:56:00,FM-15,7,,SE,0.25,mi,"TEMP, PRECIP, SNOW",,,"MMTS, SRG, SNOWBOARD",,,WFO CHS,,,,,,,,,,,,,,,,,,,,,,,,,,,29.89,30,50,0.00,,+0.02,8,46,29.89,CLR:00,29.84,10.00,41,240,,6,,,,,,,,,,,,,,,,,,,,,,,,,,,,,,,,,,,,,MET10302/08/16 09:56:02 METAR KCHS 081456Z 24005KT 10SM CLR 10/M01 A2989 RMK AO2 SLP121 T01001011 58008 (JMB),,,,,,,,,,,,,,,,,,,,,,,,,,,,2009-06-10
72208013880,2016-02-08T10:00:00,FM-12,4,,SE,0.25,mi,"TEMP, PRECIP, SNOW",,,"MMTS, SRG, SNOWBOARD",,,WFO CHS,,,,,,,,,,,,,,,,,,,,,,,,,,,,30,50,,,+0.02,8,46,29.89,,29.84,9.94,41,240,,6,,,,,,,,,,,,,,,,,,,,,,,,,,,,,,,,,,,,,SYN06472208 32966 02405 10100 21011 30106 40121 58008 91456 555 90815=,,,,,,,,,,,,,,,,,,,,,,,,,,,,2009-06-10
72208013880,2016-02-09T09:56:00,FM-15,7,,SE,0.25,mi,"TEMP, PRECIP, SNOW",,,"MMTS, SRG, SNOWBOARD",,,WFO CHS,,,,,,,,,,,,,,,,,,,,,,,,,,,29.84,25,45,0.00,,-0.03,0,46,29.84,FEW:02 40 FEW:02 70,29.79,10.00,37,VRB,25,14,,,,,,,,,,,,,,,,,,,,,,,,,,,,,,,,,,,,,MET11602/09/16 09:56:02 METAR KCHS 091456Z 27012G22KT 10SM FEW040 FEW070 07/M04 A2984 RMK AO2 SLP105 T00721039 50010 (JMB),,,,,,,,,,,,,,,,,,,,,,,,,,,,2009-06-10
72208013880,2016-02-10T09:56:00,FM-15,7,,SE,0.25,mi,"TEMP, PRECIP, SNOW",,,"MMTS, SRG, SNOWBOARD",,,WFO CHS,,,,,,,,,,,,,,,,,,,,,,,,,,,30.06,16,35,0.00,,-0.04,0,46,30.06,FEW:02 40,30.01,10.00,29,300,23,16,,,,,,,,,,,,,,,,,,,,,,,,,,,,,,,,,,,,,MET11102/10/16 09:56:02 METAR KCHS 101456Z 30014G20KT 10SM FEW040 02/M09 A3006 RMK AO2 SLP178 T00171089 50012 $ (JMB),,,,,,,,,,,,,,,,,,,,,,,,,,,,2009-06-10
72208013880,2016-02-11T09:56:00,FM-15,7,,SE,0.25,mi,"TEMP, PRECIP, SNOW",,,"MMTS, SRG, SNOWBOARD",,,WFO CHS,,,,,,,,,,,,,,,,,,,,,,,,,,,30.28,15,41,0.00,,-0.03,0,35,30.28,CLR:00,30.23,10.00,32,300,,9,,,,,,,,,,,,,,,,,,,,,,,,,,,,,,,,,,,,,MET10502/11/16 09:56:02 METAR KCHS 111456Z 30008KT 10SM CLR 05/M09 A3028 RMK AO2 SLP255 T00501094 50010 $ (JMB),,,,,,,,,,,,,,,,,,,,,,,,,,,,2009-06-10
72208013880,2016-02-12T09:56:00,FM-15,7,,SE,0.25,mi,"TEMP, PRECIP, SNOW",,,"MMTS, SRG, SNOWBOARD",,,WFO CHS,,,,,,,,,,,,,,,,,,,,,,,,,,,30.13,41,51,0.00,,+0.02,8,69,30.13,OVC:08 15,30.08,10.00,46,070,,3,,,,,,,,,,,,,,,,,,,,,,,,,,,,,,,,,,,,,MET10502/12/16 09:56:02 METAR KCHS 121456Z 07003KT 10SM OVC015 11/05 A3013 RMK AO2 SLP203 T01060050 58008 (JMB),,,,,,,,,,,,,,,,,,,,,,,,,,,,2009-06-10
72208013880,2016-02-12T10:00:00,FM-12,4,,SE,0.25,mi,"TEMP, PRECIP, SNOW",,,"MMTS, SRG, SNOWBOARD",,,WFO CHS,,,,,,,,,,,,,,,,,,,,,,,,,,,,41,51,,,+0.02,8,69,30.13,15,30.08,9.94,46,070,,3,,,,,,,,,,,,,,,,,,,,,,,,,,,,,,,,,,,,,SYN06472208 32466 80703 10106 20050 30187 40203 58008 91456 555 91215=,,,,,,,,,,,,,,,,,,,,,,,,,,,,2009-06-10
72208013880,2016-02-15T09:56:00,FM-15,6,,SE,0.25,mi,"TEMP, PRECIP, SNOW",,,"MMTS, SRG, SNOWBOARD",,,WFO CHS,,,,,,,,,,,,,,,,,,,,,,,,,,,30.24,37,46,0.00,,-0.00,0,71,30.24,FEW:02 30 SCT:04 45 BKN:07 120,30.19,10.00,42,030,,6,,,,,,,,,,,,,,,,,,,,,,,,,,,,,,,,,,,,,MET11902/15/16 09:56:02 METAR KCHS 151456Z 03005KT 10SM FEW030 SCT045 BKN120 08/03 A3024 RMK AO2 SLP239 T00780028 50000 (JMB),,,,,,,,,,,,,,,,,,,,,,,,,,,,2009-06-10
72208013880,2016-02-16T09:56:00,FM-15,7,,SE,0.25,mi,"TEMP, PRECIP, SNOW",,,"MMTS, SRG, SNOWBOARD",,,WFO CHS,,,,,,,,,,,,,,,,,,,,,,,,,,,29.79,51,60,0.00,,-0.06,0,72,29.79,SCT:04 25 BKN:07 200,29.74,10.00,55,260,,13,,,,,,,,,,,,,,,,,,,,,,,,,,,,,,,,,,,,,MET11202/16/16 09:56:02 METAR KCHS 161456Z 26011KT 10SM SCT025 BKN200 16/11 A2979 RMK AO2 SLP087 T01560106 50020 (JMB),,,,,,,,,,,,,,,,,,,,,,,,,,,,2009-06-10
72208013880,2016-02-20T09:56:00,FM-15,7,,SE,0.25,mi,"TEMP, PRECIP, SNOW",,,"MMTS, SRG, SNOWBOARD",,,WFO CHS,,,,,,,,,,,,,,,,,,,,,,,,,,,30.33,50,60,0.00,,-0.01,0,70,30.32,FEW:02 120 BKN:07 180 BKN:07 250,30.28,10.00,55,240,,10,,,,,,,,,,,,,,,,,,,,,,,,,,,,,,,,,,,,,MET11902/20/16 09:56:02 METAR KCHS 201456Z 24009KT 10SM FEW120 BKN180 BKN250 16/10 A3033 RMK AO2 SLP269 T01560100 50005 (KLJ),,,,,,,,,,,,,,,,,,,,,,,,,,,,2009-06-10
72208013880,2016-02-22T09:56:00,FM-15,7,,SE,0.25,mi,"TEMP, PRECIP, SNOW",,,"MMTS, SRG, SNOWBOARD",,,WFO CHS,,,,,,,,,,,,,,,,,,,,,,,,,,,30.01,55,65,T,,-0.01,0,70,30.01,FEW:02 40 SCT:04 65 BKN:07 120,29.96,10.00,59,000,,0,,,,,,,,,,,,,,,,,,,,,,,,,,,,,,,,,,,,,MET14002/22/16 09:56:02 METAR KCHS 221456Z 00000KT 10SM FEW040 SCT065 BKN120 18/13 A3001 RMK AO2 RAB00E27 SLP161 P0000 60000 T01830128 50002 (JMB),,,,,,,,,,,,,,,,,,,,,,,,,,,,2009-06-10
72208013880,2016-02-24T09:56:00,FM-15,7,,SE,0.25,mi,"TEMP, PRECIP, SNOW",,,"MMTS, SRG, SNOWBOARD",,,WFO CHS,,,,,,,,,,,,,,,,,,,,,,,,,,,29.67,66,71,0.15,-RA:02 |RA |,+0.06,6,84,29.67,FEW:02 6 BKN:07 18 BKN:07 35,29.62,6.00,68,190,39,24,,,,,,,,,,,,,,,,,,,,,,,,,,,,,,,,,,,,,MET17502/24/16 09:56:02 METAR KCHS 241456Z 19021G34KT 6SM -RA FEW006 BKN018 BKN035 22/19 A2967 RMK AO2 PK WND 19047/1405 TSB02E47 SLP047 CB DSNT NE P0015 60018 T02170189 56019 (KLJ),,,,,,,,,,,,,,,,,,,,,,,,,,,,2009-06-10
72208013880,2016-02-24T10:00:00,FM-12,4,,SE,0.25,mi,"TEMP, PRECIP, SNOW",,,"MMTS, SRG, SNOWBOARD",,,WFO CHS,,,,,,,,,,,,,,,,,,,,,,,,,,,,66,71,,||RA,+0.06,6,84,29.67,5,29.62,5.59,68,190,,24,,,,,,,,,,,,,,,,,,,,,,,,,,,,,,,,,,,,,SYN08672208 11259 61921 10217 20189 30031 40047 56019 60057 761// 91456 333 91034 555 92415=,,,,,,,,,,,,,,,,,,,,,,,,,,,,2009-06-10
72208013880,2016-02-26T09:56:00,FM-15,7,,SE,0.25,mi,"TEMP, PRECIP, SNOW",,,"MMTS, SRG, SNOWBOARD",,,WFO CHS,,,,,,,,,,,,,,,,,,,,,,,,,,,30.19,27,48,0.00,,-0.05,0,44,30.19,CLR:00,30.14,10.00,39,330,22,16,,,,,,,,,,,,,,,,,,,,,,,,,,,,,,,,,,,,,MET10602/26/16 09:56:02 METAR KCHS 261456Z 33014G19KT 10SM CLR 09/M03 A3019 RMK AO2 SLP222 T00891028 50017 (JMB),,,,,,,,,,,,,,,,,,,,,,,,,,,,2009-06-10
72208013880,2016-03-01T09:56:00,FM-15,7,,SE,0.25,mi,"TEMP, PRECIP, SNOW",,,"MMTS, SRG, SNOWBOARD",,,WFO CHS,,,,,,,,,,,,,,,,,,,,,,,,,,,30.14,53,69,0.00,,-0.03,0,57,30.13,SCT:04 70 SCT:04 250,30.09,10.00,60,260,,9,,,,,,,,,,,,,,,,,,,,,,,,,,,,,,,,,,,,,MET11203/01/16 09:56:02 METAR KCHS 011456Z 26008KT 10SM SCT070 SCT250 21/12 A3014 RMK AO2 SLP204 T02060117 50009 (JMB),,,,,,,,,,,,,,,,,,,,,,,,,,,,2009-06-10
72208013880,2016-03-02T09:56:00,FM-15,7,,SE,0.25,mi,"TEMP, PRECIP, SNOW",,,"MMTS, SRG, SNOWBOARD",,,WFO CHS,,,,,,,,,,,,,,,,,,,,,,,,,,,29.95,42,61,0.00,,-0.04,0,50,29.95,FEW:02 35 FEW:02 200,29.90,10.00,51,280,23,16,,,,,,,,,,,,,,,,,,,,,,,,,,,,,,,,,,,,,MET11503/02/16 09:56:02 METAR KCHS 021456Z 28014G20KT 10SM FEW035 FEW200 16/06 A2995 RMK AO2 SLP142 T01610056 50015 (JMB),,,,,,,,,,,,,,,,,,,,,,,,,,,,2009-06-10
72208013880,2016-03-12T09:56:00,FM-15,7,,SE,0.25,mi,"TEMP, PRECIP, SNOW",,,"MMTS, SRG, SNOWBOARD",,,WFO CHS,,,,,,,,,,,,,,,,,,,,,,,,,,,30.24,64,75,0.00,,-0.01,0,69,30.23,FEW:02 25 SCT:04 40 SCT:04 250,30.19,10.00,68,200,,7,,,,,,,,,,,,,,,,,,,,,,,,,,,,,,,,,,,,,MET11903/12/16 09:56:02 METAR KCHS 121456Z 20006KT 10SM FEW025 SCT040 SCT250 24/18 A3024 RMK AO2 SLP238 T02390178 50004 (KLJ),,,,,,,,,,,,,,,,,,,,,,,,,,,,2009-06-10
72208013880,2016-03-13T09:56:00,FM-15,7,,SE,0.25,mi,"TEMP, PRECIP, SNOW",,,"MMTS, SRG, SNOWBOARD",,,WFO CHS,,,,,,,,,,,,,,,,,,,,,,,,,,,30.00,63,73,T,,+0.01,8,71,29.99,FEW:02 80 SCT:04 120 BKN:07 200,29.95,10.00,67,200,,13,,,,,,,,,,,,,,,,,,,,,,,,,,,,,,,,,,,,,MET13703/13/16 09:56:02 METAR KCHS 131456Z 20011KT 10SM FEW080 SCT120 BKN200 23/17 A3000 RMK AO2 RAE14 SLP157 P0000 60000 T02280172 58005 (KLJ),,,,,,,,,,,,,,,,,,,,,,,,,,,,2009-06-10
72208013880,2016-03-13T10:00:00,FM-12,4,,SE,0.25,mi,"TEMP, PRECIP, SNOW",,,"MMTS, SRG, SNOWBOARD",,,WFO CHS,,,,,,,,,,,,,,,,,,,,,,,,,,,,63,73,,,+0.01,8,71,29.99,74,29.95,9.94,67,200,,13,,,,,,,,,,,,,,,,,,,,,,,,,,,,,,,,,,,,,SYN07072208 12866 62011 10228 20172 30143 40157 58005 69907 91456 555 91315=,,,,,,,,,,,,,,,,,,,,,,,,,,,,2009-06-10
72208013880,2016-03-16T09:56:00,FM-15,7,,SE,0.25,mi,"TEMP, PRECIP, SNOW",,,"MMTS, SRG, SNOWBOARD",,,WFO CHS,,,,,,,,,,,,,,,,,,,,,,,,,,,29.93,60,74,0.00,,-0.02,0,62,29.93,FEW:02 250,29.88,10.00,65,260,,11,,,,,,,,,,,,,,,,,,,,,,,,,,,,,,,,,,,,,MET10503/16/16 09:56:02 METAR KCHS 161456Z 26010KT 10SM FEW250 23/16 A2993 RMK AO2 SLP135 T02330156 50007 (JMB),,,,,,,,,,,,,,,,,,,,,,,,,,,,2009-06-10
72208013880,2016-03-24T09:56:00,FM-15,7,,SE,0.25,mi,"TEMP, PRECIP, SNOW",,,"MMTS, SRG, SNOWBOARD",,,WFO CHS,,,,,,,,,,,,,,,,,,,,,,,,,,,30.15,58,74,0.00,,-0.01,0,57,30.15,FEW:02 55 BKN:07 250,30.10,10.00,64,VRB,,5,,,,,,,,,,,,,,,,,,,,,,,,,,,,,,,,,,,,,MET11203/24/16 09:56:02 METAR KCHS 241456Z VRB04KT 10SM FEW055 BKN250 23/14 A3015 RMK AO2 SLP210 T02330144 50004 (JMB),,,,,,,,,,,,,,,,,,,,,,,,,,,,2009-06-10
72208013880,2016-03-27T09:56:00,FM-15,7,,SE,0.25,mi,"TEMP, PRECIP, SNOW",,,"MMTS, SRG, SNOWBOARD",,,WFO CHS,,,,,,,,,,,,,,,,,,,,,,,,,,,30.16,69,72,0.01,-RA:02 BR:1 |RA |,+0.01,8,91,30.16,BKN:07 6 BKN:07 12 OVC:08 20,30.11,6.00,70,120,,3,,,,,,,,,,,,,,,,,,,,,,,,,,,,,,,,,,,,,MET15903/27/16 09:56:02 METAR KCHS 271456Z 12003KT 6SM -RA BR BKN006 BKN012 OVC020 22/21 A3016 RMK AO2 RAB43 SLP212 CB DSNT SE-SW P0001 60001 T02220206 58003 $ (KLJ),,,,,,,,,,,,,,,,,,,,,,,,,,,,2009-06-10
72208013880,2016-03-27T10:00:00,FM-12,4,,SE,0.25,mi,"TEMP, PRECIP, SNOW",,,"MMTS, SRG, SNOWBOARD",,,WFO CHS,,,,,,,,,,,,,,,,,,,,,,,,,,,,69,72,,||RA,+0.01,8,91,30.16,5,30.11,5.59,70,120,,3,,,,,,,,,,,,,,,,,,,,,,,,,,,,,,,,,,,,,SYN08672208 11259 81203 10222 20206 30197 40212 58003 69937 761// 91456 333 96010 555 92715=,,,,,,,,,,,,,,,,,,,,,,,,,,,,2009-06-10
72208013880,2016-04-02T09:56:00,FM-15,7,,SE,0.25,mi,"TEMP, PRECIP, SNOW",,,"MMTS, SRG, SNOWBOARD",,,WFO CHS,,,,,,,,,,,,,,,,,,,,,,,,,,,29.73,66,69,0.01,-RA:02 BR:1 |RA |,+0.01,8,90,29.72,SCT:04 10 BKN:07 15 OVC:08 20,29.68,6.00,67,250,,11,,,,,,,,,,,,,,,,,,,,,,,,,,,,,,,,,,,,,MET14304/02/16 09:56:02 METAR KCHS 021456Z 25010KT 6SM -RA BR SCT010 BKN015 OVC020 21/19 A2973 RMK AO2 RAB30 SLP066 P0001 60001 T02060189 58002 (KLJ),,,,,,,,,,,,,,,,,,,,,,,,,,,,2009-06-10
72208013880,2016-04-02T10:00:00,FM-12,4,,SE,0.25,mi,"TEMP, PRECIP, SNOW",,,"MMTS, SRG, SNOWBOARD",,,WFO CHS,,,,,,,,,,,,,,,,,,,,,,,,,,,,66,69,,||RA,+0.01,8,90,29.72,15,29.68,5.59,67,250,,11,,,,,,,,,,,,,,,,,,,,,,,,,,,,,,,,,,,,,SYN08672208 11459 82510 10206 20189 30052 40066 58002 69937 761// 91456 333 96010 555 90215=,,,,,,,,,,,,,,,,,,,,,,,,,,,,2009-06-10
72208013880,2016-04-04T09:56:00,FM-15,7,,SE,0.25,mi,"TEMP, PRECIP, SNOW",,,"MMTS, SRG, SNOWBOARD",,,WFO CHS,,,,,,,,,,,,,,,,,,,,,,,,,,,30.15,45,70,0.00,,-0.01,0,41,30.15,CLR:00,30.10,10.00,57,270,,9,,,,,,,,,,,,,,,,,,,,,,,,,,,,,,,,,,,,,MET10204/04/16 09:56:02 METAR KCHS 041456Z 27008KT 10SM CLR 21/07 A3015 RMK AO2 SLP209 T02110072 50003 (JMB),,,,,,,,,,,,,,,,,,,,,,,,,,,,2009-06-10
72208013880,2016-04-06T09:56:00,FM-15,7,,SE,0.25,mi,"TEMP, PRECIP, SNOW",,,"MMTS, SRG, SNOWBOARD",,,WFO CHS,,,,,,,,,,,,,,,,,,,,,,,,,,,30.32,43,62,0.00,,+0.03,6,50,30.32,FEW:02 50 FEW:02 250,30.27,10.00,52,100,22,11,,,,,,,,,,,,,,,,,,,,,,,,,,,,,,,,,,,,,MET11504/06/16 09:56:02 METAR KCHS 061456Z 10010G19KT 10SM FEW050 FEW250 17/06 A3032 RMK AO2 SLP266 T01670061 56011 (JMB),,,,,,,,,,,,,,,,,,,,,,,,,,,,2009-06-10
72208013880,2016-04-06T10:00:00,FM-12,4,,SE,0.25,mi,"TEMP, PRECIP, SNOW",,,"MMTS, SRG, SNOWBOARD",,,WFO CHS,,,,,,,,,,,,,,,,,,,,,,,,,,,,43,62,,,+0.03,6,50,30.32,57,30.27,9.94,52,100,,11,,,,,,,,,,,,,,,,,,,,,,,,,,,,,,,,,,,,,SYN07472208 32766 21010 10167 20061 30251 40266 56011 91456 333 91019 555 90615=,,,,,,,,,,,,,,,,,,,,,,,,,,,,2009-06-10
72208013880,2016-04-08T09:56:00,FM-15,7,,SE,0.25,mi,"TEMP, PRECIP, SNOW",,,"MMTS, SRG, SNOWBOARD",,,WFO CHS,,,,,,,,,,,,,,,,,,,,,,,,,,,29.87,37,67,0.00,,-0.01,0,33,29.87,FEW:02 60 SCT:04 120,29.82,10.00,52,310,,9,,,,,,,,,,,,,,,,,,,,,,,,,,,,,,,,,,,,,MET11204/08/16 09:56:02 METAR KCHS 081456Z 31008KT 10SM FEW060 SCT120 19/03 A2987 RMK AO2 SLP115 T01940028 50002 (JMB),,,,,,,,,,,,,,,,,,,,,,,,,,,,2009-06-10
72208013880,2016-04-09T09:56:00,FM-15,7,,SE,0.25,mi,"TEMP, PRECIP, SNOW",,,"MMTS, SRG, SNOWBOARD",,,WFO CHS,,,,,,,,,,,,,,,,,,,,,,,,,,,29.99,28,63,0.00,,+0.01,8,27,29.99,CLR:00,29.94,10.00,47,270,24,17,,,,,,,,,,,,,,,,,,,,,,,,,,,,,,,,,,,,,MET10604/09/16 09:56:02 METAR KCHS 091456Z 27015G21KT 10SM CLR 17/M02 A2999 RMK AO2 SLP156 T01721022 58003 (KLJ),,,,,,,,,,,,,,,,,,,,,,,,,,,,2009-06-10
72208013880,2016-04-09T10:00:00,FM-12,4,,SE,0.25,mi,"TEMP, PRECIP, SNOW",,,"MMTS, SRG, SNOWBOARD",,,WFO CHS,,,,,,,,,,,,,,,,,,,,,,,,,,,,28,63,,,+0.01,8,27,29.99,,29.94,9.94,47,270,,17,,,,,,,,,,,,,,,,,,,,,,,,,,,,,,,,,,,,,SYN07472208 32966 02715 10172 21022 30140 40156 58003 91456 333 91021 555 90915=,,,,,,,,,,,,,,,,,,,,,,,,,,,,2009-06-10
72208013880,2016-04-11T09:56:00,FM-15,7,,SE,0.25,mi,"TEMP, PRECIP, SNOW",,,"MMTS, SRG, SNOWBOARD",,,WFO CHS,,,,,,,,,,,,,,,,,,,,,,,,,,,30.33,53,71,0.00,,-0.01,0,53,30.33,SCT:04 40 SCT:04 250,30.28,10.00,61,160,23,14,,,,,,,,,,,,,,,,,,,,,,,,,,,,,,,,,,,,,MET11504/11/16 09:56:02 METAR KCHS 111456Z 16012G20KT 10SM SCT040 SCT250 22/12 A3033 RMK AO2 SLP271 T02170117 50003 (JMB),,,,,,,,,,,,,,,,,,,,,,,,,,,,2009-06-10
72208013880,2016-04-17T09:56:00,FM-15,7,,SE,0.25,mi,"TEMP, PRECIP, SNOW",,,"MMTS, SRG, SNOWBOARD",,,WFO CHS,,,,,,,,,,,,,,,,,,,,,,,,,,,30.37,29,65,0.00,,+0.01,7,26,30.36,CLR:00,30.32,10.00,49,040,23,13,,,,,,,,,,,,,,,,,,,,,,,,,,,,,,,,,,,,,MET10604/17/16 09:56:02 METAR KCHS 171456Z 04011G20KT 10SM CLR 18/M02 A3037 RMK AO2 SLP282 T01831017 57002 (KLJ),,,,,,,,,,,,,,,,,,,,,,,,,,,,2009-06-10
72208013880,2016-04-17T10:00:00,FM-12,4,,SE,0.25,mi,"TEMP, PRECIP, SNOW",,,"MMTS, SRG, SNOWBOARD",,,WFO CHS,,,,,,,,,,,,,,,,,,,,,,,,,,,,29,65,,,+0.01,7,26,30.36,,30.32,9.94,49,040,,13,,,,,,,,,,,,,,,,,,,,,,,,,,,,,,,,,,,,,SYN07472208 32966 00411 10183 21017 30268 40282 57002 91456 333 91020 555 91715=,,,,,,,,,,,,,,,,,,,,,,,,,,,,2009-06-10
72208013880,2016-04-18T09:56:00,FM-15,7,,SE,0.25,mi,"TEMP, PRECIP, SNOW",,,"MMTS, SRG, SNOWBOARD",,,WFO CHS,,,,,,,,,,,,,,,,,,,,,,,,,,,30.32,41,70,0.00,,-0.01,0,35,30.32,CLR:00,30.27,10.00,55,010,,6,,,,,,,,,,,,,,,,,,,,,,,,,,,,,,,,,,,,,MET10204/18/16 09:56:02 METAR KCHS 181456Z 01005KT 10SM CLR 21/05 A3032 RMK AO2 SLP267 T02110050 50002 (JMB),,,,,,,,,,,,,,,,,,,,,,,,,,,,2009-06-10
72208013880,2016-04-19T09:56:00,FM-15,7,,SE,0.25,mi,"TEMP, PRECIP, SNOW",,,"MMTS, SRG, SNOWBOARD",,,WFO CHS,,,,,,,,,,,,,,,,,,,,,,,,,,,30.19,44,76,0.00,,+0.01,8,32,30.19,BKN:07 250,30.14,10.00,59,300,,8,,,,,,,,,,,,,,,,,,,,,,,,,,,,,,,,,,,,,MET10504/19/16 09:56:02 METAR KCHS 191456Z 30007KT 10SM BKN250 24/07 A3019 RMK AO2 SLP223 T02440067 58004 (JMB),,,,,,,,,,,,,,,,,,,,,,,,,,,,2009-06-10
72208013880,2016-04-19T10:00:00,FM-12,4,,SE,0.25,mi,"TEMP, PRECIP, SNOW",,,"MMTS, SRG, SNOWBOARD",,,WFO CHS,,,,,,,,,,,,,,,,,,,,,,,,,,,,44,76,,,+0.01,8,32,30.19,,30.14,9.94,59,300,,8,,,,,,,,,,,,,,,,,,,,,,,,,,,,,,,,,,,,,SYN06472208 32966 63007 10244 20067 30207 40223 58004 91456 555 91915=,,,,,,,,,,,,,,,,,,,,,,,,,,,,2009-06-10
72208013880,2016-04-22T09:56:00,FM-15,7,,SE,0.25,mi,"TEMP, PRECIP, SNOW",,,"MMTS, SRG, SNOWBOARD",,,WFO CHS,,,,,,,,,,,,,,,,,,,,,,,,,,,30.04,63,77,0.00,,+0.01,8,62,30.04,SCT:04 32 BKN:07 48 BKN:07 100,29.99,10.00,68,210,31,18,,,,,,,,,,,,,,,,,,,,,,,,,,,,,,,,,,,,,MET15104/22/16 09:56:02 METAR KCHS 221456Z 21016G27KT 10SM SCT032 BKN048 BKN100 25/17 A3004 RMK AO2 PK WND 21027/1449 SLP172 CB DSNT NW T02500172 58004 (JMB),,,,,,,,,,,,,,,,,,,,,,,,,,,,2009-06-10
72208013880,2016-04-22T10:00:00,FM-12,4,,SE,0.25,mi,"TEMP, PRECIP, SNOW",,,"MMTS, SRG, SNOWBOARD",,,WFO CHS,,,,,,,,,,,,,,,,,,,,,,,,,,,,63,77,,,+0.01,8,62,30.04,26,29.99,9.94,68,210,,18,,,,,,,,,,,,,,,,,,,,,,,,,,,,,,,,,,,,,SYN07472208 32566 62116 10250 20172 30157 40172 58004 91456 333 91027 555 92215=,,,,,,,,,,,,,,,,,,,,,,,,,,,,2009-06-10
72208013880,2016-04-23T09:56:00,FM-15,7,,SE,0.25,mi,"TEMP, PRECIP, SNOW",,,"MMTS, SRG, SNOWBOARD",,,WFO CHS,,,,,,,,,,,,,,,,,,,,,,,,,,,29.89,61,71,0.00,,-0.01,0,71,29.88,FEW:02 15 BKN:07 20 BKN:07 40,29.84,10.00,65,300,,10,,,,,,,,,,,,,,,,,,,,,,,,,,,,,,,,,,,,,MET12104/23/16 09:56:02 METAR KCHS 231456Z 30009KT 10SM FEW015 BKN020 BKN040 22/16 A2989 RMK AO2 SLP120 T02170161 50004 $ (KLJ),,,,,,,,,,,,,,,,,,,,,,,,,,,,2009-06-10
72208013880,2016-04-25T09:56:00,FM-15,7,,SE,0.25,mi,"TEMP, PRECIP, SNOW",,,"MMTS, SRG, SNOWBOARD",,,WFO CHS,,,,,,,,,,,,,,,,,,,,,,,,,,,30.13,56,75,0.00,,-0.01,0,52,30.12,FEW:02 40 SCT:04 250,30.08,10.00,64,180,,8,,,,,,,,,,,,,,,,,,,,,,,,,,,,,,,,,,,,,MET11204/25/16 09:56:02 METAR KCHS 251456Z 18007KT 10SM FEW040 SCT250 24/13 A3013 RMK AO2 SLP200 T02390133 50005 (JMB),,,,,,,,,,,,,,,,,,,,,,,,,,,,2009-06-10
72208013880,2016-04-27T09:56:00,FM-15,7,,SE,0.25,mi,"TEMP, PRECIP, SNOW",,,"MMTS, SRG, SNOWBOARD",,,WFO CHS,,,,,,,,,,,,,,,,,,,,,,,,,,,29.93,64,81,0.00,,+0.01,8,57,29.93,FEW:02 250,29.88,10.00,70,VRB,,10,,,,,,,,,,,,,,,,,,,,,,,,,,,,,,,,,,,,,MET10504/27/16 09:56:02 METAR KCHS 271456Z 23009KT 10SM FEW250 27/18 A2993 RMK AO2 SLP134 T02720178 58005 (JMB),,,,,,,,,,,,,,,,,,,,,,,,,,,,2009-06-10
72208013880,2016-04-27T10:00:00,FM-12,4,,SE,0.25,mi,"TEMP, PRECIP, SNOW",,,"MMTS, SRG, SNOWBOARD",,,WFO CHS,,,,,,,,,,,,,,,,,,,,,,,,,,,,64,81,,,+0.01,8,57,29.93,,29.88,9.94,70,230,,10,,,,,,,,,,,,,,,,,,,,,,,,,,,,,,,,,,,,,SYN06472208 32966 22309 10272 20178 30119 40134 58005 91456 555 92715=,,,,,,,,,,,,,,,,,,,,,,,,,,,,2009-06-10
72208013880,2016-04-29T09:56:00,FM-15,7,,SE,0.25,mi,"TEMP, PRECIP, SNOW",,,"MMTS, SRG, SNOWBOARD",,,WFO CHS,,,,,,,,,,,,,,,,,,,,,,,,,,,29.97,64,82,0.00,,-0.00,0,55,29.96,FEW:02 250,29.92,10.00,70,010,,5,,,,,,,,,,,,,,,,,,,,,,,,,,,,,,,,,,,,,MET10504/29/16 09:56:02 METAR KCHS 291456Z 01004KT 10SM FEW250 28/18 A2997 RMK AO2 SLP147 T02780178 50001 (JMB),,,,,,,,,,,,,,,,,,,,,,,,,,,,2009-06-10
72208013880,2016-05-06T09:56:00,FM-15,7,,SE,0.25,mi,"TEMP, PRECIP, SNOW",,,"MMTS, SRG, SNOWBOARD",,,WFO CHS,,,,,,,,,,,,,,,,,,,,,,,,,,,29.82,46,65,0.00,,-0.01,0,51,29.82,FEW:02 15 FEW:02 45 FEW:02 250,29.77,10.00,55,320,23,13,,,,,,,,,,,,,,,,,,,,,,,,,,,,,,,,,,,,,MET12205/06/16 09:56:02 METAR KCHS 061456Z 32011G20KT 10SM FEW015 FEW045 FEW250 18/08 A2982 RMK AO2 SLP098 T01830078 50002 (KLJ),,,,,,,,,,,,,,,,,,,,,,,,,,,,2009-06-10
72208013880,2016-05-10T09:56:00,FM-15,7,,SE,0.25,mi,"TEMP, PRECIP, SNOW",,,"MMTS, SRG, SNOWBOARD",,,WFO CHS,,,,,,,,,,,,,,,,,,,,,,,,,,,30.21,64,81,0.00,,-0.02,0,57,30.21,SCT:04 35 SCT:04 120 BKN:07 200,30.16,10.00,70,240,,11,,,,,,,,,,,,,,,,,,,,,,,,,,,,,,,,,,,,,MET11905/10/16 09:56:02 METAR KCHS 101456Z 24010KT 10SM SCT035 SCT120 BKN200 27/18 A3021 RMK AO2 SLP231 T02720178 50006 (JMB),,,,,,,,,,,,,,,,,,,,,,,,,,,,2009-06-10
72208013880,2016-05-11T09:56:00,FM-15,7,,SE,0.25,mi,"TEMP, PRECIP, SNOW",,,"MMTS, SRG, SNOWBOARD",,,WFO CHS,,,,,,,,,,,,,,,,,,,,,,,,,,,30.19,65,82,0.00,,-0.00,0,56,30.18,FEW:02 30,30.14,10.00,71,260,,8,,,,,,,,,,,,,,,,,,,,,,,,,,,,,,,,,,,,,MET10505/11/16 09:56:02 METAR KCHS 111456Z 26007KT 10SM FEW030 28/18 A3019 RMK AO2 SLP221 T02780183 50001 (JMB),,,,,,,,,,,,,,,,,,,,,,,,,,,,2009-06-10
72208013880,2016-05-12T09:56:00,FM-15,7,,SE,0.25,mi,"TEMP, PRECIP, SNOW",,,"MMTS, SRG, SNOWBOARD",,,WFO CHS,,,,,,,,,,,,,,,,,,,,,,,,,,,30.13,66,82,0.00,,+0.01,8,58,30.12,BKN:07 250,30.08,10.00,71,260,,7,,,,,,,,,,,,,,,,,,,,,,,,,,,,,,,,,,,,,MET10505/12/16 09:56:02 METAR KCHS 121456Z 26006KT 10SM BKN250 28/19 A3013 RMK AO2 SLP201 T02780189 58002 (JMB),,,,,,,,,,,,,,,,,,,,,,,,,,,,2009-06-10
72208013880,2016-05-12T10:00:00,FM-12,4,,SE,0.25,mi,"TEMP, PRECIP, SNOW",,,"MMTS, SRG, SNOWBOARD",,,WFO CHS,,,,,,,,,,,,,,,,,,,,,,,,,,,,66,82,,,+0.01,8,58,30.12,,30.08,9.94,71,260,,7,,,,,,,,,,,,,,,,,,,,,,,,,,,,,,,,,,,,,SYN06472208 32966 62606 10278 20189 30187 40201 58002 91456 555 91215=,,,,,,,,,,,,,,,,,,,,,,,,,,,,2009-06-10
72208013880,2016-05-13T09:56:00,FM-15,7,,SE,0.25,mi,"TEMP, PRECIP, SNOW",,,"MMTS, SRG, SNOWBOARD",,,WFO CHS,,,,,,,,,,,,,,,,,,,,,,,,,,,29.96,69,82,0.00,,+0.01,8,65,29.96,FEW:02 30 SCT:04 120 BKN:07 250,29.91,10.00,73,VRB,,6,,,,,,,,,,,,,,,,,,,,,,,,,,,,,,,,,,,,,MET11905/13/16 09:56:02 METAR KCHS 131456Z VRB05KT 10SM FEW030 SCT120 BKN250 28/21 A2996 RMK AO2 SLP145 T02780206 58003 (JMB),,,,,,,,,,,,,,,,,,,,,,,,,,,,2009-06-10
72208013880,2016-05-13T10:00:00,FM-12,4,,SE,0.25,mi,"TEMP, PRECIP, SNOW",,,"MMTS, SRG, SNOWBOARD",,,WFO CHS,,,,,,,,,,,,,,,,,,,,,,,,,,,,69,82,,,+0.01,8,65,29.96,26,29.91,9.94,73,,,6,,,,,,,,,,,,,,,,,,,,,,,,,,,,,,,,,,,,,SYN06472208 32566 6//05 10278 20206 30129 40145 58003 91456 555 91315=,,,,,,,,,,,,,,,,,,,,,,,,,,,,2009-06-10
72208013880,2016-05-14T09:56:00,FM-15,7,,SE,0.25,mi,"TEMP, PRECIP, SNOW",,,"MMTS, SRG, SNOWBOARD",,,WFO CHS,,,,,,,,,,,,,,,,,,,,,,,,,,,29.91,50,81,0.00,,+0.01,8,34,29.91,FEW:02 60,29.86,10.00,63,230,,11,,,,,,,,,,,,,,,,,,,,,,,,,,,,,,,,,,,,,MET10505/14/16 09:56:02 METAR KCHS 141456Z 23010KT 10SM FEW060 27/10 A2991 RMK AO2 SLP127 T02720100 58002 (KLJ),,,,,,,,,,,,,,,,,,,,,,,,,,,,2009-06-10
72208013880,2016-05-14T10:00:00,FM-12,4,,SE,0.25,mi,"TEMP, PRECIP, SNOW",,,"MMTS, SRG, SNOWBOARD",,,WFO CHS,,,,,,,,,,,,,,,,,,,,,,,,,,,,50,81,,,+0.01,8,34,29.91,57,29.86,9.94,63,230,,11,,,,,,,,,,,,,,,,,,,,,,,,,,,,,,,,,,,,,SYN06472208 32766 22310 10272 20100 30113 40127 58002 91456 555 91415=,,,,,,,,,,,,,,,,,,,,,,,,,,,,2009-06-10
72208013880,2016-05-16T09:56:00,FM-15,7,,SE,0.25,mi,"TEMP, PRECIP, SNOW",,,"MMTS, SRG, SNOWBOARD",,,WFO CHS,,,,,,,,,,,,,,,,,,,,,,,,,,,30.21,57,75,0.00,,-0.02,0,54,30.21,FEW:02 45 SCT:04 120 BKN:07 250,30.16,10.00,64,120,,15,,,,,,,,,,,,,,,,,,,,,,,,,,,,,,,,,,,,,MET11905/16/16 09:56:02 METAR KCHS 161456Z 12013KT 10SM FEW045 SCT120 BKN250 24/14 A3021 RMK AO2 SLP229 T02390139 50008 (JMB),,,,,,,,,,,,,,,,,,,,,,,,,,,,2009-06-10
72208013880,2016-05-17T09:56:00,FM-15,7,,SE,0.25,mi,"TEMP, PRECIP, SNOW",,,"MMTS, SRG, SNOWBOARD",,,WFO CHS,,,,,,,,,,,,,,,,,,,,,,,,,,,30.14,69,79,0.00,,+0.01,8,72,30.14,SCT:04 25 BKN:07 45,30.09,10.00,72,130,,14,,,,,,,,,,,,,,,,,,,,,,,,,,,,,,,,,,,,,MET10605/17/16 09:56:01 METAR KCHS 171456Z 13012KT 10SM SCT025 BKN045 26/21 A3014 RMK AO2 SLP205 T02610206 58004,,,,,,,,,,,,,,,,,,,,,,,,,,,,2009-06-10
72208013880,2016-05-17T10:00:00,FM-12,4,,SE,0.25,mi,"TEMP, PRECIP, SNOW",,,"MMTS, SRG, SNOWBOARD",,,WFO CHS,,,,,,,,,,,,,,,,,,,,,,,,,,,,69,79,,,+0.01,8,72,30.14,26,30.09,9.94,72,130,,14,,,,,,,,,,,,,,,,,,,,,,,,,,,,,,,,,,,,,SYN06472208 32566 61312 10261 20206 30190 40205 58004 91456 555 91715=,,,,,,,,,,,,,,,,,,,,,,,,,,,,2009-06-10
72208013880,2016-05-20T09:56:00,FM-15,7,,SE,0.25,mi,"TEMP, PRECIP, SNOW",,,"MMTS, SRG, SNOWBOARD",,,WFO CHS,,,,,,,,,,,,,,,,,,,,,,,,,,,30.11,66,72,T,,-0.02,0,82,30.11,BKN:07 15 OVC:08 30,30.06,10.00,68,080,,11,,,,,,,,,,,,,,,,,,,,,,,,,,,,,,,,,,,,,MET13305/20/16 09:56:02 METAR KCHS 201456Z 08010KT 10SM BKN015 OVC030 22/19 A3011 RMK AO2 RAB30E44 SLP195 P0000 60000 T02220189 50006 (JMB),,,,,,,,,,,,,,,,,,,,,,,,,,,,2009-06-10
72208013880,2016-05-21T09:56:00,FM-15,7,,SE,0.25,mi,"TEMP, PRECIP, SNOW",,,"MMTS, SRG, SNOWBOARD",,,WFO CHS,,,,,,,,,,,,,,,,,,,,,,,,,,,29.98,68,79,0.00,,+0.00,8,69,29.97,FEW:02 10 BKN:07 22 BKN:07 150,29.93,10.00,72,290,,10,,,,,,,,,,,,,,,,,,,,,,,,,,,,,,,,,,,,,MET11905/21/16 09:56:02 METAR KCHS 211456Z 29009KT 10SM FEW010 BKN022 BKN150 26/20 A2998 RMK AO2 SLP150 T02610200 58001 (KLJ),,,,,,,,,,,,,,,,,,,,,,,,,,,,2009-06-10
72208013880,2016-05-21T10:00:00,FM-12,4,,SE,0.25,mi,"TEMP, PRECIP, SNOW",,,"MMTS, SRG, SNOWBOARD",,,WFO CHS,,,,,,,,,,,,,,,,,,,,,,,,,,,,68,79,,,+0.00,8,69,29.97,15,29.93,9.94,72,290,,10,,,,,,,,,,,,,,,,,,,,,,,,,,,,,,,,,,,,,SYN06472208 32466 62909 10261 20200 30136 40150 58001 91456 555 92115=,,,,,,,,,,,,,,,,,,,,,,,,,,,,2009-06-10
72208013880,2016-05-22T09:56:00,FM-15,7,,SE,0.25,mi,"TEMP, PRECIP, SNOW",,,"MMTS, SRG, SNOWBOARD",,,WFO CHS,,,,,,,,,,,,,,,,,,,,,,,,,,,29.84,60,77,0.00,,+0.01,8,56,29.83,FEW:02 50 FEW:02 60,29.79,10.00,66,330,,10,,,,,,,,,,,,,,,,,,,,,,,,,,,,,,,,,,,,,MET11205/22/16 09:56:02 METAR KCHS 221456Z 33009KT 10SM FEW050 FEW060 25/16 A2984 RMK AO2 SLP103 T02500156 58003 (KLJ),,,,,,,,,,,,,,,,,,,,,,,,,,,,2009-06-10
72208013880,2016-05-22T10:00:00,FM-12,4,,SE,0.25,mi,"TEMP, PRECIP, SNOW",,,"MMTS, SRG, SNOWBOARD",,,WFO CHS,,,,,,,,,,,,,,,,,,,,,,,,,,,,60,77,,,+0.01,8,56,29.83,57,29.79,9.94,66,330,,10,,,,,,,,,,,,,,,,,,,,,,,,,,,,,,,,,,,,,SYN06472208 32766 23309 10250 20156 30089 40103 58003 91456 555 92215=,,,,,,,,,,,,,,,,,,,,,,,,,,,,2009-06-10
72208013880,2016-05-25T09:56:00,FM-15,7,,SE,0.25,mi,"TEMP, PRECIP, SNOW",,,"MMTS, SRG, SNOWBOARD",,,WFO CHS,,,,,,,,,,,,,,,,,,,,,,,,,,,30.25,61,83,0.00,,-0.02,0,48,30.24,FEW:02 60 SCT:04 250,30.20,10.00,69,VRB,,8,,,,,,,,,,,,,,,,,,,,,,,,,,,,,,,,,,,,,MET11205/25/16 09:56:02 METAR KCHS 251456Z 24007KT 10SM FEW060 SCT250 28/16 A3025 RMK AO2 SLP242 T02830161 50006 (JMB),,,,,,,,,,,,,,,,,,,,,,,,,,,,2009-06-10
72208013880,2016-05-26T09:56:00,FM-15,7,,SE,0.25,mi,"TEMP, PRECIP, SNOW",,,"MMTS, SRG, SNOWBOARD",,,WFO CHS,,,,,,,,,,,,,,,,,,,,,,,,,,,30.21,63,82,0.00,,+0.01,8,53,30.21,FEW:02 45 SCT:04 250,30.16,10.00,70,180,,7,,,,,,,,,,,,,,,,,,,,,,,,,,,,,,,,,,,,,MET11205/26/16 09:56:02 METAR KCHS 261456Z 18006KT 10SM FEW045 SCT250 28/17 A3021 RMK AO2 SLP229 T02780172 58002 (JMB),,,,,,,,,,,,,,,,,,,,,,,,,,,,2009-06-10
72208013880,2016-05-26T10:00:00,FM-12,4,,SE,0.25,mi,"TEMP, PRECIP, SNOW",,,"MMTS, SRG, SNOWBOARD",,,WFO CHS,,,,,,,,,,,,,,,,,,,,,,,,,,,30.21,63,82,,,+0.01,8,53,30.21,41,30.16,9.94,70,180,,7,,,,,,,,,,,,,,,,,,,,,,,,,,,,,,,,,,,,,SYN06472208 32666 41806 10278 20172 30214 40229 58002 91456 555 92615=,,,,,,,,,,,,,,,,,,,,,,,,,,,,2009-06-10
72208013880,2016-05-27T10:00:00,FM-12,4,,SE,0.25,mi,"TEMP, PRECIP, SNOW",,,"MMTS, SRG, SNOWBOARD",,,WFO CHS,,,,,,,,,,,,,,,,,,,,,,,,,,,30.14,58,82,,,0.00,4,44,30.14,57,30.09,9.94,67,100,,8,,,,,,,,,,,,,,,,,,,,,,,,,,,,,,,,,,,,,SYN06472208 32766 21007 10278 20144 30190 40206 52000 91456 555 92715=,,,,,,,,,,,,,,,,,,,,,,,,,,,,2009-06-10
72208013880,2016-05-28T09:56:00,FM-15,7,,SE,0.25,mi,"TEMP, PRECIP, SNOW",,,"MMTS, SRG, SNOWBOARD",,,WFO CHS,,,,,,,,,,,,,,,,,,,,,,,,,,,30.11,69,79,0.00,,-0.01,0,72,30.11,FEW:02 18 FEW:02 50 BKN:07 140,30.06,10.00,72,040,,9,,,,,,,,,,,,,,,,,,,,,,,,,,,,,,,,,,,,,MET13205/28/16 09:56:02 METAR KCHS 281456Z 04008KT 10SM FEW018 FEW050 BKN140 26/21 A3011 RMK AO2 SLP196 CB DSNT E-SW T02610206 50005 (KLJ),,,,,,,,,,,,,,,,,,,,,,,,,,,,2009-06-10
72208013880,2016-06-03T09:56:00,FM-15,7,,SE,0.25,mi,"TEMP, PRECIP, SNOW",,,"MMTS, SRG, SNOWBOARD",,,WFO CHS,,,,,,,,,,,,,,,,,,,,,,,,,,,30.06,71,86,0.00,,+0.01,8,61,30.06,FEW:02 30,30.01,10.00,76,VRB,,5,,,,,,,,,,,,,,,,,,,,,,,,,,,,,,,,,,,,,MET10506/03/16 09:56:02 METAR KCHS 031456Z VRB04KT 10SM FEW030 30/22 A3006 RMK AO2 SLP178 T03000217 58003 (JMB),,,,,,,,,,,,,,,,,,,,,,,,,,,,2009-06-10
72208013880,2016-06-03T10:00:00,FM-12,4,,SE,0.25,mi,"TEMP, PRECIP, SNOW",,,"MMTS, SRG, SNOWBOARD",,,WFO CHS,,,,,,,,,,,,,,,,,,,,,,,,,,,30.06,71,86,,,+0.01,8,61,30.06,26,30.01,9.94,76,,,5,,,,,,,,,,,,,,,,,,,,,,,,,,,,,,,,,,,,,SYN06472208 32566 2//04 10300 20217 30163 40178 58003 91456 555 90315=,,,,,,,,,,,,,,,,,,,,,,,,,,,,2009-06-10
72208013880,2016-06-05T09:56:00,FM-15,7,,SE,0.25,mi,"TEMP, PRECIP, SNOW",,,"MMTS, SRG, SNOWBOARD",,,WFO CHS,,,,,,,,,,,,,,,,,,,,,,,,,,,29.92,76,86,T,,+0.01,8,72,29.92,FEW:02 20 SCT:04 35 BKN:07 200,29.87,10.00,79,200,,10,,,,,,,,,,,,,,,,,,,,,,,,,,,,,,,,,,,,,MET15606/05/16 09:56:02 METAR KCHS 051456Z 20009KT 10SM FEW020 SCT035 BKN200 30/24 A2992 RMK AO2 RAB1358E17 SLP131 TCU DSNT E-SE P0000 60000 T03000244 58003 (KLJ),,,,,,,,,,,,,,,,,,,,,,,,,,,,2009-06-10
72208013880,2016-06-05T10:00:00,FM-12,4,,SE,0.25,mi,"TEMP, PRECIP, SNOW",,,"MMTS, SRG, SNOWBOARD",,,WFO CHS,,,,,,,,,,,,,,,,,,,,,,,,,,,29.92,76,86,,,+0.01,8,72,29.92,26,29.87,9.94,79,200,,10,,,,,,,,,,,,,,,,,,,,,,,,,,,,,,,,,,,,,SYN07072208 12566 62009 10300 20244 30116 40131 58003 69907 91456 555 90515=,,,,,,,,,,,,,,,,,,,,,,,,,,,,2009-06-10
72208013880,2016-06-11T09:56:00,FM-15,7,,SE,0.25,mi,"TEMP, PRECIP, SNOW",,,"MMTS, SRG, SNOWBOARD",,,WFO CHS,,,,,,,,,,,,,,,,,,,,,,,,,,,30.16,71,85,0.00,,-0.00,0,63,30.16,FEW:02 30 SCT:04 50,30.11,10.00,75,230,,6,,,,,,,,,,,,,,,,,,,,,,,,,,,,,,,,,,,,,MET12706/11/16 09:56:02 METAR KCHS 111456Z 23005KT 10SM FEW030 SCT050 29/22 A3016 RMK AO2 SLP213 TCU DSNT ALQDS T02940217 50001 (KLJ),,,,,,,,,,,,,,,,,,,,,,,,,,,,2009-06-10
72208013880,2016-06-12T09:56:00,FM-15,7,,SE,0.25,mi,"TEMP, PRECIP, SNOW",,,"MMTS, SRG, SNOWBOARD",,,WFO CHS,,,,,,,,,,,,,,,,,,,,,,,,,,,30.04,73,90,0.00,,+0.02,8,58,30.04,FEW:02 250,29.99,10.00,78,VRB,,10,,,,,,,,,,,,,,,,,,,,,,,,,,,,,,,,,,,,,MET10506/12/16 09:56:02 METAR KCHS 121456Z 28009KT 10SM FEW250 32/23 A3004 RMK AO2 SLP172 T03220228 58007 (KLJ),,,,,,,,,,,,,,,,,,,,,,,,,,,,2009-06-10
72208013880,2016-06-12T10:00:00,FM-12,4,,SE,0.25,mi,"TEMP, PRECIP, SNOW",,,"MMTS, SRG, SNOWBOARD",,,WFO CHS,,,,,,,,,,,,,,,,,,,,,,,,,,,30.04,73,90,,,+0.02,8,58,30.04,,29.99,9.94,78,280,,10,,,,,,,,,,,,,,,,,,,,,,,,,,,,,,,,,,,,,SYN06472208 32966 22809 10322 20228 30157 40172 58007 91456 555 91215=,,,,,,,,,,,,,,,,,,,,,,,,,,,,2009-06-10
72208013880,2016-06-16T09:56:00,FM-15,7,,SE,0.25,mi,"TEMP, PRECIP, SNOW",,,"MMTS, SRG, SNOWBOARD",,,WFO CHS,,,,,,,,,,,,,,,,,,,,,,,,,,,29.84,72,87,0.00,,+0.02,8,61,29.84,SCT:04 25,29.79,10.00,77,280,,13,,,,,,,,,,,,,,,,,,,,,,,,,,,,,,,,,,,,,MET10506/16/16 09:56:02 METAR KCHS 161456Z 28011KT 10SM SCT025 31/22 A2984 RMK AO2 SLP105 T03060222 58007 (JMB),,,,,,,,,,,,,,,,,,,,,,,,,,,,2009-06-10
72208013880,2016-06-16T10:00:00,FM-12,4,,SE,0.25,mi,"TEMP, PRECIP, SNOW",,,"MMTS, SRG, SNOWBOARD",,,WFO CHS,,,,,,,,,,,,,,,,,,,,,,,,,,,29.84,72,87,,,+0.02,8,61,29.84,26,29.79,9.94,77,280,,13,,,,,,,,,,,,,,,,,,,,,,,,,,,,,,,,,,,,,SYN06472208 32566 42811 10306 20222 30089 40105 58007 91456 555 91615=,,,,,,,,,,,,,,,,,,,,,,,,,,,,2009-06-10
72208013880,2016-06-20T09:56:00,FM-15,7,,SE,0.25,mi,"TEMP, PRECIP, SNOW",,,"MMTS, SRG, SNOWBOARD",,,WFO CHS,,,,,,,,,,,,,,,,,,,,,,,,,,,30.29,60,83,0.00,,-0.00,0,46,30.29,FEW:02 40,30.24,10.00,69,060,,7,,,,,,,,,,,,,,,,,,,,,,,,,,,,,,,,,,,,,MET10506/20/16 09:56:02 METAR KCHS 201456Z 06006KT 10SM FEW040 28/16 A3029 RMK AO2 SLP257 T02830156 50001 (JMB),,,,,,,,,,,,,,,,,,,,,,,,,,,,2009-06-10
72208013880,2016-06-21T09:56:00,FM-15,7,,SE,0.25,mi,"TEMP, PRECIP, SNOW",,,"MMTS, SRG, SNOWBOARD",,,WFO CHS,,,,,,,,,,,,,,,,,,,,,,,,,,,30.17,64,83,0.00,,-0.01,0,53,30.16,FEW:02 40 FEW:02 250,30.12,10.00,71,220,,8,,,,,,,,,,,,,,,,,,,,,,,,,,,,,,,,,,,,,MET11206/21/16 09:56:02 METAR KCHS 211456Z 22007KT 10SM FEW040 FEW250 28/18 A3017 RMK AO2 SLP215 T02830178 50003 (JMB),,,,,,,,,,,,,,,,,,,,,,,,,,,,2009-06-10
72208013880,2016-06-24T09:56:00,FM-15,7,,SE,0.25,mi,"TEMP, PRECIP, SNOW",,,"MMTS, SRG, SNOWBOARD",,,WFO CHS,,,,,,,,,,,,,,,,,,,,,,,,,,,30.03,70,90,0.00,,+0.00,7,52,30.03,BKN:07 250,29.98,10.00,76,240,20,10,,,,,,,,,,,,,,,,,,,,,,,,,,,,,,,,,,,,,MET10806/24/16 09:56:02 METAR KCHS 241456Z 24009G17KT 10SM BKN250 32/21 A3003 RMK AO2 SLP170 T03220211 57001 (JMB),,,,,,,,,,,,,,,,,,,,,,,,,,,,2009-06-10
72208013880,2016-06-24T10:00:00,FM-12,4,,SE,0.25,mi,"TEMP, PRECIP, SNOW",,,"MMTS, SRG, SNOWBOARD",,,WFO CHS,,,,,,,,,,,,,,,,,,,,,,,,,,,30.03,70,90,,,+0.00,7,52,30.03,,29.98,9.94,76,240,,10,,,,,,,,,,,,,,,,,,,,,,,,,,,,,,,,,,,,,SYN07472208 32966 62409 10322 20211 30153 40170 57001 91456 333 91017 555 92415=,,,,,,,,,,,,,,,,,,,,,,,,,,,,2009-06-10
72208013880,2016-06-25T09:56:00,FM-15,7,,SE,0.25,mi,"TEMP, PRECIP, SNOW",,,"MMTS, SRG, SNOWBOARD",,,WFO CHS,,,,,,,,,,,,,,,,,,,,,,,,,,,30.04,75,92,0.00,,-0.01,0,58,30.04,FEW:02 40 FEW:02 150 FEW:02 250,29.99,10.00,80,230,,9,,,,,,,,,,,,,,,,,,,,,,,,,,,,,,,,,,,,,MET11906/25/16 09:56:02 METAR KCHS 251456Z 23008KT 10SM FEW040 FEW150 FEW250 33/24 A3004 RMK AO2 SLP173 T03330239 50005 (KLJ),,,,,,,,,,,,,,,,,,,,,,,,,,,,2009-06-10
72208013880,2016-06-27T09:56:00,FM-15,7,,SE,0.25,mi,"TEMP, PRECIP, SNOW",,,"MMTS, SRG, SNOWBOARD",,,WFO CHS,,,,,,,,,,,,,,,,,,,,,,,,,,,30.08,71,85,0.00,,+0.02,8,63,30.08,SCT:04 28 BKN:07 35,30.03,10.00,75,VRB,,3,,,,,,,,,,,,,,,,,,,,,,,,,,,,,,,,,,,,,MET11206/27/16 09:56:02 METAR KCHS 271456Z VRB03KT 10SM SCT028 BKN035 29/22 A3008 RMK AO2 SLP186 T02940217 58006 (JMB),,,,,,,,,,,,,,,,,,,,,,,,,,,,2009-06-10
72208013880,2016-06-27T10:00:00,FM-12,4,,SE,0.25,mi,"TEMP, PRECIP, SNOW",,,"MMTS, SRG, SNOWBOARD",,,WFO CHS,,,,,,,,,,,,,,,,,,,,,,,,,,,30.08,71,85,,,+0.02,8,63,30.08,26,30.03,9.94,75,,,3,,,,,,,,,,,,,,,,,,,,,,,,,,,,,,,,,,,,,SYN06472208 32566 6//03 10294 20217 30170 40186 58006 91456 555 92715=,,,,,,,,,,,,,,,,,,,,,,,,,,,,2009-06-10
72208013880,2016-06-28T09:56:00,FM-15,7,,SE,0.25,mi,"TEMP, PRECIP, SNOW",,,"MMTS, SRG, SNOWBOARD",,,WFO CHS,,,,,,,,,,,,,,,,,,,,,,,,,,,29.99,72,88,0.00,,-0.01,0,59,29.98,FEW:02 25 SCT:04 75 BKN:07 250,29.94,10.00,77,000,,0,,,,,,,,,,,,,,,,,,,,,,,,,,,,,,,,,,,,,MET11906/28/16 09:56:02 METAR KCHS 281456Z 00000KT 10SM FEW025 SCT075 BKN250 31/22 A2999 RMK AO2 SLP154 T03110222 50002 (JMB),,,,,,,,,,,,,,,,,,,,,,,,,,,,2009-06-10
72208013880,2016-07-02T09:56:00,FM-15,7,,SE,0.25,mi,"TEMP, PRECIP, SNOW",,,"MMTS, SRG, SNOWBOARD",,,WFO CHS,,,,,,,,,,,,,,,,,,,,,,,,,,,30.07,75,85,0.00,,-0.02,0,72,30.06,FEW:02 18 SCT:04 25,30.02,10.00,78,280,,6,,,,,,,,,,,,,,,,,,,,,,,,,,,,,,,,,,,,,MET12407/02/16 09:56:02 METAR KCHS 021456Z 28005KT 10SM FEW018 SCT025 29/24 A3007 RMK AO2 SLP180 TCU DSNT SW T02940239 50006 (KLJ),,,,,,,,,,,,,,,,,,,,,,,,,,,,2009-06-10
72208013880,2016-07-04T09:56:00,FM-15,7,,SE,0.25,mi,"TEMP, PRECIP, SNOW",,,"MMTS, SRG, SNOWBOARD",,,WFO CHS,,,,,,,,,,,,,,,,,,,,,,,,,,,30.10,75,89,0.00,,-0.01,0,63,30.09,FEW:02 25 FEW:02 250,30.05,10.00,79,240,,13,,,,,,,,,,,,,,,,,,,,,,,,,,,,,,,,,,,,,MET11207/04/16 09:56:02 METAR KCHS 041456Z 24011KT 10SM FEW025 FEW250 32/24 A3010 RMK AO2 SLP191 T03170239 50004 (JMB),,,,,,,,,,,,,,,,,,,,,,,,,,,,2009-06-10
72208013880,2016-07-06T09:56:00,FM-15,7,,SE,0.25,mi,"TEMP, PRECIP, SNOW",,,"MMTS, SRG, SNOWBOARD",,,WFO CHS,,,,,,,,,,,,,,,,,,,,,,,,,,,30.07,72,91,0.00,,-0.00,0,54,30.07,CLR:00,30.02,10.00,78,260,,11,,,,,,,,,,,,,,,,,,,,,,,,,,,,,,,,,,,,,MET10207/06/16 09:56:02 METAR KCHS 061456Z 26010KT 10SM CLR 33/22 A3007 RMK AO2 SLP183 T03280222 50000 (JMB),,,,,,,,,,,,,,,,,,,,,,,,,,,,2009-06-10
72208013880,2016-07-07T09:56:00,FM-15,7,,SE,0.25,mi,"TEMP, PRECIP, SNOW",,,"MMTS, SRG, SNOWBOARD",,,WFO CHS,,,,,,,,,,,,,,,,,,,,,,,,,,,30.05,73,88,0.00,,-0.01,0,61,30.05,FEW:02 150 SCT:04 250,30.00,10.00,77,290,,13,,,,,,,,,,,,,,,,,,,,,,,,,,,,,,,,,,,,,MET11207/07/16 09:56:02 METAR KCHS 071456Z 29011KT 10SM FEW150 SCT250 31/23 A3005 RMK AO2 SLP175 T03110228 50003 (JMB),,,,,,,,,,,,,,,,,,,,,,,,,,,,2009-06-10
72208013880,2016-07-08T09:56:00,FM-15,7,,SE,0.25,mi,"TEMP, PRECIP, SNOW",,,"MMTS, SRG, SNOWBOARD",,,WFO CHS,,,,,,,,,,,,,,,,,,,,,,,,,,,30.01,73,89,T,,-0.01,0,59,30.01,FEW:02 45 SCT:04 120 SCT:04 200,29.96,10.00,78,VRB,,9,,,,,,,,,,,,,,,,,,,,,,,,,,,,,,,,,,,,,MET13707/08/16 09:56:02 METAR KCHS 081456Z 28008KT 10SM FEW045 SCT120 SCT200 32/23 A3001 RMK AO2 RAE04 SLP163 P0000 60000 T03170228 50004 (JMB),,,,,,,,,,,,,,,,,,,,,,,,,,,,2009-06-10
72208013880,2016-07-10T09:56:00,FM-15,7,,SE,0.25,mi,"TEMP, PRECIP, SNOW",,,"MMTS, SRG, SNOWBOARD",,,WFO CHS,,,,,,,,,,,,,,,,,,,,,,,,,,,30.02,73,89,0.00,,-0.01,0,59,30.02,FEW:02 250,29.97,10.00,78,220,,6,,,,,,,,,,,,,,,,,,,,,,,,,,,,,,,,,,,,,MET10507/10/16 09:56:02 METAR KCHS 101456Z 22005KT 10SM FEW250 32/23 A3002 RMK AO2 SLP165 T03170228 50002 (KLJ),,,,,,,,,,,,,,,,,,,,,,,,,,,,2009-06-10
72208013880,2016-07-25T09:56:00,FM-15,7,,SE,0.25,mi,"TEMP, PRECIP, SNOW",,,"MMTS, SRG, SNOWBOARD",,,WFO CHS,,,,,,,,,,,,,,,,,,,,,,,,,,,30.09,74,88,0.00,,-0.00,0,63,30.08,SCT:04 30 SCT:04 250,30.04,10.00,78,180,,6,,,,,,,,,,,,,,,,,,,,,,,,,,,,,,,,,,,,,MET11207/25/16 09:56:02 METAR KCHS 251456Z 18005KT 10SM SCT030 SCT250 31/23 A3009 RMK AO2 SLP187 T03110233 50000 (JMB),,,,,,,,,,,,,,,,,,,,,,,,,,,,2009-06-10
72208013880,2016-07-26T09:56:00,FM-15,7,,SE,0.25,mi,"TEMP, PRECIP, SNOW",,,"MMTS, SRG, SNOWBOARD",,,WFO CHS,,,,,,,,,,,,,,,,,,,,,,,,,,,30.06,74,89,0.00,,-0.01,0,61,30.06,FEW:02 250,30.01,10.00,78,VRB,,3,,,,,,,,,,,,,,,,,,,,,,,,,,,,,,,,,,,,,MET10507/26/16 09:56:02 METAR KCHS 261456Z VRB03KT 10SM FEW250 32/23 A3006 RMK AO2 SLP179 T03170233 50005 (JMB),,,,,,,,,,,,,,,,,,,,,,,,,,,,2009-06-10
72208013880,2016-07-28T09:56:00,FM-15,7,,SE,0.25,mi,"TEMP, PRECIP, SNOW",,,"MMTS, SRG, SNOWBOARD",,,WFO CHS,,,,,,,,,,,,,,,,,,,,,,,,,,,30.01,73,92,0.00,,-0.01,0,54,30.01,CLR:00,29.96,10.00,78,300,,9,,,,,,,,,,,,,,,,,,,,,,,,,,,,,,,,,,,,,MET10207/28/16 09:56:02 METAR KCHS 281456Z 30008KT 10SM CLR 33/23 A3001 RMK AO2 SLP163 T03330228 50003 (JMB),,,,,,,,,,,,,,,,,,,,,,,,,,,,2009-06-10
72208013880,2016-07-29T09:56:00,FM-15,7,,SE,0.25,mi,"TEMP, PRECIP, SNOW",,,"MMTS, SRG, SNOWBOARD",,,WFO CHS,,,,,,,,,,,,,,,,,,,,,,,,,,,29.98,71,92,0.00,,+0.00,8,51,29.98,FEW:02 250,29.93,10.00,77,270,18,11,,,,,,,,,,,,,,,,,,,,,,,,,,,,,,,,,,,,,MET10807/29/16 09:56:02 METAR KCHS 291456Z 27010G16KT 10SM FEW250 33/22 A2998 RMK AO2 SLP152 T03330217 58000 (JMB),,,,,,,,,,,,,,,,,,,,,,,,,,,,2009-06-10
72208013880,2016-07-29T10:00:00,FM-12,4,,SE,0.25,mi,"TEMP, PRECIP, SNOW",,,"MMTS, SRG, SNOWBOARD",,,WFO CHS,,,,,,,,,,,,,,,,,,,,,,,,,,,29.98,71,92,,,0.00,4,51,29.98,,29.93,9.94,77,270,,11,,,,,,,,,,,,,,,,,,,,,,,,,,,,,,,,,,,,,SYN07472208 32966 22710 10333 20217 30136 40152 58000 91456 333 91016 555 92915=,,,,,,,,,,,,,,,,,,,,,,,,,,,,2009-06-10
72208013880,2016-08-05T09:56:00,FM-15,7,,SE,0.25,mi,"TEMP, PRECIP, SNOW",,,"MMTS, SRG, SNOWBOARD",,,WFO CHS,,,,,,,,,,,,,,,,,,,,,,,,,,,30.00,74,81,0.00,,-0.00,0,79,30.00,FEW:02 40 FEW:02 90 BKN:07 250,29.95,10.00,76,000,,0,,,,,,,,,,,,,,,,,,,,,,,,,,,,,,,,,,,,,MET14608/05/16 09:56:02 METAR KCHS 051456Z 00000KT 10SM FEW040 FEW090 BKN250 27/23 A3000 RMK AO2 TSE09 SLP159 TCU DSNT ALQDS 60008 T02720233 50001 (KLJ),,,,,,,,,,,,,,,,,,,,,,,,,,,,2009-06-10
72208013880,2016-08-06T09:56:00,FM-15,7,,SE,0.25,mi,"TEMP, PRECIP, SNOW",,,"MMTS, SRG, SNOWBOARD",,,WFO CHS,,,,,,,,,,,,,,,,,,,,,,,,,,,29.95,73,87,0.00,,+0.01,8,63,29.95,FEW:02 30 SCT:04 55,29.90,10.00,77,250,,9,,,,,,,,,,,,,,,,,,,,,,,,,,,,,,,,,,,,,MET11208/06/16 09:56:02 METAR KCHS 061456Z 25008KT 10SM FEW030 SCT055 31/23 A2995 RMK AO2 SLP142 T03060228 58005 (KLJ),,,,,,,,,,,,,,,,,,,,,,,,,,,,2009-06-10
72208013880,2016-08-06T10:00:00,FM-12,4,,SE,0.25,mi,"TEMP, PRECIP, SNOW",,,"MMTS, SRG, SNOWBOARD",,,WFO CHS,,,,,,,,,,,,,,,,,,,,,,,,,,,29.95,73,87,,,+0.01,8,63,29.95,26,29.90,9.94,77,250,,9,,,,,,,,,,,,,,,,,,,,,,,,,,,,,,,,,,,,,SYN06472208 32566 42508 10306 20228 30126 40142 58005 91456 555 90615=,,,,,,,,,,,,,,,,,,,,,,,,,,,,2009-06-10
72208013880,2016-08-11T09:56:00,FM-15,7,,SE,0.25,mi,"TEMP, PRECIP, SNOW",,,"MMTS, SRG, SNOWBOARD",,,WFO CHS,,,,,,,,,,,,,,,,,,,,,,,,,,,30.13,75,88,0.00,,+0.01,8,66,30.12,SCT:04 25 BKN:07 250,30.08,10.00,79,110,,10,,,,,,,,,,,,,,,,,,,,,,,,,,,,,,,,,,,,,MET11208/11/16 09:56:02 METAR KCHS 111456Z 11009KT 10SM SCT025 BKN250 31/24 A3013 RMK AO2 SLP200 T03110239 58003 (JMB),,,,,,,,,,,,,,,,,,,,,,,,,,,,2009-06-10
72208013880,2016-08-11T10:00:00,FM-12,4,,SE,0.25,mi,"TEMP, PRECIP, SNOW",,,"MMTS, SRG, SNOWBOARD",,,WFO CHS,,,,,,,,,,,,,,,,,,,,,,,,,,,30.13,75,88,,,+0.01,8,66,30.12,26,30.08,9.94,79,110,,10,,,,,,,,,,,,,,,,,,,,,,,,,,,,,,,,,,,,,SYN06472208 32566 61109 10311 20239 30187 40200 58003 91456 555 91115=,,,,,,,,,,,,,,,,,,,,,,,,,,,,2009-06-10
72208013880,2016-08-16T09:56:00,FM-15,7,,SE,0.25,mi,"TEMP, PRECIP, SNOW",,,"MMTS, SRG, SNOWBOARD",,,WFO CHS,,,,,,,,,,,,,,,,,,,,,,,,,,,30.23,74,90,0.00,,-0.01,0,59,30.23,SCT:04 35,30.18,10.00,79,VRB,,3,,,,,,,,,,,,,,,,,,,,,,,,,,,,,,,,,,,,,MET10508/16/16 09:56:02 METAR KCHS 161456Z VRB03KT 10SM SCT035 32/23 A3023 RMK AO2 SLP237 T03220233 50004 (JMB),,,,,,,,,,,,,,,,,,,,,,,,,,,,2009-06-10
72208013880,2016-08-17T09:56:00,FM-15,7,,SE,0.25,mi,"TEMP, PRECIP, SNOW",,,"MMTS, SRG, SNOWBOARD",,,WFO CHS,,,,,,,,,,,,,,,,,,,,,,,,,,,30.20,72,84,0.00,,+0.00,8,67,30.20,SCT:04 35 SCT:04 250,30.15,10.00,76,230,,5,,,,,,,,,,,,,,,,,,,,,,,,,,,,,,,,,,,,,MET11208/17/16 09:56:02 METAR KCHS 171456Z 23004KT 10SM SCT035 SCT250 29/22 A3020 RMK AO2 SLP226 T02890222 58001 (JMB),,,,,,,,,,,,,,,,,,,,,,,,,,,,2009-06-10
72208013880,2016-08-17T10:00:00,FM-12,4,,SE,0.25,mi,"TEMP, PRECIP, SNOW",,,"MMTS, SRG, SNOWBOARD",,,WFO CHS,,,,,,,,,,,,,,,,,,,,,,,,,,,30.20,72,84,,,+0.00,8,67,30.20,41,30.15,9.94,76,230,,5,,,,,,,,,,,,,,,,,,,,,,,,,,,,,,,,,,,,,SYN06472208 32666 42304 10289 20222 30211 40226 58001 91456 555 91715=,,,,,,,,,,,,,,,,,,,,,,,,,,,,2009-06-10
72208013880,2016-08-18T09:56:00,FM-15,7,,SE,0.25,mi,"TEMP, PRECIP, SNOW",,,"MMTS, SRG, SNOWBOARD",,,WFO CHS,,,,,,,,,,,,,,,,,,,,,,,,,,,30.13,73,89,0.00,,+0.01,8,59,30.12,FEW:02 35 FEW:02 250,30.08,10.00,78,240,,5,,,,,,,,,,,,,,,,,,,,,,,,,,,,,,,,,,,,,MET11208/18/16 09:56:02 METAR KCHS 181456Z 24004KT 10SM FEW035 FEW250 32/23 A3013 RMK AO2 SLP201 T03170228 58002 (JMB),,,,,,,,,,,,,,,,,,,,,,,,,,,,2009-06-10
72208013880,2016-08-18T10:00:00,FM-12,4,,SE,0.25,mi,"TEMP, PRECIP, SNOW",,,"MMTS, SRG, SNOWBOARD",,,WFO CHS,,,,,,,,,,,,,,,,,,,,,,,,,,,30.13,73,89,,,+0.01,8,59,30.12,41,30.08,9.94,78,240,,5,,,,,,,,,,,,,,,,,,,,,,,,,,,,,,,,,,,,,SYN06472208 32666 22404 10317 20228 30187 40201 58002 91456 555 91815=,,,,,,,,,,,,,,,,,,,,,,,,,,,,2009-06-10
72208013880,2016-08-19T09:56:00,FM-15,7,,SE,0.25,mi,"TEMP, PRECIP, SNOW",,,"MMTS, SRG, SNOWBOARD",,,WFO CHS,,,,,,,,,,,,,,,,,,,,,,,,,,,30.03,72,87,0.00,,+0.01,8,61,30.03,FEW:02 45 FEW:02 100 BKN:07 250,29.98,10.00,77,VRB,,6,,,,,,,,,,,,,,,,,,,,,,,,,,,,,,,,,,,,,MET11908/19/16 09:56:02 METAR KCHS 191456Z VRB05KT 10SM FEW045 FEW100 BKN250 31/22 A3003 RMK AO2 SLP169 T03060222 58003 (JMB),,,,,,,,,,,,,,,,,,,,,,,,,,,,2009-06-10
72208013880,2016-08-19T10:00:00,FM-12,4,,SE,0.25,mi,"TEMP, PRECIP, SNOW",,,"MMTS, SRG, SNOWBOARD",,,WFO CHS,,,,,,,,,,,,,,,,,,,,,,,,,,,30.03,72,87,,,+0.01,8,61,30.03,41,29.98,9.94,77,,,6,,,,,,,,,,,,,,,,,,,,,,,,,,,,,,,,,,,,,SYN06472208 32666 6//05 10306 20222 30153 40169 58003 91456 555 91915=,,,,,,,,,,,,,,,,,,,,,,,,,,,,2009-06-10
72208013880,2016-08-28T09:56:00,FM-15,7,,SE,0.25,mi,"TEMP, PRECIP, SNOW",,,"MMTS, SRG, SNOWBOARD",,,WFO CHS,,,,,,,,,,,,,,,,,,,,,,,,,,,30.12,73,86,0.00,,-0.01,0,65,30.11,BKN:07 25 BKN:07 32,30.07,10.00,77,020,,6,,,,,,,,,,,,,,,,,,,,,,,,,,,,,,,,,,,,,MET11208/28/16 09:56:02 METAR KCHS 281456Z 02005KT 10SM BKN025 BKN032 30/23 A3012 RMK AO2 SLP198 T03000228 50005 (KLJ),,,,,,,,,,,,,,,,,,,,,,,,,,,,2009-06-10
72208013880,2016-09-01T09:56:00,FM-15,7,,SE,0.25,mi,"TEMP, PRECIP, SNOW",,,"MMTS, SRG, SNOWBOARD",,,WFO CHS,,,,,,,,,,,,,,,,,,,,,,,,,,,29.94,73,84,0.00,,-0.02,0,70,29.94,FEW:02 25 SCT:04 120 BKN:07 250,29.89,10.00,76,230,,8,,,,,,,,,,,,,,,,,,,,,,,,,,,,,,,,,,,,,MET11909/01/16 09:56:02 METAR KCHS 011456Z 23007KT 10SM FEW025 SCT120 BKN250 29/23 A2994 RMK AO2 SLP138 T02890228 50006 (JMB),,,,,,,,,,,,,,,,,,,,,,,,,,,,2009-06-10
72208013880,2016-09-02T09:56:00,FM-15,7,,SE,0.25,mi,"TEMP, PRECIP, SNOW",,,"MMTS, SRG, SNOWBOARD",,,WFO CHS,,,,,,,,,,,,,,,,,,,,,,,,,,,29.75,76,79,0.18,-RA:02 BR:1 |RA |,+0.09,6,90,29.75,SCT:04 10 BKN:07 15 OVC:08 30,29.70,4.00,77,130,21,13,,,,,,,,,,,,,,,,,,,,,,,,,,,,,,,,,,,,,MET16709/02/16 09:56:02 METAR KCHS 021456Z 13011G18KT 4SM -RA BR SCT010 BKN015 OVC030 26/24 A2975 RMK AO2 PK WND 14029/1418 RAE25B49 SLP074 P0025 60102 T02610244 56032 (JMB),,,,,,,,,,,,,,,,,,,,,,,,,,,,2009-06-10
72208013880,2016-09-02T10:00:00,FM-12,4,,SE,0.25,mi,"TEMP, PRECIP, SNOW",,,"MMTS, SRG, SNOWBOARD",,,WFO CHS,,,,,,,,,,,,,,,,,,,,,,,,,,,29.75,76,79,,||RA,+0.09,6,90,29.75,15,29.70,3.73,77,130,,13,,,,,,,,,,,,,,,,,,,,,,,,,,,,,,,,,,,,,SYN09272208 11456 81311 10261 20244 30058 40074 56032 60267 761// 91456 333 91018 96010 555 90215=,,,,,,,,,,,,,,,,,,,,,,,,,,,,2009-06-10
72208013880,2016-09-08T09:56:00,FM-15,7,,SE,0.25,mi,"TEMP, PRECIP, SNOW",,,"MMTS, SRG, SNOWBOARD",,,WFO CHS,,,,,,,,,,,,,,,,,,,,,,,,,,,30.12,68,85,0.00,,-0.01,0,57,30.12,SCT:04 250,30.07,10.00,74,240,,8,,,,,,,,,,,,,,,,,,,,,,,,,,,,,,,,,,,,,MET10509/08/16 09:56:02 METAR KCHS 081456Z 24007KT 10SM SCT250 29/20 A3012 RMK AO2 SLP200 T02940200 50004 (JMB),,,,,,,,,,,,,,,,,,,,,,,,,,,,2009-06-10
72208013880,2016-09-09T09:56:00,FM-15,7,,SE,0.25,mi,"TEMP, PRECIP, SNOW",,,"MMTS, SRG, SNOWBOARD",,,WFO CHS,,,,,,,,,,,,,,,,,,,,,,,,,,,30.08,66,86,0.00,,-0.01,0,51,30.08,SCT:04 250,30.03,10.00,73,240,,9,,,,,,,,,,,,,,,,,,,,,,,,,,,,,,,,,,,,,MET10509/09/16 09:56:02 METAR KCHS 091456Z 24008KT 10SM SCT250 30/19 A3008 RMK AO2 SLP187 T03000189 50003 (JMB),,,,,,,,,,,,,,,,,,,,,,,,,,,,2009-06-10
72208013880,2016-09-10T09:56:00,FM-15,7,,SE,0.25,mi,"TEMP, PRECIP, SNOW",,,"MMTS, SRG, SNOWBOARD",,,WFO CHS,,,,,,,,,,,,,,,,,,,,,,,,,,,30.13,67,87,0.00,,-0.03,0,51,30.12,FEW:02 50 FEW:02 150,30.08,10.00,74,230,,9,,,,,,,,,,,,,,,,,,,,,,,,,,,,,,,,,,,,,MET11209/10/16 09:56:02 METAR KCHS 101456Z 23008KT 10SM FEW050 FEW150 31/19 A3013 RMK AO2 SLP201 T03060194 50010 (KLJ),,,,,,,,,,,,,,,,,,,,,,,,,,,,2009-06-10
72208013880,2016-09-13T09:56:00,FM-15,7,,SE,0.25,mi,"TEMP, PRECIP, SNOW",,,"MMTS, SRG, SNOWBOARD",,,WFO CHS,,,,,,,,,,,,,,,,,,,,,,,,,,,30.16,73,77,0.00,,-0.03,0,88,30.16,SCT:04 10 BKN:07 80 BKN:07 200,30.11,10.00,74,030,,10,,,,,,,,,,,,,,,,,,,,,,,,,,,,,,,,,,,,,MET11909/13/16 09:56:02 METAR KCHS 131456Z 03009KT 10SM SCT010 BKN080 BKN200 25/23 A3016 RMK AO2 SLP213 T02500228 50010 (JMB),,,,,,,,,,,,,,,,,,,,,,,,,,,,2009-06-10
72208013880,2016-09-18T09:56:00,FM-15,7,,SE,0.25,mi,"TEMP, PRECIP, SNOW",,,"MMTS, SRG, SNOWBOARD",,,WFO CHS,,,,,,,,,,,,,,,,,,,,,,,,,,,30.00,74,85,0.00,,+0.01,8,70,30.00,FEW:02 12 FEW:02 18 SCT:04 25,29.95,10.00,77,360,,9,,,,,,,,,,,,,,,,,,,,,,,,,,,,,,,,,,,,,MET11909/18/16 09:56:02 METAR KCHS 181456Z 36008KT 10SM FEW012 FEW018 SCT025 29/23 A3000 RMK AO2 SLP158 T02940233 58004 (KLJ),,,,,,,,,,,,,,,,,,,,,,,,,,,,2009-06-10
72208013880,2016-09-18T10:00:00,FM-12,4,,SE,0.25,mi,"TEMP, PRECIP, SNOW",,,"MMTS, SRG, SNOWBOARD",,,WFO CHS,,,,,,,,,,,,,,,,,,,,,,,,,,,30.00,74,85,,,+0.01,8,70,30.00,15,29.95,9.94,77,360,,9,,,,,,,,,,,,,,,,,,,,,,,,,,,,,,,,,,,,,SYN06472208 32466 43608 10294 20233 30143 40158 58004 91456 555 91815=,,,,,,,,,,,,,,,,,,,,,,,,,,,,2009-06-10
72208013880,2016-09-21T09:56:00,FM-15,7,,SE,0.25,mi,"TEMP, PRECIP, SNOW",,,"MMTS, SRG, SNOWBOARD",,,WFO CHS,,,,,,,,,,,,,,,,,,,,,,,,,,,29.99,69,78,0.00,,+0.01,8,74,29.99,SCT:04 25 BKN:07 80 BKN:07 200,29.94,10.00,72,320,,8,,,,,,,,,,,,,,,,,,,,,,,,,,,,,,,,,,,,,MET12509/21/16 09:56:02 METAR KCHS 211456Z 32007KT 10SM SCT025 BKN080 BKN200 26/21 A2999 RMK AO2 SLP156 60000 T02560206 58002 (JMB),,,,,,,,,,,,,,,,,,,,,,,,,,,,2009-06-10
72208013880,2016-09-21T10:00:00,FM-12,4,,SE,0.25,mi,"TEMP, PRECIP, SNOW",,,"MMTS, SRG, SNOWBOARD",,,WFO CHS,,,,,,,,,,,,,,,,,,,,,,,,,,,29.99,69,78,,,+0.01,8,74,29.99,26,29.94,9.94,72,320,,8,,,,,,,,,,,,,,,,,,,,,,,,,,,,,,,,,,,,,SYN07072208 12566 63207 10256 20206 30140 40156 58002 69907 91456 555 92115=,,,,,,,,,,,,,,,,,,,,,,,,,,,,2009-06-10
72208013880,2016-09-27T09:56:00,FM-15,7,,SE,0.25,mi,"TEMP, PRECIP, SNOW",,,"MMTS, SRG, SNOWBOARD",,,WFO CHS,,,,,,,,,,,,,,,,,,,,,,,,,,,29.96,72,80,0.00,,-0.01,0,76,29.96,SCT:04 10 BKN:07 150,29.91,7.00,75,VRB,,3,,,,,,,,,,,,,,,,,,,,,,,,,,,,,,,,,,,,,MET11109/27/16 09:56:02 METAR KCHS 271456Z VRB03KT 7SM SCT010 BKN150 27/22 A2996 RMK AO2 SLP144 T02670222 50003 (JMB),,,,,,,,,,,,,,,,,,,,,,,,,,,,2009-06-10
72208013880,2016-09-29T09:56:00,FM-15,7,,SE,0.25,mi,"TEMP, PRECIP, SNOW",,,"MMTS, SRG, SNOWBOARD",,,WFO CHS,,,,,,,,,,,,,,,,,,,,,,,,,,,29.97,73,83,0.00,,-0.03,0,72,29.97,FEW:02 17 SCT:04 200,29.92,10.00,76,200,,7,,,,,,,,,,,,,,,,,,,,,,,,,,,,,,,,,,,,,MET11209/29/16 09:56:02 METAR KCHS 291456Z 20006KT 10SM FEW017 SCT200 28/23 A2997 RMK AO2 SLP149 T02830228 50011 (JMB),,,,,,,,,,,,,,,,,,,,,,,,,,,,2009-06-10
72208013880,2016-10-01T09:56:00,FM-15,7,,SE,0.25,mi,"TEMP, PRECIP, SNOW",,,"MMTS, SRG, SNOWBOARD",,,WFO CHS,,,,,,,,,,,,,,,,,,,,,,,,,,,30.06,62,81,0.00,,+0.00,8,53,30.06,FEW:02 60 FEW:02 250,30.01,10.00,69,090,,6,,,,,,,,,,,,,,,,,,,,,,,,,,,,,,,,,,,,,MET11210/01/16 09:56:02 METAR KCHS 011456Z 09005KT 10SM FEW060 FEW250 27/17 A3006 RMK AO2 SLP179 T02720167 58000 (KLJ),,,,,,,,,,,,,,,,,,,,,,,,,,,,2009-06-10
72208013880,2016-10-01T10:00:00,FM-12,4,,SE,0.25,mi,"TEMP, PRECIP, SNOW",,,"MMTS, SRG, SNOWBOARD",,,WFO CHS,,,,,,,,,,,,,,,,,,,,,,,,,,,30.06,62,81,,,0.00,4,53,30.06,57,30.01,9.94,69,090,,6,,,,,,,,,,,,,,,,,,,,,,,,,,,,,,,,,,,,,SYN06472208 32766 20905 10272 20167 30163 40179 58000 91456 555 90115=,,,,,,,,,,,,,,,,,,,,,,,,,,,,2009-06-10
72208013880,2016-10-02T09:56:00,FM-15,7,,SE,0.25,mi,"TEMP, PRECIP, SNOW",,,"MMTS, SRG, SNOWBOARD",,,WFO CHS,,,,,,,,,,,,,,,,,,,,,,,,,,,30.06,59,81,0.00,,-0.01,0,47,30.06,FEW:02 150 BKN:07 200,30.01,10.00,67,080,,6,,,,,,,,,,,,,,,,,,,,,,,,,,,,,,,,,,,,,MET11210/02/16 09:56:02 METAR KCHS 021456Z 08005KT 10SM FEW150 BKN200 27/15 A3006 RMK AO2 SLP178 T02720150 50004 (KLJ),,,,,,,,,,,,,,,,,,,,,,,,,,,,2009-06-10
72208013880,2016-10-07T09:56:00,FM-15,7,,SE,0.25,mi,"TEMP, PRECIP, SNOW",,,"MMTS, SRG, SNOWBOARD",,,WFO CHS,,,,,,,,,,,,,,,,,,,,,,,,,,,29.88,73,78,0.00,,+0.03,8,85,29.87,OVC:08 7,29.83,10.00,75,040,21,15,,,,,,,,,,,,,,,,,,,,,,,,,,,,,,,,,,,,,MET12610/07/16 09:56:02 METAR KCHS 071456Z 04013G18KT 10SM OVC007 26/23 A2988 RMK AO2 CIG 006V012 SLP116 60000 T02560228 58011 (JMB),,,,,,,,,,,,,,,,,,,,,,,,,,,,2009-06-10
72208013880,2016-10-07T10:00:00,FM-12,4,,SE,0.25,mi,"TEMP, PRECIP, SNOW",,,"MMTS, SRG, SNOWBOARD",,,WFO CHS,,,,,,,,,,,,,,,,,,,,,,,,,,,29.88,73,78,,,+0.03,8,85,29.87,8,29.83,9.94,75,040,,15,,,,,,,,,,,,,,,,,,,,,,,,,,,,,,,,,,,,,SYN08072208 12366 80413 10256 20228 30102 40116 58011 69907 91456 333 91018 555 90715=,,,,,,,,,,,,,,,,,,,,,,,,,,,,2009-06-10
72208013880,2016-10-10T09:56:00,FM-15,7,,SE,0.25,mi,"TEMP, PRECIP, SNOW",,,"MMTS, SRG, SNOWBOARD",,,WFO CHS,,,,,,,,,,,,,,,,,,,,,,,,,,,30.31,44,65,0.00,,-0.03,0,47,30.30,FEW:02 30 FEW:02 250,30.26,10.00,54,060,28,17,,,,,,,,,,,,,,,,,,,,,,,,,,,,,,,,,,,,,MET11510/10/16 09:56:02 METAR KCHS 101456Z 06015G24KT 10SM FEW030 FEW250 18/07 A3031 RMK AO2 SLP262 T01830067 50011 (KLJ),,,,,,,,,,,,,,,,,,,,,,,,,,,,2009-06-10
72208013880,2016-10-11T09:56:00,FM-15,7,,SE,0.25,mi,"TEMP, PRECIP, SNOW",,,"MMTS, SRG, SNOWBOARD",,,WFO CHS,,,,,,,,,,,,,,,,,,,,,,,,,,,30.35,50,67,0.00,,-0.03,0,55,30.35,SCT:04 250,30.29,10.00,58,020,,11,,,,,,,,,,,,,,,,,,,,,,,,,,,,,,,,,,,,,MET10710/11/16 09:56:02 METAR KCHS 111456Z 02010KT 10SM SCT250 19/10 A3035 RMK AO2 SLP277 T01940100 50010 $ (JMB),,,,,,,,,,,,,,,,,,,,,,,,,,,,2009-06-10
72208013880,2016-10-12T09:56:00,FM-15,7,,SE,0.25,mi,"TEMP, PRECIP, SNOW",,,"MMTS, SRG, SNOWBOARD",,,WFO CHS,,,,,,,,,,,,,,,,,,,,,,,,,,,30.24,58,72,0.00,,-0.01,0,61,30.24,BKN:07 70,30.19,10.00,64,040,,11,,,,,,,,,,,,,,,,,,,,,,,,,,,,,,,,,,,,,MET10510/12/16 09:56:02 METAR KCHS 121456Z 04010KT 10SM BKN070 22/14 A3024 RMK AO2 SLP240 T02220144 50005 (JMB),,,,,,,,,,,,,,,,,,,,,,,,,,,,2009-06-10
72208013880,2016-10-13T09:56:00,FM-15,7,,SE,0.25,mi,"TEMP, PRECIP, SNOW",,,"MMTS, SRG, SNOWBOARD",,,WFO CHS,,,,,,,,,,,,,,,,,,,,,,,,,,,30.17,59,76,0.00,,-0.02,0,56,30.16,FEW:02 40,30.12,10.00,66,360,17,8,,,,,,,,,,,,,,,,,,,,,,,,,,,,,,,,,,,,,MET10810/13/16 09:56:02 METAR KCHS 131456Z 36007G15KT 10SM FEW040 24/15 A3017 RMK AO2 SLP214 T02440150 50007 (JMB),,,,,,,,,,,,,,,,,,,,,,,,,,,,2009-06-10
72208013880,2016-10-14T09:56:00,FM-15,7,,SE,0.25,mi,"TEMP, PRECIP, SNOW",,,"MMTS, SRG, SNOWBOARD",,,WFO CHS,,,,,,,,,,,,,,,,,,,,,,,,,,,30.26,60,75,0.00,,-0.04,0,60,30.25,FEW:02 250,30.21,10.00,66,060,,8,,,,,,,,,,,,,,,,,,,,,,,,,,,,,,,,,,,,,MET10510/14/16 09:56:02 METAR KCHS 141456Z 06007KT 10SM FEW250 24/16 A3026 RMK AO2 SLP245 T02390156 50012 (JMB),,,,,,,,,,,,,,,,,,,,,,,,,,,,2009-06-10
72208013880,2016-10-16T09:56:00,FM-15,7,,SE,0.25,mi,"TEMP, PRECIP, SNOW",,,"MMTS, SRG, SNOWBOARD",,,WFO CHS,,,,,,,,,,,,,,,,,,,,,,,,,,,30.21,62,76,0.00,,-0.00,0,62,30.21,FEW:02 70 FEW:02 220,30.16,10.00,67,060,,8,,,,,,,,,,,,,,,,,,,,,,,,,,,,,,,,,,,,,MET11110/16/16 09:56:02 METAR KCHS 161456Z 06007KT 10SM FEW070 FEW220 24/17 A3021 RMK AO2 SLP230 T02440167 50000 (MH),,,,,,,,,,,,,,,,,,,,,,,,,,,,2009-06-10
72208013880,2016-10-17T09:56:00,FM-15,7,,SE,0.25,mi,"TEMP, PRECIP, SNOW",,,"MMTS, SRG, SNOWBOARD",,,WFO CHS,,,,,,,,,,,,,,,,,,,,,,,,,,,30.10,66,79,0.00,,-0.01,0,65,30.10,CLR:00,30.05,10.00,71,070,,6,,,,,,,,,,,,,,,,,,,,,,,,,,,,,,,,,,,,,MET10210/17/16 09:56:02 METAR KCHS 171456Z 07005KT 10SM CLR 26/19 A3010 RMK AO2 SLP192 T02610189 50005 (JMB),,,,,,,,,,,,,,,,,,,,,,,,,,,,2009-06-10
72208013880,2016-10-19T09:56:00,FM-15,7,,SE,0.25,mi,"TEMP, PRECIP, SNOW",,,"MMTS, SRG, SNOWBOARD",,,WFO CHS,,,,,,,,,,,,,,,,,,,,,,,,,,,30.13,64,80,0.00,,-0.02,0,58,30.13,CLR:00,30.08,10.00,70,270,,8,,,,,,,,,,,,,,,,,,,,,,,,,,,,,,,,,,,,,MET10210/19/16 09:56:02 METAR KCHS 191456Z 27007KT 10SM CLR 27/18 A3013 RMK AO2 SLP202 T02670178 50006 (JMB),,,,,,,,,,,,,,,,,,,,,,,,,,,,2009-06-10
72208013880,2016-10-20T09:56:00,FM-15,7,,SE,0.25,mi,"TEMP, PRECIP, SNOW",,,"MMTS, SRG, SNOWBOARD",,,WFO CHS,,,,,,,,,,,,,,,,,,,,,,,,,,,30.06,66,79,0.00,,+0.01,8,65,30.06,FEW:02 60,30.01,10.00,71,030,,6,,,,,,,,,,,,,,,,,,,,,,,,,,,,,,,,,,,,,MET10510/20/16 09:56:02 METAR KCHS 201456Z 03005KT 10SM FEW060 26/19 A3006 RMK AO2 SLP178 T02610189 58002 (JMB),,,,,,,,,,,,,,,,,,,,,,,,,,,,2009-06-10
72208013880,2016-10-20T10:00:00,FM-12,4,,SE,0.25,mi,"TEMP, PRECIP, SNOW",,,"MMTS, SRG, SNOWBOARD",,,WFO CHS,,,,,,,,,,,,,,,,,,,,,,,,,,,30.06,66,79,,,+0.01,8,65,30.06,57,30.01,9.94,71,030,,6,,,,,,,,,,,,,,,,,,,,,,,,,,,,,,,,,,,,,SYN06472208 32766 20305 10261 20189 30163 40178 58002 91456 555 92015=,,,,,,,,,,,,,,,,,,,,,,,,,,,,2009-06-10
72208013880,2016-10-21T09:56:00,FM-15,7,,SE,0.25,mi,"TEMP, PRECIP, SNOW",,,"MMTS, SRG, SNOWBOARD",,,WFO CHS,,,,,,,,,,,,,,,,,,,,,,,,,,,29.76,65,78,0.00,,+0.04,8,64,29.76,CLR:00,29.71,10.00,70,240,,8,,,,,,,,,,,,,,,,,,,,,,,,,,,,,,,,,,,,,MET10210/21/16 09:56:02 METAR KCHS 211456Z 24007KT 10SM CLR 26/18 A2976 RMK AO2 SLP077 T02560183 58014 (KLJ),,,,,,,,,,,,,,,,,,,,,,,,,,,,2009-06-10
72208013880,2016-10-21T10:00:00,FM-12,4,,SE,0.25,mi,"TEMP, PRECIP, SNOW",,,"MMTS, SRG, SNOWBOARD",,,WFO CHS,,,,,,,,,,,,,,,,,,,,,,,,,,,29.76,65,78,,,+0.04,8,64,29.76,,29.71,9.94,70,240,,8,,,,,,,,,,,,,,,,,,,,,,,,,,,,,,,,,,,,,SYN06472208 32966 02407 10256 20183 30062 40077 58014 91456 555 92115=,,,,,,,,,,,,,,,,,,,,,,,,,,,,2009-06-10
72208013880,2016-10-22T09:56:00,FM-15,7,,SE,0.25,mi,"TEMP, PRECIP, SNOW",,,"MMTS, SRG, SNOWBOARD",,,WFO CHS,,,,,,,,,,,,,,,,,,,,,,,,,,,29.97,40,63,0.00,,-0.03,0,43,29.97,FEW:02 120,29.92,10.00,52,350,22,15,,,,,,,,,,,,,,,,,,,,,,,,,,,,,,,,,,,,,MET10710/22/16 09:56:02 METAR KCHS 221456Z 35013G19KT 10SM FEW120 17/04 A2997 RMK AO2 SLP148 T01720044 50009 (MH),,,,,,,,,,,,,,,,,,,,,,,,,,,,2009-06-10
72208013880,2016-10-24T09:56:00,FM-15,7,,SE,0.25,mi,"TEMP, PRECIP, SNOW",,,"MMTS, SRG, SNOWBOARD",,,WFO CHS,,,,,,,,,,,,,,,,,,,,,,,,,,,30.22,47,68,0.00,,+0.00,8,47,30.22,SCT:04 250,30.17,10.00,57,260,,11,,,,,,,,,,,,,,,,,,,,,,,,,,,,,,,,,,,,,MET10510/24/16 09:56:02 METAR KCHS 241456Z 26010KT 10SM SCT250 20/08 A3022 RMK AO2 SLP234 T02000083 58001 (JMB),,,,,,,,,,,,,,,,,,,,,,,,,,,,2009-06-10
72208013880,2016-10-24T10:00:00,FM-12,4,,SE,0.25,mi,"TEMP, PRECIP, SNOW",,,"MMTS, SRG, SNOWBOARD",,,WFO CHS,,,,,,,,,,,,,,,,,,,,,,,,,,,30.22,47,68,,,+0.00,8,47,30.22,,30.17,9.94,57,260,,11,,,,,,,,,,,,,,,,,,,,,,,,,,,,,,,,,,,,,SYN06472208 32966 42610 10200 20083 30217 40234 58001 91456 555 92415=,,,,,,,,,,,,,,,,,,,,,,,,,,,,2009-06-10
72208013880,2016-10-28T09:56:00,FM-15,7,,SE,0.25,mi,"TEMP, PRECIP, SNOW",,,"MMTS, SRG, SNOWBOARD",,,WFO CHS,,,,,,,,,,,,,,,,,,,,,,,,,,,30.27,61,74,0.00,,-0.04,0,64,30.27,BKN:07 250,30.22,10.00,66,310,,7,,,,,,,,,,,,,,,,,,,,,,,,,,,,,,,,,,,,,MET10510/28/16 09:56:02 METAR KCHS 281456Z 31006KT 10SM BKN250 23/16 A3027 RMK AO2 SLP250 T02330161 50012 (JMB),,,,,,,,,,,,,,,,,,,,,,,,,,,,2009-06-10
72208013880,2016-10-29T09:56:00,FM-15,7,,SE,0.25,mi,"TEMP, PRECIP, SNOW",,,"MMTS, SRG, SNOWBOARD",,,WFO CHS,,,,,,,,,,,,,,,,,,,,,,,,,,,30.26,66,76,0.00,,-0.01,0,72,30.26,CLR:00,30.21,10.00,70,VRB,,3,,,,,,,,,,,,,,,,,,,,,,,,,,,,,,,,,,,,,MET10110/29/16 09:56:02 METAR KCHS 291456Z VRB03KT 10SM CLR 24/19 A3026 RMK AO2 SLP246 T02440189 50004 (MH),,,,,,,,,,,,,,,,,,,,,,,,,,,,2009-06-10
72208013880,2016-10-30T09:56:00,FM-15,7,,SE,0.25,mi,"TEMP, PRECIP, SNOW",,,"MMTS, SRG, SNOWBOARD",,,WFO CHS,,,,,,,,,,,,,,,,,,,,,,,,,,,30.18,59,76,0.00,,-0.01,0,56,30.17,CLR:00,30.13,10.00,66,270,,9,,,,,,,,,,,,,,,,,,,,,,,,,,,,,,,,,,,,,MET10110/30/16 09:56:02 METAR KCHS 301456Z 27008KT 10SM CLR 24/15 A3018 RMK AO2 SLP217 T02440150 50004 (MH),,,,,,,,,,,,,,,,,,,,,,,,,,,,2009-06-10
72208013880,2016-11-02T09:56:00,FM-15,7,,SE,0.25,mi,"TEMP, PRECIP, SNOW",,,"MMTS, SRG, SNOWBOARD",,,WFO CHS,,,,,,,,,,,,,,,,,,,,,,,,,,,30.34,63,76,0.00,,-0.02,0,64,30.33,SCT:04 250,30.29,10.00,68,040,,7,,,,,,,,,,,,,,,,,,,,,,,,,,,,,,,,,,,,,MET10511/02/16 09:56:02 METAR KCHS 021456Z 04006KT 10SM SCT250 24/17 A3034 RMK AO2 SLP272 T02440172 50007 (JMB),,,,,,,,,,,,,,,,,,,,,,,,,,,,2009-06-10
72208013880,2016-11-03T09:56:00,FM-15,7,,SE,0.25,mi,"TEMP, PRECIP, SNOW",,,"MMTS, SRG, SNOWBOARD",,,WFO CHS,,,,,,,,,,,,,,,,,,,,,,,,,,,30.24,63,75,0.00,,+0.00,8,66,30.23,FEW:02 100 FEW:02 250,30.19,10.00,67,280,,6,,,,,,,,,,,,,,,,,,,,,,,,,,,,,,,,,,,,,MET11211/03/16 09:56:02 METAR KCHS 031456Z 28005KT 10SM FEW100 FEW250 24/17 A3024 RMK AO2 SLP238 T02390172 58001 (JMB),,,,,,,,,,,,,,,,,,,,,,,,,,,,2009-06-10
72208013880,2016-11-03T10:00:00,FM-12,4,,SE,0.25,mi,"TEMP, PRECIP, SNOW",,,"MMTS, SRG, SNOWBOARD",,,WFO CHS,,,,,,,,,,,,,,,,,,,,,,,,,,,30.24,63,75,,,+0.00,8,66,30.23,,30.19,9.94,67,280,,6,,,,,,,,,,,,,,,,,,,,,,,,,,,,,,,,,,,,,SYN06472208 32966 22805 10239 20172 30224 40238 58001 91456 555 90315=,,,,,,,,,,,,,,,,,,,,,,,,,,,,2009-06-10
72208013880,2016-11-08T09:56:00,FM-15,7,,SE,0.25,mi,"TEMP, PRECIP, SNOW",,,"MMTS, SRG, SNOWBOARD",,,WFO CHS,,,,,,,,,,,,,,,,,,,,,,,,,,,30.32,39,61,0.00,,-0.00,0,44,30.31,SCT:04 250,30.27,10.00,50,040,,6,,,,,,,,,,,,,,,,,,,,,,,,,,,,,,,,,,,,,MET10511/08/16 09:56:02 METAR KCHS 081456Z 04005KT 10SM SCT250 16/04 A3032 RMK AO2 SLP265 T01610039 50000 (MBT),,,,,,,,,,,,,,,,,,,,,,,,,,,,2009-06-10
72208013880,2016-11-11T09:56:00,FM-15,7,,SE,0.25,mi,"TEMP, PRECIP, SNOW",,,"MMTS, SRG, SNOWBOARD",,,WFO CHS,,,,,,,,,,,,,,,,,,,,,,,,,,,30.02,42,59,0.00,,+0.02,8,54,30.02,BKN:07 250,29.97,10.00,51,260,,7,,,,,,,,,,,,,,,,,,,,,,,,,,,,,,,,,,,,,MET10711/11/16 09:56:02 METAR KCHS 111456Z 26006KT 10SM BKN250 15/06 A3002 RMK AO2 SLP165 T01500056 58008 $ (JMB),,,,,,,,,,,,,,,,,,,,,,,,,,,,2009-06-10
72208013880,2016-11-11T10:00:00,FM-12,4,,SE,0.25,mi,"TEMP, PRECIP, SNOW",,,"MMTS, SRG, SNOWBOARD",,,WFO CHS,,,,,,,,,,,,,,,,,,,,,,,,,,,30.02,42,59,,,+0.02,8,54,30.02,,29.97,9.94,51,260,,7,,,,,,,,,,,,,,,,,,,,,,,,,,,,,,,,,,,,,SYN06472208 32966 62606 10150 20056 30150 40165 58008 91456 555 91115=,,,,,,,,,,,,,,,,,,,,,,,,,,,,2009-06-10
72208013880,2016-11-13T09:56:00,FM-15,7,,SE,0.25,mi,"TEMP, PRECIP, SNOW",,,"MMTS, SRG, SNOWBOARD",,,WFO CHS,,,,,,,,,,,,,,,,,,,,,,,,,,,30.23,40,51,T,,-0.01,0,66,30.22,BKN:07 25 OVC:08 44,30.18,10.00,46,020,,13,,,,,,,,,,,,,,,,,,,,,,,,,,,,,,,,,,,,,MET13411/13/16 09:56:02 METAR KCHS 131456Z 02011KT 10SM BKN025 OVC044 11/04 A3023 RMK AO2 RAB33E47 SLP235 P0000 60000 T01060044 50005 $ (MH),,,,,,,,,,,,,,,,,,,,,,,,,,,,2009-06-10
72208013880,2016-11-15T09:56:00,FM-15,7,,SE,0.25,mi,"TEMP, PRECIP, SNOW",,,"MMTS, SRG, SNOWBOARD",,,WFO CHS,,,,,,,,,,,,,,,,,,,,,,,,,,,29.99,47,56,,FU:3 |HZ FU |,-0.01,0,72,29.99,CLR:00,29.94,5.00,51,310,,5,,,,,,,,,,,,,,,,,,,,,,,,,,,,,,,,,,,,,MET10611/15/16 09:56:02 METAR KCHS 151456Z 31004KT 5SM FU CLR 13/08 A2999 RMK AO2 SLP156 T01330083 50003 $ (JMB),,,,,,,,,,,,,,,,,,,,,,,,,,,,2009-06-10
72208013880,2016-11-19T09:56:00,FM-15,7,,SE,0.25,mi,"TEMP, PRECIP, SNOW",,,"MMTS, SRG, SNOWBOARD",,,WFO CHS,,,,,,,,,,,,,,,,,,,,,,,,,,,30.09,53,67,0.00,,+0.01,8,61,30.08,CLR:00,30.04,10.00,59,290,,13,,,,,,,,,,,,,,,,,,,,,,,,,,,,,,,,,,,,,MET10111/19/16 09:56:02 METAR KCHS 191456Z 29011KT 10SM CLR 19/12 A3009 RMK AO2 SLP187 T01940117 58002 (MH),,,,,,,,,,,,,,,,,,,,,,,,,,,,2009-06-10
72208013880,2016-11-19T10:00:00,FM-12,4,,SE,0.25,mi,"TEMP, PRECIP, SNOW",,,"MMTS, SRG, SNOWBOARD",,,WFO CHS,,,,,,,,,,,,,,,,,,,,,,,,,,,30.09,53,67,,,+0.01,8,61,30.08,,30.04,9.94,59,290,,13,,,,,,,,,,,,,,,,,,,,,,,,,,,,,,,,,,,,,SYN06472208 32966 02911 10194 20117 30173 40187 58002 91456 555 91915=,,,,,,,,,,,,,,,,,,,,,,,,,,,,2009-06-10
72208013880,2016-11-20T09:56:00,FM-15,7,,SE,0.25,mi,"TEMP, PRECIP, SNOW",,,"MMTS, SRG, SNOWBOARD",,,WFO CHS,,,,,,,,,,,,,,,,,,,,,,,,,,,30.17,24,52,0.00,,-0.02,0,34,30.17,CLR:00,30.12,10.00,41,320,,8,,,,,,,,,,,,,,,,,,,,,,,,,,,,,,,,,,,,,MET10211/20/16 09:56:02 METAR KCHS 201456Z 32007KT 10SM CLR 11/M04 A3017 RMK AO2 SLP217 T01111044 50006 (MH),,,,,,,,,,,,,,,,,,,,,,,,,,,,2009-06-10
72208013880,2016-11-28T09:56:00,FM-15,7,,SE,0.25,mi,"TEMP, PRECIP, SNOW",,,"MMTS, SRG, SNOWBOARD",,,WFO CHS,,,,,,,,,,,,,,,,,,,,,,,,,,,30.17,50,60,,,+0.01,8,70,30.17,SCT:04 80 BKN:07 200,30.12,10.00,55,070,,5,,,,,,,,,,,,,,,,,,,,,,,,,,,,,,,,,,,,,MET11411/28/16 09:56:02 METAR KCHS 281456Z 07004KT 10SM SCT080 BKN200 16/10 A3017 RMK AO2 SLP216 T01560100 58003 $ (JMB),,,,,,,,,,,,,,,,,,,,,,,,,,,,2009-06-10
72208013880,2016-11-28T10:00:00,FM-12,4,,SE,0.25,mi,"TEMP, PRECIP, SNOW",,,"MMTS, SRG, SNOWBOARD",,,WFO CHS,,,,,,,,,,,,,,,,,,,,,,,,,,,30.17,50,60,,,+0.01,8,70,30.17,74,30.12,9.94,55,070,,5,,,,,,,,,,,,,,,,,,,,,,,,,,,,,,,,,,,,,SYN06472208 32866 60704 10156 20100 30201 40216 58003 91456 555 92815=,,,,,,,,,,,,,,,,,,,,,,,,,,,,2009-06-10
72208013880,2016-11-30T09:56:00,FM-15,7,,SE,0.25,mi,"TEMP, PRECIP, SNOW",,,"MMTS, SRG, SNOWBOARD",,,WFO CHS,,,,,,,,,,,,,,,,,,,,,,,,,,,29.96,67,75,0.00,,-0.00,0,76,29.96,FEW:02 20 BKN:07 120 BKN:07 200,29.91,10.00,70,230,,9,,,,,,,,,,,,,,,,,,,,,,,,,,,,,,,,,,,,,MET12111/30/16 09:56:02 METAR KCHS 301456Z 23008KT 10SM FEW020 BKN120 BKN200 24/19 A2996 RMK AO2 SLP146 T02390194 50000 $ (JMB),,,,,,,,,,,,,,,,,,,,,,,,,,,,2009-06-10
72208013880,2016-12-11T09:56:00,FM-15,7,,SE,0.25,mi,"TEMP, PRECIP, SNOW",,,"MMTS, SRG, SNOWBOARD",,,WFO CHS,,,,,,,,,,,,,,,,,,,,,,,,,,,30.43,39,52,0.00,,-0.00,0,61,30.43,SCT:04 65,30.38,10.00,46,060,,9,,,,,,,,,,,,,,,,,,,,,,,,,,,,,,,,,,,,,MET10412/11/16 09:56:02 METAR KCHS 111456Z 06008KT 10SM SCT065 11/04 A3043 RMK AO2 SLP304 T01110039 50001 (MH),,,,,,,,,,,,,,,,,,,,,,,,,,,,2009-06-10
72208013880,2016-12-29T09:56:00,FM-15,7,,SE,0.25,mi,"TEMP, PRECIP, SNOW",,,"MMTS, SRG, SNOWBOARD",,,WFO CHS,,,,,,,,,,,,,,,,,,,,,,,,,,,29.89,62,68,0.00,,+0.03,8,81,29.88,SCT:04 15 BKN:07 60 OVC:08 200,29.84,10.00,64,230,,13,,,,,,,,,,,,,,,,,,,,,,,,,,,,,,,,,,,,,MET12912/29/16 09:56:02 METAR KCHS 291456Z 23011KT 10SM SCT015 BKN060 OVC200 20/17 A2989 RMK AO2 SLP120 SCT V BKN T02000167 58010 (JMB),,,,,,,,,,,,,,,,,,,,,,,,,,,,2009-06-10
72208013880,2016-12-29T10:00:00,FM-12,4,,SE,0.25,mi,"TEMP, PRECIP, SNOW",,,"MMTS, SRG, SNOWBOARD",,,WFO CHS,,,,,,,,,,,,,,,,,,,,,,,,,,,29.89,62,68,,,+0.03,8,81,29.88,15,29.84,9.94,64,230,,13,,,,,,,,,,,,,,,,,,,,,,,,,,,,,,,,,,,,,SYN06472208 32466 82311 10200 20167 30106 40120 58010 91456 555 92915=,,,,,,,,,,,,,,,,,,,,,,,,,,,,2009-06-10
72208013880,2017-01-01T10:00:00,FM-12,4,,SE,0.25,mi,"TEMP, PRECIP, SNOW",,,"MMTS, SRG, SNOWBOARD",,,WFO CHS,,,,,,,,,,,,,,,,,,,,,,,,,,,30.20,53,57,,,0.00,4,87,30.19,,30.15,9.94,55,160,,7,,,,,,,,,,,,,,,,,,,,,,,,,,,,,,,,,,,,,SYN07072208 12966 61606 10139 20117 30211 40225 53000 69937 91456 555 90115=,,,,,,,,,,,,,,,,,,,,,,,,,,,,2009-06-10
72208013880,2017-01-05T09:56:00,SY-MT,7,,SE,0.25,mi,"TEMP, PRECIP, SNOW",,,"MMTS, SRG, SNOWBOARD",,,WFO CHS,,,,,,,,,,,,,,,,,,,,,,,,,,,29.98,36,54,0.00,,-0.02,0,51,29.98,SCT:04 60 SCT:04 200,29.93,10.00,46,070,,9,,,,,,,,,,,,,,,,,,,,,,,,,,,,,,,,,,,,,SYN06472208 32766 40708 10122 20022 30136 40152 50007 91456 555 90515=MET11201/05/17 09:56:02 METAR KCHS 051456Z 07008KT 10SM SCT060 SCT200 12/02 A2998 RMK AO2 SLP152 T01220022 50007 (JMB),,,,,,,,,,,,,,,,,,,,,,,,,,,,2009-06-10
72208013880,2017-01-09T09:56:00,FM-15,7,,SE,0.25,mi,"TEMP, PRECIP, SNOW",,,"MMTS, SRG, SNOWBOARD",,,WFO CHS,,,,,,,,,,,,,,,,,,,,,,,,,,,30.79,12,34,0.00,,-0.02,0,40,30.79,FEW:02 150,30.73,10.00,27,030,,10,,,,,,,,,,,,,,,,,,,,,,,,,,,,,,,,,,,,,MET10801/09/17 09:56:02 METAR KCHS 091456Z 03009KT 10SM FEW150 01/M11 A3079 RMK AO2 SLP425 T00111111 50006 $ (JMB),,,,,,,,,,,,,,,,,,,,,,,,,,,,2009-06-10
72208013880,2017-01-29T09:56:00,FM-15,7,,SE,0.25,mi,"TEMP, PRECIP, SNOW",,,"MMTS, SRG, SNOWBOARD",,,WFO CHS,,,,,,,,,,,,,,,,,,,,,,,,,,,30.00,27,49,0.00,,-0.01,0,43,30.00,CLR:00,29.95,10.00,40,260,20,11,,,,,,,,,,,,,,,,,,,,,,,,,,,,,,,,,,,,,MET10701/29/17 09:56:02 METAR KCHS 291456Z 26010G17KT 10SM CLR 09/M03 A3000 RMK AO2 SLP160 T00941028 50005 $ (MH),,,,,,,,,,,,,,,,,,,,,,,,,,,,2009-06-10
72208013880,2017-01-31T09:56:00,FM-15,7,,SE,0.25,mi,"TEMP, PRECIP, SNOW",,,"MMTS, SRG, SNOWBOARD",,,WFO CHS,,,,,,,,,,,,,,,,,,,,,,,,,,,30.15,38,59,0.00,,-0.01,0,46,30.14,CLR:00,30.10,10.00,49,230,,14,,,,,,,,,,,,,,,,,,,,,,,,,,,,,,,,,,,,,MET10201/31/17 09:56:02 METAR KCHS 311456Z 23012KT 10SM CLR 15/03 A3015 RMK AO2 SLP208 T01500033 50004 (JMB),,,,,,,,,,,,,,,,,,,,,,,,,,,,2009-06-10
72208013880,2017-02-05T09:56:00,FM-15,7,,SE,0.25,mi,"TEMP, PRECIP, SNOW",,,"MMTS, SRG, SNOWBOARD",,,WFO CHS,,,,,,,,,,,,,,,,,,,,,,,,,,,30.25,33,50,0.00,,-0.02,0,52,30.24,SCT:04 29 BKN:07 80,30.20,10.00,43,290,,5,,,,,,,,,,,,,,,,,,,,,,,,,,,,,,,,,,,,,MET11102/05/17 09:56:02 METAR KCHS 051456Z 29004KT 10SM SCT029 BKN080 10/01 A3025 RMK AO2 SLP242 T01000006 50007 (MH),,,,,,,,,,,,,,,,,,,,,,,,,,,,2009-06-10
72208013880,2017-02-07T09:56:00,FM-15,7,,SE,0.25,mi,"TEMP, PRECIP, SNOW",,,"MMTS, SRG, SNOWBOARD",,,WFO CHS,,,,,,,,,,,,,,,,,,,,,,,,,,,30.08,54,67,0.00,,+0.02,8,63,30.08,FEW:02 90 SCT:04 200,30.03,10.00,60,190,,13,,,,,,,,,,,,,,,,,,,,,,,,,,,,,,,,,,,,,MET11202/07/17 09:56:02 METAR KCHS 071456Z 19011KT 10SM FEW090 SCT200 19/12 A3008 RMK AO2 SLP185 T01940122 58008 (JMB),,,,,,,,,,,,,,,,,,,,,,,,,,,,2009-06-10
72208013880,2017-02-07T10:00:00,FM-12,4,,SE,0.25,mi,"TEMP, PRECIP, SNOW",,,"MMTS, SRG, SNOWBOARD",,,WFO CHS,,,,,,,,,,,,,,,,,,,,,,,,,,,30.08,54,67,,,+0.02,8,63,30.08,,30.03,9.94,60,190,,13,,,,,,,,,,,,,,,,,,,,,,,,,,,,,,,,,,,,,SYN06472208 32966 41911 10194 20122 30170 40185 58008 91456 555 90715=,,,,,,,,,,,,,,,,,,,,,,,,,,,,2009-06-10
72208013880,2017-02-11T09:56:00,FM-15,7,,SE,0.25,mi,"TEMP, PRECIP, SNOW",,,"MMTS, SRG, SNOWBOARD",,,WFO CHS,,,,,,,,,,,,,,,,,,,,,,,,,,,30.29,48,61,0.00,,-0.01,0,63,30.28,FEW:02 200,30.24,10.00,54,250,21,13,,,,,,,,,,,,,,,,,,,,,,,,,,,,,,,,,,,,,MET10702/11/17 09:56:02 METAR KCHS 111456Z 25011G18KT 10SM FEW200 16/09 A3029 RMK AO2 SLP255 T01610089 50002 (MH),,,,,,,,,,,,,,,,,,,,,,,,,,,,2009-06-10
72208013880,2017-02-12T09:56:00,FM-15,7,,SE,0.25,mi,"TEMP, PRECIP, SNOW",,,"MMTS, SRG, SNOWBOARD",,,WFO CHS,,,,,,,,,,,,,,,,,,,,,,,,,,,30.11,58,64,0.00,,+0.01,8,81,30.10,FEW:02 9 BKN:07 70,30.06,10.00,61,240,,14,,,,,,,,,,,,,,,,,,,,,,,,,,,,,,,,,,,,,MET11102/12/17 09:56:02 METAR KCHS 121456Z 24012KT 10SM FEW009 BKN070 18/14 A3011 RMK AO2 SLP194 T01780144 58005 (MH),,,,,,,,,,,,,,,,,,,,,,,,,,,,2009-06-10
72208013880,2017-02-12T10:00:00,FM-12,4,,SE,0.25,mi,"TEMP, PRECIP, SNOW",,,"MMTS, SRG, SNOWBOARD",,,WFO CHS,,,,,,,,,,,,,,,,,,,,,,,,,,,30.11,58,64,,,+0.01,8,81,30.10,8,30.06,9.94,61,240,,14,,,,,,,,,,,,,,,,,,,,,,,,,,,,,,,,,,,,,SYN06472208 32366 62412 10178 20144 30180 40194 58005 91456 555 91215=,,,,,,,,,,,,,,,,,,,,,,,,,,,,2009-06-10
72208013880,2017-02-14T09:56:00,FM-15,7,,SE,0.25,mi,"TEMP, PRECIP, SNOW",,,"MMTS, SRG, SNOWBOARD",,,WFO CHS,,,,,,,,,,,,,,,,,,,,,,,,,,,30.04,38,64,0.00,,+0.01,8,38,30.04,FEW:02 250,29.99,10.00,51,140,,10,,,,,,,,,,,,,,,,,,,,,,,,,,,,,,,,,,,,,MET10502/14/17 09:56:02 METAR KCHS 141456Z 14009KT 10SM FEW250 18/03 A3004 RMK AO2 SLP172 T01780033 58003 (JMB),,,,,,,,,,,,,,,,,,,,,,,,,,,,2009-06-10
72208013880,2017-02-14T10:00:00,FM-12,4,,SE,0.25,mi,"TEMP, PRECIP, SNOW",,,"MMTS, SRG, SNOWBOARD",,,WFO CHS,,,,,,,,,,,,,,,,,,,,,,,,,,,30.04,38,64,,,+0.01,8,38,30.04,,29.99,9.94,51,140,,10,,,,,,,,,,,,,,,,,,,,,,,,,,,,,,,,,,,,,SYN06472208 32966 21409 10178 20033 30157 40172 58003 91456 555 91415=,,,,,,,,,,,,,,,,,,,,,,,,,,,,2009-06-10
72208013880,2017-02-15T09:56:00,FM-15,7,,SE,0.25,mi,"TEMP, PRECIP, SNOW",,,"MMTS, SRG, SNOWBOARD",,,WFO CHS,,,,,,,,,,,,,,,,,,,,,,,,,,,29.60,60,65,T,,+0.05,8,84,29.59,BKN:07 10 BKN:07 20 OVC:08 120,29.55,10.00,62,220,31,20,,,,,,,,,,,,,,,,,,,,,,,,,,,,,,,,,,,,,MET16102/15/17 09:56:02 METAR KCHS 151456Z 22017G27KT 10SM BKN010 BKN020 OVC120 18/16 A2960 RMK AO2 PK WND 22027/1449 RAB28E42 SLP022 P0000 60000 T01830156 58018 (JMB),,,,,,,,,,,,,,,,,,,,,,,,,,,,2009-06-10
72208013880,2017-02-15T10:00:00,FM-12,4,,SE,0.25,mi,"TEMP, PRECIP, SNOW",,,"MMTS, SRG, SNOWBOARD",,,WFO CHS,,,,,,,,,,,,,,,,,,,,,,,,,,,29.60,60,65,,,+0.05,8,84,29.59,15,29.55,9.94,62,220,,20,,,,,,,,,,,,,,,,,,,,,,,,,,,,,,,,,,,,,SYN08072208 12466 82217 10183 20156 30008 40022 58018 69907 91456 333 91027 555 91515=,,,,,,,,,,,,,,,,,,,,,,,,,,,,2009-06-10
72208013880,2017-02-17T09:56:00,FM-15,7,,SE,0.25,mi,"TEMP, PRECIP, SNOW",,,"MMTS, SRG, SNOWBOARD",,,WFO CHS,,,,,,,,,,,,,,,,,,,,,,,,,,,30.07,30,57,0.00,,-0.02,0,36,30.07,FEW:02 250,30.02,10.00,45,260,,7,,,,,,,,,,,,,,,,,,,,,,,,,,,,,,,,,,,,,MET10602/17/17 09:56:02 METAR KCHS 171456Z 26006KT 10SM FEW250 14/M01 A3007 RMK AO2 SLP182 T01391011 50008 (JMB),,,,,,,,,,,,,,,,,,,,,,,,,,,,2009-06-10
72208013880,2017-02-18T09:56:00,FM-15,7,,SE,0.25,mi,"TEMP, PRECIP, SNOW",,,"MMTS, SRG, SNOWBOARD",,,WFO CHS,,,,,,,,,,,,,,,,,,,,,,,,,,,30.03,45,63,0.00,,-0.01,0,52,30.03,SCT:04 160 BKN:07 200,29.98,10.00,54,000,,0,,,,,,,,,,,,,,,,,,,,,,,,,,,,,,,,,,,,,MET11102/18/17 09:56:02 METAR KCHS 181456Z 00000KT 10SM SCT160 BKN200 17/07 A3003 RMK AO2 SLP168 T01720072 50004 (MH),,,,,,,,,,,,,,,,,,,,,,,,,,,,2009-06-10
72208013880,2017-02-21T09:56:00,FM-15,7,,SE,0.25,mi,"TEMP, PRECIP, SNOW",,,"MMTS, SRG, SNOWBOARD",,,WFO CHS,,,,,,,,,,,,,,,,,,,,,,,,,,,30.18,54,66,0.00,,-0.01,0,65,30.18,FEW:02 40 BKN:07 180,30.13,10.00,59,090,,9,,,,,,,,,,,,,,,,,,,,,,,,,,,,,,,,,,,,,MET11202/21/17 09:56:02 METAR KCHS 211456Z 09008KT 10SM FEW040 BKN180 19/12 A3018 RMK AO2 SLP220 T01890122 50002 (JMB),,,,,,,,,,,,,,,,,,,,,,,,,,,,2009-06-10
72208013880,2017-02-22T09:56:00,FM-15,7,,SE,0.25,mi,"TEMP, PRECIP, SNOW",,,"MMTS, SRG, SNOWBOARD",,,WFO CHS,,,,,,,,,,,,,,,,,,,,,,,,,,,29.95,56,72,0.00,,+0.01,8,57,29.94,FEW:02 30 SCT:04 85 SCT:04 250,29.90,10.00,63,120,,16,,,,,,,,,,,,,,,,,,,,,,,,,,,,,,,,,,,,,MET11902/22/17 09:56:02 METAR KCHS 221456Z 12014KT 10SM FEW030 SCT085 SCT250 22/13 A2995 RMK AO2 SLP140 T02220133 58002 (JMB),,,,,,,,,,,,,,,,,,,,,,,,,,,,2009-06-10
72208013880,2017-02-22T10:00:00,FM-12,4,,SE,0.25,mi,"TEMP, PRECIP, SNOW",,,"MMTS, SRG, SNOWBOARD",,,WFO CHS,,,,,,,,,,,,,,,,,,,,,,,,,,,29.95,56,72,,,+0.01,8,57,29.94,26,29.90,9.94,63,120,,16,,,,,,,,,,,,,,,,,,,,,,,,,,,,,,,,,,,,,SYN06472208 32566 41214 10222 20133 30126 40140 58002 91456 555 92215=,,,,,,,,,,,,,,,,,,,,,,,,,,,,2009-06-10
72208013880,2017-02-23T09:56:00,FM-15,7,,SE,0.25,mi,"TEMP, PRECIP, SNOW",,,"MMTS, SRG, SNOWBOARD",,,WFO CHS,,,,,,,,,,,,,,,,,,,,,,,,,,,29.88,59,69,T,,-0.02,0,70,29.88,FEW:02 30 SCT:04 75 BKN:07 250,29.83,10.00,63,070,18,11,,,,,,,,,,,,,,,,,,,,,,,,,,,,,,,,,,,,,MET14502/23/17 09:56:02 METAR KCHS 231456Z 07010G16KT 10SM FEW030 SCT075 BKN250 21/15 A2988 RMK AO2 RAB1358E08 SLP117 P0000 60000 T02060150 50007 (JMB),,,,,,,,,,,,,,,,,,,,,,,,,,,,2009-06-10
72208013880,2017-02-25T09:56:00,FM-15,7,,SE,0.25,mi,"TEMP, PRECIP, SNOW",,,"MMTS, SRG, SNOWBOARD",,,WFO CHS,,,,,,,,,,,,,,,,,,,,,,,,,,,29.81,61,72,0.00,,-0.00,0,68,29.81,FEW:02 20 FEW:02 60,29.76,10.00,65,240,,10,,,,,,,,,,,,,,,,,,,,,,,,,,,,,,,,,,,,,MET11102/25/17 09:56:02 METAR KCHS 251456Z 24009KT 10SM FEW020 FEW060 22/16 A2981 RMK AO2 SLP095 T02220161 50001 (MH),,,,,,,,,,,,,,,,,,,,,,,,,,,,2009-06-10
72208013880,2017-02-28T09:56:00,FM-15,7,,SE,0.25,mi,"TEMP, PRECIP, SNOW",,,"MMTS, SRG, SNOWBOARD",,,WFO CHS,,,,,,,,,,,,,,,,,,,,,,,,,,,30.29,63,74,0.00,,-0.01,0,69,30.29,SCT:04 25 BKN:07 35,30.24,10.00,67,210,,10,,,,,,,,,,,,,,,,,,,,,,,,,,,,,,,,,,,,,MET11202/28/17 09:56:02 METAR KCHS 281456Z 21009KT 10SM SCT025 BKN035 23/17 A3029 RMK AO2 SLP258 T02330172 50004 (JMB),,,,,,,,,,,,,,,,,,,,,,,,,,,,2009-06-10
72208013880,2017-03-01T09:56:00,FM-15,7,,SE,0.25,mi,"TEMP, PRECIP, SNOW",,,"MMTS, SRG, SNOWBOARD",,,WFO CHS,,,,,,,,,,,,,,,,,,,,,,,,,,,30.10,66,74,0.00,,+0.00,8,76,30.09,SCT:04 10 BKN:07 200,30.05,10.00,69,230,,11,,,,,,,,,,,,,,,,,,,,,,,,,,,,,,,,,,,,,MET11203/01/17 09:56:02 METAR KCHS 011456Z 23010KT 10SM SCT010 BKN200 23/19 A3010 RMK AO2 SLP190 T02330189 58001 (JMB),,,,,,,,,,,,,,,,,,,,,,,,,,,,2009-06-10
72208013880,2017-03-01T10:00:00,FM-12,4,,SE,0.25,mi,"TEMP, PRECIP, SNOW",,,"MMTS, SRG, SNOWBOARD",,,WFO CHS,,,,,,,,,,,,,,,,,,,,,,,,,,,30.10,66,74,,,+0.00,8,76,30.09,15,30.05,9.94,69,230,,11,,,,,,,,,,,,,,,,,,,,,,,,,,,,,,,,,,,,,SYN06472208 32466 62310 10233 20189 30177 40190 58001 91456 555 90115=,,,,,,,,,,,,,,,,,,,,,,,,,,,,2009-06-10
72208013880,2017-03-03T09:56:00,FM-15,7,,SE,0.25,mi,"TEMP, PRECIP, SNOW",,,"MMTS, SRG, SNOWBOARD",,,WFO CHS,,,,,,,,,,,,,,,,,,,,,,,,,,,30.45,23,59,0.00,,-0.04,0,25,30.45,FEW:02 250,30.40,10.00,44,330,,9,,,,,,,,,,,,,,,,,,,,,,,,,,,,,,,,,,,,,MET10603/03/17 09:56:02 METAR KCHS 031456Z 33008KT 10SM FEW250 15/M05 A3045 RMK AO2 SLP311 T01501050 50014 (JMB),,,,,,,,,,,,,,,,,,,,,,,,,,,,2009-06-10
72208013880,2017-03-04T09:56:00,FM-15,7,,SE,0.25,mi,"TEMP, PRECIP, SNOW",,,"MMTS, SRG, SNOWBOARD",,,WFO CHS,,,,,,,,,,,,,,,,,,,,,,,,,,,30.66,16,50,0.00,,-0.05,0,26,30.65,CLR:00,30.60,10.00,38,040,,15,,,,,,,,,,,,,,,,,,,,,,,,,,,,,,,,,,,,,MET10203/04/17 09:56:02 METAR KCHS 041456Z 04013KT 10SM CLR 10/M09 A3066 RMK AO2 SLP380 T01001089 50018 (MH),,,,,,,,,,,,,,,,,,,,,,,,,,,,2009-06-10
72208013880,2017-03-07T09:56:00,FM-15,7,,SE,0.25,mi,"TEMP, PRECIP, SNOW",,,"MMTS, SRG, SNOWBOARD",,,WFO CHS,,,,,,,,,,,,,,,,,,,,,,,,,,,30.41,51,72,0.00,,-0.04,0,48,30.41,FEW:02 35 SCT:04 250,30.36,10.00,60,190,,15,,,,,,,,,,,,,,,,,,,,,,,,,,,,,,,,,,,,,MET11403/07/17 09:56:02 METAR KCHS 071456Z 19013KT 10SM FEW035 SCT250 22/11 A3041 RMK AO2 SLP297 T02220106 50012 $ (JMB),,,,,,,,,,,,,,,,,,,,,,,,,,,,2009-06-10
72208013880,2017-03-09T09:56:00,FM-15,7,,SE,0.25,mi,"TEMP, PRECIP, SNOW",,,"MMTS, SRG, SNOWBOARD",,,WFO CHS,,,,,,,,,,,,,,,,,,,,,,,,,,,30.28,33,70,0.00,,-0.00,0,26,30.27,CLR:00,30.23,10.00,52,VRB,,3,,,,,,,,,,,,,,,,,,,,,,,,,,,,,,,,,,,,,MET10203/09/17 09:56:02 METAR KCHS 091456Z VRB03KT 10SM CLR 21/01 A3028 RMK AO2 SLP251 T02110006 50001 (JMB),,,,,,,,,,,,,,,,,,,,,,,,,,,,2009-06-10
72208013880,2017-03-13T09:56:00,FM-15,7,,SE,0.25,mi,"TEMP, PRECIP, SNOW",,,"MMTS, SRG, SNOWBOARD",,,WFO CHS,,,,,,,,,,,,,,,,,,,,,,,,,,,30.17,42,51,0.00,,+0.04,8,71,30.16,BKN:07 10 OVC:08 20,30.12,10.00,47,040,,10,,,,,,,,,,,,,,,,,,,,,,,,,,,,,,,,,,,,,MET11203/13/17 09:56:02 METAR KCHS 131456Z 04009KT 10SM BKN010 OVC020 11/06 A3017 RMK AO2 SLP214 T01060056 58014 (JMB),,,,,,,,,,,,,,,,,,,,,,,,,,,,2009-06-10
72208013880,2017-03-13T10:00:00,FM-12,4,,SE,0.25,mi,"TEMP, PRECIP, SNOW",,,"MMTS, SRG, SNOWBOARD",,,WFO CHS,,,,,,,,,,,,,,,,,,,,,,,,,,,30.17,42,51,,,+0.04,8,71,30.16,15,30.12,9.94,47,040,,10,,,,,,,,,,,,,,,,,,,,,,,,,,,,,,,,,,,,,SYN06472208 32466 80409 10106 20056 30201 40214 58014 91456 555 91315=,,,,,,,,,,,,,,,,,,,,,,,,,,,,2009-06-10
72208013880,2017-03-17T09:56:00,FM-15,7,,SE,0.25,mi,"TEMP, PRECIP, SNOW",,,"MMTS, SRG, SNOWBOARD",,,WFO CHS,,,,,,,,,,,,,,,,,,,,,,,,,,,30.44,19,55,0.00,,-0.02,0,24,30.44,CLR:00,30.39,10.00,41,160,,7,,,,,,,,,,,,,,,,,,,,,,,,,,,,,,,,,,,,,MET10303/17/17 09:56:02 METAR KCHS 171456Z 16006KT 10SM CLR 13/M07 A3044 RMK AO2 SLP308 T01281072 50008 (JMB),,,,,,,,,,,,,,,,,,,,,,,,,,,,2009-06-10
72208013880,2017-03-18T09:56:00,FM-15,7,,SE,0.25,mi,"TEMP, PRECIP, SNOW",,,"MMTS, SRG, SNOWBOARD",,,WFO CHS,,,,,,,,,,,,,,,,,,,,,,,,,,,30.24,41,59,0.00,,+0.00,6,51,30.24,BKN:07 70 OVC:08 90,30.19,10.00,50,240,,13,,,,,,,,,,,,,,,,,,,,,,,,,,,,,,,,,,,,,MET11103/18/17 09:56:02 METAR KCHS 181456Z 24011KT 10SM BKN070 OVC090 15/05 A3024 RMK AO2 SLP241 T01500050 56001 (MH),,,,,,,,,,,,,,,,,,,,,,,,,,,,2009-06-10
72208013880,2017-03-18T10:00:00,FM-12,4,,SE,0.25,mi,"TEMP, PRECIP, SNOW",,,"MMTS, SRG, SNOWBOARD",,,WFO CHS,,,,,,,,,,,,,,,,,,,,,,,,,,,30.24,41,59,,,+0.00,6,51,30.24,74,30.19,9.94,50,240,,13,,,,,,,,,,,,,,,,,,,,,,,,,,,,,,,,,,,,,SYN06472208 32866 82411 10150 20050 30224 40241 56001 91456 555 91815=,,,,,,,,,,,,,,,,,,,,,,,,,,,,2009-06-10
72208013880,2017-03-21T09:56:00,FM-15,7,,SE,0.25,mi,"TEMP, PRECIP, SNOW",,,"MMTS, SRG, SNOWBOARD",,,WFO CHS,,,,,,,,,,,,,,,,,,,,,,,,,,,30.02,53,74,0.00,,+0.03,8,48,30.02,FEW:02 250,29.97,10.00,62,260,,10,,,,,,,,,,,,,,,,,,,,,,,,,,,,,,,,,,,,,MET10703/21/17 09:56:02 METAR KCHS 211456Z 26009KT 10SM FEW250 23/12 A3002 RMK AO2 SLP165 T02330117 58011 $ (JMB),,,,,,,,,,,,,,,,,,,,,,,,,,,,2009-06-10
72208013880,2017-03-21T10:00:00,FM-12,4,,SE,0.25,mi,"TEMP, PRECIP, SNOW",,,"MMTS, SRG, SNOWBOARD",,,WFO CHS,,,,,,,,,,,,,,,,,,,,,,,,,,,30.02,53,74,,,+0.03,8,48,30.02,,29.97,9.94,62,260,,10,,,,,,,,,,,,,,,,,,,,,,,,,,,,,,,,,,,,,SYN06472208 32966 22609 10233 20117 30150 40165 58011 91456 555 92115=,,,,,,,,,,,,,,,,,,,,,,,,,,,,2009-06-10
72208013880,2017-03-25T09:56:00,FM-15,7,,SE,0.25,mi,"TEMP, PRECIP, SNOW",,,"MMTS, SRG, SNOWBOARD",,,WFO CHS,,,,,,,,,,,,,,,,,,,,,,,,,,,30.35,49,73,0.00,,-0.02,0,43,30.34,BKN:07 60 OVC:08 250,30.29,10.00,60,150,,11,,,,,,,,,,,,,,,,,,,,,,,,,,,,,,,,,,,,,MET11103/25/17 09:56:02 METAR KCHS 251456Z 15010KT 10SM BKN060 OVC250 23/09 A3035 RMK AO2 SLP275 T02280094 50007 (MH),,,,,,,,,,,,,,,,,,,,,,,,,,,,2009-06-10
72208013880,2017-03-28T09:56:00,FM-15,7,,SE,0.25,mi,"TEMP, PRECIP, SNOW",,,"MMTS, SRG, SNOWBOARD",,,WFO CHS,,,,,,,,,,,,,,,,,,,,,,,,,,,30.01,59,78,0.00,,-0.00,0,52,30.01,FEW:02 40 FEW:02 150,29.96,10.00,66,260,17,14,,,,,,,,,,,,,,,,,,,,,,,,,,,,,,,,,,,,,MET11503/28/17 09:56:02 METAR KCHS 281456Z 26012G15KT 10SM FEW040 FEW150 26/15 A3001 RMK AO2 SLP161 T02560150 50000 (JMB),,,,,,,,,,,,,,,,,,,,,,,,,,,,2009-06-10
72208013880,2017-03-31T09:56:00,FM-15,7,,SE,0.25,mi,"TEMP, PRECIP, SNOW",,,"MMTS, SRG, SNOWBOARD",,,WFO CHS,,,,,,,,,,,,,,,,,,,,,,,,,,,29.79,61,76,0.00,,+0.03,8,60,29.79,SCT:04 28 SCT:04 250,29.74,10.00,67,250,30,20,,,,,,,,,,,,,,,,,,,,,,,,,,,,,,,,,,,,,MET13303/31/17 09:56:02 METAR KCHS 311456Z 25017G26KT 10SM SCT028 SCT250 24/16 A2979 RMK AO2 PK WND 26026/1455 SLP087 T02440161 58011 (JMB),,,,,,,,,,,,,,,,,,,,,,,,,,,,2009-06-10
72208013880,2017-03-31T10:00:00,FM-12,4,,SE,0.25,mi,"TEMP, PRECIP, SNOW",,,"MMTS, SRG, SNOWBOARD",,,WFO CHS,,,,,,,,,,,,,,,,,,,,,,,,,,,29.79,61,76,,,+0.03,8,60,29.79,26,29.74,9.94,67,250,,20,,,,,,,,,,,,,,,,,,,,,,,,,,,,,,,,,,,,,SYN07472208 32566 42517 10244 20161 30072 40087 58011 91456 333 91026 555 93115=,,,,,,,,,,,,,,,,,,,,,,,,,,,,2009-06-10
72208013880,2017-04-03T09:56:00,FM-15,7,,SE,0.25,mi,"TEMP, PRECIP, SNOW",,,"MMTS, SRG, SNOWBOARD",,,WFO CHS,,,,,,,,,,,,,,,,,,,,,,,,,,,30.04,59,78,0.00,,+0.00,8,52,30.04,SCT:04 35 BKN:07 250,29.99,10.00,66,160,30,24,,,,,,,,,,,,,,,,,,,,,,,,,,,,,,,,,,,,,MET13304/03/17 09:56:02 METAR KCHS 031456Z 16021G26KT 10SM SCT035 BKN250 26/15 A3004 RMK AO2 PK WND 18027/1424 SLP172 T02560150 58001 (JMB),,,,,,,,,,,,,,,,,,,,,,,,,,,,2009-06-10
72208013880,2017-04-03T10:00:00,FM-12,4,,SE,0.25,mi,"TEMP, PRECIP, SNOW",,,"MMTS, SRG, SNOWBOARD",,,WFO CHS,,,,,,,,,,,,,,,,,,,,,,,,,,,30.04,59,78,,,+0.00,8,52,30.04,41,29.99,9.94,66,160,,24,,,,,,,,,,,,,,,,,,,,,,,,,,,,,,,,,,,,,SYN07472208 32666 61621 10256 20150 30157 40172 58001 91456 333 91026 555 90315=,,,,,,,,,,,,,,,,,,,,,,,,,,,,2009-06-10
72208013880,2017-04-05T09:56:00,FM-15,7,,SE,0.25,mi,"TEMP, PRECIP, SNOW",,,"MMTS, SRG, SNOWBOARD",,,WFO CHS,,,,,,,,,,,,,,,,,,,,,,,,,,,29.94,67,74,0.00,,-0.01,0,79,29.94,SCT:04 25 BKN:07 40 OVC:08 120,29.89,10.00,69,190,,16,,,,,,,,,,,,,,,,,,,,,,,,,,,,,,,,,,,,,MET11904/05/17 09:56:02 METAR KCHS 051456Z 19014KT 10SM SCT025 BKN040 OVC120 23/19 A2994 RMK AO2 SLP139 T02330194 50003 (JMB),,,,,,,,,,,,,,,,,,,,,,,,,,,,2009-06-10
72208013880,2017-04-07T09:56:00,FM-15,7,,SE,0.25,mi,"TEMP, PRECIP, SNOW",,,"MMTS, SRG, SNOWBOARD",,,WFO CHS,,,,,,,,,,,,,,,,,,,,,,,,,,,29.91,33,60,0.00,,+0.01,8,36,29.91,CLR:00,29.86,10.00,47,300,25,20,,,,,,,,,,,,,,,,,,,,,,,,,,,,,,,,,,,,,MET10504/07/17 09:56:02 METAR KCHS 071456Z 30017G22KT 10SM CLR 16/01 A2991 RMK AO2 SLP129 T01560006 58004 (JRS),,,,,,,,,,,,,,,,,,,,,,,,,,,,2009-06-10
72208013880,2017-04-07T10:00:00,FM-12,4,,SE,0.25,mi,"TEMP, PRECIP, SNOW",,,"MMTS, SRG, SNOWBOARD",,,WFO CHS,,,,,,,,,,,,,,,,,,,,,,,,,,,29.91,33,60,,,+0.01,8,36,29.91,,29.86,9.94,47,300,,20,,,,,,,,,,,,,,,,,,,,,,,,,,,,,,,,,,,,,SYN07472208 32966 03017 10156 20006 30113 40129 58004 91456 333 91022 555 90715=,,,,,,,,,,,,,,,,,,,,,,,,,,,,2009-06-10
72208013880,2017-04-17T09:56:00,FM-15,7,,SE,0.25,mi,"TEMP, PRECIP, SNOW",,,"MMTS, SRG, SNOWBOARD",,,WFO CHS,,,,,,,,,,,,,,,,,,,,,,,,,,,30.18,60,77,0.00,,-0.00,0,56,30.18,SCT:04 24,30.13,10.00,66,250,,9,,,,,,,,,,,,,,,,,,,,,,,,,,,,,,,,,,,,,MET10404/17/17 09:56:02 METAR KCHS 171456Z 25008KT 10SM SCT024 25/16 A3018 RMK AO2 SLP219 T02500156 50000 (MH),,,,,,,,,,,,,,,,,,,,,,,,,,,,2009-06-10
72208013880,2017-04-20T09:56:00,FM-15,7,,SE,0.25,mi,"TEMP, PRECIP, SNOW",,,"MMTS, SRG, SNOWBOARD",,,WFO CHS,,,,,,,,,,,,,,,,,,,,,,,,,,,30.22,63,76,0.00,,+0.00,8,64,30.22,SCT:04 17,30.17,10.00,68,300,,7,,,,,,,,,,,,,,,,,,,,,,,,,,,,,,,,,,,,,MET10504/20/17 09:56:02 METAR KCHS 201456Z 30006KT 10SM SCT017 24/17 A3022 RMK AO2 SLP233 T02440172 58000 (JMB),,,,,,,,,,,,,,,,,,,,,,,,,,,,2009-06-10
72208013880,2017-04-20T10:00:00,FM-12,4,,SE,0.25,mi,"TEMP, PRECIP, SNOW",,,"MMTS, SRG, SNOWBOARD",,,WFO CHS,,,,,,,,,,,,,,,,,,,,,,,,,,,30.22,63,76,,,0.00,4,64,30.22,15,30.17,9.94,68,300,,7,,,,,,,,,,,,,,,,,,,,,,,,,,,,,,,,,,,,,SYN06472208 32466 43006 10244 20172 30217 40233 58000 91456 555 92015=,,,,,,,,,,,,,,,,,,,,,,,,,,,,2009-06-10
72208013880,2017-04-21T09:56:00,FM-15,7,,SE,0.25,mi,"TEMP, PRECIP, SNOW",,,"MMTS, SRG, SNOWBOARD",,,WFO CHS,,,,,,,,,,,,,,,,,,,,,,,,,,,30.06,60,78,0.00,,+0.02,6,54,30.05,CLR:00,30.01,10.00,67,270,,9,,,,,,,,,,,,,,,,,,,,,,,,,,,,,,,,,,,,,MET10104/21/17 09:56:02 METAR KCHS 211456Z 27008KT 10SM CLR 26/16 A3006 RMK AO2 SLP177 T02560156 56007 (MH),,,,,,,,,,,,,,,,,,,,,,,,,,,,2009-06-10
72208013880,2017-04-21T10:00:00,FM-12,4,,SE,0.25,mi,"TEMP, PRECIP, SNOW",,,"MMTS, SRG, SNOWBOARD",,,WFO CHS,,,,,,,,,,,,,,,,,,,,,,,,,,,30.06,60,78,,,+0.02,6,54,30.05,,30.01,9.94,67,270,,9,,,,,,,,,,,,,,,,,,,,,,,,,,,,,,,,,,,,,SYN06472208 32966 02708 10256 20156 30163 40177 56007 91456 555 92115=,,,,,,,,,,,,,,,,,,,,,,,,,,,,2009-06-10
72208013880,2017-04-23T09:56:00,FM-15,7,,SE,0.25,mi,"TEMP, PRECIP, SNOW",,,"MMTS, SRG, SNOWBOARD",,,WFO CHS,,,,,,,,,,,,,,,,,,,,,,,,,,,29.87,68,79,0.00,,+0.00,8,69,29.87,FEW:02 18 FEW:02 70,29.82,10.00,72,190,,8,,,,,,,,,,,,,,,,,,,,,,,,,,,,,,,,,,,,,MET11104/23/17 09:56:02 METAR KCHS 231456Z 19007KT 10SM FEW018 FEW070 26/20 A2987 RMK AO2 SLP114 T02610200 58001 (MH),,,,,,,,,,,,,,,,,,,,,,,,,,,,2009-06-10
72208013880,2017-04-23T10:00:00,FM-12,4,,SE,0.25,mi,"TEMP, PRECIP, SNOW",,,"MMTS, SRG, SNOWBOARD",,,WFO CHS,,,,,,,,,,,,,,,,,,,,,,,,,,,29.87,68,79,,,+0.00,8,69,29.87,15,29.82,9.94,72,190,,8,,,,,,,,,,,,,,,,,,,,,,,,,,,,,,,,,,,,,SYN06472208 32466 21907 10261 20200 30099 40114 58001 91456 555 92315=,,,,,,,,,,,,,,,,,,,,,,,,,,,,2009-06-10
72208013880,2017-04-24T09:56:00,FM-15,7,,SE,0.25,mi,"TEMP, PRECIP, SNOW",,,"MMTS, SRG, SNOWBOARD",,,WFO CHS,,,,,,,,,,,,,,,,,,,,,,,,,,,29.69,64,70,0.23,,-0.00,0,82,29.68,FEW:02 30 BKN:07 60 BKN:07 120,29.64,10.00,66,130,,7,,,,,,,,,,,,,,,,,,,,,,,,,,,,,,,,,,,,,MET16604/24/17 09:56:02 METAR KCHS 241456Z 13006KT 10SM FEW030 BKN060 BKN120 21/18 A2969 RMK AO2 LTG DSNT SE RAE16 TSE01 SLP051 CB DSNT SE P0025 60143 T02110178 50001 (JMB),,,,,,,,,,,,,,,,,,,,,,,,,,,,2009-06-10
72208013880,2017-04-27T09:56:00,FM-15,7,,SE,0.25,mi,"TEMP, PRECIP, SNOW",,,"MMTS, SRG, SNOWBOARD",,,WFO CHS,,,,,,,,,,,,,,,,,,,,,,,,,,,29.94,61,79,0.00,,-0.02,0,54,29.94,FEW:02 35 SCT:04 45 BKN:07 250,29.89,10.00,68,190,,10,,,,,,,,,,,,,,,,,,,,,,,,,,,,,,,,,,,,,MET11904/27/17 09:56:02 METAR KCHS 271456Z 19009KT 10SM FEW035 SCT045 BKN250 26/16 A2994 RMK AO2 SLP139 T02610161 50007 (JMB),,,,,,,,,,,,,,,,,,,,,,,,,,,,2009-06-10
72208013880,2017-04-29T09:56:00,FM-15,7,,SE,0.25,mi,"TEMP, PRECIP, SNOW",,,"MMTS, SRG, SNOWBOARD",,,WFO CHS,,,,,,,,,,,,,,,,,,,,,,,,,,,30.23,70,80,0.00,,-0.01,0,71,30.22,FEW:02 20 SCT:04 34 SCT:04 200,30.18,10.00,73,220,,11,,,,,,,,,,,,,,,,,,,,,,,,,,,,,,,,,,,,,MET11804/29/17 09:56:02 METAR KCHS 291456Z 22010KT 10SM FEW020 SCT034 SCT200 27/21 A3023 RMK AO2 SLP235 T02670211 50004 (MH),,,,,,,,,,,,,,,,,,,,,,,,,,,,2009-06-10
72208013880,2017-05-02T09:56:00,FM-15,7,,SE,0.25,mi,"TEMP, PRECIP, SNOW",,,"MMTS, SRG, SNOWBOARD",,,WFO CHS,,,,,,,,,,,,,,,,,,,,,,,,,,,30.02,50,73,0.00,,-0.02,0,44,30.02,CLR:00,29.97,10.00,60,310,,9,,,,,,,,,,,,,,,,,,,,,,,,,,,,,,,,,,,,,MET10205/02/17 09:56:02 METAR KCHS 021456Z 31008KT 10SM CLR 23/10 A3002 RMK AO2 SLP165 T02280100 50008 (JMB),,,,,,,,,,,,,,,,,,,,,,,,,,,,2009-06-10
72208013880,2017-05-04T09:56:00,FM-15,7,,SE,0.25,mi,"TEMP, PRECIP, SNOW",,,"MMTS, SRG, SNOWBOARD",,,WFO CHS,,,,,,,,,,,,,,,,,,,,,,,,,,,29.98,62,79,0.00,,+0.02,6,56,29.97,SCT:04 35 BKN:07 250,29.93,10.00,68,130,30,21,,,,,,,,,,,,,,,,,,,,,,,,,,,,,,,,,,,,,MET13305/04/17 09:56:02 METAR KCHS 041456Z 13018G26KT 10SM SCT035 BKN250 26/17 A2998 RMK AO2 PK WND 12028/1441 SLP150 T02610167 56008 (JMB),,,,,,,,,,,,,,,,,,,,,,,,,,,,2009-06-10
72208013880,2017-05-04T10:00:00,FM-12,4,,SE,0.25,mi,"TEMP, PRECIP, SNOW",,,"MMTS, SRG, SNOWBOARD",,,WFO CHS,,,,,,,,,,,,,,,,,,,,,,,,,,,29.98,62,79,,,+0.02,6,56,29.97,41,29.93,9.94,68,130,,21,,,,,,,,,,,,,,,,,,,,,,,,,,,,,,,,,,,,,SYN07472208 32666 61318 10261 20167 30136 40150 56008 91456 333 91026 555 90415=,,,,,,,,,,,,,,,,,,,,,,,,,,,,2009-06-10
72208013880,2017-05-09T09:56:00,FM-15,7,,SE,0.25,mi,"TEMP, PRECIP, SNOW",,,"MMTS, SRG, SNOWBOARD",,,WFO CHS,,,,,,,,,,,,,,,,,,,,,,,,,,,30.04,52,76,0.00,,-0.02,0,43,30.04,CLR:00,29.99,10.00,62,230,,7,,,,,,,,,,,,,,,,,,,,,,,,,,,,,,,,,,,,,MET10205/09/17 09:56:02 METAR KCHS 091456Z 23006KT 10SM CLR 24/11 A3004 RMK AO2 SLP173 T02440111 50008 (JMB),,,,,,,,,,,,,,,,,,,,,,,,,,,,2009-06-10
72208013880,2017-05-11T09:56:00,FM-15,7,,SE,0.25,mi,"TEMP, PRECIP, SNOW",,,"MMTS, SRG, SNOWBOARD",,,WFO CHS,,,,,,,,,,,,,,,,,,,,,,,,,,,29.92,63,84,0.00,,+0.02,8,49,29.92,BKN:07 250,29.87,10.00,70,290,24,14,,,,,,,,,,,,,,,,,,,,,,,,,,,,,,,,,,,,,MET10805/11/17 09:56:02 METAR KCHS 111456Z 29012G21KT 10SM BKN250 29/17 A2992 RMK AO2 SLP132 T02890172 58006 (JMB),,,,,,,,,,,,,,,,,,,,,,,,,,,,2009-06-10
72208013880,2017-05-11T10:00:00,FM-12,4,,SE,0.25,mi,"TEMP, PRECIP, SNOW",,,"MMTS, SRG, SNOWBOARD",,,WFO CHS,,,,,,,,,,,,,,,,,,,,,,,,,,,29.92,63,84,,,+0.02,8,49,29.92,,29.87,9.94,70,290,,14,,,,,,,,,,,,,,,,,,,,,,,,,,,,,,,,,,,,,SYN07472208 32966 62912 10289 20172 30116 40132 58006 91456 333 91021 555 91115=,,,,,,,,,,,,,,,,,,,,,,,,,,,,2009-06-10
72208013880,2017-05-15T09:56:00,FM-15,7,,SE,0.25,mi,"TEMP, PRECIP, SNOW",,,"MMTS, SRG, SNOWBOARD",,,WFO CHS,,,,,,,,,,,,,,,,,,,,,,,,,,,30.01,60,81,0.00,,-0.01,0,49,30.00,CLR:00,29.96,10.00,68,300,,7,,,,,,,,,,,,,,,,,,,,,,,,,,,,,,,,,,,,,MET10205/15/17 09:56:02 METAR KCHS 151456Z 30006KT 10SM CLR 27/16 A3001 RMK AO2 SLP160 T02720156 50004 (JMB),,,,,,,,,,,,,,,,,,,,,,,,,,,,2009-06-10
72208013880,2017-05-19T09:56:00,FM-15,7,,SE,0.25,mi,"TEMP, PRECIP, SNOW",,,"MMTS, SRG, SNOWBOARD",,,WFO CHS,,,,,,,,,,,,,,,,,,,,,,,,,,,30.15,63,80,0.00,,+0.02,8,56,30.14,FEW:02 40 FEW:02 250,30.10,10.00,69,VRB,,5,,,,,,,,,,,,,,,,,,,,,,,,,,,,,,,,,,,,,MET11205/19/17 09:56:02 METAR KCHS 191456Z VRB04KT 10SM FEW040 FEW250 27/17 A3015 RMK AO2 SLP208 T02670172 58006 (JMB),,,,,,,,,,,,,,,,,,,,,,,,,,,,2009-06-10
72208013880,2017-05-19T10:00:00,FM-12,4,,SE,0.25,mi,"TEMP, PRECIP, SNOW",,,"MMTS, SRG, SNOWBOARD",,,WFO CHS,,,,,,,,,,,,,,,,,,,,,,,,,,,30.15,63,80,,,+0.02,8,56,30.14,41,30.10,9.94,69,,,5,,,,,,,,,,,,,,,,,,,,,,,,,,,,,,,,,,,,,SYN06472208 32666 2//04 10267 20172 30194 40208 58006 91456 555 91915=,,,,,,,,,,,,,,,,,,,,,,,,,,,,2009-06-10
72208013880,2017-05-20T09:56:00,FM-15,7,,SE,0.25,mi,"TEMP, PRECIP, SNOW",,,"MMTS, SRG, SNOWBOARD",,,WFO CHS,,,,,,,,,,,,,,,,,,,,,,,,,,,30.13,68,84,0.00,,+0.00,8,59,30.13,SCT:04 32 SCT:04 250,30.08,10.00,73,180,,7,,,,,,,,,,,,,,,,,,,,,,,,,,,,,,,,,,,,,MET11105/20/17 09:56:02 METAR KCHS 201456Z 18006KT 10SM SCT032 SCT250 29/20 A3013 RMK AO2 SLP203 T02890200 58001 (MH),,,,,,,,,,,,,,,,,,,,,,,,,,,,2009-06-10
72208013880,2017-05-20T10:00:00,FM-12,4,,SE,0.25,mi,"TEMP, PRECIP, SNOW",,,"MMTS, SRG, SNOWBOARD",,,WFO CHS,,,,,,,,,,,,,,,,,,,,,,,,,,,30.13,68,84,,,+0.00,8,59,30.13,26,30.08,9.94,73,180,,7,,,,,,,,,,,,,,,,,,,,,,,,,,,,,,,,,,,,,SYN06472208 32566 41806 10289 20200 30187 40203 58001 91456 555 92015=,,,,,,,,,,,,,,,,,,,,,,,,,,,,2009-06-10
72208013880,2017-05-22T09:56:00,FM-15,7,,SE,0.25,mi,"TEMP, PRECIP, SNOW",,,"MMTS, SRG, SNOWBOARD",,,WFO CHS,,,,,,,,,,,,,,,,,,,,,,,,,,,30.08,70,81,0.00,,-0.00,0,69,30.07,SCT:04 40 BKN:07 100 BKN:07 200,30.03,10.00,74,230,,9,,,,,,,,,,,,,,,,,,,,,,,,,,,,,,,,,,,,,MET11905/22/17 09:56:02 METAR KCHS 221456Z 23008KT 10SM SCT040 BKN100 BKN200 27/21 A3008 RMK AO2 SLP183 T02720211 50000 (JMB),,,,,,,,,,,,,,,,,,,,,,,,,,,,2009-06-10
72208013880,2017-05-23T09:56:00,FM-15,7,,SE,0.25,mi,"TEMP, PRECIP, SNOW",,,"MMTS, SRG, SNOWBOARD",,,WFO CHS,,,,,,,,,,,,,,,,,,,,,,,,,,,29.84,69,76,T,,+0.03,8,79,29.83,FEW:02 8 SCT:04 15 BKN:07 40,29.79,10.00,71,230,,10,,,,,,,,,,,,,,,,,,,,,,,,,,,,,,,,,,,,,MET13705/23/17 09:56:02 METAR KCHS 231456Z 23009KT 10SM FEW008 SCT015 BKN040 24/21 A2984 RMK AO2 RAE53 SLP102 P0001 60003 T02440206 58010 (JMB),,,,,,,,,,,,,,,,,,,,,,,,,,,,2009-06-10
72208013880,2017-05-23T10:00:00,FM-12,4,,SE,0.25,mi,"TEMP, PRECIP, SNOW",,,"MMTS, SRG, SNOWBOARD",,,WFO CHS,,,,,,,,,,,,,,,,,,,,,,,,,,,29.84,69,76,,,+0.03,8,79,29.83,8,29.79,9.94,71,230,,10,,,,,,,,,,,,,,,,,,,,,,,,,,,,,,,,,,,,,SYN07072208 12366 62309 10244 20206 30089 40102 58010 69987 91456 555 92315=,,,,,,,,,,,,,,,,,,,,,,,,,,,,2009-06-10
72208013880,2017-05-24T09:56:00,FM-15,7,,SE,0.25,mi,"TEMP, PRECIP, SNOW",,,"MMTS, SRG, SNOWBOARD",,,WFO CHS,,,,,,,,,,,,,,,,,,,,,,,,,,,29.66,70,81,0.00,,+0.01,8,69,29.66,FEW:02 30 SCT:04 55 BKN:07 200,29.61,10.00,74,210,,14,,,,,,,,,,,,,,,,,,,,,,,,,,,,,,,,,,,,,MET11905/24/17 09:56:02 METAR KCHS 241456Z 21012KT 10SM FEW030 SCT055 BKN200 27/21 A2966 RMK AO2 SLP044 T02720211 58004 (JMB),,,,,,,,,,,,,,,,,,,,,,,,,,,,2009-06-10
72208013880,2017-05-24T10:00:00,FM-12,4,,SE,0.25,mi,"TEMP, PRECIP, SNOW",,,"MMTS, SRG, SNOWBOARD",,,WFO CHS,,,,,,,,,,,,,,,,,,,,,,,,,,,29.66,70,81,,,+0.01,8,69,29.66,26,29.61,9.94,74,210,,14,,,,,,,,,,,,,,,,,,,,,,,,,,,,,,,,,,,,,SYN06472208 32566 62112 10272 20211 30028 40044 58004 91456 555 92415=,,,,,,,,,,,,,,,,,,,,,,,,,,,,2009-06-10
72208013880,2017-05-25T09:56:00,FM-15,7,,SE,0.25,mi,"TEMP, PRECIP, SNOW",,,"MMTS, SRG, SNOWBOARD",,,WFO CHS,,,,,,,,,,,,,,,,,,,,,,,,,,,29.70,54,73,0.00,,-0.01,0,51,29.69,FEW:02 40 FEW:02 100 SCT:04 250,29.65,10.00,62,250,,15,,,,,,,,,,,,,,,,,,,,,,,,,,,,,,,,,,,,,MET11905/25/17 09:56:02 METAR KCHS 251456Z 25013KT 10SM FEW040 FEW100 SCT250 23/12 A2970 RMK AO2 SLP055 T02280122 50005 (JMB),,,,,,,,,,,,,,,,,,,,,,,,,,,,2009-06-10
72208013880,2017-05-26T09:56:00,FM-15,7,,SE,0.25,mi,"TEMP, PRECIP, SNOW",,,"MMTS, SRG, SNOWBOARD",,,WFO CHS,,,,,,,,,,,,,,,,,,,,,,,,,,,30.00,53,77,0.00,,+0.00,8,43,30.00,FEW:02 250,29.95,10.00,63,290,,10,,,,,,,,,,,,,,,,,,,,,,,,,,,,,,,,,,,,,MET10705/26/17 09:56:02 METAR KCHS 261456Z 29009KT 10SM FEW250 25/12 A3000 RMK AO2 SLP159 T02500117 58001 $ (JRS),,,,,,,,,,,,,,,,,,,,,,,,,,,,2009-06-10
72208013880,2017-05-26T10:00:00,FM-12,4,,SE,0.25,mi,"TEMP, PRECIP, SNOW",,,"MMTS, SRG, SNOWBOARD",,,WFO CHS,,,,,,,,,,,,,,,,,,,,,,,,,,,30.00,53,77,,,+0.00,8,43,30.00,,29.95,9.94,63,290,,10,,,,,,,,,,,,,,,,,,,,,,,,,,,,,,,,,,,,,SYN06472208 32966 22909 10250 20117 30143 40159 58001 91456 555 92615=,,,,,,,,,,,,,,,,,,,,,,,,,,,,2009-06-10
72208013880,2017-05-27T09:56:00,FM-15,7,,SE,0.25,mi,"TEMP, PRECIP, SNOW",,,"MMTS, SRG, SNOWBOARD",,,WFO CHS,,,,,,,,,,,,,,,,,,,,,,,,,,,30.01,63,83,0.00,,+0.01,8,51,30.01,CLR:00,29.96,10.00,70,VRB,,7,,,,,,,,,,,,,,,,,,,,,,,,,,,,,,,,,,,,,MET10305/27/17 09:56:02 METAR KCHS 271456Z VRB06KT 10SM CLR 28/17 A3001 RMK AO2 SLP161 T02830172 58005 $ (MH),,,,,,,,,,,,,,,,,,,,,,,,,,,,2009-06-10
72208013880,2017-05-27T10:00:00,FM-12,4,,SE,0.25,mi,"TEMP, PRECIP, SNOW",,,"MMTS, SRG, SNOWBOARD",,,WFO CHS,,,,,,,,,,,,,,,,,,,,,,,,,,,30.01,63,83,,,+0.01,8,51,30.01,,29.96,9.94,70,,,7,,,,,,,,,,,,,,,,,,,,,,,,,,,,,,,,,,,,,SYN06472208 32966 0//06 10283 20172 30146 40161 58005 91456 555 92715=,,,,,,,,,,,,,,,,,,,,,,,,,,,,2009-06-10
72208013880,2017-05-28T09:56:00,FM-15,7,,SE,0.25,mi,"TEMP, PRECIP, SNOW",,,"MMTS, SRG, SNOWBOARD",,,WFO CHS,,,,,,,,,,,,,,,,,,,,,,,,,,,29.93,69,84,0.00,,-0.03,0,61,29.93,FEW:02 100 BKN:07 250,29.88,10.00,74,270,,9,,,,,,,,,,,,,,,,,,,,,,,,,,,,,,,,,,,,,MET11305/28/17 09:56:02 METAR KCHS 281456Z 27008KT 10SM FEW100 BKN250 29/21 A2993 RMK AO2 SLP136 T02890206 50011 $ (MH),,,,,,,,,,,,,,,,,,,,,,,,,,,,2009-06-10
72208013880,2017-06-01T09:56:00,FM-15,7,,SE,0.25,mi,"TEMP, PRECIP, SNOW",,,"MMTS, SRG, SNOWBOARD",,,WFO CHS,,,,,,,,,,,,,,,,,,,,,,,,,,,30.09,67,82,0.00,,-0.00,0,60,30.09,SCT:04 120 BKN:07 200,30.04,10.00,72,VRB,,3,,,,,,,,,,,,,,,,,,,,,,,,,,,,,,,,,,,,,MET11206/01/17 09:56:02 METAR KCHS 011456Z VRB03KT 10SM SCT120 BKN200 28/19 A3009 RMK AO2 SLP189 T02780194 50001 (JMB),,,,,,,,,,,,,,,,,,,,,,,,,,,,2009-06-10
72208013880,2017-06-02T09:56:00,FM-15,7,,SE,0.25,mi,"TEMP, PRECIP, SNOW",,,"MMTS, SRG, SNOWBOARD",,,WFO CHS,,,,,,,,,,,,,,,,,,,,,,,,,,,30.07,67,80,0.00,,+0.01,8,64,30.07,SCT:04 100 BKN:07 200,30.02,10.00,71,270,,7,,,,,,,,,,,,,,,,,,,,,,,,,,,,,,,,,,,,,MET11206/02/17 09:56:02 METAR KCHS 021456Z 27006KT 10SM SCT100 BKN200 27/19 A3007 RMK AO2 SLP182 T02670194 58005 (JMB),,,,,,,,,,,,,,,,,,,,,,,,,,,,2009-06-10
72208013880,2017-06-02T10:00:00,FM-12,4,,SE,0.25,mi,"TEMP, PRECIP, SNOW",,,"MMTS, SRG, SNOWBOARD",,,WFO CHS,,,,,,,,,,,,,,,,,,,,,,,,,,,30.07,67,80,,,+0.01,8,64,30.07,,30.02,9.94,71,270,,7,,,,,,,,,,,,,,,,,,,,,,,,,,,,,,,,,,,,,SYN06472208 32966 62706 10267 20194 30167 40182 58005 91456 555 90215=,,,,,,,,,,,,,,,,,,,,,,,,,,,,2009-06-10
72208013880,2017-06-03T09:56:00,FM-15,7,,SE,0.25,mi,"TEMP, PRECIP, SNOW",,,"MMTS, SRG, SNOWBOARD",,,WFO CHS,,,,,,,,,,,,,,,,,,,,,,,,,,,30.06,69,85,0.00,,-0.00,0,59,30.06,FEW:02 40 FEW:02 200,30.01,10.00,74,VRB,,3,,,,,,,,,,,,,,,,,,,,,,,,,,,,,,,,,,,,,MET11306/03/17 09:56:02 METAR KCHS 031456Z VRB03KT 10SM FEW040 FEW200 29/21 A3006 RMK AO2 SLP178 T02940206 50001 $ (MH),,,,,,,,,,,,,,,,,,,,,,,,,,,,2009-06-10
72208013880,2017-06-04T09:56:00,FM-15,7,,SE,0.25,mi,"TEMP, PRECIP, SNOW",,,"MMTS, SRG, SNOWBOARD",,,WFO CHS,,,,,,,,,,,,,,,,,,,,,,,,,,,30.02,69,83,0.00,,+0.01,8,63,30.02,SCT:04 30 SCT:04 200,29.97,10.00,74,180,,8,,,,,,,,,,,,,,,,,,,,,,,,,,,,,,,,,,,,,MET11306/04/17 09:56:02 METAR KCHS 041456Z 18007KT 10SM SCT030 SCT200 28/21 A3002 RMK AO2 SLP165 T02830206 58004 $ (MH),,,,,,,,,,,,,,,,,,,,,,,,,,,,2009-06-10
72208013880,2017-06-04T10:00:00,FM-12,4,,SE,0.25,mi,"TEMP, PRECIP, SNOW",,,"MMTS, SRG, SNOWBOARD",,,WFO CHS,,,,,,,,,,,,,,,,,,,,,,,,,,,30.02,69,83,,,+0.01,8,63,30.02,26,29.97,9.94,74,180,,8,,,,,,,,,,,,,,,,,,,,,,,,,,,,,,,,,,,,,SYN06472208 32566 41807 10283 20206 30150 40165 58004 91456 555 90415=,,,,,,,,,,,,,,,,,,,,,,,,,,,,2009-06-10
72208013880,2017-06-05T09:56:00,FM-15,7,,SE,0.25,mi,"TEMP, PRECIP, SNOW",,,"MMTS, SRG, SNOWBOARD",,,WFO CHS,,,,,,,,,,,,,,,,,,,,,,,,,,,29.86,72,83,T,,+0.02,8,70,29.85,FEW:02 20 SCT:04 35 BKN:07 150,29.81,10.00,75,VRB,,6,,,,,,,,,,,,,,,,,,,,,,,,,,,,,,,,,,,,,MET14006/05/17 09:56:02 METAR KCHS 051456Z VRB05KT 10SM FEW020 SCT035 BKN150 28/22 A2986 RMK AO2 RAB03E17 SLP110 P0000 60000 T02830222 58006 (JMB),,,,,,,,,,,,,,,,,,,,,,,,,,,,2009-06-10
72208013880,2017-06-05T10:00:00,FM-12,4,,SE,0.25,mi,"TEMP, PRECIP, SNOW",,,"MMTS, SRG, SNOWBOARD",,,WFO CHS,,,,,,,,,,,,,,,,,,,,,,,,,,,29.86,72,83,,,+0.02,8,70,29.85,26,29.81,9.94,75,,,6,,,,,,,,,,,,,,,,,,,,,,,,,,,,,,,,,,,,,SYN07072208 12566 6//05 10283 20222 30096 40110 58006 69907 91456 555 90515=,,,,,,,,,,,,,,,,,,,,,,,,,,,,2009-06-10
72208013880,2017-06-06T09:56:00,FM-15,7,,SE,0.25,mi,"TEMP, PRECIP, SNOW",,,"MMTS, SRG, SNOWBOARD",,,WFO CHS,,,,,,,,,,,,,,,,,,,,,,,,,,,29.80,71,81,0.00,,-0.00,0,72,29.80,BKN:07 20 BKN:07 120,29.75,10.00,74,280,17,9,,,,,,,,,,,,,,,,,,,,,,,,,,,,,,,,,,,,,MET11506/06/17 09:56:02 METAR KCHS 061456Z 28008G15KT 10SM BKN020 BKN120 27/22 A2980 RMK AO2 SLP091 T02720217 50001 (JMB),,,,,,,,,,,,,,,,,,,,,,,,,,,,2009-06-10
72208013880,2017-06-09T09:56:00,FM-15,7,,SE,0.25,mi,"TEMP, PRECIP, SNOW",,,"MMTS, SRG, SNOWBOARD",,,WFO CHS,,,,,,,,,,,,,,,,,,,,,,,,,,,29.99,62,77,0.00,,-0.02,0,60,29.98,FEW:02 30 FEW:02 250,29.94,10.00,68,000,,0,,,,,,,,,,,,,,,,,,,,,,,,,,,,,,,,,,,,,MET11206/09/17 09:56:02 METAR KCHS 091456Z 00000KT 10SM FEW030 FEW250 25/17 A2999 RMK AO2 SLP154 T02500167 50008 (JMB),,,,,,,,,,,,,,,,,,,,,,,,,,,,2009-06-10
72208013880,2017-06-12T09:56:00,FM-15,7,,SE,0.25,mi,"TEMP, PRECIP, SNOW",,,"MMTS, SRG, SNOWBOARD",,,WFO CHS,,,,,,,,,,,,,,,,,,,,,,,,,,,30.21,65,80,0.00,,-0.02,0,60,30.20,FEW:02 35 SCT:04 120 BKN:07 200,30.16,10.00,70,060,,10,,,,,,,,,,,,,,,,,,,,,,,,,,,,,,,,,,,,,MET11906/12/17 09:56:02 METAR KCHS 121456Z 06009KT 10SM FEW035 SCT120 BKN200 27/18 A3021 RMK AO2 SLP228 T02670183 50007 (JMB),,,,,,,,,,,,,,,,,,,,,,,,,,,,2009-06-10
72208013880,2017-06-13T09:56:00,FM-15,7,,SE,0.25,mi,"TEMP, PRECIP, SNOW",,,"MMTS, SRG, SNOWBOARD",,,WFO CHS,,,,,,,,,,,,,,,,,,,,,,,,,,,30.12,70,79,0.00,,-0.00,0,74,30.12,FEW:02 15 BKN:07 120 OVC:08 200,30.07,10.00,73,070,,3,,,,,,,,,,,,,,,,,,,,,,,,,,,,,,,,,,,,,MET11906/13/17 09:56:02 METAR KCHS 131456Z 07003KT 10SM FEW015 BKN120 OVC200 26/21 A3012 RMK AO2 SLP200 T02610211 50000 (JMB),,,,,,,,,,,,,,,,,,,,,,,,,,,,2009-06-10
72208013880,2017-06-14T09:56:00,FM-15,7,,SE,0.25,mi,"TEMP, PRECIP, SNOW",,,"MMTS, SRG, SNOWBOARD",,,WFO CHS,,,,,,,,,,,,,,,,,,,,,,,,,,,30.07,68,85,0.00,,-0.01,0,57,30.06,FEW:02 30 SCT:04 250,30.02,10.00,74,290,,10,,,,,,,,,,,,,,,,,,,,,,,,,,,,,,,,,,,,,MET11206/14/17 09:56:02 METAR KCHS 141456Z 29009KT 10SM FEW030 SCT250 29/20 A3007 RMK AO2 SLP181 T02940200 50002 (JMB),,,,,,,,,,,,,,,,,,,,,,,,,,,,2009-06-10
72208013880,2017-06-15T09:56:00,FM-15,7,,SE,0.25,mi,"TEMP, PRECIP, SNOW",,,"MMTS, SRG, SNOWBOARD",,,WFO CHS,,,,,,,,,,,,,,,,,,,,,,,,,,,29.99,72,87,0.00,,-0.01,0,61,29.99,FEW:02 200,29.94,10.00,77,290,,9,,,,,,,,,,,,,,,,,,,,,,,,,,,,,,,,,,,,,MET10506/15/17 09:56:02 METAR KCHS 151456Z 29008KT 10SM FEW200 31/22 A2999 RMK AO2 SLP155 T03060222 50003 (MBT),,,,,,,,,,,,,,,,,,,,,,,,,,,,2009-06-10
72208013880,2017-06-20T09:56:00,FM-15,7,,SE,0.25,mi,"TEMP, PRECIP, SNOW",,,"MMTS, SRG, SNOWBOARD",,,WFO CHS,,,,,,,,,,,,,,,,,,,,,,,,,,,30.09,73,82,0.00,,-0.01,0,74,30.09,FEW:02 40 SCT:04 85 OVC:08 200,30.04,10.00,76,270,,5,,,,,,,,,,,,,,,,,,,,,,,,,,,,,,,,,,,,,MET11906/20/17 09:56:02 METAR KCHS 201456Z 27004KT 10SM FEW040 SCT085 OVC200 28/23 A3009 RMK AO2 SLP190 T02780228 50005 (JMB),,,,,,,,,,,,,,,,,,,,,,,,,,,,2009-06-10
72208013880,2017-06-27T09:56:00,FM-15,7,,SE,0.25,mi,"TEMP, PRECIP, SNOW",,,"MMTS, SRG, SNOWBOARD",,,WFO CHS,,,,,,,,,,,,,,,,,,,,,,,,,,,30.04,66,83,0.00,,-0.01,0,57,30.03,SCT:04 40 SCT:04 250,29.99,10.00,72,010,,6,,,,,,,,,,,,,,,,,,,,,,,,,,,,,,,,,,,,,MET11106/27/17 09:56:02 METAR KCHS 271456Z 01005KT 10SM SCT040 SCT250 28/19 A3004 RMK AO2 SLP170 T02830189 50004 (AW),,,,,,,,,,,,,,,,,,,,,,,,,,,,2009-06-10
72208013880,2017-07-04T09:56:00,FM-15,7,,SE,0.25,mi,"TEMP, PRECIP, SNOW",,,"MMTS, SRG, SNOWBOARD",,,WFO CHS,,,,,,,,,,,,,,,,,,,,,,,,,,,30.07,74,88,0.00,,-0.01,0,63,30.06,FEW:02 30 FEW:02 250,30.02,10.00,78,VRB,,10,,,,,,,,,,,,,,,,,,,,,,,,,,,,,,,,,,,,,MET11207/04/17 09:56:02 METAR KCHS 041456Z 29009KT 10SM FEW030 FEW250 31/23 A3007 RMK AO2 SLP181 T03110233 50002 (JMB),,,,,,,,,,,,,,,,,,,,,,,,,,,,2009-06-10
72208013880,2017-07-08T09:56:00,FM-15,7,,SE,0.25,mi,"TEMP, PRECIP, SNOW",,,"MMTS, SRG, SNOWBOARD",,,WFO CHS,,,,,,,,,,,,,,,,,,,,,,,,,,,30.01,71,89,0.00,,-0.01,0,55,30.01,FEW:02 200,29.96,10.00,76,220,,9,,,,,,,,,,,,,,,,,,,,,,,,,,,,,,,,,,,,,MET10407/08/17 09:56:02 METAR KCHS 081456Z 22008KT 10SM FEW200 32/22 A3001 RMK AO2 SLP162 T03170217 50003 (MH),,,,,,,,,,,,,,,,,,,,,,,,,,,,2009-06-10
72208013880,2017-07-11T09:56:00,FM-15,7,,SE,0.25,mi,"TEMP, PRECIP, SNOW",,,"MMTS, SRG, SNOWBOARD",,,WFO CHS,,,,,,,,,,,,,,,,,,,,,,,,,,,30.12,73,85,0.00,,-0.01,0,68,30.12,FEW:02 30 BKN:07 250,30.07,10.00,77,240,,3,,,,,,,,,,,,,,,,,,,,,,,,,,,,,,,,,,,,,MET11207/11/17 09:56:02 METAR KCHS 111456Z 24003KT 10SM FEW030 BKN250 29/23 A3012 RMK AO2 SLP199 T02940228 50003 (JMB),,,,,,,,,,,,,,,,,,,,,,,,,,,,2009-06-10
72208013880,2017-07-14T09:56:00,FM-15,7,,SE,0.25,mi,"TEMP, PRECIP, SNOW",,,"MMTS, SRG, SNOWBOARD",,,WFO CHS,,,,,,,,,,,,,,,,,,,,,,,,,,,30.18,73,87,0.00,,+0.00,8,63,30.18,SCT:04 30 SCT:04 250,30.13,10.00,77,270,,7,,,,,,,,,,,,,,,,,,,,,,,,,,,,,,,,,,,,,MET11207/14/17 09:56:02 METAR KCHS 141456Z 27006KT 10SM SCT030 SCT250 31/23 A3018 RMK AO2 SLP219 T03060228 58001 (JMB),,,,,,,,,,,,,,,,,,,,,,,,,,,,2009-06-10
72208013880,2017-07-14T10:00:00,FM-12,4,,SE,0.25,mi,"TEMP, PRECIP, SNOW",,,"MMTS, SRG, SNOWBOARD",,,WFO CHS,,,,,,,,,,,,,,,,,,,,,,,,,,,30.18,73,87,,,+0.00,8,63,30.18,26,30.13,9.94,77,270,,7,,,,,,,,,,,,,,,,,,,,,,,,,,,,,,,,,,,,,SYN06472208 32566 42706 10306 20228 30204 40219 58001 91456 555 91415=,,,,,,,,,,,,,,,,,,,,,,,,,,,,2009-06-10
72208013880,2017-07-15T09:56:00,FM-15,7,,SE,0.25,mi,"TEMP, PRECIP, SNOW",,,"MMTS, SRG, SNOWBOARD",,,WFO CHS,,,,,,,,,,,,,,,,,,,,,,,,,,,30.08,75,89,0.00,,+0.02,8,63,30.08,FEW:02 50,30.03,10.00,79,250,,7,,,,,,,,,,,,,,,,,,,,,,,,,,,,,,,,,,,,,MET10407/15/17 09:56:02 METAR KCHS 151456Z 25006KT 10SM FEW050 32/24 A3008 RMK AO2 SLP185 T03170239 58006 (MH),,,,,,,,,,,,,,,,,,,,,,,,,,,,2009-06-10
72208013880,2017-07-15T10:00:00,FM-12,4,,SE,0.25,mi,"TEMP, PRECIP, SNOW",,,"MMTS, SRG, SNOWBOARD",,,WFO CHS,,,,,,,,,,,,,,,,,,,,,,,,,,,30.08,75,89,,,+0.02,8,63,30.08,57,30.03,9.94,79,250,,7,,,,,,,,,,,,,,,,,,,,,,,,,,,,,,,,,,,,,SYN06472208 32766 22506 10317 20239 30170 40185 58006 91456 555 91515=,,,,,,,,,,,,,,,,,,,,,,,,,,,,2009-06-10
72208013880,2017-07-21T09:56:00,FM-15,7,,SE,0.25,mi,"TEMP, PRECIP, SNOW",,,"MMTS, SRG, SNOWBOARD",,,WFO CHS,,,,,,,,,,,,,,,,,,,,,,,,,,,30.06,72,86,0.00,,-0.01,0,63,30.06,FEW:02 250,30.01,10.00,76,230,,6,,,,,,,,,,,,,,,,,,,,,,,,,,,,,,,,,,,,,MET10407/21/17 09:56:02 METAR KCHS 211456Z 23005KT 10SM FEW250 30/22 A3006 RMK AO2 SLP180 T03000222 50005 (MH),,,,,,,,,,,,,,,,,,,,,,,,,,,,2009-06-10
72208013880,2017-07-23T09:56:00,FM-15,7,,SE,0.25,mi,"TEMP, PRECIP, SNOW",,,"MMTS, SRG, SNOWBOARD",,,WFO CHS,,,,,,,,,,,,,,,,,,,,,,,,,,,29.96,76,87,0.00,,+0.02,8,70,29.96,FEW:02 35 FEW:02 65,29.91,10.00,79,VRB,,7,,,,,,,,,,,,,,,,,,,,,,,,,,,,,,,,,,,,,MET11107/23/17 09:56:02 METAR KCHS 231456Z VRB06KT 10SM FEW035 FEW065 31/24 A2996 RMK AO2 SLP144 T03060244 58006 (MH),,,,,,,,,,,,,,,,,,,,,,,,,,,,2009-06-10
72208013880,2017-07-23T10:00:00,FM-12,4,,SE,0.25,mi,"TEMP, PRECIP, SNOW",,,"MMTS, SRG, SNOWBOARD",,,WFO CHS,,,,,,,,,,,,,,,,,,,,,,,,,,,29.96,76,87,,,+0.02,8,70,29.96,41,29.91,9.94,79,,,7,,,,,,,,,,,,,,,,,,,,,,,,,,,,,,,,,,,,,SYN06472208 32666 2//06 10306 20244 30129 40144 58006 91456 555 92315=,,,,,,,,,,,,,,,,,,,,,,,,,,,,2009-06-10
72208013880,2017-07-27T09:56:00,FM-15,7,,SE,0.25,mi,"TEMP, PRECIP, SNOW",,,"MMTS, SRG, SNOWBOARD",,,WFO CHS,,,,,,,,,,,,,,,,,,,,,,,,,,,30.06,72,83,T,,-0.00,0,70,30.05,FEW:02 30 FEW:02 200,30.01,10.00,75,200,,9,,,,,,,,,,,,,,,,,,,,,,,,,,,,,,,,,,,,,MET13007/27/17 09:56:02 METAR KCHS 271456Z 20008KT 10SM FEW030 FEW200 28/22 A3006 RMK AO2 RAE11 SLP177 P0000 60020 T02830222 50001 (JMB),,,,,,,,,,,,,,,,,,,,,,,,,,,,2009-06-10
72208013880,2017-07-28T09:56:00,FM-15,7,,SE,0.25,mi,"TEMP, PRECIP, SNOW",,,"MMTS, SRG, SNOWBOARD",,,WFO CHS,,,,,,,,,,,,,,,,,,,,,,,,,,,29.89,74,86,0.00,,+0.02,6,67,29.88,FEW:02 20 SCT:04 90 BKN:07 250,29.84,10.00,78,300,,7,,,,,,,,,,,,,,,,,,,,,,,,,,,,,,,,,,,,,MET11907/28/17 09:56:02 METAR KCHS 281456Z 30006KT 10SM FEW020 SCT090 BKN250 30/23 A2989 RMK AO2 SLP119 T03000233 56007 (JMB),,,,,,,,,,,,,,,,,,,,,,,,,,,,2009-06-10
72208013880,2017-07-28T10:00:00,FM-12,4,,SE,0.25,mi,"TEMP, PRECIP, SNOW",,,"MMTS, SRG, SNOWBOARD",,,WFO CHS,,,,,,,,,,,,,,,,,,,,,,,,,,,29.89,74,86,,,+0.02,6,67,29.88,26,29.84,9.94,78,300,,7,,,,,,,,,,,,,,,,,,,,,,,,,,,,,,,,,,,,,SYN06472208 32566 63006 10300 20233 30106 40119 56007 91456 555 92815=,,,,,,,,,,,,,,,,,,,,,,,,,,,,2009-06-10
72208013880,2017-07-29T09:56:00,FM-15,7,,SE,0.25,mi,"TEMP, PRECIP, SNOW",,,"MMTS, SRG, SNOWBOARD",,,WFO CHS,,,,,,,,,,,,,,,,,,,,,,,,,,,29.75,74,83,0.00,,+0.00,8,74,29.75,BKN:07 18 BKN:07 25,29.70,10.00,77,270,25,18,,,,,,,,,,,,,,,,,,,,,,,,,,,,,,,,,,,,,MET12107/29/17 09:56:02 METAR KCHS 291456Z 27016G22KT 10SM BKN018 BKN025 28/23 A2975 RMK AO2 SLP073 60000 T02830233 58001 (MBT),,,,,,,,,,,,,,,,,,,,,,,,,,,,2009-06-10
72208013880,2017-07-29T10:00:00,FM-12,4,,SE,0.25,mi,"TEMP, PRECIP, SNOW",,,"MMTS, SRG, SNOWBOARD",,,WFO CHS,,,,,,,,,,,,,,,,,,,,,,,,,,,29.75,74,83,,,+0.00,8,74,29.75,15,29.70,9.94,77,270,,18,,,,,,,,,,,,,,,,,,,,,,,,,,,,,,,,,,,,,SYN08072208 12466 62716 10283 20233 30058 40073 58001 69907 91456 333 91022 555 92915=,,,,,,,,,,,,,,,,,,,,,,,,,,,,2009-06-10
72208013880,2017-08-05T09:56:00,FM-15,7,,SE,0.25,mi,"TEMP, PRECIP, SNOW",,,"MMTS, SRG, SNOWBOARD",,,WFO CHS,,,,,,,,,,,,,,,,,,,,,,,,,,,30.07,74,79,T,-RA:02 |RA |,-0.02,0,85,30.06,FEW:02 15 SCT:04 50 BKN:07 110,30.02,10.00,76,220,,8,,,,,,,,,,,,,,,,,,,,,,,,,,,,,,,,,,,,,MET14708/05/17 09:56:02 METAR KCHS 051456Z 22007KT 10SM -RA FEW015 SCT050 BKN110 26/23 A3007 RMK AO2 RAB25E26B45 SLP181 P0000 60000 T02610233 50007 (MBT),,,,,,,,,,,,,,,,,,,,,,,,,,,,2009-06-10
72208013880,2017-08-07T09:56:00,FM-15,7,,SE,0.25,mi,"TEMP, PRECIP, SNOW",,,"MMTS, SRG, SNOWBOARD",,,WFO CHS,,,,,,,,,,,,,,,,,,,,,,,,,,,30.07,77,87,0.00,,+0.00,7,72,30.06,SCT:04 25,30.02,10.00,80,200,,14,,,,,,,,,,,,,,,,,,,,,,,,,,,,,,,,,,,,,MET11508/07/17 09:56:02 METAR KCHS 071456Z 20012KT 10SM SCT025 31/25 A3007 RMK AO2 SLP181 SCT V BKN T03060250 57001 (JMB),,,,,,,,,,,,,,,,,,,,,,,,,,,,2009-06-10
72208013880,2017-08-07T10:00:00,FM-12,4,,SE,0.25,mi,"TEMP, PRECIP, SNOW",,,"MMTS, SRG, SNOWBOARD",,,WFO CHS,,,,,,,,,,,,,,,,,,,,,,,,,,,30.07,77,87,,,+0.00,7,72,30.06,26,30.02,9.94,80,200,,14,,,,,,,,,,,,,,,,,,,,,,,,,,,,,,,,,,,,,SYN06472208 32566 42012 10306 20250 30167 40181 57001 91456 555 90715=,,,,,,,,,,,,,,,,,,,,,,,,,,,,2009-06-10
72208013880,2017-08-18T09:56:00,FM-15,7,,SE,0.25,mi,"TEMP, PRECIP, SNOW",,,"MMTS, SRG, SNOWBOARD",,,WFO CHS,,,,,,,,,,,,,,,,,,,,,,,,,,,29.99,76,90,0.00,,-0.02,0,63,29.98,FEW:02 36 FEW:02 250,29.94,10.00,80,310,,8,,,,,,,,,,,,,,,,,,,,,,,,,,,,,,,,,,,,,MET11208/18/17 09:56:02 METAR KCHS 181456Z 31007KT 10SM FEW036 FEW250 32/24 A2999 RMK AO2 SLP154 T03220244 50006 (JRS),,,,,,,,,,,,,,,,,,,,,,,,,,,,2009-06-10
72208013880,2017-08-23T09:56:00,FM-15,7,,SE,0.25,mi,"TEMP, PRECIP, SNOW",,,"MMTS, SRG, SNOWBOARD",,,WFO CHS,,,,,,,,,,,,,,,,,,,,,,,,,,,29.95,75,87,0.00,,0.00,4,67,29.94,FEW:02 30 FEW:02 250,29.90,10.00,78,230,,8,,,,,,,,,,,,,,,,,,,,,,,,,,,,,,,,,,,,,MET11208/23/17 09:56:02 METAR KCHS 231456Z 23007KT 10SM FEW030 FEW250 31/24 A2995 RMK AO2 SLP140 T03060239 54000 (JMB),,,,,,,,,,,,,,,,,,,,,,,,,,,,2009-06-10
72208013880,2017-08-23T10:00:00,FM-12,4,,SE,0.25,mi,"TEMP, PRECIP, SNOW",,,"MMTS, SRG, SNOWBOARD",,,WFO CHS,,,,,,,,,,,,,,,,,,,,,,,,,,,29.95,75,87,,,0.00,4,67,29.94,26,29.90,9.94,78,230,,8,,,,,,,,,,,,,,,,,,,,,,,,,,,,,,,,,,,,,SYN06472208 32566 22307 10306 20239 30126 40140 54000 91456 555 92315=,,,,,,,,,,,,,,,,,,,,,,,,,,,,2009-06-10
72208013880,2017-08-26T09:56:00,FM-15,7,,SE,0.25,mi,"TEMP, PRECIP, SNOW",,,"MMTS, SRG, SNOWBOARD",,,WFO CHS,,,,,,,,,,,,,,,,,,,,,,,,,,,30.06,75,83,0.00,,-0.01,0,77,30.06,SCT:04 30 SCT:04 200,30.01,10.00,77,050,,11,,,,,,,,,,,,,,,,,,,,,,,,,,,,,,,,,,,,,MET11308/26/17 09:56:02 METAR KCHS 261456Z 05010KT 10SM SCT030 SCT200 28/24 A3006 RMK AO2 SLP180 T02830239 50004 $ (MH),,,,,,,,,,,,,,,,,,,,,,,,,,,,2009-06-10
72208013880,2017-08-27T09:56:00,FM-15,7,,SE,0.25,mi,"TEMP, PRECIP, SNOW",,,"MMTS, SRG, SNOWBOARD",,,WFO CHS,,,,,,,,,,,,,,,,,,,,,,,,,,,30.01,72,83,0.00,,+0.01,8,70,30.01,FEW:02 16 SCT:04 21 SCT:04 60,29.96,10.00,75,060,30,18,,,,,,,,,,,,,,,,,,,,,,,,,,,,,,,,,,,,,MET14108/27/17 09:56:02 METAR KCHS 271456Z 06016G26KT 10SM FEW016 SCT021 SCT060 28/22 A3001 RMK AO2 PK WND 03026/1452 SLP161 T02830222 58003 $ (MH),,,,,,,,,,,,,,,,,,,,,,,,,,,,2009-06-10
72208013880,2017-08-27T10:00:00,FM-12,4,,SE,0.25,mi,"TEMP, PRECIP, SNOW",,,"MMTS, SRG, SNOWBOARD",,,WFO CHS,,,,,,,,,,,,,,,,,,,,,,,,,,,30.01,72,83,,,+0.01,8,70,30.01,15,29.96,9.94,75,060,,18,,,,,,,,,,,,,,,,,,,,,,,,,,,,,,,,,,,,,SYN07472208 32466 40616 10283 20222 30146 40161 58003 91456 333 91026 555 92715=,,,,,,,,,,,,,,,,,,,,,,,,,,,,2009-06-10
72208013880,2017-08-31T09:56:00,FM-15,7,,SE,0.25,mi,"TEMP, PRECIP, SNOW",,,"MMTS, SRG, SNOWBOARD",,,WFO CHS,,,,,,,,,,,,,,,,,,,,,,,,,,,30.08,74,83,0.00,,+0.00,8,74,30.08,SCT:04 20,30.03,10.00,77,220,,6,,,,,,,,,,,,,,,,,,,,,,,,,,,,,,,,,,,,,MET10508/31/17 09:56:02 METAR KCHS 311456Z 22005KT 10SM SCT020 28/23 A3008 RMK AO2 SLP185 T02830233 58001 (JMB),,,,,,,,,,,,,,,,,,,,,,,,,,,,2009-06-10
72208013880,2017-08-31T10:00:00,FM-12,4,,SE,0.25,mi,"TEMP, PRECIP, SNOW",,,"MMTS, SRG, SNOWBOARD",,,WFO CHS,,,,,,,,,,,,,,,,,,,,,,,,,,,30.08,74,83,,,+0.00,8,74,30.08,26,30.03,9.94,77,220,,6,,,,,,,,,,,,,,,,,,,,,,,,,,,,,,,,,,,,,SYN06472208 32566 42205 10283 20233 30170 40185 58001 91456 555 93115=,,,,,,,,,,,,,,,,,,,,,,,,,,,,2009-06-10
72208013880,2017-09-03T09:56:00,FM-15,7,,SE,0.25,mi,"TEMP, PRECIP, SNOW",,,"MMTS, SRG, SNOWBOARD",,,WFO CHS,,,,,,,,,,,,,,,,,,,,,,,,,,,30.11,63,82,0.00,,-0.03,0,53,30.10,FEW:02 200,30.06,10.00,70,VRB,,3,,,,,,,,,,,,,,,,,,,,,,,,,,,,,,,,,,,,,MET10409/03/17 09:56:02 METAR KCHS 031456Z VRB03KT 10SM FEW200 28/17 A3011 RMK AO2 SLP194 T02780172 50009 (MH),,,,,,,,,,,,,,,,,,,,,,,,,,,,2009-06-10
72208013880,2017-09-11T09:56:00,FM-15,7,,SE,0.25,mi,"TEMP, PRECIP, SNOW",,,"MMTS, SRG, SNOWBOARD",,,WFO CHS,,,,,,,,,,,,,,,,,,,,,,,,,,,29.76,70,70,0.35,+RA:02 BR:1 |RA |,+0.06,6,100,29.75,OVC:08 6,29.71,1.50,70,070,32,25,,,,,,,,,,,,,,,,,,,,,,,,,,,,,,,,,,,,,MET16509/11/17 09:56:02 METAR KCHS 111456Z 07022G28KT 1 1/2SM R15/6000VP6000FT +RA BR OVC006 21/21 A2976 RMK AO2 PK WND 05032/1409 SLP075 P0036 60079 T02110211 56022 (JMB),,,,,,,,,,,,,,,,,,,,,,,,,,,,2009-06-10
72208013880,2017-09-11T10:00:00,FM-12,4,,SE,0.25,mi,"TEMP, PRECIP, SNOW",,,"MMTS, SRG, SNOWBOARD",,,WFO CHS,,,,,,,,,,,,,,,,,,,,,,,,,,,29.76,70,70,,||RA,+0.06,6,100,29.75,5,29.71,1.49,70,070,,25,,,,,,,,,,,,,,,,,,,,,,,,,,,,,,,,,,,,,SYN09272208 11224 80722 10211 20211 30062 40075 56022 60207 765// 91456 333 91028 96010 555 91115=,,,,,,,,,,,,,,,,,,,,,,,,,,,,2009-06-10
72208013880,2017-09-16T09:56:00,FM-15,7,,SE,0.25,mi,"TEMP, PRECIP, SNOW",,,"MMTS, SRG, SNOWBOARD",,,WFO CHS,,,,,,,,,,,,,,,,,,,,,,,,,,,30.10,70,84,0.00,,-0.02,0,63,30.10,CLR:00,30.05,10.00,74,010,,8,,,,,,,,,,,,,,,,,,,,,,,,,,,,,,,,,,,,,MET10109/16/17 09:56:02 METAR KCHS 161456Z 01007KT 10SM CLR 29/21 A3010 RMK AO2 SLP192 T02890211 50007 (MH),,,,,,,,,,,,,,,,,,,,,,,,,,,,2009-06-10
72208013880,2017-09-20T09:56:00,FM-15,7,,SE,0.25,mi,"TEMP, PRECIP, SNOW",,,"MMTS, SRG, SNOWBOARD",,,WFO CHS,,,,,,,,,,,,,,,,,,,,,,,,,,,30.04,71,83,0.00,,-0.01,0,67,30.04,FEW:02 250,29.99,10.00,75,VRB,,6,,,,,,,,,,,,,,,,,,,,,,,,,,,,,,,,,,,,,MET10509/20/17 09:56:02 METAR KCHS 201456Z VRB05KT 10SM FEW250 28/22 A3004 RMK AO2 SLP173 T02830217 50005 (JMB),,,,,,,,,,,,,,,,,,,,,,,,,,,,2009-06-10
72208013880,2017-09-21T09:56:00,FM-15,7,,SE,0.25,mi,"TEMP, PRECIP, SNOW",,,"MMTS, SRG, SNOWBOARD",,,WFO CHS,,,,,,,,,,,,,,,,,,,,,,,,,,,30.05,72,86,0.00,,-0.01,0,63,30.04,FEW:02 250,30.00,10.00,76,VRB,,5,,,,,,,,,,,,,,,,,,,,,,,,,,,,,,,,,,,,,MET10709/21/17 09:56:02 METAR KCHS 211456Z VRB04KT 10SM FEW250 30/22 A3005 RMK AO2 SLP174 T03000222 50003 $ (JMB),,,,,,,,,,,,,,,,,,,,,,,,,,,,2009-06-10
72208013880,2017-09-23T09:56:00,FM-15,7,,SE,0.25,mi,"TEMP, PRECIP, SNOW",,,"MMTS, SRG, SNOWBOARD",,,WFO CHS,,,,,,,,,,,,,,,,,,,,,,,,,,,30.03,72,82,0.00,,-0.02,0,72,30.03,FEW:02 9 SCT:04 13,29.98,10.00,75,030,,9,,,,,,,,,,,,,,,,,,,,,,,,,,,,,,,,,,,,,MET11209/23/17 09:56:02 METAR KCHS 231456Z 03008KT 10SM FEW009 SCT013 28/22 A3003 RMK AO2 SLP168 T02780222 50007 (MBT),,,,,,,,,,,,,,,,,,,,,,,,,,,,2009-06-10
72208013880,2017-09-25T09:56:00,FM-15,7,,SE,0.25,mi,"TEMP, PRECIP, SNOW",,,"MMTS, SRG, SNOWBOARD",,,WFO CHS,,,,,,,,,,,,,,,,,,,,,,,,,,,29.93,68,76,0.00,,+0.01,8,77,29.92,SCT:04 150 BKN:07 250,29.88,10.00,71,010,,8,,,,,,,,,,,,,,,,,,,,,,,,,,,,,,,,,,,,,MET11209/25/17 09:56:02 METAR KCHS 251456Z 01007KT 10SM SCT150 BKN250 24/20 A2993 RMK AO2 SLP133 T02440200 58005 (JMB),,,,,,,,,,,,,,,,,,,,,,,,,,,,2009-06-10
72208013880,2017-09-25T10:00:00,FM-12,4,,SE,0.25,mi,"TEMP, PRECIP, SNOW",,,"MMTS, SRG, SNOWBOARD",,,WFO CHS,,,,,,,,,,,,,,,,,,,,,,,,,,,29.93,68,76,,,+0.01,8,77,29.92,,29.88,9.94,71,010,,8,,,,,,,,,,,,,,,,,,,,,,,,,,,,,,,,,,,,,SYN06472208 32966 60107 10244 20200 30119 40133 58005 91456 555 92515=,,,,,,,,,,,,,,,,,,,,,,,,,,,,2009-06-10
72208013880,2017-09-26T09:56:00,FM-15,7,,SE,0.25,mi,"TEMP, PRECIP, SNOW",,,"MMTS, SRG, SNOWBOARD",,,WFO CHS,,,,,,,,,,,,,,,,,,,,,,,,,,,29.89,72,83,0.00,,+0.00,8,70,29.88,FEW:02 25,29.84,10.00,75,320,,8,,,,,,,,,,,,,,,,,,,,,,,,,,,,,,,,,,,,,MET10509/26/17 09:56:02 METAR KCHS 261456Z 32007KT 10SM FEW025 28/22 A2989 RMK AO2 SLP120 T02830222 58001 (JMB),,,,,,,,,,,,,,,,,,,,,,,,,,,,2009-06-10
72208013880,2017-09-26T10:00:00,FM-12,4,,SE,0.25,mi,"TEMP, PRECIP, SNOW",,,"MMTS, SRG, SNOWBOARD",,,WFO CHS,,,,,,,,,,,,,,,,,,,,,,,,,,,29.89,72,83,,,+0.00,8,70,29.88,26,29.84,9.94,75,320,,8,,,,,,,,,,,,,,,,,,,,,,,,,,,,,,,,,,,,,SYN06472208 32566 23207 10283 20222 30106 40120 58001 91456 555 92615=,,,,,,,,,,,,,,,,,,,,,,,,,,,,2009-06-10
72208013880,2017-10-04T09:56:00,FM-15,7,,SE,0.25,mi,"TEMP, PRECIP, SNOW",,,"MMTS, SRG, SNOWBOARD",,,WFO CHS,,,,,,,,,,,,,,,,,,,,,,,,,,,30.37,64,77,0.00,,-0.00,0,64,30.37,CLR:00,30.32,10.00,69,050,,13,,,,,,,,,,,,,,,,,,,,,,,,,,,,,,,,,,,,,MET10210/04/17 09:56:02 METAR KCHS 041456Z 05011KT 10SM CLR 25/18 A3037 RMK AO2 SLP284 T02500178 50001 (JMB),,,,,,,,,,,,,,,,,,,,,,,,,,,,2009-06-10
72208013880,2017-10-11T09:56:00,FM-15,7,,SE,0.25,mi,"TEMP, PRECIP, SNOW",,,"MMTS, SRG, SNOWBOARD",,,WFO CHS,,,,,,,,,,,,,,,,,,,,,,,,,,,30.08,74,82,0.00,,-0.02,0,77,30.08,SCT:04 20 BKN:07 200,30.03,10.00,76,230,,7,,,,,,,,,,,,,,,,,,,,,,,,,,,,,,,,,,,,,MET11210/11/17 09:56:02 METAR KCHS 111456Z 23006KT 10SM SCT020 BKN200 28/23 A3008 RMK AO2 SLP186 T02780233 50006 (JMB),,,,,,,,,,,,,,,,,,,,,,,,,,,,2009-06-10
72208013880,2017-10-12T09:56:00,FM-15,7,,SE,0.25,mi,"TEMP, PRECIP, SNOW",,,"MMTS, SRG, SNOWBOARD",,,WFO CHS,,,,,,,,,,,,,,,,,,,,,,,,,,,30.06,73,81,0.00,,-0.01,0,77,30.06,FEW:02 20 SCT:04 70,30.01,10.00,75,VRB,,3,,,,,,,,,,,,,,,,,,,,,,,,,,,,,,,,,,,,,MET11210/12/17 09:56:02 METAR KCHS 121456Z VRB03KT 10SM FEW020 SCT070 27/23 A3006 RMK AO2 SLP179 T02720228 50005 (JMB),,,,,,,,,,,,,,,,,,,,,,,,,,,,2009-06-10
72208013880,2017-10-14T09:56:00,FM-15,7,,SE,0.25,mi,"TEMP, PRECIP, SNOW",,,"MMTS, SRG, SNOWBOARD",,,WFO CHS,,,,,,,,,,,,,,,,,,,,,,,,,,,30.26,64,74,0.00,,-0.02,0,71,30.26,FEW:02 60,30.21,10.00,68,010,,11,,,,,,,,,,,,,,,,,,,,,,,,,,,,,,,,,,,,,MET10410/14/17 09:56:02 METAR KCHS 141456Z 01010KT 10SM FEW060 23/18 A3026 RMK AO2 SLP246 T02330178 50007 (MH),,,,,,,,,,,,,,,,,,,,,,,,,,,,2009-06-10
72208013880,2017-10-15T09:56:00,FM-15,7,,SE,0.25,mi,"TEMP, PRECIP, SNOW",,,"MMTS, SRG, SNOWBOARD",,,WFO CHS,,,,,,,,,,,,,,,,,,,,,,,,,,,30.19,70,78,0.00,,-0.01,0,76,30.18,SCT:04 17,30.14,10.00,73,060,,6,,,,,,,,,,,,,,,,,,,,,,,,,,,,,,,,,,,,,MET10410/15/17 09:56:02 METAR KCHS 151456Z 06005KT 10SM SCT017 26/21 A3019 RMK AO2 SLP221 T02560211 50003 (MH),,,,,,,,,,,,,,,,,,,,,,,,,,,,2009-06-10
72208013880,2017-10-16T09:56:00,FM-15,7,,SE,0.25,mi,"TEMP, PRECIP, SNOW",,,"MMTS, SRG, SNOWBOARD",,,WFO CHS,,,,,,,,,,,,,,,,,,,,,,,,,,,30.02,70,77,0.00,,-0.01,0,79,30.02,FEW:02 15 FEW:02 200,29.97,10.00,72,VRB,,7,,,,,,,,,,,,,,,,,,,,,,,,,,,,,,,,,,,,,MET11210/16/17 09:56:02 METAR KCHS 161456Z VRB06KT 10SM FEW015 FEW200 25/21 A3002 RMK AO2 SLP165 T02500211 50005 (JMB),,,,,,,,,,,,,,,,,,,,,,,,,,,,2009-06-10
72208013880,2017-10-21T09:56:00,FM-15,7,,SE,0.25,mi,"TEMP, PRECIP, SNOW",,,"MMTS, SRG, SNOWBOARD",,,WFO CHS,,,,,,,,,,,,,,,,,,,,,,,,,,,30.30,61,74,0.00,,-0.04,0,64,30.29,SCT:04 250,30.25,10.00,66,050,,9,,,,,,,,,,,,,,,,,,,,,,,,,,,,,,,,,,,,,MET10510/21/17 09:56:02 METAR KCHS 211456Z 05008KT 10SM SCT250 23/16 A3030 RMK AO2 SLP259 T02330161 50012 (BBE),,,,,,,,,,,,,,,,,,,,,,,,,,,,2009-06-10
72208013880,2017-10-22T09:56:00,FM-15,7,,SE,0.25,mi,"TEMP, PRECIP, SNOW",,,"MMTS, SRG, SNOWBOARD",,,WFO CHS,,,,,,,,,,,,,,,,,,,,,,,,,,,30.28,67,77,0.00,,-0.01,0,71,30.27,FEW:02 50 SCT:04 65,30.23,10.00,70,080,,10,,,,,,,,,,,,,,,,,,,,,,,,,,,,,,,,,,,,,MET11110/22/17 09:56:02 METAR KCHS 221456Z 08009KT 10SM FEW050 SCT065 25/19 A3028 RMK AO2 SLP252 T02500194 50005 (MH),,,,,,,,,,,,,,,,,,,,,,,,,,,,2009-06-10
72208013880,2017-10-23T09:56:00,FM-15,7,,SE,0.25,mi,"TEMP, PRECIP, SNOW",,,"MMTS, SRG, SNOWBOARD",,,WFO CHS,,,,,,,,,,,,,,,,,,,,,,,,,,,30.06,72,74,T,,+0.02,8,94,30.06,SCT:04 30 BKN:07 50 OVC:08 120,30.01,10.00,73,150,,10,,,,,,,,,,,,,,,,,,,,,,,,,,,,,,,,,,,,,MET15810/23/17 09:56:02 METAR KCHS 231456Z 15009KT 10SM SCT030 BKN050 OVC120 23/22 A3006 RMK AO2 PK WND 15027/1406 RAB07E20 SLP178 P0000 60000 T02330222 58007 (JMB),,,,,,,,,,,,,,,,,,,,,,,,,,,,2009-06-10
72208013880,2017-10-23T10:00:00,FM-12,4,,SE,0.25,mi,"TEMP, PRECIP, SNOW",,,"MMTS, SRG, SNOWBOARD",,,WFO CHS,,,,,,,,,,,,,,,,,,,,,,,,,,,30.06,72,74,,,+0.02,8,94,30.06,26,30.01,9.94,73,150,,10,,,,,,,,,,,,,,,,,,,,,,,,,,,,,,,,,,,,,SYN07072208 12566 81509 10233 20222 30163 40178 58007 69907 91456 555 92315=,,,,,,,,,,,,,,,,,,,,,,,,,,,,2009-06-10
72208013880,2017-10-24T09:56:00,FM-15,7,,SE,0.25,mi,"TEMP, PRECIP, SNOW",,,"MMTS, SRG, SNOWBOARD",,,WFO CHS,,,,,,,,,,,,,,,,,,,,,,,,,,,29.93,58,67,0.00,,-0.03,0,73,29.92,FEW:02 20,29.88,10.00,62,250,,6,,,,,,,,,,,,,,,,,,,,,,,,,,,,,,,,,,,,,MET10510/24/17 09:56:02 METAR KCHS 241456Z 25005KT 10SM FEW020 19/14 A2993 RMK AO2 SLP133 T01940144 50009 (JMB),,,,,,,,,,,,,,,,,,,,,,,,,,,,2009-06-10
72208013880,2017-10-25T09:56:00,FM-15,7,,SE,0.25,mi,"TEMP, PRECIP, SNOW",,,"MMTS, SRG, SNOWBOARD",,,WFO CHS,,,,,,,,,,,,,,,,,,,,,,,,,,,29.90,43,62,0.00,,+0.01,8,50,29.90,CLR:00,29.85,10.00,52,280,,7,,,,,,,,,,,,,,,,,,,,,,,,,,,,,,,,,,,,,MET10210/25/17 09:56:02 METAR KCHS 251456Z 28006KT 10SM CLR 17/06 A2990 RMK AO2 SLP125 T01670061 58004 (JMB),,,,,,,,,,,,,,,,,,,,,,,,,,,,2009-06-10
72208013880,2017-10-25T10:00:00,FM-12,4,,SE,0.25,mi,"TEMP, PRECIP, SNOW",,,"MMTS, SRG, SNOWBOARD",,,WFO CHS,,,,,,,,,,,,,,,,,,,,,,,,,,,29.90,43,62,,,+0.01,8,50,29.90,,29.85,9.94,52,280,,7,,,,,,,,,,,,,,,,,,,,,,,,,,,,,,,,,,,,,SYN06472208 32966 02806 10167 20061 30109 40125 58004 91456 555 92515=,,,,,,,,,,,,,,,,,,,,,,,,,,,,2009-06-10
72208013880,2017-10-26T09:56:00,FM-15,7,,SE,0.25,mi,"TEMP, PRECIP, SNOW",,,"MMTS, SRG, SNOWBOARD",,,WFO CHS,,,,,,,,,,,,,,,,,,,,,,,,,,,30.04,44,60,0.00,,-0.04,0,56,30.04,CLR:00,29.99,10.00,52,340,,5,,,,,,,,,,,,,,,,,,,,,,,,,,,,,,,,,,,,,MET10210/26/17 09:56:02 METAR KCHS 261456Z 34004KT 10SM CLR 16/07 A3004 RMK AO2 SLP172 T01560067 50014 (JMB),,,,,,,,,,,,,,,,,,,,,,,,,,,,2009-06-10
72208013880,2017-10-27T09:56:00,FM-15,7,,SE,0.25,mi,"TEMP, PRECIP, SNOW",,,"MMTS, SRG, SNOWBOARD",,,WFO CHS,,,,,,,,,,,,,,,,,,,,,,,,,,,30.15,48,67,0.00,,-0.03,0,51,30.14,CLR:00,30.10,10.00,57,270,,5,,,,,,,,,,,,,,,,,,,,,,,,,,,,,,,,,,,,,MET10110/27/17 09:56:02 METAR KCHS 271456Z 27004KT 10SM CLR 19/09 A3015 RMK AO2 SLP208 T01940089 50009 (MH),,,,,,,,,,,,,,,,,,,,,,,,,,,,2009-06-10
72208013880,2017-10-28T09:56:00,FM-15,7,,SE,0.25,mi,"TEMP, PRECIP, SNOW",,,"MMTS, SRG, SNOWBOARD",,,WFO CHS,,,,,,,,,,,,,,,,,,,,,,,,,,,29.97,61,72,0.00,,+0.01,8,68,29.96,SCT:04 55 BKN:07 70,29.92,10.00,65,060,,5,,,,,,,,,,,,,,,,,,,,,,,,,,,,,,,,,,,,,MET11110/28/17 09:56:02 METAR KCHS 281456Z 06004KT 10SM SCT055 BKN070 22/16 A2997 RMK AO2 SLP147 T02220161 58002 (MH),,,,,,,,,,,,,,,,,,,,,,,,,,,,2009-06-10
72208013880,2017-10-28T10:00:00,FM-12,4,,SE,0.25,mi,"TEMP, PRECIP, SNOW",,,"MMTS, SRG, SNOWBOARD",,,WFO CHS,,,,,,,,,,,,,,,,,,,,,,,,,,,29.97,61,72,,,+0.01,8,68,29.96,57,29.92,9.94,65,060,,5,,,,,,,,,,,,,,,,,,,,,,,,,,,,,,,,,,,,,SYN06472208 32766 60604 10222 20161 30133 40147 58002 91456 555 92815=,,,,,,,,,,,,,,,,,,,,,,,,,,,,2009-06-10
72208013880,2017-10-29T09:56:00,FM-15,7,,SE,0.25,mi,"TEMP, PRECIP, SNOW",,,"MMTS, SRG, SNOWBOARD",,,WFO CHS,,,,,,,,,,,,,,,,,,,,,,,,,,,29.58,55,62,0.00,,+0.02,8,78,29.57,SCT:04 14 SCT:04 60,29.53,10.00,58,270,22,13,,,,,,,,,,,,,,,,,,,,,,,,,,,,,,,,,,,,,MET11610/29/17 09:56:02 METAR KCHS 291456Z 27011G19KT 10SM SCT014 SCT060 17/13 A2958 RMK AO2 SLP015 T01670128 58006 $ (MH),,,,,,,,,,,,,,,,,,,,,,,,,,,,2009-06-10
72208013880,2017-10-29T10:00:00,FM-12,4,,SE,0.25,mi,"TEMP, PRECIP, SNOW",,,"MMTS, SRG, SNOWBOARD",,,WFO CHS,,,,,,,,,,,,,,,,,,,,,,,,,,,29.58,55,62,,,+0.02,8,78,29.57,15,29.53,9.94,58,270,,13,,,,,,,,,,,,,,,,,,,,,,,,,,,,,,,,,,,,,SYN07472208 32466 42711 10167 20128 30001 40015 58006 91456 333 91019 555 92915=,,,,,,,,,,,,,,,,,,,,,,,,,,,,2009-06-10
72208013880,2017-10-31T09:56:00,FM-15,7,,SE,0.25,mi,"TEMP, PRECIP, SNOW",,,"MMTS, SRG, SNOWBOARD",,,WFO CHS,,,,,,,,,,,,,,,,,,,,,,,,,,,30.20,45,66,0.00,,-0.04,0,47,30.19,CLR:00,30.15,10.00,55,VRB,,5,,,,,,,,,,,,,,,,,,,,,,,,,,,,,,,,,,,,,MET10410/31/17 09:56:02 METAR KCHS 311456Z VRB04KT 10SM CLR 19/07 A3020 RMK AO2 SLP225 T01890072 50012 $ (JMB),,,,,,,,,,,,,,,,,,,,,,,,,,,,2009-06-10
72208013880,2017-11-01T09:56:00,FM-15,7,,SE,0.25,mi,"TEMP, PRECIP, SNOW",,,"MMTS, SRG, SNOWBOARD",,,WFO CHS,,,,,,,,,,,,,,,,,,,,,,,,,,,30.23,54,68,0.00,,-0.04,0,61,30.22,FEW:02 45 SCT:04 200,30.18,10.00,60,050,,5,,,,,,,,,,,,,,,,,,,,,,,,,,,,,,,,,,,,,MET11211/01/17 09:56:02 METAR KCHS 011456Z 05004KT 10SM FEW045 SCT200 20/12 A3023 RMK AO2 SLP235 T02000122 50015 (JMB),,,,,,,,,,,,,,,,,,,,,,,,,,,,2009-06-10
72208013880,2017-11-06T09:56:00,FM-15,7,,SE,0.25,mi,"TEMP, PRECIP, SNOW",,,"MMTS, SRG, SNOWBOARD",,,WFO CHS,,,,,,,,,,,,,,,,,,,,,,,,,,,30.12,65,71,0.00,,-0.01,0,81,30.11,BKN:07 14,30.07,10.00,67,000,,0,,,,,,,,,,,,,,,,,,,,,,,,,,,,,,,,,,,,,MET10511/06/17 09:56:02 METAR KCHS 061456Z 00000KT 10SM BKN014 22/18 A3012 RMK AO2 SLP198 T02170183 50005 (JMB),,,,,,,,,,,,,,,,,,,,,,,,,,,,2009-06-10
72208013880,2017-11-07T09:56:00,FM-15,7,,SE,0.25,mi,"TEMP, PRECIP, SNOW",,,"MMTS, SRG, SNOWBOARD",,,WFO CHS,,,,,,,,,,,,,,,,,,,,,,,,,,,30.07,66,74,0.00,,+0.00,8,76,30.06,SCT:04 250,30.02,10.00,69,270,,6,,,,,,,,,,,,,,,,,,,,,,,,,,,,,,,,,,,,,MET10511/07/17 09:56:02 METAR KCHS 071456Z 27005KT 10SM SCT250 23/19 A3007 RMK AO2 SLP180 T02330189 58001 (JMB),,,,,,,,,,,,,,,,,,,,,,,,,,,,2009-06-10
72208013880,2017-11-07T10:00:00,FM-12,4,,SE,0.25,mi,"TEMP, PRECIP, SNOW",,,"MMTS, SRG, SNOWBOARD",,,WFO CHS,,,,,,,,,,,,,,,,,,,,,,,,,,,30.07,66,74,,,+0.00,8,76,30.06,,30.02,9.94,69,270,,6,,,,,,,,,,,,,,,,,,,,,,,,,,,,,,,,,,,,,SYN06472208 32966 42705 10233 20189 30167 40180 58001 91456 555 90715=,,,,,,,,,,,,,,,,,,,,,,,,,,,,2009-06-10
72208013880,2017-11-09T09:56:00,FM-15,7,,SE,0.25,mi,"TEMP, PRECIP, SNOW",,,"MMTS, SRG, SNOWBOARD",,,WFO CHS,,,,,,,,,,,,,,,,,,,,,,,,,,,30.08,52,52,T,-DZ:01 BR:1 |DZ |,+0.00,8,100,30.07,BKN:07 4 OVC:08 15,30.03,3.00,52,010,,6,,,,,,,,,,,,,,,,,,,,,,,,,,,,,,,,,,,,,MET13011/09/17 09:56:02 METAR KCHS 091456Z 01005KT 3SM -DZ BR BKN004 OVC015 11/11 A3008 RMK AO2 SLP183 P0000 60000 T01110111 58001 (JMB),,,,,,,,,,,,,,,,,,,,,,,,,,,,2009-06-10
72208013880,2017-11-09T10:00:00,FM-12,4,,SE,0.25,mi,"TEMP, PRECIP, SNOW",,,"MMTS, SRG, SNOWBOARD",,,WFO CHS,,,,,,,,,,,,,,,,,,,,,,,,,,,30.08,52,52,,||DZ,+0.00,8,100,30.07,5,30.03,2.98,52,010,,6,,,,,,,,,,,,,,,,,,,,,,,,,,,,,,,,,,,,,SYN08672208 11248 80105 10111 20111 30170 40183 58001 69907 751// 91456 333 96010 555 90915=,,,,,,,,,,,,,,,,,,,,,,,,,,,,2009-06-10
72208013880,2017-11-12T09:56:00,FM-15,7,,SE,0.25,mi,"TEMP, PRECIP, SNOW",,,"MMTS, SRG, SNOWBOARD",,,WFO CHS,,,,,,,,,,,,,,,,,,,,,,,,,,,30.38,48,54,0.00,,-0.01,0,80,30.37,OVC:08 11,30.33,10.00,51,040,,6,,,,,,,,,,,,,,,,,,,,,,,,,,,,,,,,,,,,,MET10411/12/17 09:56:02 METAR KCHS 121456Z 04005KT 10SM OVC011 12/09 A3038 RMK AO2 SLP286 T01220089 50002 (MH),,,,,,,,,,,,,,,,,,,,,,,,,,,,2009-06-10
72208013880,2017-11-15T09:56:00,FM-15,7,,SE,0.25,mi,"TEMP, PRECIP, SNOW",,,"MMTS, SRG, SNOWBOARD",,,WFO CHS,,,,,,,,,,,,,,,,,,,,,,,,,,,30.19,39,51,0.00,,-0.00,0,64,30.19,FEW:02 250,30.14,10.00,45,040,,13,,,,,,,,,,,,,,,,,,,,,,,,,,,,,,,,,,,,,MET11111/15/17 09:56:02 METAR KCHS 151456Z 04011KT 10SM FEW250 11/04 A3019 RMK AO2 SLP223 60000 T01060039 50001 (JMB),,,,,,,,,,,,,,,,,,,,,,,,,,,,2009-06-10
72208013880,2017-11-16T09:56:00,FM-15,7,,SE,0.25,mi,"TEMP, PRECIP, SNOW",,,"MMTS, SRG, SNOWBOARD",,,WFO CHS,,,,,,,,,,,,,,,,,,,,,,,,,,,30.10,42,57,0.00,,-0.02,0,58,30.09,CLR:00,30.05,10.00,50,330,,5,,,,,,,,,,,,,,,,,,,,,,,,,,,,,,,,,,,,,MET10211/16/17 09:56:02 METAR KCHS 161456Z 33004KT 10SM CLR 14/06 A3010 RMK AO2 SLP191 T01390056 50006 (JMB),,,,,,,,,,,,,,,,,,,,,,,,,,,,2009-06-10
72208013880,2017-11-18T09:56:00,FM-15,7,,SE,0.25,mi,"TEMP, PRECIP, SNOW",,,"MMTS, SRG, SNOWBOARD",,,WFO CHS,,,,,,,,,,,,,,,,,,,,,,,,,,,30.04,56,68,0.00,,+0.02,6,65,30.04,SCT:04 60 SCT:04 250,29.99,10.00,61,130,,7,,,,,,,,,,,,,,,,,,,,,,,,,,,,,,,,,,,,,MET11211/18/17 09:56:02 METAR KCHS 181456Z 13006KT 10SM SCT060 SCT250 20/13 A3004 RMK AO2 SLP172 T02000133 56007 (BBE),,,,,,,,,,,,,,,,,,,,,,,,,,,,2009-06-10
72208013880,2017-11-18T10:00:00,FM-12,4,,SE,0.25,mi,"TEMP, PRECIP, SNOW",,,"MMTS, SRG, SNOWBOARD",,,WFO CHS,,,,,,,,,,,,,,,,,,,,,,,,,,,30.04,56,68,,,+0.02,6,65,30.04,57,29.99,9.94,61,130,,7,,,,,,,,,,,,,,,,,,,,,,,,,,,,,,,,,,,,,SYN06472208 32766 41306 10200 20133 30157 40172 56007 91456 555 91815=,,,,,,,,,,,,,,,,,,,,,,,,,,,,2009-06-10
72208013880,2017-11-24T09:56:00,FM-15,7,,SE,0.25,mi,"TEMP, PRECIP, SNOW",,,"MMTS, SRG, SNOWBOARD",,,WFO CHS,,,,,,,,,,,,,,,,,,,,,,,,,,,30.01,34,48,0.00,,-0.03,0,58,30.01,FEW:02 95 FEW:02 250,29.96,10.00,42,030,,10,,,,,,,,,,,,,,,,,,,,,,,,,,,,,,,,,,,,,MET11211/24/17 09:56:02 METAR KCHS 241456Z 03009KT 10SM FEW095 FEW250 09/01 A3001 RMK AO2 SLP161 T00890011 50009 (MBT),,,,,,,,,,,,,,,,,,,,,,,,,,,,2009-06-10
72208013880,2017-11-30T09:56:00,FM-15,7,,SE,0.25,mi,"TEMP, PRECIP, SNOW",,,"MMTS, SRG, SNOWBOARD",,,WFO CHS,,,,,,,,,,,,,,,,,,,,,,,,,,,30.20,58,65,0.00,,-0.01,0,78,30.20,FEW:02 250,30.15,10.00,61,320,,3,,,,,,,,,,,,,,,,,,,,,,,,,,,,,,,,,,,,,MET10511/30/17 09:56:02 METAR KCHS 301456Z 32003KT 10SM FEW250 18/14 A3020 RMK AO2 SLP227 T01830144 50003 (JMB),,,,,,,,,,,,,,,,,,,,,,,,,,,,2009-06-10
72208013880,2017-12-08T09:56:00,FM-15,7,,SE,0.25,mi,"TEMP, PRECIP, SNOW",,,"MMTS, SRG, SNOWBOARD",,,WFO CHS,,,,,,,,,,,,,,,,,,,,,,,,,,,30.00,42,43,T,,+0.03,6,97,29.99,BKN:07 6 OVC:08 10,29.95,7.00,43,040,,15,,,,,,,,,,,,,,,,,,,,,,,,,,,,,,,,,,,,,MET12912/08/17 09:56:02 METAR KCHS 081456Z 04013KT 7SM BKN006 OVC010 06/06 A3000 RMK AO2 RAE51 SLP157 P0000 60005 T00610056 56010 (MBT),,,,,,,,,,,,,,,,,,,,,,,,,,,,2009-06-10
72208013880,2017-12-08T10:00:00,FM-12,4,,SE,0.25,mi,"TEMP, PRECIP, SNOW",,,"MMTS, SRG, SNOWBOARD",,,WFO CHS,,,,,,,,,,,,,,,,,,,,,,,,,,,30.00,42,43,,,+0.03,6,97,29.99,5,29.95,6.84,43,040,,15,,,,,,,,,,,,,,,,,,,,,,,,,,,,,,,,,,,,,SYN07072208 12261 80413 10061 20056 30143 40157 56010 60017 91456 555 90815=,,,,,,,,,,,,,,,,,,,,,,,,,,,,2009-06-10
72208013880,2017-12-12T09:56:00,FM-15,7,,SE,0.25,mi,"TEMP, PRECIP, SNOW",,,"MMTS, SRG, SNOWBOARD",,,WFO CHS,,,,,,,,,,,,,,,,,,,,,,,,,,,29.82,42,55,0.00,,+0.05,7,62,29.82,FEW:02 250,29.77,10.00,49,240,,10,,,,,,,,,,,,,,,,,,,,,,,,,,,,,,,,,,,,,MET10712/12/17 09:56:02 METAR KCHS 121456Z 24009KT 10SM FEW250 13/06 A2982 RMK AO2 SLP098 T01280056 57018 $ (JMB),,,,,,,,,,,,,,,,,,,,,,,,,,,,2009-06-10
72208013880,2017-12-12T10:00:00,FM-12,4,,SE,0.25,mi,"TEMP, PRECIP, SNOW",,,"MMTS, SRG, SNOWBOARD",,,WFO CHS,,,,,,,,,,,,,,,,,,,,,,,,,,,29.82,42,55,,,+0.05,7,62,29.82,,29.77,9.94,49,240,,10,,,,,,,,,,,,,,,,,,,,,,,,,,,,,,,,,,,,,SYN06472208 32966 22409 10128 20056 30082 40098 57018 91456 555 91215=,,,,,,,,,,,,,,,,,,,,,,,,,,,,2009-06-10
72208013880,2017-12-20T09:56:00,FM-15,7,,SE,0.25,mi,"TEMP, PRECIP, SNOW",,,"MMTS, SRG, SNOWBOARD",,,WFO CHS,,,,,,,,,,,,,,,,,,,,,,,,,,,30.04,64,64,0.00,BR:1 |s |,-0.01,0,100,30.04,OVC:08 3,29.99,0.50,64,210,,7,,,,,,,,,,,,,,,,,,,,,,,,,,,,,,,,,,,,,MET13312/20/17 09:56:02 METAR KCHS 201456Z 21006KT 1/2SM R15/P6000FT BR OVC003 18/18 A3004 RMK AO2 SFC VIS 3/4 SLP172 T01780178 50002 (JMB),,,,,,,,,,,,,,,,,,,,,,,,,,,,2009-06-10
72208013880,2017-12-27T09:56:00,FM-15,7,,SE,0.25,mi,"TEMP, PRECIP, SNOW",,,"MMTS, SRG, SNOWBOARD",,,WFO CHS,,,,,,,,,,,,,,,,,,,,,,,,,,,30.39,41,45,T,-RA:02 |RA |,-0.09,0,86,30.39,SCT:04 20 BKN:07 40 OVC:08 90,30.34,10.00,43,350,,9,,,,,,,,,,,,,,,,,,,,,,,,,,,,,,,,,,,,,MET14112/27/17 09:56:02 METAR KCHS 271456Z 35008KT 10SM -RA SCT020 BKN040 OVC090 07/05 A3039 RMK AO2 RAB03 SLP291 P0000 60000 T00720050 50031 (JMB),,,,,,,,,,,,,,,,,,,,,,,,,,,,2009-06-10
72208013880,2017-12-30T09:56:00,FM-15,7,,SE,0.25,mi,"TEMP, PRECIP, SNOW",,,"MMTS, SRG, SNOWBOARD",,,WFO CHS,,,,,,,,,,,,,,,,,,,,,,,,,,,30.17,30,47,0.00,,-0.00,0,52,30.17,BKN:07 28,30.12,10.00,40,260,,6,,,,,,,,,,,,,,,,,,,,,,,,,,,,,,,,,,,,,MET10512/30/17 09:56:02 METAR KCHS 301456Z 26005KT 10SM BKN028 08/M01 A3017 RMK AO2 SLP217 T00831011 50001 (MH),,,,,,,,,,,,,,,,,,,,,,,,,,,,2009-06-10
72208013880,2018-01-03T09:56:00,FM-15,7,,SE,0.25,mi,"TEMP, PRECIP, SNOW",,,"MMTS, SRG, SNOWBOARD",,,WFO CHS,,,,,,,,,,,,,,,,,,,,,,,,,,,30.16,13,29,0.03,-FZ:8 RA:02 PL:06 |FZRA PL |,+0.06,6,51,30.16,FEW:02 20 BKN:07 45 OVC:08 70,30.11,8.00,24,010,,11,,,,,,,,,,,,,,,,,,,,,,,,,,,,,,,,,,,,,MET14001/03/18 09:56:02 METAR KCHS 031456Z 01010KT 8SM -FZRAPL FEW020 BKN045 OVC070 M02/M11 A3016 RMK AO2 SLP213 P0003 60003 T10171106 56022 (JMB),,,,,,,,,,,,,,,,,,,,,,,,,,,,2009-06-10
72208013880,2018-01-03T10:00:00,FM-12,4,,SE,0.25,mi,"TEMP, PRECIP, SNOW",,,"MMTS, SRG, SNOWBOARD",,,WFO CHS,,,,,,,,,,,,,,,,,,,,,,,,,,,30.16,13,29,,||PL,+0.06,6,51,30.16,26,30.11,7.46,24,010,,11,,,,,,,,,,,,,,,,,,,,,,,,,,,,,,,,,,,,,SYN08672208 11562 80110 11017 21106 30197 40213 56022 69987 779// 91456 333 96079 555 90315=,,,,,,,,,,,,,,,,,,,,,,,,,,,,2009-06-10
72208013880,2018-01-08T09:56:00,FM-15,7,,SE,0.25,mi,"TEMP, PRECIP, SNOW",,,"MMTS, SRG, SNOWBOARD",,,WFO CHS,,,,,,,,,,,,,,,,,,,,,,,,,,,30.36,27,39,0.00,,-0.03,0,62,30.36,FEW:02 120 FEW:02 250,30.31,10.00,34,030,,5,,,,,,,,,,,,,,,,,,,,,,,,,,,,,,,,,,,,,MET11301/08/18 09:56:02 METAR KCHS 081456Z 03004KT 10SM FEW120 FEW250 04/M03 A3036 RMK AO2 SLP282 T00391028 50009 (JMB),,,,,,,,,,,,,,,,,,,,,,,,,,,,2009-06-10
72208013880,2018-01-12T09:56:00,FM-15,7,,SE,0.25,mi,"TEMP, PRECIP, SNOW",,,"MMTS, SRG, SNOWBOARD",,,WFO CHS,,,,,,,,,,,,,,,,,,,,,,,,,,,29.88,68,70,0.00,BR:1 ||,+0.02,8,93,29.88,OVC:08 4,29.83,5.00,69,190,,14,,,,,,,,,,,,,,,,,,,,,,,,,,,,,,,,,,,,,MET10701/12/18 09:56:02 METAR KCHS 121456Z 19012KT 5SM BR OVC004 21/20 A2988 RMK AO2 SLP118 T02110200 58006 (JMB),,,,,,,,,,,,,,,,,,,,,,,,,,,,2009-06-10
72208013880,2018-01-12T10:00:00,FM-12,4,,SE,0.25,mi,"TEMP, PRECIP, SNOW",,,"MMTS, SRG, SNOWBOARD",,,WFO CHS,,,,,,,,,,,,,,,,,,,,,,,,,,,29.88,68,70,,,+0.02,8,93,29.88,5,29.83,4.97,69,190,,14,,,,,,,,,,,,,,,,,,,,,,,,,,,,,,,,,,,,,SYN07072208 31258 81912 10211 20200 30102 40118 58006 710// 91456 555 91215=,,,,,,,,,,,,,,,,,,,,,,,,,,,,2009-06-10
72208013880,2018-01-28T09:56:00,FM-15,7,,SE,0.25,mi,"TEMP, PRECIP, SNOW",,,"MMTS, SRG, SNOWBOARD",,,WFO CHS,,,,,,,,,,,,,,,,,,,,,,,,,,,30.27,59,61,0.00,,-0.01,0,93,30.27,SCT:04 6 BKN:07 30 OVC:08 70,30.22,10.00,60,070,,3,,,,,,,,,,,,,,,,,,,,,,,,,,,,,,,,,,,,,MET11801/28/18 09:56:02 METAR KCHS 281456Z 07003KT 10SM SCT006 BKN030 OVC070 16/15 A3027 RMK AO2 SLP249 T01610150 50002 (MH),,,,,,,,,,,,,,,,,,,,,,,,,,,,2009-06-10
72208013880,2018-02-04T09:56:00,FM-15,7,,SE,0.25,mi,"TEMP, PRECIP, SNOW",,,"MMTS, SRG, SNOWBOARD",,,WFO CHS,,,,,,,,,,,,,,,,,,,,,,,,,,,30.01,58,66,T,-DZ:01 |DZ |,+0.06,8,75,30.01,BKN:07 32 BKN:07 38 OVC:08 50,29.96,10.00,61,170,30,21,,,,,,,,,,,,,,,,,,,,,,,,,,,,,,,,,,,,,MET17102/04/18 09:56:02 METAR KCHS 041456Z 17018G26KT 10SM -DZ BKN032 BKN038 OVC050 19/14 A3001 RMK AO2 PK WND 16026/1447 RAB47E56DZB56 SLP162 P0000 60000 T01890144 58022 $ (MH),,,,,,,,,,,,,,,,,,,,,,,,,,,,2009-06-10
72208013880,2018-02-04T10:00:00,FM-12,4,,SE,0.25,mi,"TEMP, PRECIP, SNOW",,,"MMTS, SRG, SNOWBOARD",,,WFO CHS,,,,,,,,,,,,,,,,,,,,,,,,,,,30.01,58,66,,||DZ,+0.06,8,75,30.01,26,29.96,9.94,61,170,,21,,,,,,,,,,,,,,,,,,,,,,,,,,,,,,,,,,,,,SYN08672208 11566 81718 10189 20144 30146 40162 58022 69907 751// 91456 333 91026 555 90415=,,,,,,,,,,,,,,,,,,,,,,,,,,,,2009-06-10
72208013880,2018-02-11T09:56:00,FM-15,7,,SE,0.25,mi,"TEMP, PRECIP, SNOW",,,"MMTS, SRG, SNOWBOARD",,,WFO CHS,,,,,,,,,,,,,,,,,,,,,,,,,,,30.16,68,72,0.00,,-0.02,0,87,30.15,BKN:07 5 OVC:08 11,30.11,10.00,69,210,26,20,,,,,,,,,,,,,,,,,,,,,,,,,,,,,,,,,,,,,MET12002/11/18 09:56:02 METAR KCHS 111456Z 21017G23KT 10SM BKN005 OVC011 22/20 A3016 RMK AO2 SLP211 60000 T02220200 50007 (MH),,,,,,,,,,,,,,,,,,,,,,,,,,,,2009-06-10
72208013880,2018-02-23T09:56:00,FM-15,7,,SE,0.25,mi,"TEMP, PRECIP, SNOW",,,"MMTS, SRG, SNOWBOARD",,,WFO CHS,,,,,,,,,,,,,,,,,,,,,,,,,,,30.45,65,74,0.00,,-0.01,0,74,30.44,FEW:02 50,30.40,10.00,68,110,,6,,,,,,,,,,,,,,,,,,,,,,,,,,,,,,,,,,,,,MET10502/23/18 09:56:02 METAR KCHS 231456Z 11005KT 10SM FEW050 23/18 A3045 RMK AO2 SLP309 T02330183 50004 (JMB),,,,,,,,,,,,,,,,,,,,,,,,,,,,2009-06-10
72208013880,2018-02-26T09:56:00,FM-15,7,,SE,0.25,mi,"TEMP, PRECIP, SNOW",,,"MMTS, SRG, SNOWBOARD",,,WFO CHS,,,,,,,,,,,,,,,,,,,,,,,,,,,30.17,58,69,0.00,,-0.05,0,68,30.16,FEW:02 40 SCT:04 100 BKN:07 250,30.12,10.00,62,360,,5,,,,,,,,,,,,,,,,,,,,,,,,,,,,,,,,,,,,,MET11302/26/18 09:56:02 METAR KCHS 261456Z 36004KT 10SM FEW040 SCT100 BKN250 21/14 A3017 RMK AO2 SLP215 T02060144 50018,,,,,,,,,,,,,,,,,,,,,,,,,,,,2009-06-10
72208013880,2018-02-28T09:56:00,FM-15,7,,SE,0.25,mi,"TEMP, PRECIP, SNOW",,,"MMTS, SRG, SNOWBOARD",,,WFO CHS,,,,,,,,,,,,,,,,,,,,,,,,,,,30.20,50,59,0.00,,+0.00,8,72,30.20,SCT:04 55 BKN:07 120 OVC:08 200,30.15,10.00,54,070,,3,,,,,,,,,,,,,,,,,,,,,,,,,,,,,,,,,,,,,MET11902/28/18 09:56:02 METAR KCHS 281456Z 07003KT 10SM SCT055 BKN120 OVC200 15/10 A3020 RMK AO2 SLP226 T01500100 58000 (JMB),,,,,,,,,,,,,,,,,,,,,,,,,,,,2009-06-10
72208013880,2018-02-28T10:00:00,FM-12,4,,SE,0.25,mi,"TEMP, PRECIP, SNOW",,,"MMTS, SRG, SNOWBOARD",,,WFO CHS,,,,,,,,,,,,,,,,,,,,,,,,,,,30.20,50,59,,,0.00,4,72,30.20,57,30.15,9.94,54,070,,3,,,,,,,,,,,,,,,,,,,,,,,,,,,,,,,,,,,,,SYN06472208 32766 80703 10150 20100 30211 40226 58000 91456 555 92815=,,,,,,,,,,,,,,,,,,,,,,,,,,,,2009-06-10
72208013880,2018-03-01T09:56:00,FM-15,7,,SE,0.25,mi,"TEMP, PRECIP, SNOW",,,"MMTS, SRG, SNOWBOARD",,,WFO CHS,,,,,,,,,,,,,,,,,,,,,,,,,,,29.91,64,74,0.00,,+0.01,8,71,29.91,FEW:02 15 SCT:04 50 SCT:04 250,29.86,10.00,68,230,,15,,,,,,,,,,,,,,,,,,,,,,,,,,,,,,,,,,,,,MET11903/01/18 09:56:02 METAR KCHS 011456Z 23013KT 10SM FEW015 SCT050 SCT250 23/18 A2991 RMK AO2 SLP127 T02330178 58002 (JMB),,,,,,,,,,,,,,,,,,,,,,,,,,,,2009-06-10
72208013880,2018-03-01T10:00:00,FM-12,4,,SE,0.25,mi,"TEMP, PRECIP, SNOW",,,"MMTS, SRG, SNOWBOARD",,,WFO CHS,,,,,,,,,,,,,,,,,,,,,,,,,,,29.91,64,74,,,+0.01,8,71,29.91,15,29.86,9.94,68,230,,15,,,,,,,,,,,,,,,,,,,,,,,,,,,,,,,,,,,,,SYN06472208 32466 42313 10233 20178 30113 40127 58002 91456 555 90115=,,,,,,,,,,,,,,,,,,,,,,,,,,,,2009-06-10
72208013880,2018-03-04T09:56:00,FM-15,7,,SE,0.25,mi,"TEMP, PRECIP, SNOW",,,"MMTS, SRG, SNOWBOARD",,,WFO CHS,,,,,,,,,,,,,,,,,,,,,,,,,,,30.22,22,52,0.00,,-0.01,0,31,30.22,CLR:00,30.17,10.00,40,360,,15,,,,,,,,,,,,,,,,,,,,,,,,,,,,,,,,,,,,,MET10203/04/18 09:56:02 METAR KCHS 041456Z 36013KT 10SM CLR 11/M06 A3022 RMK AO2 SLP232 T01111056 50005 (MH),,,,,,,,,,,,,,,,,,,,,,,,,,,,2009-06-10
72208013880,2018-03-06T09:56:00,FM-15,7,,SE,0.25,mi,"TEMP, PRECIP, SNOW",,,"MMTS, SRG, SNOWBOARD",,,WFO CHS,,,,,,,,,,,,,,,,,,,,,,,,,,,29.99,48,65,0.00,,+0.01,7,54,29.99,SCT:04 75 BKN:07 200,29.94,10.00,56,220,,9,,,,,,,,,,,,,,,,,,,,,,,,,,,,,,,,,,,,,MET11203/06/18 09:56:02 METAR KCHS 061456Z 22008KT 10SM SCT075 BKN200 18/09 A2999 RMK AO2 SLP155 T01830089 57005 (JMB),,,,,,,,,,,,,,,,,,,,,,,,,,,,2009-06-10
72208013880,2018-03-06T10:00:00,FM-12,4,,SE,0.25,mi,"TEMP, PRECIP, SNOW",,,"MMTS, SRG, SNOWBOARD",,,WFO CHS,,,,,,,,,,,,,,,,,,,,,,,,,,,29.99,48,65,,,+0.01,7,54,29.99,74,29.94,9.94,56,220,,9,,,,,,,,,,,,,,,,,,,,,,,,,,,,,,,,,,,,,SYN06472208 32866 62208 10183 20089 30140 40155 57005 91456 555 90615=,,,,,,,,,,,,,,,,,,,,,,,,,,,,2009-06-10
72208013880,2018-03-08T09:56:00,FM-15,7,,SE,0.25,mi,"TEMP, PRECIP, SNOW",,,"MMTS, SRG, SNOWBOARD",,,WFO CHS,,,,,,,,,,,,,,,,,,,,,,,,,,,29.97,29,49,0.00,,-0.02,0,46,29.97,CLR:00,29.92,10.00,41,360,,9,,,,,,,,,,,,,,,,,,,,,,,,,,,,,,,,,,,,,MET10303/08/18 09:56:02 METAR KCHS 081456Z 36008KT 10SM CLR 09/M02 A2997 RMK AO2 SLP149 T00941017 50006 (JMB),,,,,,,,,,,,,,,,,,,,,,,,,,,,2009-06-10
72208013880,2018-03-10T09:56:00,FM-15,7,,SE,0.25,mi,"TEMP, PRECIP, SNOW",,,"MMTS, SRG, SNOWBOARD",,,WFO CHS,,,,,,,,,,,,,,,,,,,,,,,,,,,30.12,38,62,0.00,,+0.00,8,41,30.11,SCT:04 250,30.07,10.00,50,250,,6,,,,,,,,,,,,,,,,,,,,,,,,,,,,,,,,,,,,,MET10403/10/18 09:56:02 METAR KCHS 101456Z 25005KT 10SM SCT250 17/03 A3012 RMK AO2 SLP198 T01670033 58001 (MH),,,,,,,,,,,,,,,,,,,,,,,,,,,,2009-06-10
72208013880,2018-03-10T10:00:00,FM-12,4,,SE,0.25,mi,"TEMP, PRECIP, SNOW",,,"MMTS, SRG, SNOWBOARD",,,WFO CHS,,,,,,,,,,,,,,,,,,,,,,,,,,,30.12,38,62,,,+0.00,8,41,30.11,,30.07,9.94,50,250,,6,,,,,,,,,,,,,,,,,,,,,,,,,,,,,,,,,,,,,SYN06472208 32966 42505 10167 20033 30184 40198 58001 91456 555 91015=,,,,,,,,,,,,,,,,,,,,,,,,,,,,2009-06-10
72208013880,2018-03-11T09:56:00,FM-15,7,,SE,0.25,mi,"TEMP, PRECIP, SNOW",,,"MMTS, SRG, SNOWBOARD",,,WFO CHS,,,,,,,,,,,,,,,,,,,,,,,,,,,29.97,48,68,0.00,,+0.01,8,49,29.96,FEW:02 120 FEW:02 250,29.92,10.00,57,000,,0,,,,,,,,,,,,,,,,,,,,,,,,,,,,,,,,,,,,,MET11303/11/18 09:56:02 METAR KCHS 111456Z 00000KT 10SM FEW120 FEW250 20/09 A2997 RMK AO2 SLP147 T02000089 58003 $ (MH),,,,,,,,,,,,,,,,,,,,,,,,,,,,2009-06-10
72208013880,2018-03-11T10:00:00,FM-12,4,,SE,0.25,mi,"TEMP, PRECIP, SNOW",,,"MMTS, SRG, SNOWBOARD",,,WFO CHS,,,,,,,,,,,,,,,,,,,,,,,,,,,29.97,48,68,,,+0.01,8,49,29.96,,29.92,9.94,57,000,,0,,,,,,,,,,,,,,,,,,,,,,,,,,,,,,,,,,,,,SYN06472208 32966 20000 10200 20089 30133 40147 58003 91456 555 91115=,,,,,,,,,,,,,,,,,,,,,,,,,,,,2009-06-10
72208013880,2018-03-12T09:56:00,FM-15,7,,SE,0.25,mi,"TEMP, PRECIP, SNOW",,,"MMTS, SRG, SNOWBOARD",,,WFO CHS,,,,,,,,,,,,,,,,,,,,,,,,,,,29.66,51,54,T,-RA:02 |RA |,+0.05,8,90,29.65,BKN:07 6 OVC:08 10,29.61,10.00,52,130,,8,,,,,,,,,,,,,,,,,,,,,,,,,,,,,,,,,,,,,MET13403/12/18 09:56:02 METAR KCHS 121456Z 13007KT 10SM -RA BKN006 OVC010 12/11 A2966 RMK AO2 RAB02 SLP042 P0000 60000 T01220106 58016 (JMB),,,,,,,,,,,,,,,,,,,,,,,,,,,,2009-06-10
72208013880,2018-03-12T10:00:00,FM-12,4,,SE,0.25,mi,"TEMP, PRECIP, SNOW",,,"MMTS, SRG, SNOWBOARD",,,WFO CHS,,,,,,,,,,,,,,,,,,,,,,,,,,,29.66,51,54,,||RA,+0.05,8,90,29.65,5,29.61,9.94,52,130,,8,,,,,,,,,,,,,,,,,,,,,,,,,,,,,,,,,,,,,SYN07672208 11266 81307 10122 20106 30028 40042 58016 69907 761// 91456 555 91215=,,,,,,,,,,,,,,,,,,,,,,,,,,,,2009-06-10
72208013880,2018-03-13T09:56:00,FM-15,7,,SE,0.25,mi,"TEMP, PRECIP, SNOW",,,"MMTS, SRG, SNOWBOARD",,,WFO CHS,,,,,,,,,,,,,,,,,,,,,,,,,,,30.07,31,50,0.00,,+0.00,8,48,30.07,CLR:00,30.02,10.00,42,320,,10,,,,,,,,,,,,,,,,,,,,,,,,,,,,,,,,,,,,,MET10303/13/18 09:56:02 METAR KCHS 131456Z 32009KT 10SM CLR 10/M01 A3007 RMK AO2 SLP182 T01001006 58001 (JMB),,,,,,,,,,,,,,,,,,,,,,,,,,,,2009-06-10
72208013880,2018-03-13T10:00:00,FM-12,4,,SE,0.25,mi,"TEMP, PRECIP, SNOW",,,"MMTS, SRG, SNOWBOARD",,,WFO CHS,,,,,,,,,,,,,,,,,,,,,,,,,,,30.07,31,50,,,+0.00,8,48,30.07,,30.02,9.94,42,320,,10,,,,,,,,,,,,,,,,,,,,,,,,,,,,,,,,,,,,,SYN06472208 32966 03209 10100 21006 30167 40182 58001 91456 555 91315=,,,,,,,,,,,,,,,,,,,,,,,,,,,,2009-06-10
72208013880,2018-03-15T09:56:00,FM-15,7,,SE,0.25,mi,"TEMP, PRECIP, SNOW",,,"MMTS, SRG, SNOWBOARD",,,WFO CHS,,,,,,,,,,,,,,,,,,,,,,,,,,,30.12,22,53,0.00,,-0.01,0,30,30.11,CLR:00,30.07,10.00,41,280,,5,,,,,,,,,,,,,,,,,,,,,,,,,,,,,,,,,,,,,MET10303/15/18 09:56:02 METAR KCHS 151456Z 28004KT 10SM CLR 12/M06 A3012 RMK AO2 SLP198 T01171056 50003 (JMB),,,,,,,,,,,,,,,,,,,,,,,,,,,,2009-06-10
72208013880,2018-03-19T09:56:00,FM-15,7,,SE,0.25,mi,"TEMP, PRECIP, SNOW",,,"MMTS, SRG, SNOWBOARD",,,WFO CHS,,,,,,,,,,,,,,,,,,,,,,,,,,,29.83,61,63,0.04,BR:1 ||,-0.03,0,93,29.83,FEW:02 6 BKN:07 30 BKN:07 55,29.78,4.00,62,110,,11,,,,,,,,,,,,,,,,,,,,,,,,,,,,,,,,,,,,,MET13903/19/18 09:56:02 METAR KCHS 191456Z 11010KT 4SM BR FEW006 BKN030 BKN055 17/16 A2983 RMK AO2 RAE55 SLP101 P0004 60009 T01720161 50010 (JMB),,,,,,,,,,,,,,,,,,,,,,,,,,,,2009-06-10
72208013880,2018-03-22T09:56:00,FM-15,7,,SE,0.25,mi,"TEMP, PRECIP, SNOW",,,"MMTS, SRG, SNOWBOARD",,,WFO CHS,,,,,,,,,,,,,,,,,,,,,,,,,,,30.17,28,51,0.00,,-0.03,0,41,30.17,CLR:00,30.12,10.00,41,320,,11,,,,,,,,,,,,,,,,,,,,,,,,,,,,,,,,,,,,,MET10303/22/18 09:56:02 METAR KCHS 221456Z 32010KT 10SM CLR 11/M02 A3017 RMK AO2 SLP216 T01061022 50009 (JMB),,,,,,,,,,,,,,,,,,,,,,,,,,,,2009-06-10
72208013880,2018-03-23T09:56:00,FM-15,7,,SE,0.25,mi,"TEMP, PRECIP, SNOW",,,"MMTS, SRG, SNOWBOARD",,,WFO CHS,,,,,,,,,,,,,,,,,,,,,,,,,,,30.29,27,54,0.00,,-0.01,0,35,30.29,CLR:00,30.24,10.00,43,VRB,,8,,,,,,,,,,,,,,,,,,,,,,,,,,,,,,,,,,,,,MET10303/23/18 09:56:02 METAR KCHS 231456Z 02007KT 10SM CLR 12/M03 A3029 RMK AO2 SLP257 T01221028 50005 (MBT),,,,,,,,,,,,,,,,,,,,,,,,,,,,2009-06-10
72208013880,2018-03-24T09:56:00,FM-15,7,,SE,0.25,mi,"TEMP, PRECIP, SNOW",,,"MMTS, SRG, SNOWBOARD",,,WFO CHS,,,,,,,,,,,,,,,,,,,,,,,,,,,30.22,38,59,0.00,,-0.02,0,46,30.22,FEW:02 90 BKN:07 120,30.17,10.00,49,090,22,8,,,,,,,,,,,,,,,,,,,,,,,,,,,,,,,,,,,,,MET11503/24/18 09:56:02 METAR KCHS 241456Z 09007G19KT 10SM FEW090 BKN120 15/03 A3022 RMK AO2 SLP232 T01500033 50006 (JRS),,,,,,,,,,,,,,,,,,,,,,,,,,,,2009-06-10
72208013880,2018-03-26T09:56:00,FM-15,7,,SE,0.25,mi,"TEMP, PRECIP, SNOW",,,"MMTS, SRG, SNOWBOARD",,,WFO CHS,,,,,,,,,,,,,,,,,,,,,,,,,,,30.46,35,49,0.00,,-0.04,0,59,30.46,SCT:04 37 BKN:07 200,30.41,10.00,43,060,,16,,,,,,,,,,,,,,,,,,,,,,,,,,,,,,,,,,,,,MET11203/26/18 09:56:02 METAR KCHS 261456Z 06014KT 10SM SCT037 BKN200 09/02 A3046 RMK AO2 SLP315 T00940017 50012 (JMB),,,,,,,,,,,,,,,,,,,,,,,,,,,,2009-06-10
72208013880,2018-03-30T09:56:00,FM-15,7,,SE,0.25,mi,"TEMP, PRECIP, SNOW",,,"MMTS, SRG, SNOWBOARD",,,WFO CHS,,,,,,,,,,,,,,,,,,,,,,,,,,,30.03,64,66,0.02,-RA:02 BR:1 |RA |,-0.02,0,93,30.03,SCT:04 20 BKN:07 50 OVC:08 100,29.98,4.00,65,210,,11,,,,,,,,,,,,,,,,,,,,,,,,,,,,,,,,,,,,,MET13703/30/18 09:56:02 METAR KCHS 301456Z 21010KT 4SM -RA BR SCT020 BKN050 OVC100 19/18 A3003 RMK AO2 SLP169 P0002 60002 T01890178 50006 (JMB),,,,,,,,,,,,,,,,,,,,,,,,,,,,2009-06-10
72208013880,2018-04-01T09:56:00,FM-15,7,,SE,0.25,mi,"TEMP, PRECIP, SNOW",,,"MMTS, SRG, SNOWBOARD",,,WFO CHS,,,,,,,,,,,,,,,,,,,,,,,,,,,30.20,52,71,0.00,,-0.01,0,51,30.20,FEW:02 60 FEW:02 200,30.15,10.00,60,VRB,,6,,,,,,,,,,,,,,,,,,,,,,,,,,,,,,,,,,,,,MET11104/01/18 09:56:02 METAR KCHS 011456Z VRB05KT 10SM FEW060 FEW200 22/11 A3020 RMK AO2 SLP227 T02170111 50005 (MH),,,,,,,,,,,,,,,,,,,,,,,,,,,,2009-06-10
72208013880,2018-04-02T09:56:00,FM-15,7,,SE,0.25,mi,"TEMP, PRECIP, SNOW",,,"MMTS, SRG, SNOWBOARD",,,WFO CHS,,,,,,,,,,,,,,,,,,,,,,,,,,,30.06,61,74,0.00,,-0.01,0,64,30.06,SCT:04 250,30.01,10.00,66,280,,10,,,,,,,,,,,,,,,,,,,,,,,,,,,,,,,,,,,,,MET10504/02/18 09:56:02 METAR KCHS 021456Z 28009KT 10SM SCT250 23/16 A3006 RMK AO2 SLP180 T02330161 50005 (JMB),,,,,,,,,,,,,,,,,,,,,,,,,,,,2009-06-10
72208013880,2018-04-05T09:56:00,FM-15,7,,SE,0.25,mi,"TEMP, PRECIP, SNOW",,,"MMTS, SRG, SNOWBOARD",,,WFO CHS,,,,,,,,,,,,,,,,,,,,,,,,,,,30.22,24,60,0.00,,-0.02,0,25,30.22,CLR:00,30.17,10.00,45,030,,13,,,,,,,,,,,,,,,,,,,,,,,,,,,,,,,,,,,,,MET10304/05/18 09:56:02 METAR KCHS 051456Z 03011KT 10SM CLR 16/M04 A3022 RMK AO2 SLP233 T01561044 50006 (JMB),,,,,,,,,,,,,,,,,,,,,,,,,,,,2009-06-10
72208013880,2018-04-06T09:56:00,FM-15,7,,SE,0.25,mi,"TEMP, PRECIP, SNOW",,,"MMTS, SRG, SNOWBOARD",,,WFO CHS,,,,,,,,,,,,,,,,,,,,,,,,,,,30.14,46,71,0.00,,+0.01,8,41,30.14,CLR:00,30.09,10.00,57,190,,8,,,,,,,,,,,,,,,,,,,,,,,,,,,,,,,,,,,,,MET10204/06/18 09:56:02 METAR KCHS 061456Z 19007KT 10SM CLR 22/08 A3014 RMK AO2 SLP205 T02170078 58003 (JMB),,,,,,,,,,,,,,,,,,,,,,,,,,,,2009-06-10
72208013880,2018-04-06T10:00:00,FM-12,4,,SE,0.25,mi,"TEMP, PRECIP, SNOW",,,"MMTS, SRG, SNOWBOARD",,,WFO CHS,,,,,,,,,,,,,,,,,,,,,,,,,,,30.14,46,71,,,+0.01,8,41,30.14,,30.09,9.94,57,190,,8,,,,,,,,,,,,,,,,,,,,,,,,,,,,,,,,,,,,,SYN06472208 32966 01907 10217 20078 30190 40205 58003 91456 555 90615=,,,,,,,,,,,,,,,,,,,,,,,,,,,,2009-06-10
72208013880,2018-04-07T09:56:00,FM-15,7,,SE,0.25,mi,"TEMP, PRECIP, SNOW",,,"MMTS, SRG, SNOWBOARD",,,WFO CHS,,,,,,,,,,,,,,,,,,,,,,,,,,,29.82,59,76,0.00,,+0.02,8,56,29.82,SCT:04 30 BKN:07 70,29.77,10.00,66,210,,17,,,,,,,,,,,,,,,,,,,,,,,,,,,,,,,,,,,,,MET11104/07/18 09:56:02 METAR KCHS 071456Z 21015KT 10SM SCT030 BKN070 24/15 A2982 RMK AO2 SLP097 T02440150 58007 (MH),,,,,,,,,,,,,,,,,,,,,,,,,,,,2009-06-10
72208013880,2018-04-07T10:00:00,FM-12,4,,SE,0.25,mi,"TEMP, PRECIP, SNOW",,,"MMTS, SRG, SNOWBOARD",,,WFO CHS,,,,,,,,,,,,,,,,,,,,,,,,,,,29.82,59,76,,,+0.02,8,56,29.82,26,29.77,9.94,66,210,,17,,,,,,,,,,,,,,,,,,,,,,,,,,,,,,,,,,,,,SYN06472208 32566 62115 10244 20150 30082 40097 58007 91456 555 90715=,,,,,,,,,,,,,,,,,,,,,,,,,,,,2009-06-10
72208013880,2018-04-15T09:56:00,FM-15,7,,SE,0.25,mi,"TEMP, PRECIP, SNOW",,,"MMTS, SRG, SNOWBOARD",,,WFO CHS,,,,,,,,,,,,,,,,,,,,,,,,,,,29.95,72,80,0.00,,+0.01,8,76,29.95,BKN:07 18 BKN:07 24,29.90,10.00,75,180,32,22,,,,,,,,,,,,,,,,,,,,,,,,,,,,,,,,,,,,,MET13204/15/18 09:56:02 METAR KCHS 151456Z 18019G28KT 10SM BKN018 BKN024 27/22 A2995 RMK AO2 PK WND 21029/1421 SLP143 T02670222 58002 (MH),,,,,,,,,,,,,,,,,,,,,,,,,,,,2009-06-10
72208013880,2018-04-15T10:00:00,FM-12,4,,SE,0.25,mi,"TEMP, PRECIP, SNOW",,,"MMTS, SRG, SNOWBOARD",,,WFO CHS,,,,,,,,,,,,,,,,,,,,,,,,,,,29.95,72,80,,,+0.01,8,76,29.95,15,29.90,9.94,75,180,,22,,,,,,,,,,,,,,,,,,,,,,,,,,,,,,,,,,,,,SYN07472208 32466 61819 10267 20222 30126 40143 58002 91456 333 91028 555 91515=,,,,,,,,,,,,,,,,,,,,,,,,,,,,2009-06-10
72208013880,2018-04-17T09:56:00,FM-15,7,,SE,0.25,mi,"TEMP, PRECIP, SNOW",,,"MMTS, SRG, SNOWBOARD",,,WFO CHS,,,,,,,,,,,,,,,,,,,,,,,,,,,30.09,31,54,0.00,,-0.00,0,42,30.08,CLR:00,30.04,10.00,44,270,,10,,,,,,,,,,,,,,,,,,,,,,,,,,,,,,,,,,,,,MET10304/17/18 09:56:02 METAR KCHS 171456Z 27009KT 10SM CLR 12/M01 A3009 RMK AO2 SLP187 T01221006 50001 (JMB),,,,,,,,,,,,,,,,,,,,,,,,,,,,2009-06-10
72208013880,2018-04-18T09:56:00,FM-15,7,,SE,0.25,mi,"TEMP, PRECIP, SNOW",,,"MMTS, SRG, SNOWBOARD",,,WFO CHS,,,,,,,,,,,,,,,,,,,,,,,,,,,30.03,48,74,0.00,,-0.01,0,40,30.03,FEW:02 250,29.98,10.00,59,270,18,14,,,,,,,,,,,,,,,,,,,,,,,,,,,,,,,,,,,,,MET10804/18/18 09:56:02 METAR KCHS 181456Z 27012G16KT 10SM FEW250 23/09 A3003 RMK AO2 SLP169 T02330089 50005 (JMB),,,,,,,,,,,,,,,,,,,,,,,,,,,,2009-06-10
72208013880,2018-04-23T09:56:00,FM-15,7,,SE,0.25,mi,"TEMP, PRECIP, SNOW",,,"MMTS, SRG, SNOWBOARD",,,WFO CHS,,,,,,,,,,,,,,,,,,,,,,,,,,,30.13,62,66,0.01,,-0.00,0,87,30.12,FEW:02 9 OVC:08 55,30.08,10.00,64,110,26,16,,,,,,,,,,,,,,,,,,,,,,,,,,,,,,,,,,,,,MET13304/23/18 09:56:02 METAR KCHS 231456Z 11014G23KT 10SM FEW009 OVC055 19/17 A3013 RMK AO2 RAE41 SLP201 P0001 60020 T01890167 50001 (JRS),,,,,,,,,,,,,,,,,,,,,,,,,,,,2009-06-10
72208013880,2018-04-24T09:56:00,FM-15,7,,SE,0.25,mi,"TEMP, PRECIP, SNOW",,,"MMTS, SRG, SNOWBOARD",,,WFO CHS,,,,,,,,,,,,,,,,,,,,,,,,,,,29.89,62,74,0.00,,-0.01,0,67,29.88,SCT:04 28,29.84,10.00,67,VRB,,8,,,,,,,,,,,,,,,,,,,,,,,,,,,,,,,,,,,,,MET10504/24/18 09:56:02 METAR KCHS 241456Z 19007KT 10SM SCT028 23/17 A2989 RMK AO2 SLP119 T02330167 50003 (JMB),,,,,,,,,,,,,,,,,,,,,,,,,,,,2009-06-10
72208013880,2018-04-25T09:56:00,FM-15,7,,SE,0.25,mi,"TEMP, PRECIP, SNOW",,,"MMTS, SRG, SNOWBOARD",,,WFO CHS,,,,,,,,,,,,,,,,,,,,,,,,,,,29.82,56,73,0.00,,+0.02,8,55,29.82,FEW:02 35,29.77,10.00,63,270,,9,,,,,,,,,,,,,,,,,,,,,,,,,,,,,,,,,,,,,MET10504/25/18 09:56:02 METAR KCHS 251456Z 27008KT 10SM FEW035 23/13 A2982 RMK AO2 SLP097 T02280133 58006 (JMB),,,,,,,,,,,,,,,,,,,,,,,,,,,,2009-06-10
72208013880,2018-04-25T10:00:00,FM-12,4,,SE,0.25,mi,"TEMP, PRECIP, SNOW",,,"MMTS, SRG, SNOWBOARD",,,WFO CHS,,,,,,,,,,,,,,,,,,,,,,,,,,,29.82,56,73,,,+0.02,8,55,29.82,41,29.77,9.94,63,270,,9,,,,,,,,,,,,,,,,,,,,,,,,,,,,,,,,,,,,,SYN06472208 32666 22708 10228 20133 30082 40097 58006 91456 555 92515=,,,,,,,,,,,,,,,,,,,,,,,,,,,,2009-06-10
72208013880,2018-05-05T09:56:00,FM-15,7,,SE,0.25,mi,"TEMP, PRECIP, SNOW",,,"MMTS, SRG, SNOWBOARD",,,WFO CHS,,,,,,,,,,,,,,,,,,,,,,,,,,,30.11,61,78,0.00,,-0.00,0,56,30.11,FEW:02 110 FEW:02 200,30.06,10.00,67,160,,10,,,,,,,,,,,,,,,,,,,,,,,,,,,,,,,,,,,,,MET11105/05/18 09:56:02 METAR KCHS 051456Z 16009KT 10SM FEW110 FEW200 26/16 A3011 RMK AO2 SLP197 T02560161 50001 (MH),,,,,,,,,,,,,,,,,,,,,,,,,,,,2009-06-10
72208013880,2018-05-09T09:56:00,FM-15,7,,SE,0.25,mi,"TEMP, PRECIP, SNOW",,,"MMTS, SRG, SNOWBOARD",,,WFO CHS,,,,,,,,,,,,,,,,,,,,,,,,,,,30.13,60,75,0.00,,+0.01,8,60,30.13,FEW:02 30,30.08,10.00,66,010,,6,,,,,,,,,,,,,,,,,,,,,,,,,,,,,,,,,,,,,MET10505/09/18 09:56:02 METAR KCHS 091456Z 01005KT 10SM FEW030 24/16 A3013 RMK AO2 SLP203 T02390156 58005 (JMB),,,,,,,,,,,,,,,,,,,,,,,,,,,,2009-06-10
72208013880,2018-05-09T10:00:00,FM-12,4,,SE,0.25,mi,"TEMP, PRECIP, SNOW",,,"MMTS, SRG, SNOWBOARD",,,WFO CHS,,,,,,,,,,,,,,,,,,,,,,,,,,,30.13,60,75,,,+0.01,8,60,30.13,26,30.08,9.94,66,010,,6,,,,,,,,,,,,,,,,,,,,,,,,,,,,,,,,,,,,,SYN06472208 32566 20105 10239 20156 30187 40203 58005 91456 555 90915=,,,,,,,,,,,,,,,,,,,,,,,,,,,,2009-06-10
72208013880,2018-05-10T09:56:00,FM-15,7,,SE,0.25,mi,"TEMP, PRECIP, SNOW",,,"MMTS, SRG, SNOWBOARD",,,WFO CHS,,,,,,,,,,,,,,,,,,,,,,,,,,,30.13,60,81,0.00,,+0.01,8,49,30.12,FEW:02 250,30.08,10.00,68,240,,8,,,,,,,,,,,,,,,,,,,,,,,,,,,,,,,,,,,,,MET10505/10/18 09:56:02 METAR KCHS 101456Z 24007KT 10SM FEW250 27/16 A3013 RMK AO2 SLP201 T02720156 58002 (JMB),,,,,,,,,,,,,,,,,,,,,,,,,,,,2009-06-10
72208013880,2018-05-10T10:00:00,FM-12,4,,SE,0.25,mi,"TEMP, PRECIP, SNOW",,,"MMTS, SRG, SNOWBOARD",,,WFO CHS,,,,,,,,,,,,,,,,,,,,,,,,,,,30.13,60,81,,,+0.01,8,49,30.12,,30.08,9.94,68,240,,8,,,,,,,,,,,,,,,,,,,,,,,,,,,,,,,,,,,,,SYN06472208 32966 22407 10272 20156 30187 40201 58002 91456 555 91015=,,,,,,,,,,,,,,,,,,,,,,,,,,,,2009-06-10
72208013880,2018-05-12T09:56:00,FM-15,7,,SE,0.25,mi,"TEMP, PRECIP, SNOW",,,"MMTS, SRG, SNOWBOARD",,,WFO CHS,,,,,,,,,,,,,,,,,,,,,,,,,,,30.15,62,86,0.00,,-0.01,0,45,30.15,FEW:02 80,30.10,10.00,70,VRB,,5,,,,,,,,,,,,,,,,,,,,,,,,,,,,,,,,,,,,,MET10405/12/18 09:56:02 METAR KCHS 121456Z VRB04KT 10SM FEW080 30/17 A3015 RMK AO2 SLP209 T03000167 50004 (MH),,,,,,,,,,,,,,,,,,,,,,,,,,,,2009-06-10
72208013880,2018-05-13T09:56:00,FM-15,7,,SE,0.25,mi,"TEMP, PRECIP, SNOW",,,"MMTS, SRG, SNOWBOARD",,,WFO CHS,,,,,,,,,,,,,,,,,,,,,,,,,,,30.12,67,85,0.00,,-0.02,0,55,30.12,FEW:02 100,30.07,10.00,73,250,,6,,,,,,,,,,,,,,,,,,,,,,,,,,,,,,,,,,,,,MET10405/13/18 09:56:02 METAR KCHS 131456Z 25005KT 10SM FEW100 29/19 A3012 RMK AO2 SLP199 T02940194 50006 (MH),,,,,,,,,,,,,,,,,,,,,,,,,,,,2009-06-10
72208013880,2018-05-15T09:56:00,FM-15,7,,SE,0.25,mi,"TEMP, PRECIP, SNOW",,,"MMTS, SRG, SNOWBOARD",,,WFO CHS,,,,,,,,,,,,,,,,,,,,,,,,,,,30.05,71,81,0.00,,-0.01,0,72,30.04,SCT:04 22 BKN:07 40 BKN:07 100,30.00,10.00,74,150,,16,,,,,,,,,,,,,,,,,,,,,,,,,,,,,,,,,,,,,MET12905/15/18 09:56:02 METAR KCHS 151456Z 15014KT 10SM SCT022 BKN040 BKN100 27/22 A3005 RMK AO2 SLP173 SCT V BKN T02720217 50004 (JMB),,,,,,,,,,,,,,,,,,,,,,,,,,,,2009-06-10
72208013880,2018-05-18T09:56:00,FM-15,7,,SE,0.25,mi,"TEMP, PRECIP, SNOW",,,"MMTS, SRG, SNOWBOARD",,,WFO CHS,,,,,,,,,,,,,,,,,,,,,,,,,,,30.02,72,77,0.00,,-0.01,0,85,30.01,SCT:04 10 BKN:07 30 BKN:07 100,29.97,10.00,74,170,,10,,,,,,,,,,,,,,,,,,,,,,,,,,,,,,,,,,,,,MET12505/18/18 09:56:02 METAR KCHS 181456Z 17009KT 10SM SCT010 BKN030 BKN100 25/22 A3002 RMK AO2 SLP163 60003 T02500222 50002 (KLJ),,,,,,,,,,,,,,,,,,,,,,,,,,,,2009-06-10
72208013880,2018-05-21T09:56:00,FM-15,7,,SE,0.25,mi,"TEMP, PRECIP, SNOW",,,"MMTS, SRG, SNOWBOARD",,,WFO CHS,,,,,,,,,,,,,,,,,,,,,,,,,,,30.18,71,79,0.00,,-0.01,0,77,30.18,SCT:04 17 BKN:07 120 BKN:07 200,30.13,10.00,74,200,,3,,,,,,,,,,,,,,,,,,,,,,,,,,,,,,,,,,,,,MET11905/21/18 09:56:02 METAR KCHS 211456Z 20003KT 10SM SCT017 BKN120 BKN200 26/22 A3018 RMK AO2 SLP220 T02610217 50003 (JMB),,,,,,,,,,,,,,,,,,,,,,,,,,,,2009-06-10
72208013880,2018-05-22T09:56:00,FM-15,7,,SE,0.25,mi,"TEMP, PRECIP, SNOW",,,"MMTS, SRG, SNOWBOARD",,,WFO CHS,,,,,,,,,,,,,,,,,,,,,,,,,,,30.15,71,84,0.00,,-0.01,0,65,30.15,SCT:04 30 BKN:07 80 BKN:07 200,30.10,10.00,75,180,,11,,,,,,,,,,,,,,,,,,,,,,,,,,,,,,,,,,,,,MET13205/22/18 09:56:02 METAR KCHS 221456Z 18010KT 10SM SCT030 BKN080 BKN200 29/22 A3015 RMK AO2 SLP209 MDT CU ALQDS T02890217 50002 (JMB),,,,,,,,,,,,,,,,,,,,,,,,,,,,2009-06-10
72208013880,2018-05-23T09:56:00,FM-15,7,,SE,0.25,mi,"TEMP, PRECIP, SNOW",,,"MMTS, SRG, SNOWBOARD",,,WFO CHS,,,,,,,,,,,,,,,,,,,,,,,,,,,30.12,70,84,T,,-0.01,0,63,30.12,FEW:02 30 SCT:04 55,30.07,10.00,74,VRB,,9,,,,,,,,,,,,,,,,,,,,,,,,,,,,,,,,,,,,,MET14405/23/18 09:56:02 METAR KCHS 231456Z 24008KT 10SM FEW030 SCT055 29/21 A3012 RMK AO2 RAB17E29 SLP199 TCU DSNT E P0000 60000 T02890211 50003 (JMB),,,,,,,,,,,,,,,,,,,,,,,,,,,,2009-06-10
72208013880,2018-05-24T09:56:00,FM-15,7,,SE,0.25,mi,"TEMP, PRECIP, SNOW",,,"MMTS, SRG, SNOWBOARD",,,WFO CHS,,,,,,,,,,,,,,,,,,,,,,,,,,,30.11,72,85,0.00,,-0.01,0,65,30.11,SCT:04 25 SCT:04 50 BKN:07 200,30.06,10.00,76,VRB,,3,,,,,,,,,,,,,,,,,,,,,,,,,,,,,,,,,,,,,MET13405/24/18 09:56:02 METAR KCHS 241456Z VRB03KT 10SM SCT025 SCT050 BKN200 29/22 A3011 RMK AO2 SLP195 MDT CU E AND S T02940222 50002 (JMB),,,,,,,,,,,,,,,,,,,,,,,,,,,,2009-06-10
72208013880,2018-05-25T09:56:00,FM-15,7,,SE,0.25,mi,"TEMP, PRECIP, SNOW",,,"MMTS, SRG, SNOWBOARD",,,WFO CHS,,,,,,,,,,,,,,,,,,,,,,,,,,,30.09,69,82,0.00,,-0.00,0,65,30.09,SCT:04 25 BKN:07 40 BKN:07 200,30.04,10.00,73,130,,10,,,,,,,,,,,,,,,,,,,,,,,,,,,,,,,,,,,,,MET12505/25/18 09:56:02 METAR KCHS 251456Z 13009KT 10SM SCT025 BKN040 BKN200 28/21 A3009 RMK AO2 SLP190 60000 T02780206 50001 (MBT),,,,,,,,,,,,,,,,,,,,,,,,,,,,2009-06-10
72208013880,2018-05-26T09:56:00,FM-15,7,,SE,0.25,mi,"TEMP, PRECIP, SNOW",,,"MMTS, SRG, SNOWBOARD",,,WFO CHS,,,,,,,,,,,,,,,,,,,,,,,,,,,30.00,72,84,0.00,,+0.00,8,67,30.00,SCT:04 28 BKN:07 40 BKN:07 250,29.95,10.00,76,200,,8,,,,,,,,,,,,,,,,,,,,,,,,,,,,,,,,,,,,,MET12805/26/18 09:56:02 METAR KCHS 261456Z 20007KT 10SM SCT028 BKN040TCU BKN250 29/22 A3000 RMK AO2 SLP160 TCU NE T02890222 58001 (MH),,,,,,,,,,,,,,,,,,,,,,,,,,,,2009-06-10
72208013880,2018-05-26T10:00:00,FM-12,4,,SE,0.25,mi,"TEMP, PRECIP, SNOW",,,"MMTS, SRG, SNOWBOARD",,,WFO CHS,,,,,,,,,,,,,,,,,,,,,,,,,,,30.00,72,84,,,+0.00,8,67,30.00,26,29.95,9.94,76,200,,8,,,,,,,,,,,,,,,,,,,,,,,,,,,,,,,,,,,,,SYN06472208 32566 62007 10289 20222 30143 40160 58001 91456 555 92615=,,,,,,,,,,,,,,,,,,,,,,,,,,,,2009-06-10
72208013880,2018-05-31T09:56:00,FM-15,7,,SE,0.25,mi,"TEMP, PRECIP, SNOW",,,"MMTS, SRG, SNOWBOARD",,,WFO CHS,,,,,,,,,,,,,,,,,,,,,,,,,,,29.99,73,79,T,-RA:02 |RA |RA,-0.01,0,82,29.99,FEW:02 15 SCT:04 30 BKN:07 120,29.94,10.00,75,240,,7,,,,,,,,,,,,,,,,,,,,,,,,,,,,,,,,,,,,,MET15305/31/18 09:56:02 METAR KCHS 311456Z 24006KT 10SM -RA FEW015 SCT030 BKN120 26/23 A2999 RMK AO2 RAB49 SLP155 MDT CU SW-W P0000 60002 T02610228 50004 (JMB),,,,,,,,,,,,,,,,,,,,,,,,,,,,2009-06-10
72208013880,2018-06-02T09:56:00,FM-15,7,,SE,0.25,mi,"TEMP, PRECIP, SNOW",,,"MMTS, SRG, SNOWBOARD",,,WFO CHS,,,,,,,,,,,,,,,,,,,,,,,,,,,29.88,69,81,0.00,,+0.01,8,67,29.88,SCT:04 35 BKN:07 60 BKN:07 200,29.83,10.00,73,260,,10,,,,,,,,,,,,,,,,,,,,,,,,,,,,,,,,,,,,,MET11806/02/18 09:56:02 METAR KCHS 021456Z 26009KT 10SM SCT035 BKN060 BKN200 27/21 A2988 RMK AO2 SLP119 T02720206 58002 (MH),,,,,,,,,,,,,,,,,,,,,,,,,,,,2009-06-10
72208013880,2018-06-02T10:00:00,FM-12,4,,SE,0.25,mi,"TEMP, PRECIP, SNOW",,,"MMTS, SRG, SNOWBOARD",,,WFO CHS,,,,,,,,,,,,,,,,,,,,,,,,,,,29.88,69,81,,,+0.01,8,67,29.88,41,29.83,9.94,73,260,,10,,,,,,,,,,,,,,,,,,,,,,,,,,,,,,,,,,,,,SYN06472208 32666 62609 10272 20206 30102 40119 58002 91456 555 90215=,,,,,,,,,,,,,,,,,,,,,,,,,,,,2009-06-10
72208013880,2018-06-04T09:56:00,FM-15,7,,SE,0.25,mi,"TEMP, PRECIP, SNOW",,,"MMTS, SRG, SNOWBOARD",,,WFO CHS,,,,,,,,,,,,,,,,,,,,,,,,,,,29.86,69,86,0.00,,-0.00,0,57,29.85,CLR:00,29.81,10.00,74,010,,9,,,,,,,,,,,,,,,,,,,,,,,,,,,,,,,,,,,,,MET10206/04/18 09:56:02 METAR KCHS 041456Z 01008KT 10SM CLR 30/21 A2986 RMK AO2 SLP110 T03000206 50000 (JMB),,,,,,,,,,,,,,,,,,,,,,,,,,,,2009-06-10
72208013880,2018-06-05T09:56:00,FM-15,7,,SE,0.25,mi,"TEMP, PRECIP, SNOW",,,"MMTS, SRG, SNOWBOARD",,,WFO CHS,,,,,,,,,,,,,,,,,,,,,,,,,,,29.86,65,83,0.00,,-0.01,0,55,29.86,FEW:02 70 BKN:07 250,29.81,10.00,71,340,,8,,,,,,,,,,,,,,,,,,,,,,,,,,,,,,,,,,,,,MET11206/05/18 09:56:02 METAR KCHS 051456Z 34007KT 10SM FEW070 BKN250 28/18 A2986 RMK AO2 SLP112 T02830183 50002 (JMB),,,,,,,,,,,,,,,,,,,,,,,,,,,,2009-06-10
72208013880,2018-06-06T09:56:00,FM-15,7,,SE,0.25,mi,"TEMP, PRECIP, SNOW",,,"MMTS, SRG, SNOWBOARD",,,WFO CHS,,,,,,,,,,,,,,,,,,,,,,,,,,,29.85,65,86,0.00,,-0.01,0,49,29.85,SCT:04 250,29.80,10.00,72,030,,6,,,,,,,,,,,,,,,,,,,,,,,,,,,,,,,,,,,,,MET10506/06/18 09:56:02 METAR KCHS 061456Z 03005KT 10SM SCT250 30/18 A2985 RMK AO2 SLP108 T03000183 50004 (JMB),,,,,,,,,,,,,,,,,,,,,,,,,,,,2009-06-10
72208013880,2018-06-09T09:56:00,FM-15,7,,SE,0.25,mi,"TEMP, PRECIP, SNOW",,,"MMTS, SRG, SNOWBOARD",,,WFO CHS,,,,,,,,,,,,,,,,,,,,,,,,,,,30.08,73,81,T,VCTS:7 -RA:02 |RA |RA,+0.01,8,77,30.08,FEW:02 14 SCT:04 21 BKN:07 50,30.03,10.00,75,060,,7,,,,,,,,,,,,,,,,,,,,,,,,,,,,,,,,,,,,,MET19006/09/18 09:56:02 METAR KCHS 091456Z 06006KT 10SM VCTS -RA FEW014 SCT021CB BKN050 27/23 A3008 RMK AO2 RAB50 SLP187 OCNL LTGICCC NE-SE TS VC NE AND SE MOV W P0000 60000 T02720228 58002 $ (MH),,,,,,,,,,,,,,,,,,,,,,,,,,,,2009-06-10
72208013880,2018-06-09T10:00:00,FM-12,4,,SE,0.25,mi,"TEMP, PRECIP, SNOW",,,"MMTS, SRG, SNOWBOARD",,,WFO CHS,,,,,,,,,,,,,,,,,,,,,,,,,,,30.08,73,81,,||RA,+0.01,8,77,30.08,15,30.03,9.94,75,060,,7,,,,,,,,,,,,,,,,,,,,,,,,,,,,,,,,,,,,,SYN08672208 11466 60606 10272 20228 30170 40187 58002 69907 761// 91456 333 96061 555 90915=,,,,,,,,,,,,,,,,,,,,,,,,,,,,2009-06-10
72208013880,2018-06-10T09:56:00,FM-15,7,,SE,0.25,mi,"TEMP, PRECIP, SNOW",,,"MMTS, SRG, SNOWBOARD",,,WFO CHS,,,,,,,,,,,,,,,,,,,,,,,,,,,30.01,75,82,0.00,,-0.00,0,79,30.01,SCT:04 15 SCT:04 50 BKN:07 150,29.96,10.00,77,170,,5,,,,,,,,,,,,,,,,,,,,,,,,,,,,,,,,,,,,,MET12006/10/18 09:56:02 METAR KCHS 101456Z 17004KT 10SM SCT015 SCT050 BKN150 28/24 A3001 RMK AO2 SLP162 T02780239 50001 $ (MH),,,,,,,,,,,,,,,,,,,,,,,,,,,,2009-06-10
72208013880,2018-06-12T09:56:00,FM-15,7,,SE,0.25,mi,"TEMP, PRECIP, SNOW",,,"MMTS, SRG, SNOWBOARD",,,WFO CHS,,,,,,,,,,,,,,,,,,,,,,,,,,,30.06,74,80,0.00,,-0.03,0,82,30.05,SCT:04 15 BKN:07 30,30.01,10.00,76,360,,9,,,,,,,,,,,,,,,,,,,,,,,,,,,,,,,,,,,,,MET12206/12/18 09:56:02 METAR KCHS 121456Z 36008KT 10SM SCT015 BKN030 27/23 A3006 RMK AO2 SLP177 SCT V BKN T02670233 50011 (JMB),,,,,,,,,,,,,,,,,,,,,,,,,,,,2009-06-10
72208013880,2018-06-13T09:56:00,FM-15,7,,SE,0.25,mi,"TEMP, PRECIP, SNOW",,,"MMTS, SRG, SNOWBOARD",,,WFO CHS,,,,,,,,,,,,,,,,,,,,,,,,,,,30.10,72,79,0.00,,-0.01,0,79,30.10,SCT:04 15 BKN:07 150 BKN:07 250,30.05,10.00,74,000,,0,,,,,,,,,,,,,,,,,,,,,,,,,,,,,,,,,,,,,MET11906/13/18 09:56:02 METAR KCHS 131456Z 00000KT 10SM SCT015 BKN150 BKN250 26/22 A3010 RMK AO2 SLP192 T02610222 50004 (JMB),,,,,,,,,,,,,,,,,,,,,,,,,,,,2009-06-10
72208013880,2018-06-14T09:56:00,FM-15,7,,SE,0.25,mi,"TEMP, PRECIP, SNOW",,,"MMTS, SRG, SNOWBOARD",,,WFO CHS,,,,,,,,,,,,,,,,,,,,,,,,,,,30.03,74,86,0.00,,-0.01,0,67,30.03,FEW:02 25 FEW:02 150,29.98,10.00,78,VRB,,5,,,,,,,,,,,,,,,,,,,,,,,,,,,,,,,,,,,,,MET11206/14/18 09:56:02 METAR KCHS 141456Z VRB04KT 10SM FEW025 FEW150 30/23 A3003 RMK AO2 SLP170 T03000233 50005 (JMB),,,,,,,,,,,,,,,,,,,,,,,,,,,,2009-06-10
72208013880,2018-06-15T09:56:00,FM-15,7,,SE,0.25,mi,"TEMP, PRECIP, SNOW",,,"MMTS, SRG, SNOWBOARD",,,WFO CHS,,,,,,,,,,,,,,,,,,,,,,,,,,,29.99,76,86,0.00,,+0.00,8,72,29.99,FEW:02 25 FEW:02 250,29.94,10.00,79,VRB,,5,,,,,,,,,,,,,,,,,,,,,,,,,,,,,,,,,,,,,MET11406/15/18 09:56:02 METAR KCHS 151456Z VRB04KT 10SM FEW025 FEW250 30/24 A2999 RMK AO2 SLP156 T03000244 58000 $ (JMB),,,,,,,,,,,,,,,,,,,,,,,,,,,,2009-06-10
72208013880,2018-06-15T10:00:00,FM-12,4,,SE,0.25,mi,"TEMP, PRECIP, SNOW",,,"MMTS, SRG, SNOWBOARD",,,WFO CHS,,,,,,,,,,,,,,,,,,,,,,,,,,,29.99,76,86,,,0.00,4,72,29.99,26,29.94,9.94,79,,,5,,,,,,,,,,,,,,,,,,,,,,,,,,,,,,,,,,,,,SYN06472208 32566 2//04 10300 20244 30140 40156 58000 91456 555 91515=,,,,,,,,,,,,,,,,,,,,,,,,,,,,2009-06-10
72208013880,2018-06-18T09:56:00,FM-15,7,,SE,0.25,mi,"TEMP, PRECIP, SNOW",,,"MMTS, SRG, SNOWBOARD",,,WFO CHS,,,,,,,,,,,,,,,,,,,,,,,,,,,30.14,73,84,0.00,,-0.01,0,70,30.13,SCT:04 25 BKN:07 35,30.09,10.00,76,300,,6,,,,,,,,,,,,,,,,,,,,,,,,,,,,,,,,,,,,,MET11206/18/18 09:56:02 METAR KCHS 181456Z 30005KT 10SM SCT025 BKN035 29/23 A3014 RMK AO2 SLP204 T02890228 50004 (JMB),,,,,,,,,,,,,,,,,,,,,,,,,,,,2009-06-10
72208013880,2018-06-19T09:56:00,FM-15,7,,SE,0.25,mi,"TEMP, PRECIP, SNOW",,,"MMTS, SRG, SNOWBOARD",,,WFO CHS,,,,,,,,,,,,,,,,,,,,,,,,,,,30.01,76,89,0.00,,+0.03,8,65,30.01,FEW:02 30 FEW:02 250,29.96,10.00,80,240,,8,,,,,,,,,,,,,,,,,,,,,,,,,,,,,,,,,,,,,MET11206/19/18 09:56:02 METAR KCHS 191456Z 24007KT 10SM FEW030 FEW250 32/24 A3001 RMK AO2 SLP161 T03170244 58009 (JMB),,,,,,,,,,,,,,,,,,,,,,,,,,,,2009-06-10
72208013880,2018-06-19T10:00:00,FM-12,4,,SE,0.25,mi,"TEMP, PRECIP, SNOW",,,"MMTS, SRG, SNOWBOARD",,,WFO CHS,,,,,,,,,,,,,,,,,,,,,,,,,,,30.01,76,89,,,+0.03,8,65,30.01,26,29.96,9.94,80,240,,8,,,,,,,,,,,,,,,,,,,,,,,,,,,,,,,,,,,,,SYN06472208 32566 22407 10317 20244 30146 40161 58009 91456 555 91915=,,,,,,,,,,,,,,,,,,,,,,,,,,,,2009-06-10
72208013880,2018-06-20T09:56:00,FM-15,7,,SE,0.25,mi,"TEMP, PRECIP, SNOW",,,"MMTS, SRG, SNOWBOARD",,,WFO CHS,,,,,,,,,,,,,,,,,,,,,,,,,,,29.90,76,91,0.00,,+0.01,6,61,29.90,CLR:00,29.85,10.00,80,240,,8,,,,,,,,,,,,,,,,,,,,,,,,,,,,,,,,,,,,,MET10206/20/18 09:56:02 METAR KCHS 201456Z 24007KT 10SM CLR 33/24 A2990 RMK AO2 SLP124 T03280244 56003 (JMB),,,,,,,,,,,,,,,,,,,,,,,,,,,,2009-06-10
72208013880,2018-06-20T10:00:00,FM-12,4,,SE,0.25,mi,"TEMP, PRECIP, SNOW",,,"MMTS, SRG, SNOWBOARD",,,WFO CHS,,,,,,,,,,,,,,,,,,,,,,,,,,,29.90,76,91,,,+0.01,6,61,29.90,,29.85,9.94,80,240,,8,,,,,,,,,,,,,,,,,,,,,,,,,,,,,,,,,,,,,SYN06472208 32966 02407 10328 20244 30109 40124 56003 91456 555 92015=,,,,,,,,,,,,,,,,,,,,,,,,,,,,2009-06-10
72208013880,2018-06-23T09:56:00,FM-15,7,,SE,0.25,mi,"TEMP, PRECIP, SNOW",,,"MMTS, SRG, SNOWBOARD",,,WFO CHS,,,,,,,,,,,,,,,,,,,,,,,,,,,29.93,76,89,0.00,,-0.01,0,65,29.93,FEW:02 26 FEW:02 150,29.88,10.00,80,260,,8,,,,,,,,,,,,,,,,,,,,,,,,,,,,,,,,,,,,,MET11106/23/18 09:56:02 METAR KCHS 231456Z 26007KT 10SM FEW026 FEW150 32/24 A2993 RMK AO2 SLP136 T03170244 50004 (MH),,,,,,,,,,,,,,,,,,,,,,,,,,,,2009-06-10
72208013880,2018-06-26T09:56:00,FM-15,7,,SE,0.25,mi,"TEMP, PRECIP, SNOW",,,"MMTS, SRG, SNOWBOARD",,,WFO CHS,,,,,,,,,,,,,,,,,,,,,,,,,,,30.13,73,83,0.00,,-0.00,0,72,30.13,SCT:04 15 SCT:04 200,30.08,10.00,76,010,,7,,,,,,,,,,,,,,,,,,,,,,,,,,,,,,,,,,,,,MET11206/26/18 09:56:02 METAR KCHS 261456Z 01006KT 10SM SCT015 SCT200 28/23 A3013 RMK AO2 SLP202 T02830228 50000 (JMB),,,,,,,,,,,,,,,,,,,,,,,,,,,,2009-06-10
72208013880,2018-06-27T09:56:00,FM-15,7,,SE,0.25,mi,"TEMP, PRECIP, SNOW",,,"MMTS, SRG, SNOWBOARD",,,WFO CHS,,,,,,,,,,,,,,,,,,,,,,,,,,,30.05,76,86,0.00,,+0.00,8,72,30.05,FEW:02 25 FEW:02 250,30.00,10.00,79,VRB,,3,,,,,,,,,,,,,,,,,,,,,,,,,,,,,,,,,,,,,MET11206/27/18 09:56:02 METAR KCHS 271456Z VRB03KT 10SM FEW025 FEW250 30/24 A3005 RMK AO2 SLP176 T03000244 58000 (JMB),,,,,,,,,,,,,,,,,,,,,,,,,,,,2009-06-10
72208013880,2018-06-27T10:00:00,FM-12,4,,SE,0.25,mi,"TEMP, PRECIP, SNOW",,,"MMTS, SRG, SNOWBOARD",,,WFO CHS,,,,,,,,,,,,,,,,,,,,,,,,,,,30.05,76,86,,,+0.00,7,72,30.05,26,30.00,9.94,79,,,3,,,,,,,,,,,,,,,,,,,,,,,,,,,,,,,,,,,,,SYN06472208 32566 2//03 10300 20244 30160 40176 58000 91456 555 92715=,,,,,,,,,,,,,,,,,,,,,,,,,,,,2009-06-10
72208013880,2018-07-05T09:56:00,FM-15,7,,SE,0.25,mi,"TEMP, PRECIP, SNOW",,,"MMTS, SRG, SNOWBOARD",,,WFO CHS,,,,,,,,,,,,,,,,,,,,,,,,,,,30.24,75,85,0.00,,-0.01,0,72,30.23,SCT:04 30 SCT:04 250,30.19,10.00,78,070,,9,,,,,,,,,,,,,,,,,,,,,,,,,,,,,,,,,,,,,MET13507/05/18 09:56:02 METAR KCHS 051456Z 07008KT 10SM SCT030 SCT250 29/24 A3024 RMK AO2 LTG DSNT NE SLP238 CB DSNT NE T02940239 50004 (JMB),,,,,,,,,,,,,,,,,,,,,,,,,,,,2009-06-10
72208013880,2018-07-06T09:56:00,FM-15,7,,SE,0.25,mi,"TEMP, PRECIP, SNOW",,,"MMTS, SRG, SNOWBOARD",,,WFO CHS,,,,,,,,,,,,,,,,,,,,,,,,,,,30.16,73,89,0.00,,+0.01,6,59,30.16,SCT:04 30 BKN:07 250,30.11,10.00,78,VRB,,5,,,,,,,,,,,,,,,,,,,,,,,,,,,,,,,,,,,,,MET11407/06/18 09:56:02 METAR KCHS 061456Z VRB04KT 10SM SCT030 BKN250 32/23 A3016 RMK AO2 SLP213 T03170228 56004 $ (JMB),,,,,,,,,,,,,,,,,,,,,,,,,,,,2009-06-10
72208013880,2018-07-06T10:00:00,FM-12,4,,SE,0.25,mi,"TEMP, PRECIP, SNOW",,,"MMTS, SRG, SNOWBOARD",,,WFO CHS,,,,,,,,,,,,,,,,,,,,,,,,,,,30.16,73,89,,,+0.01,6,59,30.16,26,30.11,9.94,78,,,5,,,,,,,,,,,,,,,,,,,,,,,,,,,,,,,,,,,,,SYN06472208 32566 6//04 10317 20228 30197 40213 56004 91456 555 90615=,,,,,,,,,,,,,,,,,,,,,,,,,,,,2009-06-10
72208013880,2018-07-09T09:56:00,FM-15,7,,SE,0.25,mi,"TEMP, PRECIP, SNOW",,,"MMTS, SRG, SNOWBOARD",,,WFO CHS,,,,,,,,,,,,,,,,,,,,,,,,,,,30.21,64,83,0.00,,-0.01,0,53,30.21,FEW:02 250,30.16,10.00,71,010,,10,,,,,,,,,,,,,,,,,,,,,,,,,,,,,,,,,,,,,MET10507/09/18 09:56:02 METAR KCHS 091456Z 01009KT 10SM FEW250 28/18 A3021 RMK AO2 SLP230 T02830178 50005 (JMB),,,,,,,,,,,,,,,,,,,,,,,,,,,,2009-06-10
72208013880,2018-07-10T09:56:00,FM-15,7,,SE,0.25,mi,"TEMP, PRECIP, SNOW",,,"MMTS, SRG, SNOWBOARD",,,WFO CHS,,,,,,,,,,,,,,,,,,,,,,,,,,,30.07,62,88,0.00,,+0.00,8,42,30.07,SCT:04 250,30.02,10.00,71,310,,9,,,,,,,,,,,,,,,,,,,,,,,,,,,,,,,,,,,,,MET10507/10/18 09:56:02 METAR KCHS 101456Z 31008KT 10SM SCT250 31/17 A3007 RMK AO2 SLP183 T03110167 58001 (JMB),,,,,,,,,,,,,,,,,,,,,,,,,,,,2009-06-10
72208013880,2018-07-10T10:00:00,FM-12,4,,SE,0.25,mi,"TEMP, PRECIP, SNOW",,,"MMTS, SRG, SNOWBOARD",,,WFO CHS,,,,,,,,,,,,,,,,,,,,,,,,,,,30.07,62,88,,,+0.00,8,42,30.07,,30.02,9.94,71,310,,9,,,,,,,,,,,,,,,,,,,,,,,,,,,,,,,,,,,,,SYN06472208 32966 43108 10311 20167 30167 40183 58001 91456 555 91015=,,,,,,,,,,,,,,,,,,,,,,,,,,,,2009-06-10
72208013880,2018-07-14T09:56:00,FM-15,7,,SE,0.25,mi,"TEMP, PRECIP, SNOW",,,"MMTS, SRG, SNOWBOARD",,,WFO CHS,,,,,,,,,,,,,,,,,,,,,,,,,,,30.11,75,85,0.00,,-0.00,0,72,30.11,FEW:02 19 SCT:04 25,30.06,10.00,78,060,,8,,,,,,,,,,,,,,,,,,,,,,,,,,,,,,,,,,,,,MET11107/14/18 09:56:02 METAR KCHS 141456Z 06007KT 10SM FEW019 SCT025 29/24 A3011 RMK AO2 SLP196 T02940239 50001 (MH),,,,,,,,,,,,,,,,,,,,,,,,,,,,2009-06-10
72208013880,2018-07-15T09:56:00,FM-15,7,,SE,0.25,mi,"TEMP, PRECIP, SNOW",,,"MMTS, SRG, SNOWBOARD",,,WFO CHS,,,,,,,,,,,,,,,,,,,,,,,,,,,30.09,72,87,0.00,,+0.00,8,61,30.09,FEW:02 26 FEW:02 38 SCT:04 200,30.04,10.00,77,050,,8,,,,,,,,,,,,,,,,,,,,,,,,,,,,,,,,,,,,,MET11807/15/18 09:56:02 METAR KCHS 151456Z 05007KT 10SM FEW026 FEW038 SCT200 31/22 A3009 RMK AO2 SLP189 T03060222 58000 (MH),,,,,,,,,,,,,,,,,,,,,,,,,,,,2009-06-10
72208013880,2018-07-15T10:00:00,FM-12,4,,SE,0.25,mi,"TEMP, PRECIP, SNOW",,,"MMTS, SRG, SNOWBOARD",,,WFO CHS,,,,,,,,,,,,,,,,,,,,,,,,,,,30.09,72,87,,,0.00,4,61,30.09,26,30.04,9.94,77,050,,8,,,,,,,,,,,,,,,,,,,,,,,,,,,,,,,,,,,,,SYN06472208 32566 40507 10306 20222 30173 40189 58000 91456 555 91515=,,,,,,,,,,,,,,,,,,,,,,,,,,,,2009-06-10
72208013880,2018-07-17T09:56:00,FM-15,7,,SE,0.25,mi,"TEMP, PRECIP, SNOW",,,"MMTS, SRG, SNOWBOARD",,,WFO CHS,,,,,,,,,,,,,,,,,,,,,,,,,,,30.02,74,86,0.00,,+0.01,8,67,30.02,FEW:02 30 SCT:04 120 SCT:04 200,29.97,10.00,78,260,,13,,,,,,,,,,,,,,,,,,,,,,,,,,,,,,,,,,,,,MET11907/17/18 09:56:02 METAR KCHS 171456Z 26011KT 10SM FEW030 SCT120 SCT200 30/23 A3002 RMK AO2 SLP165 T03000233 58002 (JMB),,,,,,,,,,,,,,,,,,,,,,,,,,,,2009-06-10
72208013880,2018-07-17T10:00:00,FM-12,4,,SE,0.25,mi,"TEMP, PRECIP, SNOW",,,"MMTS, SRG, SNOWBOARD",,,WFO CHS,,,,,,,,,,,,,,,,,,,,,,,,,,,30.02,74,86,,,+0.01,8,67,30.02,26,29.97,9.94,78,260,,13,,,,,,,,,,,,,,,,,,,,,,,,,,,,,,,,,,,,,SYN06472208 32566 42611 10300 20233 30150 40165 58002 91456 555 91715=,,,,,,,,,,,,,,,,,,,,,,,,,,,,2009-06-10
72208013880,2018-07-21T09:56:00,FM-15,7,,SE,0.25,mi,"TEMP, PRECIP, SNOW",,,"MMTS, SRG, SNOWBOARD",,,WFO CHS,,,,,,,,,,,,,,,,,,,,,,,,,,,29.90,72,83,0.00,,-0.02,0,70,29.90,FEW:02 110 FEW:02 200,29.85,10.00,75,320,,9,,,,,,,,,,,,,,,,,,,,,,,,,,,,,,,,,,,,,MET11207/21/18 09:56:02 METAR KCHS 211456Z 32008KT 10SM FEW110 FEW200 28/22 A2990 RMK AO2 SLP125 T02830222 50007 (MBT),,,,,,,,,,,,,,,,,,,,,,,,,,,,2009-06-10
72208013880,2018-07-22T09:56:00,FM-15,7,,SE,0.25,mi,"TEMP, PRECIP, SNOW",,,"MMTS, SRG, SNOWBOARD",,,WFO CHS,,,,,,,,,,,,,,,,,,,,,,,,,,,29.79,76,84,0.00,,-0.01,0,77,29.79,FEW:02 18 FEW:02 250,29.74,10.00,78,VRB,,3,,,,,,,,,,,,,,,,,,,,,,,,,,,,,,,,,,,,,MET11207/22/18 09:56:02 METAR KCHS 221456Z VRB03KT 10SM FEW018 FEW250 29/24 A2979 RMK AO2 SLP088 T02890244 50003 (MBT),,,,,,,,,,,,,,,,,,,,,,,,,,,,2009-06-10
72208013880,2018-08-01T10:00:00,FM-12,4,,SE,0.25,mi,"TEMP, PRECIP, SNOW",,,"MMTS, SRG, SNOWBOARD",,,WFO CHS,,,,,,,,,,,,,,,,,,,,,,,,,,,30.11,77,86,,,0.00,4,75,30.11,26,30.06,9.94,80,200,,10,,,,,,,,,,,,,,,,,,,,,,,,,,,,,,,,,,,,,SYN07072208 12566 62009 10300 20250 30180 40195 53000 69907 91456 555 90115=,,,,,,,,,,,,,,,,,,,,,,,,,,,,2009-06-10
72208013880,2018-08-06T09:56:00,FM-15,7,,SE,0.25,mi,"TEMP, PRECIP, SNOW",,,"MMTS, SRG, SNOWBOARD",,,WFO CHS,,,,,,,,,,,,,,,,,,,,,,,,,,,30.16,73,87,0.00,,-0.01,0,63,30.16,FEW:02 30 FEW:02 250,30.11,10.00,77,240,,5,,,,,,,,,,,,,,,,,,,,,,,,,,,,,,,,,,,,,MET11208/06/18 09:56:02 METAR KCHS 061456Z 24004KT 10SM FEW030 FEW250 31/23 A3016 RMK AO2 SLP213 T03060228 50002 (JMB),,,,,,,,,,,,,,,,,,,,,,,,,,,,2009-06-10
72208013880,2018-08-08T09:56:00,FM-15,7,,SE,0.25,mi,"TEMP, PRECIP, SNOW",,,"MMTS, SRG, SNOWBOARD",,,WFO CHS,,,,,,,,,,,,,,,,,,,,,,,,,,,30.08,74,88,0.00,,-0.01,0,63,30.08,FEW:02 30 FEW:02 250,30.03,10.00,78,290,,9,,,,,,,,,,,,,,,,,,,,,,,,,,,,,,,,,,,,,MET11208/08/18 09:56:02 METAR KCHS 081456Z 29008KT 10SM FEW030 FEW250 31/23 A3008 RMK AO2 SLP186 T03110233 50004 (JMB),,,,,,,,,,,,,,,,,,,,,,,,,,,,2009-06-10
72208013880,2018-08-10T09:56:00,FM-15,7,,SE,0.25,mi,"TEMP, PRECIP, SNOW",,,"MMTS, SRG, SNOWBOARD",,,WFO CHS,,,,,,,,,,,,,,,,,,,,,,,,,,,29.99,73,85,0.00,,-0.01,0,68,29.98,FEW:02 200,29.94,10.00,77,300,,6,,,,,,,,,,,,,,,,,,,,,,,,,,,,,,,,,,,,,MET10508/10/18 09:56:02 METAR KCHS 101456Z 30005KT 10SM FEW200 29/23 A2999 RMK AO2 SLP154 T02940228 50002 (MBT),,,,,,,,,,,,,,,,,,,,,,,,,,,,2009-06-10
72208013880,2018-08-17T09:56:00,FM-15,7,,SE,0.25,mi,"TEMP, PRECIP, SNOW",,,"MMTS, SRG, SNOWBOARD",,,WFO CHS,,,,,,,,,,,,,,,,,,,,,,,,,,,30.19,73,87,0.00,,+0.01,6,63,30.19,SCT:04 200,30.14,10.00,77,VRB,,7,,,,,,,,,,,,,,,,,,,,,,,,,,,,,,,,,,,,,MET10508/17/18 09:56:02 METAR KCHS 171456Z VRB06KT 10SM SCT200 31/23 A3019 RMK AO2 SLP224 T03060228 56003 (JMB),,,,,,,,,,,,,,,,,,,,,,,,,,,,2009-06-10
72208013880,2018-08-17T10:00:00,FM-12,4,,SE,0.25,mi,"TEMP, PRECIP, SNOW",,,"MMTS, SRG, SNOWBOARD",,,WFO CHS,,,,,,,,,,,,,,,,,,,,,,,,,,,30.19,73,87,,,+0.01,6,63,30.19,,30.14,9.94,77,,,7,,,,,,,,,,,,,,,,,,,,,,,,,,,,,,,,,,,,,SYN06472208 32966 4//06 10306 20228 30207 40224 56003 91456 555 91715=,,,,,,,,,,,,,,,,,,,,,,,,,,,,2009-06-10
72208013880,2018-08-18T09:56:00,FM-15,7,,SE,0.25,mi,"TEMP, PRECIP, SNOW",,,"MMTS, SRG, SNOWBOARD",,,WFO CHS,,,,,,,,,,,,,,,,,,,,,,,,,,,30.11,74,85,0.00,,+0.01,8,70,30.11,FEW:02 20 SCT:04 80 BKN:07 200,30.06,10.00,77,240,,10,,,,,,,,,,,,,,,,,,,,,,,,,,,,,,,,,,,,,MET11808/18/18 09:56:02 METAR KCHS 181456Z 24009KT 10SM FEW020 SCT080 BKN200 29/23 A3011 RMK AO2 SLP195 T02940233 58003 (MH),,,,,,,,,,,,,,,,,,,,,,,,,,,,2009-06-10
72208013880,2018-08-18T10:00:00,FM-12,4,,SE,0.25,mi,"TEMP, PRECIP, SNOW",,,"MMTS, SRG, SNOWBOARD",,,WFO CHS,,,,,,,,,,,,,,,,,,,,,,,,,,,30.11,74,85,,,+0.01,8,70,30.11,26,30.06,9.94,77,240,,10,,,,,,,,,,,,,,,,,,,,,,,,,,,,,,,,,,,,,SYN06472208 32566 62409 10294 20233 30180 40195 58003 91456 555 91815=,,,,,,,,,,,,,,,,,,,,,,,,,,,,2009-06-10
72208013880,2018-08-22T09:56:00,FM-15,7,,SE,0.25,mi,"TEMP, PRECIP, SNOW",,,"MMTS, SRG, SNOWBOARD",,,WFO CHS,,,,,,,,,,,,,,,,,,,,,,,,,,,29.98,76,84,0.00,,+0.00,8,77,29.98,FEW:02 15 SCT:04 200,29.93,10.00,78,260,,7,,,,,,,,,,,,,,,,,,,,,,,,,,,,,,,,,,,,,MET11208/22/18 09:56:02 METAR KCHS 221456Z 26006KT 10SM FEW015 SCT200 29/24 A2998 RMK AO2 SLP153 T02890244 58001 (JMB),,,,,,,,,,,,,,,,,,,,,,,,,,,,2009-06-10
72208013880,2018-08-22T10:00:00,FM-12,4,,SE,0.25,mi,"TEMP, PRECIP, SNOW",,,"MMTS, SRG, SNOWBOARD",,,WFO CHS,,,,,,,,,,,,,,,,,,,,,,,,,,,29.98,76,84,,,+0.00,8,77,29.98,15,29.93,9.94,78,260,,7,,,,,,,,,,,,,,,,,,,,,,,,,,,,,,,,,,,,,SYN06472208 32466 42606 10289 20244 30136 40153 58001 91456 555 92215=,,,,,,,,,,,,,,,,,,,,,,,,,,,,2009-06-10
72208013880,2018-08-30T09:56:00,FM-15,7,,SE,0.25,mi,"TEMP, PRECIP, SNOW",,,"MMTS, SRG, SNOWBOARD",,,WFO CHS,,,,,,,,,,,,,,,,,,,,,,,,,,,30.16,74,88,0.00,,+0.00,6,63,30.16,FEW:02 25 FEW:02 250,30.11,10.00,78,320,,6,,,,,,,,,,,,,,,,,,,,,,,,,,,,,,,,,,,,,MET11408/30/18 09:56:02 METAR KCHS 301456Z 32005KT 10SM FEW025 FEW250 31/23 A3016 RMK AO2 SLP212 T03110233 56001 $ (JMB),,,,,,,,,,,,,,,,,,,,,,,,,,,,2009-06-10
72208013880,2018-08-30T10:00:00,FM-12,4,,SE,0.25,mi,"TEMP, PRECIP, SNOW",,,"MMTS, SRG, SNOWBOARD",,,WFO CHS,,,,,,,,,,,,,,,,,,,,,,,,,,,30.16,74,88,,,+0.00,6,63,30.16,26,30.11,9.94,78,320,,6,,,,,,,,,,,,,,,,,,,,,,,,,,,,,,,,,,,,,SYN06472208 32566 23205 10311 20233 30197 40212 56001 91456 555 93015=,,,,,,,,,,,,,,,,,,,,,,,,,,,,2009-06-10
72208013880,2018-09-02T09:56:00,FM-15,7,,SE,0.25,mi,"TEMP, PRECIP, SNOW",,,"MMTS, SRG, SNOWBOARD",,,WFO CHS,,,,,,,,,,,,,,,,,,,,,,,,,,,30.22,76,88,0.00,,-0.03,0,68,30.22,SCT:04 19 SCT:04 45,30.17,10.00,79,080,,9,,,,,,,,,,,,,,,,,,,,,,,,,,,,,,,,,,,,,MET11109/02/18 09:56:02 METAR KCHS 021456Z 08008KT 10SM SCT019 SCT045 31/24 A3022 RMK AO2 SLP233 T03110244 50009 (MH),,,,,,,,,,,,,,,,,,,,,,,,,,,,2009-06-10
72208013880,2018-09-06T09:56:00,FM-15,7,,SE,0.25,mi,"TEMP, PRECIP, SNOW",,,"MMTS, SRG, SNOWBOARD",,,WFO CHS,,,,,,,,,,,,,,,,,,,,,,,,,,,30.17,75,88,0.00,,+0.00,6,66,30.16,SCT:04 30 SCT:04 250,30.12,10.00,79,050,,7,,,,,,,,,,,,,,,,,,,,,,,,,,,,,,,,,,,,,MET11409/06/18 09:56:02 METAR KCHS 061456Z 05006KT 10SM SCT030 SCT250 31/24 A3017 RMK AO2 SLP215 T03110239 56000 $ (JMB),,,,,,,,,,,,,,,,,,,,,,,,,,,,2009-06-10
72208013880,2018-09-06T10:00:00,FM-12,4,,SE,0.25,mi,"TEMP, PRECIP, SNOW",,,"MMTS, SRG, SNOWBOARD",,,WFO CHS,,,,,,,,,,,,,,,,,,,,,,,,,,,30.17,75,88,,,0.00,4,66,30.16,26,30.12,9.94,79,050,,7,,,,,,,,,,,,,,,,,,,,,,,,,,,,,,,,,,,,,SYN06472208 32566 40506 10311 20239 30201 40215 56000 91456 555 90615=,,,,,,,,,,,,,,,,,,,,,,,,,,,,2009-06-10
72208013880,2018-09-09T09:56:00,FM-15,7,,SE,0.25,mi,"TEMP, PRECIP, SNOW",,,"MMTS, SRG, SNOWBOARD",,,WFO CHS,,,,,,,,,,,,,,,,,,,,,,,,,,,29.94,75,86,T,,-0.02,0,70,29.94,SCT:04 24 BKN:07 33,29.89,10.00,78,000,,0,,,,,,,,,,,,,,,,,,,,,,,,,,,,,,,,,,,,,MET13409/09/18 09:56:02 METAR KCHS 091456Z 00000KT 10SM SCT024 BKN033 30/24 A2994 RMK AO2 RAB18E34 SLP139 P0000 60000 T03000239 50006 $ (MH),,,,,,,,,,,,,,,,,,,,,,,,,,,,2009-06-10
72208013880,2018-09-13T09:56:00,FM-15,7,,SE,0.25,mi,"TEMP, PRECIP, SNOW",,,"MMTS, SRG, SNOWBOARD",,,WFO CHS,,,,,,,,,,,,,,,,,,,,,,,,,,,29.98,74,81,0.00,,+0.01,8,79,29.98,BKN:07 18,29.93,10.00,76,340,,17,,,,,,,,,,,,,,,,,,,,,,,,,,,,,,,,,,,,,MET10509/13/18 09:56:02 METAR KCHS 131456Z 34015KT 10SM BKN018 27/23 A2998 RMK AO2 SLP153 T02720233 58002 (JMB),,,,,,,,,,,,,,,,,,,,,,,,,,,,2009-06-10
72208013880,2018-09-13T10:00:00,FM-12,4,,SE,0.25,mi,"TEMP, PRECIP, SNOW",,,"MMTS, SRG, SNOWBOARD",,,WFO CHS,,,,,,,,,,,,,,,,,,,,,,,,,,,29.98,74,81,,,+0.01,8,79,29.98,15,29.93,9.94,76,340,,17,,,,,,,,,,,,,,,,,,,,,,,,,,,,,,,,,,,,,SYN06472208 32466 63415 10272 20233 30136 40153 58002 91456 555 91315=,,,,,,,,,,,,,,,,,,,,,,,,,,,,2009-06-10
72208013880,2018-09-14T09:56:00,FM-15,7,,SE,0.25,mi,"TEMP, PRECIP, SNOW",,,"MMTS, SRG, SNOWBOARD",,,WFO CHS,,,,,,,,,,,,,,,,,,,,,,,,,,,29.74,72,85,0.00,,+0.03,6,65,29.73,BKN:07 45 BKN:07 250,29.69,10.00,76,320,33,25,,,,,,,,,,,,,,,,,,,,,,,,,,,,,,,,,,,,,MET13309/14/18 09:56:02 METAR KCHS 141456Z 32022G29KT 10SM BKN045 BKN250 29/22 A2974 RMK AO2 PK WND 32030/1423 SLP069 T02940222 56010 (JMB),,,,,,,,,,,,,,,,,,,,,,,,,,,,2009-06-10
72208013880,2018-09-14T10:00:00,FM-12,4,,SE,0.25,mi,"TEMP, PRECIP, SNOW",,,"MMTS, SRG, SNOWBOARD",,,WFO CHS,,,,,,,,,,,,,,,,,,,,,,,,,,,29.74,72,85,,,+0.03,6,65,29.73,41,29.69,9.94,76,320,,25,,,,,,,,,,,,,,,,,,,,,,,,,,,,,,,,,,,,,SYN07472208 32666 63222 10294 20222 30055 40069 56010 91456 333 91029 555 91415=,,,,,,,,,,,,,,,,,,,,,,,,,,,,2009-06-10
72208013880,2018-09-18T09:56:00,FM-15,7,,SE,0.25,mi,"TEMP, PRECIP, SNOW",,,"MMTS, SRG, SNOWBOARD",,,WFO CHS,,,,,,,,,,,,,,,,,,,,,,,,,,,29.95,78,85,0.00,,+0.01,8,80,29.95,FEW:02 20 FEW:02 60 SCT:04 250,29.90,10.00,80,240,,7,,,,,,,,,,,,,,,,,,,,,,,,,,,,,,,,,,,,,MET12109/18/18 09:56:02 METAR KCHS 181456Z 24006KT 10SM FEW020 FEW060 SCT250 29/26 A2995 RMK AO2 SLP142 T02940256 58002 $ (JMB),,,,,,,,,,,,,,,,,,,,,,,,,,,,2009-06-10
72208013880,2018-09-18T10:00:00,FM-12,4,,SE,0.25,mi,"TEMP, PRECIP, SNOW",,,"MMTS, SRG, SNOWBOARD",,,WFO CHS,,,,,,,,,,,,,,,,,,,,,,,,,,,29.95,78,85,,,+0.01,8,80,29.95,26,29.90,9.94,80,240,,7,,,,,,,,,,,,,,,,,,,,,,,,,,,,,,,,,,,,,SYN06472208 32566 42406 10294 20256 30126 40142 58002 91456 555 91815=,,,,,,,,,,,,,,,,,,,,,,,,,,,,2009-06-10
72208013880,2018-09-26T09:56:00,FM-15,7,,SE,0.25,mi,"TEMP, PRECIP, SNOW",,,"MMTS, SRG, SNOWBOARD",,,WFO CHS,,,,,,,,,,,,,,,,,,,,,,,,,,,30.11,75,84,0.00,,-0.00,0,74,30.11,FEW:02 20,30.06,10.00,78,VRB,,6,,,,,,,,,,,,,,,,,,,,,,,,,,,,,,,,,,,,,MET10509/26/18 09:56:02 METAR KCHS 261456Z VRB05KT 10SM FEW020 29/24 A3011 RMK AO2 SLP195 T02890239 50001 (JMB),,,,,,,,,,,,,,,,,,,,,,,,,,,,2009-06-10
72208013880,2018-09-27T09:56:00,FM-15,7,,SE,0.25,mi,"TEMP, PRECIP, SNOW",,,"MMTS, SRG, SNOWBOARD",,,WFO CHS,,,,,,,,,,,,,,,,,,,,,,,,,,,30.07,76,88,0.00,,-0.02,0,68,30.07,SCT:04 27,30.02,10.00,79,270,,9,,,,,,,,,,,,,,,,,,,,,,,,,,,,,,,,,,,,,MET10509/27/18 09:56:02 METAR KCHS 271456Z 27008KT 10SM SCT027 31/24 A3007 RMK AO2 SLP183 T03110244 50006 (JMB),,,,,,,,,,,,,,,,,,,,,,,,,,,,2009-06-10
72208013880,2018-09-29T09:56:00,FM-15,7,,SE,0.25,mi,"TEMP, PRECIP, SNOW",,,"MMTS, SRG, SNOWBOARD",,,WFO CHS,,,,,,,,,,,,,,,,,,,,,,,,,,,30.17,75,79,T,-RA:02 |RA |RA,-0.02,0,88,30.17,FEW:02 33 SCT:04 50 SCT:04 85,30.12,10.00,76,040,,3,,,,,,,,,,,,,,,,,,,,,,,,,,,,,,,,,,,,,MET14409/29/18 09:56:02 METAR KCHS 291456Z 04003KT 10SM -RA FEW033 SCT050 SCT085 26/24 A3017 RMK AO2 RAE02B34 SLP216 P0000 60001 T02610239 50006 (MBT),,,,,,,,,,,,,,,,,,,,,,,,,,,,2009-06-10
72208013880,2018-10-01T09:56:00,FM-15,7,,SE,0.25,mi,"TEMP, PRECIP, SNOW",,,"MMTS, SRG, SNOWBOARD",,,WFO CHS,,,,,,,,,,,,,,,,,,,,,,,,,,,30.28,71,82,0.00,,-0.02,0,69,30.28,SCT:04 25 SCT:04 250,30.23,10.00,75,070,,10,,,,,,,,,,,,,,,,,,,,,,,,,,,,,,,,,,,,,MET11210/01/18 09:56:02 METAR KCHS 011456Z 07009KT 10SM SCT025 SCT250 28/22 A3028 RMK AO2 SLP253 T02780217 50007 (JMB),,,,,,,,,,,,,,,,,,,,,,,,,,,,2009-06-10
72208013880,2018-10-02T09:56:00,FM-15,7,,SE,0.25,mi,"TEMP, PRECIP, SNOW",,,"MMTS, SRG, SNOWBOARD",,,WFO CHS,,,,,,,,,,,,,,,,,,,,,,,,,,,30.23,71,84,0.00,,-0.00,0,65,30.23,FEW:02 30 SCT:04 200,30.18,10.00,75,080,,8,,,,,,,,,,,,,,,,,,,,,,,,,,,,,,,,,,,,,MET11210/02/18 09:56:02 METAR KCHS 021456Z 08007KT 10SM FEW030 SCT200 29/22 A3023 RMK AO2 SLP236 T02890217 50001 (JMB),,,,,,,,,,,,,,,,,,,,,,,,,,,,2009-06-10
72208013880,2018-10-03T09:56:00,FM-15,7,,SE,0.25,mi,"TEMP, PRECIP, SNOW",,,"MMTS, SRG, SNOWBOARD",,,WFO CHS,,,,,,,,,,,,,,,,,,,,,,,,,,,30.15,68,84,0.00,,-0.01,0,59,30.14,FEW:02 35,30.10,10.00,73,010,,7,,,,,,,,,,,,,,,,,,,,,,,,,,,,,,,,,,,,,MET10510/03/18 09:56:02 METAR KCHS 031456Z 01006KT 10SM FEW035 29/20 A3015 RMK AO2 SLP208 T02890200 50003 (JMB),,,,,,,,,,,,,,,,,,,,,,,,,,,,2009-06-10
72208013880,2018-10-05T09:56:00,FM-15,7,,SE,0.25,mi,"TEMP, PRECIP, SNOW",,,"MMTS, SRG, SNOWBOARD",,,WFO CHS,,,,,,,,,,,,,,,,,,,,,,,,,,,30.11,69,85,0.00,,-0.01,0,59,30.10,FEW:02 180,30.06,10.00,74,310,,11,,,,,,,,,,,,,,,,,,,,,,,,,,,,,,,,,,,,,MET10710/05/18 09:56:02 METAR KCHS 051456Z 31010KT 10SM FEW180 29/21 A3011 RMK AO2 SLP194 T02940206 50002 $ (MBT),,,,,,,,,,,,,,,,,,,,,,,,,,,,2009-06-10
72208013880,2018-10-09T09:56:00,FM-15,7,,SE,0.25,mi,"TEMP, PRECIP, SNOW",,,"MMTS, SRG, SNOWBOARD",,,WFO CHS,,,,,,,,,,,,,,,,,,,,,,,,,,,30.12,72,84,0.00,,-0.01,0,67,30.12,SCT:04 35 BKN:07 70 BKN:07 250,30.07,10.00,76,120,23,17,,,,,,,,,,,,,,,,,,,,,,,,,,,,,,,,,,,,,MET12210/09/18 09:56:02 METAR KCHS 091456Z 12015G20KT 10SM SCT035 BKN070 BKN250 29/22 A3012 RMK AO2 SLP199 T02890222 50003 (JMB),,,,,,,,,,,,,,,,,,,,,,,,,,,,2009-06-10
72208013880,2018-10-12T09:56:00,FM-15,7,,SE,0.25,mi,"TEMP, PRECIP, SNOW",,,"MMTS, SRG, SNOWBOARD",,,WFO CHS,,,,,,,,,,,,,,,,,,,,,,,,,,,29.86,54,72,0.00,,-0.01,0,53,29.85,CLR:00,29.81,10.00,62,020,,6,,,,,,,,,,,,,,,,,,,,,,,,,,,,,,,,,,,,,MET10210/12/18 09:56:02 METAR KCHS 121456Z 02005KT 10SM CLR 22/12 A2986 RMK AO2 SLP110 T02220122 50003 (JMB),,,,,,,,,,,,,,,,,,,,,,,,,,,,2009-06-10
72208013880,2018-10-14T09:56:00,FM-15,7,,SE,0.25,mi,"TEMP, PRECIP, SNOW",,,"MMTS, SRG, SNOWBOARD",,,WFO CHS,,,,,,,,,,,,,,,,,,,,,,,,,,,30.13,65,79,0.00,,-0.04,0,62,30.13,FEW:02 250,30.08,10.00,70,000,,0,,,,,,,,,,,,,,,,,,,,,,,,,,,,,,,,,,,,,MET10710/14/18 09:56:02 METAR KCHS 141456Z 00000KT 10SM FEW250 26/18 A3013 RMK AO2 SLP202 T02610183 50013 $ (DTU),,,,,,,,,,,,,,,,,,,,,,,,,,,,2009-06-10
72208013880,2018-10-16T09:56:00,FM-15,7,,SE,0.25,mi,"TEMP, PRECIP, SNOW",,,"MMTS, SRG, SNOWBOARD",,,WFO CHS,,,,,,,,,,,,,,,,,,,,,,,,,,,30.16,73,81,0.00,,-0.03,0,77,30.15,FEW:02 15,30.11,10.00,75,230,,10,,,,,,,,,,,,,,,,,,,,,,,,,,,,,,,,,,,,,MET10510/16/18 09:56:02 METAR KCHS 161456Z 23009KT 10SM FEW015 27/23 A3016 RMK AO2 SLP211 T02720228 50009 (JMB),,,,,,,,,,,,,,,,,,,,,,,,,,,,2009-06-10
72208013880,2018-10-18T09:56:00,FM-15,7,,SE,0.25,mi,"TEMP, PRECIP, SNOW",,,"MMTS, SRG, SNOWBOARD",,,WFO CHS,,,,,,,,,,,,,,,,,,,,,,,,,,,30.34,47,67,0.00,,-0.04,0,49,30.34,SCT:04 40 BKN:07 100 BKN:07 200,30.29,10.00,56,050,,15,,,,,,,,,,,,,,,,,,,,,,,,,,,,,,,,,,,,,MET11910/18/18 09:56:02 METAR KCHS 181456Z 05013KT 10SM SCT040 BKN100 BKN200 19/08 A3034 RMK AO2 SLP273 T01940083 50015 (JMB),,,,,,,,,,,,,,,,,,,,,,,,,,,,2009-06-10
72208013880,2018-10-19T09:56:00,FM-15,7,,SE,0.25,mi,"TEMP, PRECIP, SNOW",,,"MMTS, SRG, SNOWBOARD",,,WFO CHS,,,,,,,,,,,,,,,,,,,,,,,,,,,30.32,60,70,0.00,,-0.01,0,71,30.31,FEW:02 50 FEW:02 250,30.27,10.00,64,VRB,,5,,,,,,,,,,,,,,,,,,,,,,,,,,,,,,,,,,,,,MET11210/19/18 09:56:02 METAR KCHS 191456Z VRB04KT 10SM FEW050 FEW250 21/16 A3032 RMK AO2 SLP265 T02110156 50005 (JMB),,,,,,,,,,,,,,,,,,,,,,,,,,,,2009-06-10
72208013880,2018-10-20T09:56:00,FM-15,7,,SE,0.25,mi,"TEMP, PRECIP, SNOW",,,"MMTS, SRG, SNOWBOARD",,,WFO CHS,,,,,,,,,,,,,,,,,,,,,,,,,,,30.01,70,81,0.00,,-0.00,0,69,30.01,FEW:02 15 BKN:07 150 BKN:07 220,29.96,10.00,74,240,,11,,,,,,,,,,,,,,,,,,,,,,,,,,,,,,,,,,,,,MET11910/20/18 09:56:02 METAR KCHS 201456Z 24010KT 10SM FEW015 BKN150 BKN220 27/21 A3001 RMK AO2 SLP161 T02720211 50001 (DTU),,,,,,,,,,,,,,,,,,,,,,,,,,,,2009-06-10
72208013880,2018-10-23T09:56:00,FM-15,7,,SE,0.25,mi,"TEMP, PRECIP, SNOW",,,"MMTS, SRG, SNOWBOARD",,,WFO CHS,,,,,,,,,,,,,,,,,,,,,,,,,,,30.21,58,67,0.00,,-0.01,0,73,30.20,FEW:02 80 BKN:07 200,30.16,10.00,62,040,,5,,,,,,,,,,,,,,,,,,,,,,,,,,,,,,,,,,,,,MET11210/23/18 09:56:02 METAR KCHS 231456Z 04004KT 10SM FEW080 BKN200 19/14 A3021 RMK AO2 SLP228 T01940144 50005 (JMB),,,,,,,,,,,,,,,,,,,,,,,,,,,,2009-06-10
72208013880,2018-10-26T09:56:00,FM-15,7,,SE,0.25,mi,"TEMP, PRECIP, SNOW",,,"MMTS, SRG, SNOWBOARD",,,WFO CHS,,,,,,,,,,,,,,,,,,,,,,,,,,,29.80,66,68,0.01,,+0.06,8,93,29.79,FEW:02 5 SCT:04 20 BKN:07 60,29.75,10.00,67,100,,7,,,,,,,,,,,,,,,,,,,,,,,,,,,,,,,,,,,,,MET13710/26/18 09:56:02 METAR KCHS 261456Z 10006KT 10SM FEW005 SCT020 BKN060 20/19 A2980 RMK AO2 RAE33 SLP089 P0001 60004 T02000189 58021 (MBT),,,,,,,,,,,,,,,,,,,,,,,,,,,,2009-06-10
72208013880,2018-10-26T10:00:00,FM-12,4,,SE,0.25,mi,"TEMP, PRECIP, SNOW",,,"MMTS, SRG, SNOWBOARD",,,WFO CHS,,,,,,,,,,,,,,,,,,,,,,,,,,,29.80,66,68,,,+0.06,8,93,29.79,5,29.75,9.94,67,100,,7,,,,,,,,,,,,,,,,,,,,,,,,,,,,,,,,,,,,,SYN07072208 12266 61006 10200 20189 30075 40089 58021 60017 91456 555 92615=,,,,,,,,,,,,,,,,,,,,,,,,,,,,2009-06-10
72208013880,2018-10-28T09:56:00,FM-15,7,,SE,0.25,mi,"TEMP, PRECIP, SNOW",,,"MMTS, SRG, SNOWBOARD",,,WFO CHS,,,,,,,,,,,,,,,,,,,,,,,,,,,30.12,48,61,0.00,,-0.03,0,63,30.12,CLR:00,30.07,10.00,54,280,,7,,,,,,,,,,,,,,,,,,,,,,,,,,,,,,,,,,,,,MET10210/28/18 09:56:02 METAR KCHS 281456Z 28006KT 10SM CLR 16/09 A3012 RMK AO2 SLP200 T01610089 50009 (DTU),,,,,,,,,,,,,,,,,,,,,,,,,,,,2009-06-10
72208013880,2018-10-29T09:56:00,FM-15,7,,SE,0.25,mi,"TEMP, PRECIP, SNOW",,,"MMTS, SRG, SNOWBOARD",,,WFO CHS,,,,,,,,,,,,,,,,,,,,,,,,,,,30.07,52,70,0.00,,-0.03,0,53,30.06,CLR:00,30.02,10.00,60,330,,13,,,,,,,,,,,,,,,,,,,,,,,,,,,,,,,,,,,,,MET10210/29/18 09:56:02 METAR KCHS 291456Z 33011KT 10SM CLR 21/11 A3007 RMK AO2 SLP181 T02110111 50010 (JMB),,,,,,,,,,,,,,,,,,,,,,,,,,,,2009-06-10
72208013880,2018-10-31T09:56:00,FM-15,7,,SE,0.25,mi,"TEMP, PRECIP, SNOW",,,"MMTS, SRG, SNOWBOARD",,,WFO CHS,,,,,,,,,,,,,,,,,,,,,,,,,,,30.24,53,71,0.00,,-0.01,0,53,30.24,FEW:02 250,30.19,10.00,61,VRB,,3,,,,,,,,,,,,,,,,,,,,,,,,,,,,,,,,,,,,,MET10510/31/18 09:56:02 METAR KCHS 311456Z VRB03KT 10SM FEW250 22/12 A3024 RMK AO2 SLP239 T02170117 50002 (JMB),,,,,,,,,,,,,,,,,,,,,,,,,,,,2009-06-10
72208013880,2018-11-01T09:56:00,FM-15,7,,SE,0.25,mi,"TEMP, PRECIP, SNOW",,,"MMTS, SRG, SNOWBOARD",,,WFO CHS,,,,,,,,,,,,,,,,,,,,,,,,,,,30.02,68,80,0.00,,+0.01,8,67,30.01,FEW:02 30 SCT:04 250,29.97,10.00,72,170,,16,,,,,,,,,,,,,,,,,,,,,,,,,,,,,,,,,,,,,MET11711/01/18 09:56:02 METAR KCHS 011456Z 17014KT 10SM FEW030 SCT250 27/20 A3002 RMK AO2 SLP164 T02670200 58004 FIBI (JMB),,,,,,,,,,,,,,,,,,,,,,,,,,,,2009-06-10
72208013880,2018-11-01T10:00:00,FM-12,4,,SE,0.25,mi,"TEMP, PRECIP, SNOW",,,"MMTS, SRG, SNOWBOARD",,,WFO CHS,,,,,,,,,,,,,,,,,,,,,,,,,,,30.02,68,80,,,+0.01,8,67,30.02,26,29.97,9.94,72,170,,20,,,,,,,,,,,,,,,,,,,,,,,,,,,,,,,,,,,,,SYN06472208 32566 41717 10267 20200 30150 40165 58004 91456 555 90115=,,,,,,,,,,,,,,,,,,,,,,,,,,,,2009-06-10
72208013880,2018-11-04T09:56:00,FM-15,7,,SE,0.25,mi,"TEMP, PRECIP, SNOW",,,"MMTS, SRG, SNOWBOARD",,,WFO CHS,,,,,,,,,,,,,,,,,,,,,,,,,,,30.32,53,65,0.00,,-0.02,0,66,30.32,FEW:02 42 FEW:02 200,30.27,10.00,58,050,,11,,,,,,,,,,,,,,,,,,,,,,,,,,,,,,,,,,,,,MET11411/04/18 09:56:02 METAR KCHS 041456Z 05010KT 10SM FEW042 FEW200 18/12 A3032 RMK AO2 SLP266 T01830117 50006 $ (DTU),,,,,,,,,,,,,,,,,,,,,,,,,,,,2009-06-10
72208013880,2018-11-06T09:56:00,FM-15,7,,SE,0.25,mi,"TEMP, PRECIP, SNOW",,,"MMTS, SRG, SNOWBOARD",,,WFO CHS,,,,,,,,,,,,,,,,,,,,,,,,,,,30.04,72,79,0.00,,-0.01,0,79,30.03,FEW:02 15 SCT:04 120 SCT:04 200,29.99,10.00,74,240,,13,,,,,,,,,,,,,,,,,,,,,,,,,,,,,,,,,,,,,MET11911/06/18 09:56:02 METAR KCHS 061456Z 24011KT 10SM FEW015 SCT120 SCT200 26/22 A3004 RMK AO2 SLP170 T02610222 50005 (JMB),,,,,,,,,,,,,,,,,,,,,,,,,,,,2009-06-10
72208013880,2018-11-09T09:56:00,FM-15,7,,SE,0.25,mi,"TEMP, PRECIP, SNOW",,,"MMTS, SRG, SNOWBOARD",,,WFO CHS,,,,,,,,,,,,,,,,,,,,,,,,,,,30.08,63,66,0.00,,+0.00,6,90,30.08,OVC:08 6,30.03,10.00,64,080,,6,,,,,,,,,,,,,,,,,,,,,,,,,,,,,,,,,,,,,MET10511/09/18 09:56:02 METAR KCHS 091456Z 08005KT 10SM OVC006 19/17 A3008 RMK AO2 SLP185 60000 T01890172 56001,,,,,,,,,,,,,,,,,,,,,,,,,,,,2009-06-10
72208013880,2018-11-09T10:00:00,FM-12,4,,SE,0.25,mi,"TEMP, PRECIP, SNOW",,,"MMTS, SRG, SNOWBOARD",,,WFO CHS,,,,,,,,,,,,,,,,,,,,,,,,,,,30.08,63,66,,,+0.00,6,90,30.08,5,30.03,9.94,64,080,,6,,,,,,,,,,,,,,,,,,,,,,,,,,,,,,,,,,,,,SYN07072208 12266 80805 10189 20172 30170 40185 56001 69907 91456 555 90915=,,,,,,,,,,,,,,,,,,,,,,,,,,,,2009-06-10
72208013880,2018-11-12T09:56:00,FM-15,7,,SE,0.25,mi,"TEMP, PRECIP, SNOW",,,"MMTS, SRG, SNOWBOARD",,,WFO CHS,,,,,,,,,,,,,,,,,,,,,,,,,,,30.21,52,59,0.00,,+0.04,8,78,30.21,BKN:07 10 BKN:07 30 OVC:08 120,30.16,10.00,55,040,,13,,,,,,,,,,,,,,,,,,,,,,,,,,,,,,,,,,,,,MET11911/12/18 09:56:02 METAR KCHS 121456Z 04011KT 10SM BKN010 BKN030 OVC120 15/11 A3021 RMK AO2 SLP229 T01500111 58015 (JMB),,,,,,,,,,,,,,,,,,,,,,,,,,,,2009-06-10
72208013880,2018-11-12T10:00:00,FM-12,4,,SE,0.25,mi,"TEMP, PRECIP, SNOW",,,"MMTS, SRG, SNOWBOARD",,,WFO CHS,,,,,,,,,,,,,,,,,,,,,,,,,,,30.21,52,59,,,+0.04,8,78,30.21,15,30.16,9.94,55,040,,13,,,,,,,,,,,,,,,,,,,,,,,,,,,,,,,,,,,,,SYN06472208 32466 80411 10150 20111 30214 40229 58015 91456 555 91215=,,,,,,,,,,,,,,,,,,,,,,,,,,,,2009-06-10
72208013880,2018-11-15T09:56:00,FM-15,7,,SE,0.25,mi,"TEMP, PRECIP, SNOW",,,"MMTS, SRG, SNOWBOARD",,,WFO CHS,,,,,,,,,,,,,,,,,,,,,,,,,,,29.92,46,48,0.00,,+0.03,8,93,29.92,OVC:08 5,29.87,10.00,47,350,,15,,,,,,,,,,,,,,,,,,,,,,,,,,,,,,,,,,,,,MET11111/15/18 09:56:02 METAR KCHS 151456Z 35013KT 10SM OVC005 09/08 A2992 RMK AO2 SLP132 60000 T00890078 58011 (JMB),,,,,,,,,,,,,,,,,,,,,,,,,,,,2009-06-10
72208013880,2018-11-15T10:00:00,FM-12,4,,SE,0.25,mi,"TEMP, PRECIP, SNOW",,,"MMTS, SRG, SNOWBOARD",,,WFO CHS,,,,,,,,,,,,,,,,,,,,,,,,,,,29.92,46,48,,,+0.03,8,93,29.92,5,29.87,9.94,47,350,,15,,,,,,,,,,,,,,,,,,,,,,,,,,,,,,,,,,,,,SYN07072208 12266 83513 10089 20078 30116 40132 58011 69907 91456 555 91515=,,,,,,,,,,,,,,,,,,,,,,,,,,,,2009-06-10
72208013880,2018-11-18T09:56:00,FM-15,6,,SE,0.25,mi,"TEMP, PRECIP, SNOW",,,"MMTS, SRG, SNOWBOARD",,,WFO CHS,,,,,,,,,,,,,,,,,,,,,,,,,,,30.26,56,64,0.00,,-0.01,0,75,30.25,FEW:02 55 SCT:04 75 SCT:04 200,30.21,10.00,59,070,,10,,,,,,,,,,,,,,,,,,,,,,,,,,,,,,,,,,,,,MET11911/18/18 09:56:02 METAR KCHS 181456Z 07009KT 10SM FEW055 SCT075 SCT200 18/13 A3026 RMK AO2 SLP245 T01780133 50004 (DTU),,,,,,,,,,,,,,,,,,,,,,,,,,,,2009-06-10
72208013880,2018-11-24T09:56:00,FM-15,7,,SE,0.25,mi,"TEMP, PRECIP, SNOW",,,"MMTS, SRG, SNOWBOARD",,,WFO CHS,,,,,,,,,,,,,,,,,,,,,,,,,,,29.85,59,60,0.00,BR:1 ||,-0.00,0,96,29.84,VV:09 2,29.80,0.75,59,340,,9,,,,,,,,,,,,,,,,,,,,,,,,,,,,,,,,,,,,,MET13111/24/18 09:56:02 METAR KCHS 241456Z 34008KT 3/4SM R15/3000V5500FT BR VV002 16/15 A2985 RMK AO2 SLP106 60019 T01560150 50000 $ (MH),,,,,,,,,,,,,,,,,,,,,,,,,,,,2009-06-10
72208013880,2018-11-27T09:56:00,FM-15,7,,SE,0.25,mi,"TEMP, PRECIP, SNOW",,,"MMTS, SRG, SNOWBOARD",,,WFO CHS,,,,,,,,,,,,,,,,,,,,,,,,,,,29.91,33,41,0.00,,-0.00,0,73,29.90,BKN:07 250,29.86,10.00,38,280,,8,,,,,,,,,,,,,,,,,,,,,,,,,,,,,,,,,,,,,MET10511/27/18 09:56:02 METAR KCHS 271456Z 28007KT 10SM BKN250 05/01 A2991 RMK AO2 SLP126 T00500006 50001 (JMB),,,,,,,,,,,,,,,,,,,,,,,,,,,,2009-06-10
72208013880,2018-11-28T09:56:00,FM-15,7,,SE,0.25,mi,"TEMP, PRECIP, SNOW",,,"MMTS, SRG, SNOWBOARD",,,WFO CHS,,,,,,,,,,,,,,,,,,,,,,,,,,,30.06,21,36,0.00,,-0.02,0,55,30.06,FEW:02 200,30.01,10.00,31,310,,13,,,,,,,,,,,,,,,,,,,,,,,,,,,,,,,,,,,,,MET10611/28/18 09:56:02 METAR KCHS 281456Z 31011KT 10SM FEW200 02/M06 A3006 RMK AO2 SLP178 T00221061 50006 (JMB),,,,,,,,,,,,,,,,,,,,,,,,,,,,2009-06-10
72208013880,2018-12-09T09:56:00,FM-15,7,,SE,0.25,mi,"TEMP, PRECIP, SNOW",,,"MMTS, SRG, SNOWBOARD",,,WFO CHS,,,,,,,,,,,,,,,,,,,,,,,,,,,29.90,48,49,0.02,RA:02 BR:1 |RA |RA,+0.11,8,97,29.90,OVC:08 5,29.85,6.00,48,070,23,14,,,,,,,,,,,,,,,,,,,,,,,,,,,,,,,,,,,,,MET14012/09/18 09:56:02 METAR KCHS 091456Z 07012G20KT 6SM RA BR OVC005 09/09 A2990 RMK AO2 RAE15B26 PRESFR SLP124 P0002 60007 T00940089 58037 (MH),,,,,,,,,,,,,,,,,,,,,,,,,,,,2009-06-10
72208013880,2018-12-09T10:00:00,FM-12,4,,SE,0.25,mi,"TEMP, PRECIP, SNOW",,,"MMTS, SRG, SNOWBOARD",,,WFO CHS,,,,,,,,,,,,,,,,,,,,,,,,,,,29.90,48,49,,||RA,+0.11,8,97,29.90,5,29.85,5.59,48,070,,14,,,,,,,,,,,,,,,,,,,,,,,,,,,,,,,,,,,,,SYN09272208 11259 80712 10094 20089 30109 40124 58037 60027 763// 91456 333 91020 96010 555 90915=,,,,,,,,,,,,,,,,,,,,,,,,,,,,2009-06-10
72208013880,2018-12-13T09:56:00,FM-15,7,,SE,0.25,mi,"TEMP, PRECIP, SNOW",,,"MMTS, SRG, SNOWBOARD",,,WFO CHS,,,,,,,,,,,,,,,,,,,,,,,,,,,30.31,45,51,0.00,,-0.02,0,80,30.31,BKN:07 200,30.26,10.00,48,060,,3,,,,,,,,,,,,,,,,,,,,,,,,,,,,,,,,,,,,,MET09912/13/18 09:56:02 METAR KCHS 131456Z 06003KT 10SM BKN200 11/07 A3031 RMK AO2 SLP263 T01060072 50008,,,,,,,,,,,,,,,,,,,,,,,,,,,,2009-06-10
72208013880,2018-12-20T09:56:00,FM-15,7,,SE,0.25,mi,"TEMP, PRECIP, SNOW",,,"MMTS, SRG, SNOWBOARD",,,WFO CHS,,,,,,,,,,,,,,,,,,,,,,,,,,,29.83,59,62,0.02,-RA:02 BR:1 |RA |RA,+0.03,8,90,29.82,SCT:04 15 BKN:07 30 OVC:08 40,29.78,4.00,60,130,,3,,,,,,,,,,,,,,,,,,,,,,,,,,,,,,,,,,,,,MET14712/20/18 09:56:02 METAR KCHS 201456Z 13003KT 4SM -RA BR SCT015 BKN030 OVC040 17/15 A2983 RMK AO2 SLP099 SCT V BKN P0002 60021 T01670150 58010 (JMB),,,,,,,,,,,,,,,,,,,,,,,,,,,,2009-06-10
72208013880,2018-12-20T10:00:00,FM-12,4,,SE,0.25,mi,"TEMP, PRECIP, SNOW",,,"MMTS, SRG, SNOWBOARD",,,WFO CHS,,,,,,,,,,,,,,,,,,,,,,,,,,,29.83,59,62,,||RA,+0.03,8,90,29.82,15,29.78,3.73,60,130,,3,,,,,,,,,,,,,,,,,,,,,,,,,,,,,,,,,,,,,SYN08672208 11456 81303 10167 20150 30086 40099 58010 60057 761// 91456 333 96010 555 92015=,,,,,,,,,,,,,,,,,,,,,,,,,,,,2009-06-10
72208013880,2018-12-28T09:56:00,FM-15,7,,SE,0.25,mi,"TEMP, PRECIP, SNOW",,,"MMTS, SRG, SNOWBOARD",,,WFO CHS,,,,,,,,,,,,,,,,,,,,,,,,,,,30.14,68,71,0.00,,-0.04,0,90,30.14,BKN:07 9 BKN:07 20,30.09,7.00,69,210,,15,,,,,,,,,,,,,,,,,,,,,,,,,,,,,,,,,,,,,MET11712/28/18 09:56:02 METAR KCHS 281456Z 21013KT 7SM BKN009 BKN020 22/20 A3014 RMK AO2 SLP205 60005 T02170200 50013 (JMB),,,,,,,,,,,,,,,,,,,,,,,,,,,,2009-06-10
72208013880,2018-12-30T09:56:00,FM-15,7,,SE,0.25,mi,"TEMP, PRECIP, SNOW",,,"MMTS, SRG, SNOWBOARD",,,WFO CHS,,,,,,,,,,,,,,,,,,,,,,,,,,,30.20,58,60,T,-RA:02 |RA |RA,-0.02,0,93,30.20,FEW:02 9 SCT:04 17 BKN:07 28,30.15,9.00,59,040,,5,,,,,,,,,,,,,,,,,,,,,,,,,,,,,,,,,,,,,MET14012/30/18 09:56:02 METAR KCHS 301456Z 04004KT 9SM -RA FEW009 SCT017 BKN028 16/14 A3020 RMK AO2 RAB25 SLP226 P0000 60000 T01560144 50007 (MBT),,,,,,,,,,,,,,,,,,,,,,,,,,,,2009-06-10
