STATION,DATE,REPORT_TYPE,SOURCE,AWND,BackupDirection,BackupDistance,BackupDistanceUnit,BackupElements,BackupElevation,BackupElevationUnit,BackupEquipment,BackupLatitude,BackupLongitude,BackupName,CDSD,CLDD,DSNW,DailyAverageDewPointTemperature,DailyAverageDryBulbTemperature,DailyAverageRelativeHumidity,DailyAverageSeaLevelPressure,DailyAverageStationPressure,DailyAverageWetBulbTemperature,DailyAverageWindSpeed,DailyCoolingDegreeDays,DailyDepartureFromNormalAverageTemperature,DailyHeatingDegreeDays,DailyMaximumDryBulbTemperature,DailyMinimumDryBulbTemperature,DailyPeakWindDirection,DailyPeakWindSpeed,DailyPrecipitation,DailySnowDepth,DailySnowfall,DailySustainedWindDirection,DailySustainedWindSpeed,DailyWeather,HDSD,HTDD,HeavyFog,HourlyAltimeterSetting,HourlyDewPointTemperature,HourlyDryBulbTemperature,HourlyPrecipitation,HourlyPresentWeatherType,HourlyPressureChange,HourlyPressureTendency,HourlyRelativeHumidity,HourlySeaLevelPressure,HourlySkyConditions,HourlyStationPressure,HourlyVisibility,HourlyWetBulbTemperature,HourlyWindDirection,HourlyWindGustSpeed,HourlyWindSpeed,MonthlyAverageRH,MonthlyDaysWithGT001Precip,MonthlyDaysWithGT010Precip,MonthlyDaysWithGT32Temp,MonthlyDaysWithGT90Temp,MonthlyDaysWithLT0Temp,MonthlyDaysWithLT32Temp,MonthlyDepartureFromNormalAverageTemperature,MonthlyDepartureFromNormalCoolingDegreeDays,MonthlyDepartureFromNormalHeatingDegreeDays,MonthlyDepartureFromNormalMaximumTemperature,MonthlyDepartureFromNormalMinimumTemperature,MonthlyDepartureFromNormalPrecipitation,MonthlyDewpointTemperature,MonthlyGreatestPrecip,MonthlyGreatestPrecipDate,MonthlyGreatestSnowDepth,MonthlyGreatestSnowDepthDate,MonthlyGreatestSnowfall,MonthlyGreatestSnowfallDate,MonthlyMaxSeaLevelPressureValue,MonthlyMaxSeaLevelPressureValueDate,MonthlyMaxSeaLevelPressureValueTime,MonthlyMaximumTemperature,MonthlyMeanTemperature,MonthlyMinSeaLevelPressureValue,MonthlyMinSeaLevelPressureValueDate,MonthlyMinSeaLevelPressureValueTime,MonthlyMinimumTemperature,MonthlySeaLevelPressure,MonthlyStationPressure,MonthlyTotalLiquidPrecipitation,MonthlyTotalSnowfall,MonthlyWetBulb,NormalsCoolingDegreeDay,NormalsHeatingDegreeDay,REM,ShortDurationEndDate005,ShortDurationEndDate010,ShortDurationEndDate015,ShortDurationEndDate020,ShortDurationEndDate030,ShortDurationEndDate045,ShortDurationEndDate060,ShortDurationEndDate080,ShortDurationEndDate100,ShortDurationEndDate120,ShortDurationEndDate150,ShortDurationEndDate180,ShortDurationPrecipitationValue005,ShortDurationPrecipitationValue010,ShortDurationPrecipitationValue015,ShortDurationPrecipitationValue020,ShortDurationPrecipitationValue030,ShortDurationPrecipitationValue045,ShortDurationPrecipitationValue060,ShortDurationPrecipitationValue080,ShortDurationPrecipitationValue100,ShortDurationPrecipitationValue120,ShortDurationPrecipitationValue150,ShortDurationPrecipitationValue180,Sunrise,Sunset,TStorms,WindEquipmentChangeDate
72208013880,2000-01-01T15:00:00,FM-15,C,,SE,0.25,mi,"TEMP, PRECIP, SNOW",,,"MMTS, SRG, SNOWBOARD",,,WFO CHS,,,,,,,,,,,,,,,,,,,,,,,,,,,30.21,57,69,0,,,,66,30.21,,,9.94,,150,,7,,,,,,,,,,,,,,,,,,,,,,,,,,,,,,,,,,,,,MET070KCHS 011956Z 15006KT 10SM BKN110 21/14 A3021 RMK AO2 SLP230 T02060139;,,,,,,,,,,,,,,,,,,,,,,,,,,,,
72208013880,2000-01-03T17:00:00,FM-15,C,,SE,0.25,mi,"TEMP, PRECIP, SNOW",,,"MMTS, SRG, SNOWBOARD",,,WFO CHS,,,,,,,,,,,,,,,,,,,,,,,,,,,30.15,58,70,0,,,,66,30.15,,,9.94,,170,,10,,,,,,,,,,,,,,,,,,,,,,,,,,,,,,,,,,,,,MET069KCHS 032156Z 17009KT 10SM CLR 21/14 A3015 RMK AO2 SLP209 T02110144 $;,,,,,,,,,,,,,,,,,,,,,,,,,,,,
72208013880,2000-01-09T12:00:00,FM-15,C,,SE,0.25,mi,"TEMP, PRECIP, SNOW",,,"MMTS, SRG, SNOWBOARD",,,WFO CHS,,,,,,,,,,,,,,,,,,,,,,,,,,,30.11,55,63,0,,,,75,30.11,,,9.94,,170,,7,,,,,,,,,,,,,,,,,,,,,,,,,,,,,,,,,,,,,MET070KCHS 091656Z 17006KT 10SM BKN039 17/13 A3011 RMK AO2 SLP195 T01720128;,,,,,,,,,,,,,,,,,,,,,,,,,,,,
72208013880,2000-01-09T12:56:00,FM-15,4,,SE,0.25,mi,"TEMP, PRECIP, SNOW",,,"MMTS, SRG, SNOWBOARD",,,WFO CHS,,,,,,,,,,,,,,,,,,,,,,,,,,,30.07,59,68,,,0.07,8,73,30.07,,,10,,170,,8,,,,,,,,,,,,,,,,,,,,,,,,,,,,,,,,,,,,,MET099KCHS 091756Z COR 17007KT 10SM FEW028 BKN034 20/15 A3007 RMK AO2 SLP182 T02000150 10200 20078 58025;,,,,,,,,,,,,,,,,,,,,,,,,,,,,
72208013880,2000-01-09T13:00:00,SY-MT,C,,SE,0.25,mi,"TEMP, PRECIP, SNOW",,,"MMTS, SRG, SNOWBOARD",,,WFO CHS,,,,,,,,,,,,,,,,,,,,,,,,,,,30.07,59,68,0,,0.07,8,73,30.07,,30.02,9.94,63,170,,8,,,,,,,,,,,,,,,,,,,,,,,,,,,,,,,,,,,,,SYN092AAXX  09184 72208 32566 61707 10200 20150 30167 40182 58025 91756 333 10200 20078 555 90918;,,,,,,,,,,,,,,,,,,,,,,,,,,,,
72208013880,2000-01-09T13:27:00,FM-16,4,,SE,0.25,mi,"TEMP, PRECIP, SNOW",,,"MMTS, SRG, SNOWBOARD",,,WFO CHS,,,,,,,,,,,,,,,,,,,,,,,,,,,30.05,61,70,,,,,73,,,,10,,170,,11,,,,,,,,,,,,,,,,,,,,,,,,,,,,,,,,,,,,,MET060KCHS 091827Z 17010KT 10SM BKN028 OVC034 21/16 A3005 RMK AO2;,,,,,,,,,,,,,,,,,,,,,,,,,,,,
72208013880,2000-01-09T13:48:00,FM-16,4,,SE,0.25,mi,"TEMP, PRECIP, SNOW",,,"MMTS, SRG, SNOWBOARD",,,WFO CHS,,,,,,,,,,,,,,,,,,,,,,,,,,,30.04,61,70,,,,,73,,,,10,,160,,13,,,,,,,,,,,,,,,,,,,,,,,,,,,,,,,,,,,,,MET053KCHS 091848Z 16011KT 10SM BKN026 21/16 A3004 RMK AO2;,,,,,,,,,,,,,,,,,,,,,,,,,,,,
72208013880,2000-01-09T14:00:00,FM-15,C,,SE,0.25,mi,"TEMP, PRECIP, SNOW",,,"MMTS, SRG, SNOWBOARD",,,WFO CHS,,,,,,,,,,,,,,,,,,,,,,,,,,,30.04,61,70,0,,,,73,30.03,,,9.94,,170,,9,,,,,,,,,,,,,,,,,,,,,,,,,,,,,,,,,,,,,MET070KCHS 091856Z 17008KT 10SM BKN026 21/16 A3004 RMK AO2 SLP171 T02110161;,,,,,,,,,,,,,,,,,,,,,,,,,,,,
72208013880,2000-01-09T17:00:00,FM-15,C,,SE,0.25,mi,"TEMP, PRECIP, SNOW",,,"MMTS, SRG, SNOWBOARD",,,WFO CHS,,,,,,,,,,,,,,,,,,,,,,,,,,,30.02,63,64,0,,,,96,30.01,,,7.95,,170,,12,,,,,,,,,,,,,,,,,,,,,,,,,,,,,,,,,,,,,MET069KCHS 092156Z 17010KT 8SM FEW013 18/17 A3002 RMK AO2 SLP164 T01780172;,,,,,,,,,,,,,,,,,,,,,,,,,,,,
72208013880,2000-01-12T14:00:00,FM-15,C,,SE,0.25,mi,"TEMP, PRECIP, SNOW",,,"MMTS, SRG, SNOWBOARD",,,WFO CHS,,,,,,,,,,,,,,,,,,,,,,,,,,,30.22,41,71,0,,,,34,30.22,,,9.94,,150,,9,,,,,,,,,,,,,,,,,,,,,,,,,,,,,,,,,,,,,MET067KCHS 121856Z 15008KT 10SM CLR 22/05 A3022 RMK AO2 SLP234 T02170050;,,,,,,,,,,,,,,,,,,,,,,,,,,,,
72208013880,2000-01-12T15:00:00,FM-15,C,,SE,0.25,mi,"TEMP, PRECIP, SNOW",,,"MMTS, SRG, SNOWBOARD",,,WFO CHS,,,,,,,,,,,,,,,,,,,,,,,,,,,30.21,42,71,0,,,,35,30.21,,,9.94,,170,,9,,,,,,,,,,,,,,,,,,,,,,,,,,,,,,,,,,,,,MET067KCHS 121956Z 17008KT 10SM CLR 22/06 A3021 RMK AO2 SLP230 T02170056;,,,,,,,,,,,,,,,,,,,,,,,,,,,,
72208013880,2000-01-12T17:00:00,FM-15,C,,SE,0.25,mi,"TEMP, PRECIP, SNOW",,,"MMTS, SRG, SNOWBOARD",,,WFO CHS,,,,,,,,,,,,,,,,,,,,,,,,,,,30.2,45,65,0,,,,49,30.2,,,9.94,,170,,9,,,,,,,,,,,,,,,,,,,,,,,,,,,,,,,,,,,,,MET067KCHS 122156Z 17008KT 10SM CLR 18/07 A3020 RMK AO2 SLP227 T01830072;,,,,,,,,,,,,,,,,,,,,,,,,,,,,
72208013880,2000-01-15T16:00:00,FM-15,C,,SE,0.25,mi,"TEMP, PRECIP, SNOW",,,"MMTS, SRG, SNOWBOARD",,,WFO CHS,,,,,,,,,,,,,,,,,,,,,,,,,,,30.62,28,51,0,,0.06,6,41,30.62,,,9.94,,150,,10,,,,,,,,,,,,,,,,,,,,,,,,,,,,,,,,,,,,,MET074KCHS 152056Z 15009KT 10SM CLR 11/M02 A3062 RMK AO2 SLP370 T01061022 56019;,,,,,,,,,,,,,,,,,,,,,,,,,,,,
72208013880,2000-01-15T17:00:00,FM-15,C,,SE,0.25,mi,"TEMP, PRECIP, SNOW",,,"MMTS, SRG, SNOWBOARD",,,WFO CHS,,,,,,,,,,,,,,,,,,,,,,,,,,,30.62,30,49,0,,,,48,30.62,,,9.94,,160,,9,,,,,,,,,,,,,,,,,,,,,,,,,,,,,,,,,,,,,MET068KCHS 152156Z 16008KT 10SM CLR 09/M01 A3062 RMK AO2 SLP370 T00941011;,,,,,,,,,,,,,,,,,,,,,,,,,,,,
72208013880,2000-01-17T17:00:00,FM-15,C,,SE,0.25,mi,"TEMP, PRECIP, SNOW",,,"MMTS, SRG, SNOWBOARD",,,WFO CHS,,,,,,,,,,,,,,,,,,,,,,,,,,,30.34,36,51,0,,,,56,30.33,,,9.94,,160,,7,,,,,,,,,,,,,,,,,,,,,,,,,,,,,,,,,,,,,MET067KCHS 172156Z 16006KT 10SM CLR 11/02 A3034 RMK AO2 SLP272 T01060022;,,,,,,,,,,,,,,,,,,,,,,,,,,,,
72208013880,2000-01-19T16:00:00,FM-15,C,,SE,0.25,mi,"TEMP, PRECIP, SNOW",,,"MMTS, SRG, SNOWBOARD",,,WFO CHS,,,,,,,,,,,,,,,,,,,,,,,,,,,30.03,40,48,0,,0.05,6,74,30.02,,,6.96,,160,,10,,,,,,,,,,,,,,,,,,,,,,,,,,,,,,,,,,,,,MET072KCHS 192056Z 16009KT 7SM CLR 09/04 A3003 RMK AO2 SLP167 T00890044 56017;,,,,,,,,,,,,,,,,,,,,,,,,,,,,
72208013880,2000-02-06T16:00:00,SY-MT,C,,SE,0.25,mi,"TEMP, PRECIP, SNOW",,,"MMTS, SRG, SNOWBOARD",,,WFO CHS,,,,,,,,,,,,,,,,,,,,,,,,,,,30.37,29,54,0,,0.05,5,38,30.37,,30.32,6.96,43,150,,9,,,,,,,,,,,,,,,,,,,,,,,,,,,,,,,,,,,,,SYN076AAXX  06214 72208 35961 01508 10122 21017 30268 40283 55016 92056 555 90621;MET073KCHS 062056Z 15008KT 7SM CLR 12/M02 A3037 RMK AO2 SLP283 T01221017 55016;,,,,,,,,,,,,,,,,,,,,,,,,,,,,
72208013880,2000-02-15T16:00:00,FM-15,C,,SE,0.25,mi,"TEMP, PRECIP, SNOW",,,"MMTS, SRG, SNOWBOARD",,,WFO CHS,,,,,,,,,,,,,,,,,,,,,,,,,,,30.21,43,59,0,,0.03,5,56,30.2,,,9.94,,160,,12,,,,,,,,,,,,,,,,,,,,,,,,,,,,,,,,,,,,,MET075KCHS 152056Z 16010KT 10SM CLR 15/06 A3021 RMK AO2 SLP227 T01500061 55011 $;,,,,,,,,,,,,,,,,,,,,,,,,,,,,
72208013880,2000-02-15T17:00:00,FM-15,C,,SE,0.25,mi,"TEMP, PRECIP, SNOW",,,"MMTS, SRG, SNOWBOARD",,,WFO CHS,,,,,,,,,,,,,,,,,,,,,,,,,,,30.23,42,55,0,,,,62,30.22,,,9.94,,170,,14,,,,,,,,,,,,,,,,,,,,,,,,,,,,,,,,,,,,,MET067KCHS 152156Z 17012KT 10SM CLR 13/06 A3023 RMK AO2 SLP235 T01280056;,,,,,,,,,,,,,,,,,,,,,,,,,,,,
72208013880,2000-02-23T15:00:00,FM-15,E,,SE,0.25,mi,"TEMP, PRECIP, SNOW",,,"MMTS, SRG, SNOWBOARD",,,WFO CHS,,,,,,,,,,,,,,,,,,,,,,,,,,,30.4,53,68,0,,,,59,30.39,,,9.94,,150,,13,,,,,,,,,,,,,,,,,,,,,,,,,,,,,,,,,,,,,,,,,,,,,,,,,,,,,,,,,,,,,,,,,
72208013880,2000-02-24T13:00:00,SY-MT,C,,SE,0.25,mi,"TEMP, PRECIP, SNOW",,,"MMTS, SRG, SNOWBOARD",,,WFO CHS,,,,,,,,,,,,,,,,,,,,,,,,,,,30.37,50,71,0,,0.05,8,47,30.36,,30.32,9.94,59,150,,8,,,,,,,,,,,,,,,,,,,,,,,,,,,,,,,,,,,,,SYN076AAXX  24184 72208 32666 41507 10217 20100 30268 40282 58017 91756 555 92418;MET096KCHS 241756Z 15007KT 080V210 10SM SCT046 22/10 A3037 RMK AO2 SLP282 T02170100 10222 20089 58017;,,,,,,,,,,,,,,,,,,,,,,,,,,,,
72208013880,2000-02-24T14:00:00,FM-15,C,,SE,0.25,mi,"TEMP, PRECIP, SNOW",,,"MMTS, SRG, SNOWBOARD",,,WFO CHS,,,,,,,,,,,,,,,,,,,,,,,,,,,30.34,51,73,0,,,,46,30.34,,,9.94,,150,,9,,,,,,,,,,,,,,,,,,,,,,,,,,,,,,,,,,,,,MET070KCHS 241856Z 15008KT 10SM BKN050 23/11 A3034 RMK AO2 SLP273 T02280106;,,,,,,,,,,,,,,,,,,,,,,,,,,,,
72208013880,2000-02-25T15:00:00,FM-15,C,,SE,0.25,mi,"TEMP, PRECIP, SNOW",,,"MMTS, SRG, SNOWBOARD",,,WFO CHS,,,,,,,,,,,,,,,,,,,,,,,,,,,30.28,51,75,0,,,,43,30.28,,,9.94,,150,,10,,,,,,,,,,,,,,,,,,,,,,,,,,,,,,,,,,,,,MET066KCHS 251956Z 15009KT 10SM CLR 24/11 A3028 RMK AO2 SLP23 T02390106;,,,,,,,,,,,,,,,,,,,,,,,,,,,,
72208013880,2000-02-25T16:00:00,FM-15,C,,SE,0.25,mi,"TEMP, PRECIP, SNOW",,,"MMTS, SRG, SNOWBOARD",,,WFO CHS,,,,,,,,,,,,,,,,,,,,,,,,,,,30.27,49,74,0,,0.04,6,41,30.27,,,9.94,,150,,12,,,,,,,,,,,,,,,,,,,,,,,,,,,,,,,,,,,,,MET076KCHS 252056Z 15010KT 10SM FEW070 23/09 A3027 RMK AO2 SLP251 T02330094 56014;,,,,,,,,,,,,,,,,,,,,,,,,,,,,
72208013880,2000-02-26T11:00:00,FM-15,E,,SE,0.25,mi,"TEMP, PRECIP, SNOW",,,"MMTS, SRG, SNOWBOARD",,,WFO CHS,,,,,,,,,,,,,,,,,,,,,,,,,,,30.36,60,69,0,,,,73,30.35,,,9.94,,150,,12,,,,,,,,,,,,,,,,,,,,,,,,,,,,,,,,,,,,,,,,,,,,,,,,,,,,,,,,,,,,,,,,,
72208013880,2000-02-26T16:00:00,FM-15,C,,SE,0.25,mi,"TEMP, PRECIP, SNOW",,,"MMTS, SRG, SNOWBOARD",,,WFO CHS,,,,,,,,,,,,,,,,,,,,,,,,,,,30.3,57,70,0,,0.05,6,64,30.29,,,9.94,,150,,10,,,,,,,,,,,,,,,,,,,,,,,,,,,,,,,,,,,,,MET082KCHS 262056Z 15009KT 10SM SCT034 21/14 A3030 RMK AO2 SLP258 60000 T02110139 56018;,,,,,,,,,,,,,,,,,,,,,,,,,,,,
72208013880,2000-02-26T17:00:00,FM-15,C,,SE,0.25,mi,"TEMP, PRECIP, SNOW",,,"MMTS, SRG, SNOWBOARD",,,WFO CHS,,,,,,,,,,,,,,,,,,,,,,,,,,,30.29,56,71,0,,,,59,30.29,,,9.94,,150,,9,,,,,,,,,,,,,,,,,,,,,,,,,,,,,,,,,,,,,MET070KCHS 262156Z 15008KT 10SM SCT034 22/13 A3029 RMK AO2 SLP257 T02170133;,,,,,,,,,,,,,,,,,,,,,,,,,,,,
72208013880,2000-02-29T16:00:00,FM-15,C,,SE,0.25,mi,"TEMP, PRECIP, SNOW",,,"MMTS, SRG, SNOWBOARD",,,WFO CHS,,,,,,,,,,,,,,,,,,,,,,,,,,,30.22,36,69,0,,0.06,6,30,30.22,,,9.94,,150,,12,,,,,,,,,,,,,,,,,,,,,,,,,,,,,,,,,,,,,MET075KCHS 292056Z 15010KT 10SM CLR 21/02 A3022 RMK AO2 SLP233 T02060022 56020 $;,,,,,,,,,,,,,,,,,,,,,,,,,,,,
72208013880,2000-02-29T17:00:00,FM-15,C,,SE,0.25,mi,"TEMP, PRECIP, SNOW",,,"MMTS, SRG, SNOWBOARD",,,WFO CHS,,,,,,,,,,,,,,,,,,,,,,,,,,,30.22,34,67,0,,,,30,30.22,,,9.94,,160,,12,,,,,,,,,,,,,,,,,,,,,,,,,,,,,,,,,,,,,MET069KCHS 292156Z 16010KT 10SM CLR 19/01 A3022 RMK AO2 SLP233 T01940011 $;,,,,,,,,,,,,,,,,,,,,,,,,,,,,
72208013880,2000-03-03T16:00:00,FM-15,C,,SE,0.25,mi,"TEMP, PRECIP, SNOW",,,"MMTS, SRG, SNOWBOARD",,,WFO CHS,,,,,,,,,,,,,,,,,,,,,,,,,,,29.91,42,66,0,,0.07,6,42,29.91,,,9.94,,150,,10,,,,,,,,,,,,,,,,,,,,,,,,,,,,,,,,,,,,,MET073KCHS 032056Z 15009KT 10SM CLR 19/06 A2991 RMK AO2 SLP127 T01890056 56024;,,,,,,,,,,,,,,,,,,,,,,,,,,,,
72208013880,2000-03-03T17:00:00,FM-15,C,,SE,0.25,mi,"TEMP, PRECIP, SNOW",,,"MMTS, SRG, SNOWBOARD",,,WFO CHS,,,,,,,,,,,,,,,,,,,,,,,,,,,29.9,43,62,0,,,,50,29.9,,,9.94,,150,,10,,,,,,,,,,,,,,,,,,,,,,,,,,,,,,,,,,,,,MET067KCHS 032156Z 15009KT 10SM CLR 17/06 A2990 RMK AO2 SLP124 T01670061;,,,,,,,,,,,,,,,,,,,,,,,,,,,,
72208013880,2000-03-04T11:00:00,FM-15,C,,SE,0.25,mi,"TEMP, PRECIP, SNOW",,,"MMTS, SRG, SNOWBOARD",,,WFO CHS,,,,,,,,,,,,,,,,,,,,,,,,,,,29.75,60,63,0,,,,90,29.75,,,6.96,,160,,10,,,,,,,,,,,,,,,,,,,,,,,,,,,,,,,,,,,,,MET088KCHS 041556Z 16009KT 7SM BKN008 OVC013 17/16 A2975 RMK AO2 CIG 006V011 SLP073 T01720156;,,,,,,,,,,,,,,,,,,,,,,,,,,,,
72208013880,2000-03-04T11:23:00,FM-16,4,,SE,0.25,mi,"TEMP, PRECIP, SNOW",,,"MMTS, SRG, SNOWBOARD",,,WFO CHS,,,,,,,,,,,,,,,,,,,,,,,,,,,29.73,61,64,,,,,88,,,,8,,150,,9,,,,,,,,,,,,,,,,,,,,,,,,,,,,,,,,,,,,,MET052KCHS 041623Z 15008KT 8SM OVC011 18/16 A2973 RMK AO2;,,,,,,,,,,,,,,,,,,,,,,,,,,,,
72208013880,2000-03-05T17:00:00,FM-15,C,,SE,0.25,mi,"TEMP, PRECIP, SNOW",,,"MMTS, SRG, SNOWBOARD",,,WFO CHS,,,,,,,,,,,,,,,,,,,,,,,,,,,29.98,47,67,0,,,,49,29.98,,,9.94,,170,,13,,,,,,,,,,,,,,,,,,,,,,,,,,,,,,,,,,,,,MET067KCHS 052156Z 17011KT 10SM CLR 19/08 A2998 RMK AO2 SLP153 T01940083;,,,,,,,,,,,,,,,,,,,,,,,,,,,,
72208013880,2000-03-07T12:00:00,FM-15,C,,SE,0.25,mi,"TEMP, PRECIP, SNOW",,,"MMTS, SRG, SNOWBOARD",,,WFO CHS,,,,,,,,,,,,,,,,,,,,,,,,,,,30.33,43,73,0,,,,34,30.33,,,9.94,,170,,7,,,,,,,,,,,,,,,,,,,,,,,,,,,,,,,,,,,,,MET067KCHS 071656Z 17006KT 10SM CLR 23/06 A3033 RMK AO2 SLP271 T02280061;,,,,,,,,,,,,,,,,,,,,,,,,,,,,
72208013880,2000-03-07T12:56:00,FM-15,4,,SE,0.25,mi,"TEMP, PRECIP, SNOW",,,"MMTS, SRG, SNOWBOARD",,,WFO CHS,,,,,,,,,,,,,,,,,,,,,,,,,,,30.3,46,75,,,0.05,8,36,30.3,,,10,,170,,11,,,,,,,,,,,,,,,,,,,,,,,,,,,,,,,,,,,,,MET085KCHS 071756Z 17010KT 10SM CLR 24/08 A3030 RMK AO2 SLP261 T02390083 10239 20078 58016;,,,,,,,,,,,,,,,,,,,,,,,,,,,,
72208013880,2000-03-07T13:00:00,SY-MT,C,,SE,0.25,mi,"TEMP, PRECIP, SNOW",,,"MMTS, SRG, SNOWBOARD",,,WFO CHS,,,,,,,,,,,,,,,,,,,,,,,,,,,30.3,47,75,0,,0.05,8,37,30.3,CLR:00,30.25,9.94,59,170,,12,,,,,,,,,,,,,,,,,,,,,,,,,,,,,,,,,,,,,SYN076AAXX  07184 72208 32966 01710 10239 20083 30244 40261 58016 91756 555 90718;,,,,,,,,,,,,,,,,,,,,,,,,,,,,
72208013880,2000-03-07T15:00:00,FM-15,C,,SE,0.25,mi,"TEMP, PRECIP, SNOW",,,"MMTS, SRG, SNOWBOARD",,,WFO CHS,,,,,,,,,,,,,,,,,,,,,,,,,,,30.26,47,76,0,,,,36,30.25,,,9.94,,160,,13,,,,,,,,,,,,,,,,,,,,,,,,,,,,,,,,,,,,,MET067KCHS 071956Z 16011KT 10SM CLR 24/08 A3026 RMK AO2 SLP245 T02440083;,,,,,,,,,,,,,,,,,,,,,,,,,,,,
72208013880,2000-03-07T16:00:00,FM-15,C,,SE,0.25,mi,"TEMP, PRECIP, SNOW",,,"MMTS, SRG, SNOWBOARD",,,WFO CHS,,,,,,,,,,,,,,,,,,,,,,,,,,,30.24,49,74,0,,0.06,6,41,30.24,,,9.94,,160,,16,,,,,,,,,,,,,,,,,,,,,,,,,,,,,,,,,,,,,MET073KCHS 072056Z 16014KT 10SM CLR 23/09 A3024 RMK AO2 SLP240 T02330094 56022;,,,,,,,,,,,,,,,,,,,,,,,,,,,,
72208013880,2000-03-14T15:00:00,FM-15,C,,SE,0.25,mi,"TEMP, PRECIP, SNOW",,,"MMTS, SRG, SNOWBOARD",,,WFO CHS,,,,,,,,,,,,,,,,,,,,,,,,,,,30.26,40,62,0,,,,44,30.25,,,9.94,,170,,14,,,,,,,,,,,,,,,,,,,,,,,,,,,,,,,,,,,,,MET067KCHS 141956Z 17012KT 10SM CLR 17/04 A3026 RMK AO2 SLP244 T01670044;,,,,,,,,,,,,,,,,,,,,,,,,,,,,
72208013880,2000-03-15T15:00:00,FM-15,C,,SE,0.25,mi,"TEMP, PRECIP, SNOW",,,"MMTS, SRG, SNOWBOARD",,,WFO CHS,,,,,,,,,,,,,,,,,,,,,,,,,,,30.23,49,71,0,,,,46,30.22,,,9.94,,170,,13,,,,,,,,,,,,,,,,,,,,,,,,,,,,,,,,,,,,,MET067KCHS 151956Z 17011KT 10SM CLR 22/09 A3023 RMK AO2 SLP235 T02170094;,,,,,,,,,,,,,,,,,,,,,,,,,,,,
72208013880,2000-03-15T16:00:00,SY-MT,C,,SE,0.25,mi,"TEMP, PRECIP, SNOW",,,"MMTS, SRG, SNOWBOARD",,,WFO CHS,,,,,,,,,,,,,,,,,,,,,,,,,,,30.23,53,70,0,,0.05,5,55,30.23,,30.18,9.94,60,170,,10,,,,,,,,,,,,,,,,,,,,,,,,,,,,,,,,,,,,,SYN076AAXX  15214 72208 35966 01709 10211 20117 30221 40236 55016 92056 555 91521;MET073KCHS 152056Z 17009KT 10SM CLR 21/12 A3023 RMK AO2 SLP236 T02110117 55016;,,,,,,,,,,,,,,,,,,,,,,,,,,,,
72208013880,2000-03-15T17:00:00,FM-15,C,,SE,0.25,mi,"TEMP, PRECIP, SNOW",,,"MMTS, SRG, SNOWBOARD",,,WFO CHS,,,,,,,,,,,,,,,,,,,,,,,,,,,30.23,55,69,0,,,,61,30.23,,,9.94,,160,,12,,,,,,,,,,,,,,,,,,,,,,,,,,,,,,,,,,,,,MET067KCHS 152156Z 16010KT 10SM CLR 21/13 A3023 RMK AO2 SLP237 T02060128;,,,,,,,,,,,,,,,,,,,,,,,,,,,,
72208013880,2000-03-16T17:00:00,FM-15,C,,SE,0.25,mi,"TEMP, PRECIP, SNOW",,,"MMTS, SRG, SNOWBOARD",,,WFO CHS,,,,,,,,,,,,,,,,,,,,,,,,,,,29.97,67,70,0,,,,90,29.96,,,8.95,,170,,15,,,,,,,,,,,,,,,,,,,,,,,,,,,,,,,,,,,,,MET083KCHS 162156Z 17013KT 9SM BKN014 BKN021 OVC028 21/19 A2997 RMK AO2 SLP147 T02110194;,,,,,,,,,,,,,,,,,,,,,,,,,,,,
72208013880,2000-03-25T14:00:00,FM-15,C,,SE,0.25,mi,"TEMP, PRECIP, SNOW",,,"MMTS, SRG, SNOWBOARD",,,WFO CHS,,,,,,,,,,,,,,,,,,,,,,,,,,,30.08,55,76,0,,,,48,30.08,,,9.94,,150,,15,,,,,,,,,,,,,,,,,,,,,,,,,,,,,,,,,,,,,MET069KCHS 251856Z 15013KT 10SM CLR 24/13 A3008 RMK AO2 SLP186 T02440128 $;,,,,,,,,,,,,,,,,,,,,,,,,,,,,
72208013880,2000-03-25T15:00:00,FM-15,C,,SE,0.25,mi,"TEMP, PRECIP, SNOW",,,"MMTS, SRG, SNOWBOARD",,,WFO CHS,,,,,,,,,,,,,,,,,,,,,,,,,,,30.06,54,75,0,,,,48,30.05,,,9.94,,150,,12,,,,,,,,,,,,,,,,,,,,,,,,,,,,,,,,,,,,,MET069KCHS 251956Z 15010KT 10SM CLR 24/12 A3006 RMK AO2 SLP177 T02390122 $;,,,,,,,,,,,,,,,,,,,,,,,,,,,,
72208013880,2000-03-29T15:00:00,FM-15,C,,SE,0.25,mi,"TEMP, PRECIP, SNOW",,,"MMTS, SRG, SNOWBOARD",,,WFO CHS,,,,,,,,,,,,,,,,,,,,,,,,,,,29.91,50,70,0,,,,49,29.9,,,9.94,,170,,12,,,,,,,,,,,,,,,,,,,,,,,,,,,,,,,,,,,,,MET067KCHS 291956Z 17010KT 10SM CLR 21/10 A2991 RMK AO2 SLP126 T02110100;,,,,,,,,,,,,,,,,,,,,,,,,,,,,
72208013880,2000-03-29T16:00:00,FM-15,C,,SE,0.25,mi,"TEMP, PRECIP, SNOW",,,"MMTS, SRG, SNOWBOARD",,,WFO CHS,,,,,,,,,,,,,,,,,,,,,,,,,,,29.91,50,71,0,,0.01,5,47,29.91,,,9.94,,160,,12,,,,,,,,,,,,,,,,,,,,,,,,,,,,,,,,,,,,,MET073KCHS 292056Z 16010KT 10SM CLR 22/10 A2991 RMK AO2 SLP128 T02170100 55004;,,,,,,,,,,,,,,,,,,,,,,,,,,,,
72208013880,2000-03-29T17:00:00,FM-15,C,,SE,0.25,mi,"TEMP, PRECIP, SNOW",,,"MMTS, SRG, SNOWBOARD",,,WFO CHS,,,,,,,,,,,,,,,,,,,,,,,,,,,29.92,50,68,0,,,,53,29.91,,,9.94,,150,,9,,,,,,,,,,,,,,,,,,,,,,,,,,,,,,,,,,,,,MET067KCHS 292156Z 15008KT 10SM CLR 20/10 A2992 RMK AO2 SLP130 T02000100;,,,,,,,,,,,,,,,,,,,,,,,,,,,,
72208013880,2000-03-30T13:39:00,FM-16,4,,SE,0.25,mi,"TEMP, PRECIP, SNOW",,,"MMTS, SRG, SNOWBOARD",,,WFO CHS,,,,,,,,,,,,,,,,,,,,,,,,,,,29.86,63,64,,,,,94,,,,9,,150,,9,,,,,,,,,,,,,,,,,,,,,,,,,,,,,,,,,,,,,MET064KCHS 301839Z 15008KT 9SM BKN010 18/17 A2986 RMK AO2 CIG 007V015;,,,,,,,,,,,,,,,,,,,,,,,,,,,,
72208013880,2000-03-30T13:45:00,FM-15,4,,SE,0.25,mi,"TEMP, PRECIP, SNOW",,,"MMTS, SRG, SNOWBOARD",,,WFO CHS,,,,,,,,,,,,,,,,,,,,,,,,,,,29.86,63,64,,,,,94,,,,10,,170,,9,,,,,,,,,,,,,,,,,,,,,,,,,,,,,,,,,,,,,MET060KCHS 301845Z 17008KT 10SM SCT010 SCT013 18/17 A2986 RMK AO2;,,,,,,,,,,,,,,,,,,,,,,,,,,,,
72208013880,2000-04-10T12:56:00,FM-15,4,,SE,0.25,mi,"TEMP, PRECIP, SNOW",,,"MMTS, SRG, SNOWBOARD",,,WFO CHS,,,,,,,,,,,,,,,,,,,,,,,,,,,30.29,37,72,,,0.05,8,29,30.28,,,10,,160,,10,,,,,,,,,,,,,,,,,,,,,,,,,,,,,,,,,,,,,MET085KCHS 101756Z 16009KT 10SM CLR 22/03 A3029 RMK AO2 SLP255 T02170033 10222 20078 58016;,,,,,,,,,,,,,,,,,,,,,,,,,,,,
72208013880,2000-04-10T13:00:00,SY-MT,C,,SE,0.25,mi,"TEMP, PRECIP, SNOW",,,"MMTS, SRG, SNOWBOARD",,,WFO CHS,,,,,,,,,,,,,,,,,,,,,,,,,,,30.29,38,71,0,,0.05,8,30,30.28,CLR:00,30.24,9.94,54,160,,10,,,,,,,,,,,,,,,,,,,,,,,,,,,,,,,,,,,,,SYN092AAXX  10184 72208 32966 01609 10217 20033 30241 40255 58016 91756 333 10222 20078 555 91018;,,,,,,,,,,,,,,,,,,,,,,,,,,,,
72208013880,2000-04-10T14:00:00,FM-15,C,,SE,0.25,mi,"TEMP, PRECIP, SNOW",,,"MMTS, SRG, SNOWBOARD",,,WFO CHS,,,,,,,,,,,,,,,,,,,,,,,,,,,30.28,34,72,0,,,,25,30.28,,,9.94,,150,,14,,,,,,,,,,,,,,,,,,,,,,,,,,,,,,,,,,,,,MET067KCHS 101856Z 15012KT 10SM CLR 22/01 A3028 RMK AO2 SLP253 T02220011;,,,,,,,,,,,,,,,,,,,,,,,,,,,,
72208013880,2000-04-20T12:00:00,FM-15,C,,SE,0.25,mi,"TEMP, PRECIP, SNOW",,,"MMTS, SRG, SNOWBOARD",,,WFO CHS,,,,,,,,,,,,,,,,,,,,,,,,,,,30.09,57,76,0,,,,52,30.09,,,9.94,,160,,13,,,,,,,,,,,,,,,,,,,,,,,,,,,,,,,,,,,,,MET067KCHS 201656Z 16011KT 10SM CLR 24/14 A3009 RMK AO2 SLP188 T02440139;,,,,,,,,,,,,,,,,,,,,,,,,,,,,
72208013880,2000-04-20T12:30:00,FM-15,4,,SE,0.25,mi,"TEMP, PRECIP, SNOW",,,"MMTS, SRG, SNOWBOARD",,,WFO CHS,,,,,,,,,,,,,,,,,,,,,,,,,,,30.08,57,75,,,,,54,,,,10,,170,,11,,,,,,,,,,,,,,,,,,,,,,,,,,,,,,,,,,,,,MET061KCHS 201730Z 17010KT 10SM CLR 24/14 A3008 RMK AO2 WSHFT 1710;,,,,,,,,,,,,,,,,,,,,,,,,,,,,
72208013880,2000-04-20T13:00:00,SY-MT,C,,SE,0.25,mi,"TEMP, PRECIP, SNOW",,,"MMTS, SRG, SNOWBOARD",,,WFO CHS,,,,,,,,,,,,,,,,,,,,,,,,,,,30.09,55,76,0,,0.02,8,48,30.08,CLR:00,30.04,9.94,64,170,,13,,,,,,,,,,,,,,,,,,,,,,,,,,,,,,,,,,,,,SYN076AAXX  20184 72208 32966 01711 10244 20128 30173 40187 58006 91756 555 92018;,,,,,,,,,,,,,,,,,,,,,,,,,,,,
72208013880,2000-04-20T17:00:00,FM-15,C,,SE,0.25,mi,"TEMP, PRECIP, SNOW",,,"MMTS, SRG, SNOWBOARD",,,WFO CHS,,,,,,,,,,,,,,,,,,,,,,,,,,,29.99,52,74,0,,,,46,29.99,,,9.94,,170,,17,,,,,,,,,,,,,,,,,,,,,,,,,,,,,,,,,,,,,MET067KCHS 202156Z 17015KT 10SM CLR 23/11 A2999 RMK AO2 SLP156 T02330111;,,,,,,,,,,,,,,,,,,,,,,,,,,,,
72208013880,2000-04-24T15:00:00,FM-15,C,,SE,0.25,mi,"TEMP, PRECIP, SNOW",,,"MMTS, SRG, SNOWBOARD",,,WFO CHS,,,,,,,,,,,,,,,,,,,,,,,,,,,29.79,65,70,0,,,,84,29.78,,,6.96,,150,,15,,,,,,,,,,,,,,,,,,,,,,,,,,,,,,,,,,,,,MET073KCHS 241956Z 15013KT 7SM CLR 21/18 A2979 RMK AO2 PRESRR SLP086 T02110183;,,,,,,,,,,,,,,,,,,,,,,,,,,,,
72208013880,2000-04-24T15:12:00,FM-16,4,,SE,0.25,mi,"TEMP, PRECIP, SNOW",,,"MMTS, SRG, SNOWBOARD",,,WFO CHS,,,,,,,,,,,,,,,,,,,,,,,,,,,29.77,66,70,,||RA,,,88,,,,3,,170,,13,,,,,,,,,,,,,,,,,,,,,,,,,,,,,,,,,,,,,MET079KCHS 242012Z 17011KT 3SM RA BR BKN020 21/19 A2977 RMK AO2 RAB1959 PRESFR P0002;,,,,,,,,,,,,,,,,,,,,,,,,,,,,
72208013880,2000-04-24T17:00:00,FM-15,C,,SE,0.25,mi,"TEMP, PRECIP, SNOW",,,"MMTS, SRG, SNOWBOARD",,,WFO CHS,,,,,,,,,,,,,,,,,,,,,,,,,,,29.68,54,62,0.05,,,,75,29.68,,,9.94,,170,,15,,,,,,,,,,,,,,,,,,,,,,,,,,,,,,,,,,,,,MET107KCHS 242156Z 17013KT 10SM SCT033 17/12 A2968 RMK AO2 PK WND 17027/2117 RAE55 PRESFR SLP050 P0005 T01670122;,,,,,,,,,,,,,,,,,,,,,,,,,,,,
72208013880,2000-04-29T16:00:00,FM-15,C,,SE,0.25,mi,"TEMP, PRECIP, SNOW",,,"MMTS, SRG, SNOWBOARD",,,WFO CHS,,,,,,,,,,,,,,,,,,,,,,,,,,,29.98,54,71,0,,0.03,6,55,29.97,,,9.94,,150,,8,,,,,,,,,,,,,,,,,,,,,,,,,,,,,,,,,,,,,MET076KCHS 292056Z 15007KT 10SM SCT070 22/12 A2998 RMK AO2 SLP150 T02170122 56010;,,,,,,,,,,,,,,,,,,,,,,,,,,,,
72208013880,2000-04-29T17:00:00,FM-15,C,,SE,0.25,mi,"TEMP, PRECIP, SNOW",,,"MMTS, SRG, SNOWBOARD",,,WFO CHS,,,,,,,,,,,,,,,,,,,,,,,,,,,29.98,56,69,0,,,,63,29.98,,,9.94,,170,,13,,,,,,,,,,,,,,,,,,,,,,,,,,,,,,,,,,,,,MET070KCHS 292156Z 17011KT 10SM FEW065 21/13 A2998 RMK AO2 SLP151 T02060133;,,,,,,,,,,,,,,,,,,,,,,,,,,,,
72208013880,2000-05-05T12:56:00,FM-15,4,,SE,0.25,mi,"TEMP, PRECIP, SNOW",,,"MMTS, SRG, SNOWBOARD",,,WFO CHS,,,,,,,,,,,,,,,,,,,,,,,,,,,30.24,63,81,,,0.03,8,54,30.24,,,10,,160,,8,,,,,,,,,,,,,,,,,,,,,,,,,,,,,,,,,,,,,MET088KCHS 051756Z 16007KT 10SM BKN046 27/17 A3024 RMK AO2 SLP241 T02670172 10278 20183 58011;,,,,,,,,,,,,,,,,,,,,,,,,,,,,
72208013880,2000-05-05T13:00:00,SY-MT,C,,SE,0.25,mi,"TEMP, PRECIP, SNOW",,,"MMTS, SRG, SNOWBOARD",,,WFO CHS,,,,,,,,,,,,,,,,,,,,,,,,,,,30.24,63,80,0,,0.03,8,56,30.24,,30.19,9.94,69,160,,8,,,,,,,,,,,,,,,,,,,,,,,,,,,,,,,,,,,,,SYN092AAXX  05184 72208 32666 61607 10267 20172 30224 40241 58011 91756 333 10278 20183 555 90518;,,,,,,,,,,,,,,,,,,,,,,,,,,,,
72208013880,2000-05-05T14:00:00,FM-15,C,,SE,0.25,mi,"TEMP, PRECIP, SNOW",,,"MMTS, SRG, SNOWBOARD",,,WFO CHS,,,,,,,,,,,,,,,,,,,,,,,,,,,30.23,61,80,0,,,,52,30.23,,,9.94,,170,,14,,,,,,,,,,,,,,,,,,,,,,,,,,,,,,,,,,,,,MET067KCHS 051856Z 17012KT 10SM CLR 27/16 A3023 RMK AO2 SLP236 T02670161;,,,,,,,,,,,,,,,,,,,,,,,,,,,,
72208013880,2000-05-05T16:00:00,FM-15,C,,SE,0.25,mi,"TEMP, PRECIP, SNOW",,,"MMTS, SRG, SNOWBOARD",,,WFO CHS,,,,,,,,,,,,,,,,,,,,,,,,,,,30.2,61,78,0,,0.04,6,56,30.2,,,9.94,,170,,14,,,,,,,,,,,,,,,,,,,,,,,,,,,,,,,,,,,,,MET073KCHS 052056Z 17012KT 10SM CLR 26/16 A3020 RMK AO2 SLP226 T02560161 56015;,,,,,,,,,,,,,,,,,,,,,,,,,,,,
72208013880,2000-05-05T17:00:00,FM-15,C,,SE,0.25,mi,"TEMP, PRECIP, SNOW",,,"MMTS, SRG, SNOWBOARD",,,WFO CHS,,,,,,,,,,,,,,,,,,,,,,,,,,,30.2,58,78,0,,,,50,30.2,,,9.94,,160,,12,,,,,,,,,,,,,,,,,,,,,,,,,,,,,,,,,,,,,MET067KCHS 052156Z 16010KT 10SM CLR 26/14 A3020 RMK AO2 SLP226 T02560144;,,,,,,,,,,,,,,,,,,,,,,,,,,,,
72208013880,2000-05-06T15:00:00,FM-15,C,,SE,0.25,mi,"TEMP, PRECIP, SNOW",,,"MMTS, SRG, SNOWBOARD",,,WFO CHS,,,,,,,,,,,,,,,,,,,,,,,,,,,30.17,56,83,0,,,,40,30.16,,,9.94,,170,,13,,,,,,,,,,,,,,,,,,,,,,,,,,,,,,,,,,,,,MET067KCHS 061956Z 17011KT 10SM CLR 28/13 A3017 RMK AO2 SLP214 T02830133;,,,,,,,,,,,,,,,,,,,,,,,,,,,,
72208013880,2000-05-06T16:00:00,FM-15,C,,SE,0.25,mi,"TEMP, PRECIP, SNOW",,,"MMTS, SRG, SNOWBOARD",,,WFO CHS,,,,,,,,,,,,,,,,,,,,,,,,,,,30.17,54,83,0,,0.04,6,37,30.16,,,9.94,,170,,12,,,,,,,,,,,,,,,,,,,,,,,,,,,,,,,,,,,,,MET073KCHS 062056Z 17010KT 10SM CLR 28/12 A3017 RMK AO2 SLP214 T02830122 56012;,,,,,,,,,,,,,,,,,,,,,,,,,,,,
72208013880,2000-05-07T15:00:00,FM-15,C,,SE,0.25,mi,"TEMP, PRECIP, SNOW",,,"MMTS, SRG, SNOWBOARD",,,WFO CHS,,,,,,,,,,,,,,,,,,,,,,,,,,,30.1,65,84,0,,,,53,30.1,,,9.94,,160,,15,,,,,,,,,,,,,,,,,,,,,,,,,,,,,,,,,,,,,MET070KCHS 071956Z 16013KT 10SM FEW050 29/18 A3010 RMK AO2 SLP192 T02890183;,,,,,,,,,,,,,,,,,,,,,,,,,,,,
72208013880,2000-05-26T15:00:00,FM-15,E,,SE,0.25,mi,"TEMP, PRECIP, SNOW",,,"MMTS, SRG, SNOWBOARD",,,WFO CHS,,,,,,,,,,,,,,,,,,,,,,,,,,,29.95,73,82,0,,,,74,29.95,,,9.94,,160,,12,,,,,,,,,,,,,,,,,,,,,,,,,,,,,,,,,,,,,,,,,,,,,,,,,,,,,,,,,,,,,,,,,
72208013880,2000-05-26T16:00:00,FM-15,C,,SE,0.25,mi,"TEMP, PRECIP, SNOW",,,"MMTS, SRG, SNOWBOARD",,,WFO CHS,,,,,,,,,,,,,,,,,,,,,,,,,,,29.94,73,82,0,,0.01,8,74,29.94,,,9.94,,170,,12,,,,,,,,,,,,,,,,,,,,,,,,,,,,,,,,,,,,,MET073KCHS 262056Z 17010KT 10SM CLR 28/23 A2994 RMK AO2 SLP138 T02780228 58002;,,,,,,,,,,,,,,,,,,,,,,,,,,,,
72208013880,2000-05-31T16:00:00,FM-15,C,,SE,0.25,mi,"TEMP, PRECIP, SNOW",,,"MMTS, SRG, SNOWBOARD",,,WFO CHS,,,,,,,,,,,,,,,,,,,,,,,,,,,30.13,65,79,0,,0.05,6,62,30.13,,,9.94,,160,,10,,,,,,,,,,,,,,,,,,,,,,,,,,,,,,,,,,,,,MET073KCHS 312056Z 16009KT 10SM CLR 26/18 A3013 RMK AO2 SLP204 T02610183 56016;,,,,,,,,,,,,,,,,,,,,,,,,,,,,
72208013880,2000-06-01T17:00:00,FM-15,C,,SE,0.25,mi,"TEMP, PRECIP, SNOW",,,"MMTS, SRG, SNOWBOARD",,,WFO CHS,,,,,,,,,,,,,,,,,,,,,,,,,,,30.13,67,84,0,,,,57,30.13,,,9.94,,160,,14,,,,,,,,,,,,,,,,,,,,,,,,,,,,,,,,,,,,,MET067KCHS 012156Z 16012KT 10SM CLR 29/19 A3013 RMK AO2 SLP203 T02890194;,,,,,,,,,,,,,,,,,,,,,,,,,,,,
72208013880,2000-06-02T15:00:00,FM-15,C,,SE,0.25,mi,"TEMP, PRECIP, SNOW",,,"MMTS, SRG, SNOWBOARD",,,WFO CHS,,,,,,,,,,,,,,,,,,,,,,,,,,,30.03,70,95,0,,,,44,30.03,,,9.94,,170,,14,,,,,,,,,,,,,,,,,,,,,,,,,,,,,,,,,,,,,MET069KCHS 021956Z 17012KT 10SM CLR 35/21 A3003 RMK AO2 SLP168 T03500211 $;,,,,,,,,,,,,,,,,,,,,,,,,,,,,
72208013880,2000-06-04T12:00:00,FM-15,C,,SE,0.25,mi,"TEMP, PRECIP, SNOW",,,"MMTS, SRG, SNOWBOARD",,,WFO CHS,,,,,,,,,,,,,,,,,,,,,,,,,,,29.99,75,88,0,,,,66,29.99,,,9.94,,170,17,10,,,,,,,,,,,,,,,,,,,,,,,,,,,,,,,,,,,,,MET073KCHS 041656Z 17009G15KT 10SM FEW027 31/24 A2999 RMK AO2 SLP156 T03110239;,,,,,,,,,,,,,,,,,,,,,,,,,,,,
72208013880,2000-06-04T13:07:00,FM-16,4,,SE,0.25,mi,"TEMP, PRECIP, SNOW",,,"MMTS, SRG, SNOWBOARD",,,WFO CHS,,,,,,,,,,,,,,,,,,,,,,,,,,,29.96,73,86,,||TS,,,66,,,,10,,170,,10,,,,,,,,,,,,,,,,,,,,,,,,,,,,,,,,,,,,,MET070KCHS 041807Z 17009KT 10SM TS CLR 30/23 A2996 RMK AO2 TSB02 TS N MOV E;,,,,,,,,,,,,,,,,,,,,,,,,,,,,
72208013880,2000-06-04T14:56:00,FM-15,4,,SE,0.25,mi,"TEMP, PRECIP, SNOW",,,"MMTS, SRG, SNOWBOARD",,,WFO CHS,,,,,,,,,,,,,,,,,,,,,,,,,,,29.96,72,84,,||HZ TS,,,66,29.96,,,2,,160,,9,,,,,,,,,,,,,,,,,,,,,,,,,,,,,,,,,,,,,MET096KCHS 041956Z 16008KT 2SM TS HZ SCT050 29/22 A2996 RMK AO2 PRESRR SLP144 TS NW-N MOV E T02890217;,,,,,,,,,,,,,,,,,,,,,,,,,,,,
72208013880,2000-06-04T15:00:00,FM-15,C,,SE,0.25,mi,"TEMP, PRECIP, SNOW",,,"MMTS, SRG, SNOWBOARD",,,WFO CHS,,,,,,,,,,,,,,,,,,,,,,,,,,,29.96,71,84,0,||HZ TS TS,,,65,29.96,,,1.99,,160,,9,,,,,,,,,,,,,,,,,,,,,,,,,,,,,,,,,,,,,MET069KCHS 041958Z 16009KT 1 1/2SM TS HZ FEW033 SCT090 29/22 A2996 RMK AO2;,,,,,,,,,,,,,,,,,,,,,,,,,,,,
72208013880,2000-06-07T15:00:00,FM-15,C,,SE,0.25,mi,"TEMP, PRECIP, SNOW",,,"MMTS, SRG, SNOWBOARD",,,WFO CHS,,,,,,,,,,,,,,,,,,,,,,,,,,,30.15,59,78,0,,,,52,30.15,,,9.94,,160,,14,,,,,,,,,,,,,,,,,,,,,,,,,,,,,,,,,,,,,MET070KCHS 071956Z 16012KT 10SM FEW060 26/15 A3015 RMK AO2 SLP209 T02560150;,,,,,,,,,,,,,,,,,,,,,,,,,,,,
72208013880,2000-06-07T17:00:00,FM-15,C,,SE,0.25,mi,"TEMP, PRECIP, SNOW",,,"MMTS, SRG, SNOWBOARD",,,WFO CHS,,,,,,,,,,,,,,,,,,,,,,,,,,,30.15,58,76,0,,,,54,30.15,,,9.94,,150,,9,,,,,,,,,,,,,,,,,,,,,,,,,,,,,,,,,,,,,MET067KCHS 072156Z 15008KT 10SM CLR 24/14 A3015 RMK AO2 SLP210 T02440144;,,,,,,,,,,,,,,,,,,,,,,,,,,,,
72208013880,2000-06-08T15:00:00,FM-15,C,,SE,0.25,mi,"TEMP, PRECIP, SNOW",,,"MMTS, SRG, SNOWBOARD",,,WFO CHS,,,,,,,,,,,,,,,,,,,,,,,,,,,30.19,59,80,0,,,,49,30.19,,,9.94,,160,,13,,,,,,,,,,,,,,,,,,,,,,,,,,,,,,,,,,,,,MET070KCHS 081956Z 16011KT 10SM SCT046 27/15 A3019 RMK AO2 SLP223 T02670150;,,,,,,,,,,,,,,,,,,,,,,,,,,,,
72208013880,2000-06-08T16:33:00,FM-16,4,,SE,0.25,mi,"TEMP, PRECIP, SNOW",,,"MMTS, SRG, SNOWBOARD",,,WFO CHS,,,,,,,,,,,,,,,,,,,,,,,,,,,30.18,59,79,,,,,51,,,,10,,160,,10,,,,,,,,,,,,,,,,,,,,,,,,,,,,,,,,,,,,,MET061KCHS 082133Z 16009KT 10SM CLR 26/15 A3018 RMK AO2 WSHFT 2113;,,,,,,,,,,,,,,,,,,,,,,,,,,,,
72208013880,2000-06-09T14:00:00,FM-15,C,,SE,0.25,mi,"TEMP, PRECIP, SNOW",,,"MMTS, SRG, SNOWBOARD",,,WFO CHS,,,,,,,,,,,,,,,,,,,,,,,,,,,30.2,61,84,0,,,,46,30.2,,,9.94,,160,,12,,,,,,,,,,,,,,,,,,,,,,,,,,,,,,,,,,,,,MET070KCHS 091856Z 16010KT 10SM FEW050 29/16 A3020 RMK AO2 SLP227 T02890161;,,,,,,,,,,,,,,,,,,,,,,,,,,,,
72208013880,2000-06-10T12:00:00,FM-15,C,,SE,0.25,mi,"TEMP, PRECIP, SNOW",,,"MMTS, SRG, SNOWBOARD",,,WFO CHS,,,,,,,,,,,,,,,,,,,,,,,,,,,30.22,65,83,0,,,,55,30.22,,,9.94,,160,,10,,,,,,,,,,,,,,,,,,,,,,,,,,,,,,,,,,,,,MET070KCHS 101656Z 16009KT 10SM FEW041 28/18 A3022 RMK AO2 SLP234 T02830183;,,,,,,,,,,,,,,,,,,,,,,,,,,,,
72208013880,2000-06-10T12:56:00,FM-15,4,,SE,0.25,mi,"TEMP, PRECIP, SNOW",,,"MMTS, SRG, SNOWBOARD",,,WFO CHS,,,,,,,,,,,,,,,,,,,,,,,,,,,30.22,64,84,,,0.03,8,51,30.21,,,10,,160,,17,,,,,,,,,,,,,,,,,,,,,,,,,,,,,,,,,,,,,MET088KCHS 101756Z 16015KT 10SM FEW042 29/18 A3022 RMK AO2 SLP231 T02890183 10294 20217 58009;,,,,,,,,,,,,,,,,,,,,,,,,,,,,
72208013880,2000-06-10T13:00:00,SY-MT,C,,SE,0.25,mi,"TEMP, PRECIP, SNOW",,,"MMTS, SRG, SNOWBOARD",,,WFO CHS,,,,,,,,,,,,,,,,,,,,,,,,,,,30.22,65,84,0,,0.03,8,53,30.21,,30.17,9.94,72,160,,17,,,,,,,,,,,,,,,,,,,,,,,,,,,,,,,,,,,,,SYN092AAXX  10184 72208 32666 21615 10289 20183 30217 40231 58009 91756 333 10294 20217 555 91018;,,,,,,,,,,,,,,,,,,,,,,,,,,,,
72208013880,2000-06-10T13:50:00,FM-15,4,,SE,0.25,mi,"TEMP, PRECIP, SNOW",,,"MMTS, SRG, SNOWBOARD",,,WFO CHS,,,,,,,,,,,,,,,,,,,,,,,,,,,30.2,64,84,,,,,51,,,,10,,160,21,15,,,,,,,,,,,,,,,,,,,,,,,,,,,,,,,,,,,,,MET067KCHS 101850Z 16013G18KT 10SM FEW045 29/18 A3020 RMK AO2 WSHFT 1830;,,,,,,,,,,,,,,,,,,,,,,,,,,,,
72208013880,2000-06-10T14:00:00,FM-15,C,,SE,0.25,mi,"TEMP, PRECIP, SNOW",,,"MMTS, SRG, SNOWBOARD",,,WFO CHS,,,,,,,,,,,,,,,,,,,,,,,,,,,30.2,64,84,0,,,,51,30.19,,,9.94,,150,,10,,,,,,,,,,,,,,,,,,,,,,,,,,,,,,,,,,,,,MET081KCHS 101856Z 15009KT 10SM FEW045 29/18 A3020 RMK AO2 WSHFT 1830 SLP225 T02890178;,,,,,,,,,,,,,,,,,,,,,,,,,,,,
72208013880,2000-06-10T15:00:00,FM-15,C,,SE,0.25,mi,"TEMP, PRECIP, SNOW",,,"MMTS, SRG, SNOWBOARD",,,WFO CHS,,,,,,,,,,,,,,,,,,,,,,,,,,,30.18,63,84,0,,,,49,30.18,,,9.94,,150,,13,,,,,,,,,,,,,,,,,,,,,,,,,,,,,,,,,,,,,MET070KCHS 101956Z 15011KT 10SM FEW045 29/17 A3018 RMK AO2 SLP220 T02890172;,,,,,,,,,,,,,,,,,,,,,,,,,,,,
72208013880,2000-06-10T16:00:00,FM-15,C,,SE,0.25,mi,"TEMP, PRECIP, SNOW",,,"MMTS, SRG, SNOWBOARD",,,WFO CHS,,,,,,,,,,,,,,,,,,,,,,,,,,,30.18,63,83,0,,0.04,6,51,30.17,,,9.94,,150,,12,,,,,,,,,,,,,,,,,,,,,,,,,,,,,,,,,,,,,MET076KCHS 102056Z 15010KT 10SM SCT040 28/17 A3018 RMK AO2 SLP217 T02830172 56014;,,,,,,,,,,,,,,,,,,,,,,,,,,,,
72208013880,2000-06-10T17:00:00,FM-15,C,,SE,0.25,mi,"TEMP, PRECIP, SNOW",,,"MMTS, SRG, SNOWBOARD",,,WFO CHS,,,,,,,,,,,,,,,,,,,,,,,,,,,30.18,64,82,0,,,,55,30.17,,,9.94,,150,,12,,,,,,,,,,,,,,,,,,,,,,,,,,,,,,,,,,,,,MET070KCHS 102156Z 15010KT 10SM FEW040 28/18 A3018 RMK AO2 SLP218 T02780178;,,,,,,,,,,,,,,,,,,,,,,,,,,,,
72208013880,2000-06-11T14:00:00,FM-15,C,,SE,0.25,mi,"TEMP, PRECIP, SNOW",,,"MMTS, SRG, SNOWBOARD",,,WFO CHS,,,,,,,,,,,,,,,,,,,,,,,,,,,30.19,63,87,0,,,,45,30.18,,,9.94,,150,18,9,,,,,,,,,,,,,,,,,,,,,,,,,,,,,,,,,,,,,MET073KCHS 111856Z 15008G16KT 10SM FEW050 31/17 A3019 RMK AO2 SLP221 T03060172;,,,,,,,,,,,,,,,,,,,,,,,,,,,,
72208013880,2000-06-11T16:00:00,FM-15,C,,SE,0.25,mi,"TEMP, PRECIP, SNOW",,,"MMTS, SRG, SNOWBOARD",,,WFO CHS,,,,,,,,,,,,,,,,,,,,,,,,,,,30.17,58,86,0,,0.03,6,39,30.17,,,9.94,,160,,13,,,,,,,,,,,,,,,,,,,,,,,,,,,,,,,,,,,,,MET073KCHS 112056Z 16011KT 10SM CLR 30/14 A3017 RMK AO2 SLP216 T03000144 56009;,,,,,,,,,,,,,,,,,,,,,,,,,,,,
72208013880,2000-06-11T17:00:00,FM-15,C,,SE,0.25,mi,"TEMP, PRECIP, SNOW",,,"MMTS, SRG, SNOWBOARD",,,WFO CHS,,,,,,,,,,,,,,,,,,,,,,,,,,,30.17,58,84,0,,,,41,30.17,,,9.94,,150,,14,,,,,,,,,,,,,,,,,,,,,,,,,,,,,,,,,,,,,MET067KCHS 112156Z 15012KT 10SM CLR 29/14 A3017 RMK AO2 SLP216 T02890144;,,,,,,,,,,,,,,,,,,,,,,,,,,,,
72208013880,2000-06-12T12:00:00,FM-15,C,,SE,0.25,mi,"TEMP, PRECIP, SNOW",,,"MMTS, SRG, SNOWBOARD",,,WFO CHS,,,,,,,,,,,,,,,,,,,,,,,,,,,30.19,69,89,0,,,,52,30.19,,,9.94,,170,,7,,,,,,,,,,,,,,,,,,,,,,,,,,,,,,,,,,,,,MET072KCHS 121656Z 17006KT 10SM SCT037 32/21 A3019 RMK AO2 SLP224 T03170206 $;,,,,,,,,,,,,,,,,,,,,,,,,,,,,
72208013880,2000-06-12T17:00:00,FM-15,C,,SE,0.25,mi,"TEMP, PRECIP, SNOW",,,"MMTS, SRG, SNOWBOARD",,,WFO CHS,,,,,,,,,,,,,,,,,,,,,,,,,,,30.13,68,87,0,,,,53,30.13,,,9.94,,170,,14,,,,,,,,,,,,,,,,,,,,,,,,,,,,,,,,,,,,,MET067KCHS 122156Z 17012KT 10SM CLR 31/20 A3013 RMK AO2 SLP203 T03060200;,,,,,,,,,,,,,,,,,,,,,,,,,,,,
72208013880,2000-06-13T14:49:00,FM-16,4,,SE,0.25,mi,"TEMP, PRECIP, SNOW",,,"MMTS, SRG, SNOWBOARD",,,WFO CHS,,,,,,,,,,,,,,,,,,,,,,,,,,,30.1,75,90,,||TS,,,63,,,,10,,170,,16,,,,,,,,,,,,,,,,,,,,,,,,,,,,,,,,,,,,,MET077KCHS 131949Z 17014KT 10SM TS FEW036 32/24 A3010 RMK AO2 TSB46 TS OVHD MOVG E;,,,,,,,,,,,,,,,,,,,,,,,,,,,,
72208013880,2000-06-13T15:00:00,FM-15,C,,SE,0.25,mi,"TEMP, PRECIP, SNOW",,,"MMTS, SRG, SNOWBOARD",,,WFO CHS,,,,,,,,,,,,,,,,,,,,,,,,,,,30.09,74,90,0,||TS TS,,,59,30.09,,,9.94,,170,,17,,,,,,,,,,,,,,,,,,,,,,,,,,,,,,,,,,,,,MET097KCHS 131956Z 17015KT 10SM TS BKN036 32/23 A3009 RMK AO2 TSB46 SLP190 TS RU N-NE MOVG E T03220233;,,,,,,,,,,,,,,,,,,,,,,,,,,,,
72208013880,2000-06-14T12:56:00,FM-15,4,,SE,0.25,mi,"TEMP, PRECIP, SNOW",,,"MMTS, SRG, SNOWBOARD",,,WFO CHS,,,,,,,,,,,,,,,,,,,,,,,,,,,30.1,75,90,,,0.04,8,63,30.09,,,10,,160,,15,,,,,,,,,,,,,,,,,,,,,,,,,,,,,,,,,,,,,MET105KCHS 141756Z 16013KT 10SM SCT038 32/24 A3010 RMK AO2 SLP190 CB NE TCU ALLQDS T03170244 10333 20261 58012;,,,,,,,,,,,,,,,,,,,,,,,,,,,,
72208013880,2000-06-14T13:00:00,SY-MT,C,,SE,0.25,mi,"TEMP, PRECIP, SNOW",,,"MMTS, SRG, SNOWBOARD",,,WFO CHS,,,,,,,,,,,,,,,,,,,,,,,,,,,30.1,76,89,0,,0.04,8,65,30.09,,30.05,9.94,80,160,,15,,,,,,,,,,,,,,,,,,,,,,,,,,,,,,,,,,,,,SYN092AAXX  14184 72208 32666 41613 10317 20244 30177 40190 58012 91756 333 10333 20261 555 91418;,,,,,,,,,,,,,,,,,,,,,,,,,,,,
72208013880,2000-06-14T13:34:00,FM-16,4,,SE,0.25,mi,"TEMP, PRECIP, SNOW",,,"MMTS, SRG, SNOWBOARD",,,WFO CHS,,,,,,,,,,,,,,,,,,,,,,,,,,,30.09,75,88,,||TS,,,66,,,,10,,170,,14,,,,,,,,,,,,,,,,,,,,,,,,,,,,,,,,,,,,,MET079KCHS 141834Z 17012KT 10SM TS SCT036 31/24 A3009 RMK AO2 TSB29 CB OVHD TCU W-NE;,,,,,,,,,,,,,,,,,,,,,,,,,,,,
72208013880,2000-06-16T15:00:00,FM-15,C,,SE,0.25,mi,"TEMP, PRECIP, SNOW",,,"MMTS, SRG, SNOWBOARD",,,WFO CHS,,,,,,,,,,,,,,,,,,,,,,,,,,,30.07,65,91,0,,,,42,30.06,,,9.94,,170,21,15,,,,,,,,,,,,,,,,,,,,,,,,,,,,,,,,,,,,,MET070KCHS 161956Z 17013G18KT 10SM CLR 33/18 A3007 RMK AO2 SLP181 T03280183;,,,,,,,,,,,,,,,,,,,,,,,,,,,,
72208013880,2000-06-17T12:00:00,FM-15,E,,SE,0.25,mi,"TEMP, PRECIP, SNOW",,,"MMTS, SRG, SNOWBOARD",,,WFO CHS,,,,,,,,,,,,,,,,,,,,,,,,,,,30.19,72,91,0,,,,54,30.19,,,9.94,,160,,14,,,,,,,,,,,,,,,,,,,,,,,,,,,,,,,,,,,,,,,,,,,,,,,,,,,,,,,,,,,,,,,,,
72208013880,2000-06-20T14:00:00,FM-15,C,,SE,0.25,mi,"TEMP, PRECIP, SNOW",,,"MMTS, SRG, SNOWBOARD",,,WFO CHS,,,,,,,,,,,,,,,,,,,,,,,,,,,30.08,76,88,0,,,,68,30.08,,,9.94,,170,,15,,,,,,,,,,,,,,,,,,,,,,,,,,,,,,,,,,,,,MET080KCHS 201856Z 17013KT 10SM SCT035 31/24 A3008 RMK AO2 SLP186 SCT V BKN T03110244;,,,,,,,,,,,,,,,,,,,,,,,,,,,,
72208013880,2000-06-20T17:45:00,FM-15,4,,SE,0.25,mi,"TEMP, PRECIP, SNOW",,,"MMTS, SRG, SNOWBOARD",,,WFO CHS,,,,,,,,,,,,,,,,,,,,,,,,,,,30.09,75,79,0.38,||FG SHRA TS,,,89,,,,0.5,,170,21,13,,,,,,,,,,,,,,,,,,,,,,,,,,,,,,,,,,,,,MET129KCHS 202245Z 17011G18KT 1/2SM +TSRA FG FEW002 BKN020 OVC026 26/24 A3009 RMK AO2 TSB22RAB26 TS OVHD MOV SE FRQ LTG ICCCCGCA P0038;,,,,,,,,,,,,,,,,,,,,,,,,,,,,
72208013880,2000-06-23T16:12:00,FM-16,4,,SE,0.25,mi,"TEMP, PRECIP, SNOW",,,"MMTS, SRG, SNOWBOARD",,,WFO CHS,,,,,,,,,,,,,,,,,,,,,,,,,,,30,73,86,,,,,66,,,,10,,160,,11,,,,,,,,,,,,,,,,,,,,,,,,,,,,,,,,,,,,,MET071KCHS 232112Z 16010KT 10SM SCT060 SCT080 30/23 A3000 RMK AO2 WSHFT 2052;,,,,,,,,,,,,,,,,,,,,,,,,,,,,
72208013880,2000-06-24T12:00:00,FM-15,C,,SE,0.25,mi,"TEMP, PRECIP, SNOW",,,"MMTS, SRG, SNOWBOARD",,,WFO CHS,,,,,,,,,,,,,,,,,,,,,,,,,,,30.11,73,87,0,,,,63,30.1,,,9.94,,150,,12,,,,,,,,,,,,,,,,,,,,,,,,,,,,,,,,,,,,,MET070KCHS 241656Z 15010KT 10SM SCT037 31/23 A3011 RMK AO2 SLP194 T03060228;,,,,,,,,,,,,,,,,,,,,,,,,,,,,
72208013880,2000-06-24T14:00:00,FM-15,C,,SE,0.25,mi,"TEMP, PRECIP, SNOW",,,"MMTS, SRG, SNOWBOARD",,,WFO CHS,,,,,,,,,,,,,,,,,,,,,,,,,,,30.08,74,87,0,,,,65,30.08,,,9.94,,160,,10,,,,,,,,,,,,,,,,,,,,,,,,,,,,,,,,,,,,,MET080KCHS 241856Z 16009KT 10SM CLR 31/23 A3008 RMK AO2 SLP186 CB DSNT NW-N T03060233;,,,,,,,,,,,,,,,,,,,,,,,,,,,,
72208013880,2000-06-24T15:00:00,FM-15,C,,SE,0.25,mi,"TEMP, PRECIP, SNOW",,,"MMTS, SRG, SNOWBOARD",,,WFO CHS,,,,,,,,,,,,,,,,,,,,,,,,,,,30.07,74,86,0,,,,67,30.07,,,9.94,,160,,12,,,,,,,,,,,,,,,,,,,,,,,,,,,,,,,,,,,,,MET067KCHS 241956Z 16010KT 10SM CLR 30/23 A3007 RMK AO2 SLP183 T03000233;,,,,,,,,,,,,,,,,,,,,,,,,,,,,
72208013880,2000-06-25T14:34:00,FM-16,4,,SE,0.25,mi,"TEMP, PRECIP, SNOW",,,"MMTS, SRG, SNOWBOARD",,,WFO CHS,,,,,,,,,,,,,,,,,,,,,,,,,,,30.07,73,84,,,,,70,,,,10,,160,,10,,,,,,,,,,,,,,,,,,,,,,,,,,,,,,,,,,,,,MET076KCHS 251934Z 16009KT 10SM FEW028 SCT045 29/23 A3007 RMK AO2 TSE33 TS DSIPTD;,,,,,,,,,,,,,,,,,,,,,,,,,,,,
72208013880,2000-06-25T15:00:00,FM-15,C,,SE,0.25,mi,"TEMP, PRECIP, SNOW",,,"MMTS, SRG, SNOWBOARD",,,WFO CHS,,,,,,,,,,,,,,,,,,,,,,,,,,,30.07,74,86,0,,,,67,30.06,,,9.94,,170,,10,,,,,,,,,,,,,,,,,,,,,,,,,,,,,,,,,,,,,MET093KCHS 251956Z 17009KT 10SM FEW028 SCT045 30/23 A3007 RMK AO2 TSE33 SLP180 TS DSIPTD T03000233;,,,,,,,,,,,,,,,,,,,,,,,,,,,,
72208013880,2000-06-25T16:00:00,FM-15,C,,SE,0.25,mi,"TEMP, PRECIP, SNOW",,,"MMTS, SRG, SNOWBOARD",,,WFO CHS,,,,,,,,,,,,,,,,,,,,,,,,,,,30.05,73,87,0,,0.06,8,63,30.04,,,9.94,,170,,14,,,,,,,,,,,,,,,,,,,,,,,,,,,,,,,,,,,,,MET079KCHS 252056Z 17012KT 10SM CLR 31/23 A3005 RMK AO2 SLP173 60000 T03060228 58020;,,,,,,,,,,,,,,,,,,,,,,,,,,,,
72208013880,2000-06-25T17:00:00,FM-15,C,,SE,0.25,mi,"TEMP, PRECIP, SNOW",,,"MMTS, SRG, SNOWBOARD",,,WFO CHS,,,,,,,,,,,,,,,,,,,,,,,,,,,30.05,74,86,0,,,,67,30.05,,,9.94,,150,,10,,,,,,,,,,,,,,,,,,,,,,,,,,,,,,,,,,,,,MET070KCHS 252156Z 15009KT 10SM SCT030 30/23 A3005 RMK AO2 SLP175 T03000233;,,,,,,,,,,,,,,,,,,,,,,,,,,,,
72208013880,2000-06-26T11:00:00,FM-15,C,,SE,0.25,mi,"TEMP, PRECIP, SNOW",,,"MMTS, SRG, SNOWBOARD",,,WFO CHS,,,,,,,,,,,,,,,,,,,,,,,,,,,30.12,76,88,0,||TS TS,,,68,30.12,,,9.94,,170,,10,,,,,,,,,,,,,,,,,,,,,,,,,,,,,,,,,,,,,MET093KCHS 261556Z 17009KT 10SM TS FEW035 31/24 A3012 RMK AO2 TSB34 SLP200 TS N-E MOV NE T03110244;,,,,,,,,,,,,,,,,,,,,,,,,,,,,
72208013880,2000-06-26T13:42:00,FM-16,4,,SE,0.25,mi,"TEMP, PRECIP, SNOW",,,"MMTS, SRG, SNOWBOARD",,,WFO CHS,,,,,,,,,,,,,,,,,,,,,,,,,,,30.11,73,86,,||TS,,,66,,,,10,,170,21,16,,,,,,,,,,,,,,,,,,,,,,,,,,,,,,,,,,,,,MET092KCHS 261842Z 17014G18KT 10SM TS BKN032 BKN040 BKN048 30/23 A3011 RMK AO2 TSB37 TS N-E MOV N;,,,,,,,,,,,,,,,,,,,,,,,,,,,,
72208013880,2000-06-26T14:00:00,FM-15,C,,SE,0.25,mi,"TEMP, PRECIP, SNOW",,,"MMTS, SRG, SNOWBOARD",,,WFO CHS,,,,,,,,,,,,,,,,,,,,,,,,,,,30.11,73,88,0,||TS TS,,,61,30.1,,,9.94,,170,,14,,,,,,,,,,,,,,,,,,,,,,,,,,,,,,,,,,,,,MET106KCHS 261856Z 17012KT 10SM TS BKN033 BKN041 BKN048 31/23 A3011 RMK AO2 TSB37 SLP194 TS N-E MOV N T03110228;,,,,,,,,,,,,,,,,,,,,,,,,,,,,
72208013880,2000-06-26T14:12:00,FM-16,4,,SE,0.25,mi,"TEMP, PRECIP, SNOW",,,"MMTS, SRG, SNOWBOARD",,,WFO CHS,,,,,,,,,,,,,,,,,,,,,,,,,,,30.1,73,88,,,,,62,,,,10,,160,,16,,,,,,,,,,,,,,,,,,,,,,,,,,,,,,,,,,,,,MET075KCHS 261912Z 16014KT 10SM BKN033 BKN042 31/23 A3010 RMK AO2 TSE10 TS MOV N;,,,,,,,,,,,,,,,,,,,,,,,,,,,,
72208013880,2000-06-26T15:00:00,FM-15,C,,SE,0.25,mi,"TEMP, PRECIP, SNOW",,,"MMTS, SRG, SNOWBOARD",,,WFO CHS,,,,,,,,,,,,,,,,,,,,,,,,,,,30.08,72,86,0,,,,63,30.08,,,9.94,,150,,9,,,,,,,,,,,,,,,,,,,,,,,,,,,,,,,,,,,,,MET085KCHS 261956Z 15008KT 10SM BKN034 30/22 A3008 RMK AO2 TSE10 SLP185 TS MOV N T03000222;,,,,,,,,,,,,,,,,,,,,,,,,,,,,
72208013880,2000-06-27T11:00:00,FM-15,C,,SE,0.25,mi,"TEMP, PRECIP, SNOW",,,"MMTS, SRG, SNOWBOARD",,,WFO CHS,,,,,,,,,,,,,,,,,,,,,,,,,,,30.16,72,74,0.04,||RA SHRA TS,,,94,30.16,,,9.94,,160,,9,,,,,,,,,,,,,,,,,,,,,,,,,,,,,,,,,,,,,MET108KCHS 271556Z 16008KT 10SM -TSRA BKN032 23/22 A3016 RMK AO2 TSB08RAB27 SLP213 TS NW-N MOV NE P0004 T02330222;,,,,,,,,,,,,,,,,,,,,,,,,,,,,
72208013880,2000-06-29T16:10:00,FM-16,4,,SE,0.25,mi,"TEMP, PRECIP, SNOW",,,"MMTS, SRG, SNOWBOARD",,,WFO CHS,,,,,,,,,,,,,,,,,,,,,,,,,,,29.87,77,79,,||TS,,,94,,,,10,,170,,7,,,,,,,,,,,,,,,,,,,,,,,,,,,,,,,,,,,,,MET122KCHS 292110Z 17006KT 10SM TS FEW012 BKN023 BKN048 26/25 A2987 RMK AO2 TSB2058 TS S-SW MOV E OCNL LGTICCG S-SW MOV E P0004;,,,,,,,,,,,,,,,,,,,,,,,,,,,,
72208013880,2000-07-01T15:00:00,FM-15,C,,SE,0.25,mi,"TEMP, PRECIP, SNOW",,,"MMTS, SRG, SNOWBOARD",,,WFO CHS,,,,,,,,,,,,,,,,,,,,,,,,,,,30.01,69,84,0,,,,61,30,,,9.94,,150,,10,,,,,,,,,,,,,,,,,,,,,,,,,,,,,,,,,,,,,MET070KCHS 011956Z 15009KT 10SM FEW045 29/21 A3001 RMK AO2 SLP160 T02890206;,,,,,,,,,,,,,,,,,,,,,,,,,,,,
72208013880,2000-07-02T12:56:00,FM-15,4,,SE,0.25,mi,"TEMP, PRECIP, SNOW",,,"MMTS, SRG, SNOWBOARD",,,WFO CHS,,,,,,,,,,,,,,,,,,,,,,,,,,,30.11,70,84,,,0.01,6,62,30.11,,,10,,160,,9,,,,,,,,,,,,,,,,,,,,,,,,,,,,,,,,,,,,,MET088KCHS 021756Z 16008KT 10SM SCT046 29/21 A3011 RMK AO2 SLP195 T02890211 10294 20228 56003;,,,,,,,,,,,,,,,,,,,,,,,,,,,,
72208013880,2000-07-02T13:00:00,SY-MT,C,,SE,0.25,mi,"TEMP, PRECIP, SNOW",,,"MMTS, SRG, SNOWBOARD",,,WFO CHS,,,,,,,,,,,,,,,,,,,,,,,,,,,30.11,70,84,0,,0.01,6,63,30.11,,30.06,9.94,74,160,,9,,,,,,,,,,,,,,,,,,,,,,,,,,,,,,,,,,,,,SYN092AAXX  02184 72208 32666 41608 10289 20211 30180 40195 56003 91756 333 10294 20228 555 90218;,,,,,,,,,,,,,,,,,,,,,,,,,,,,
72208013880,2000-07-02T14:00:00,FM-15,C,,SE,0.25,mi,"TEMP, PRECIP, SNOW",,,"MMTS, SRG, SNOWBOARD",,,WFO CHS,,,,,,,,,,,,,,,,,,,,,,,,,,,30.1,71,85,0,,,,63,30.1,,,9.94,,150,,13,,,,,,,,,,,,,,,,,,,,,,,,,,,,,,,,,,,,,MET070KCHS 021856Z 15011KT 10SM SCT039 29/22 A3010 RMK AO2 SLP193 T02940217;,,,,,,,,,,,,,,,,,,,,,,,,,,,,
72208013880,2000-07-02T15:00:00,FM-15,C,,SE,0.25,mi,"TEMP, PRECIP, SNOW",,,"MMTS, SRG, SNOWBOARD",,,WFO CHS,,,,,,,,,,,,,,,,,,,,,,,,,,,30.1,69,83,0,,,,63,30.09,,,9.94,,150,,9,,,,,,,,,,,,,,,,,,,,,,,,,,,,,,,,,,,,,MET070KCHS 021956Z 15008KT 10SM SCT040 28/21 A3010 RMK AO2 SLP191 T02830206;,,,,,,,,,,,,,,,,,,,,,,,,,,,,
72208013880,2000-07-02T16:00:00,FM-15,C,,SE,0.25,mi,"TEMP, PRECIP, SNOW",,,"MMTS, SRG, SNOWBOARD",,,WFO CHS,,,,,,,,,,,,,,,,,,,,,,,,,,,30.09,68,83,0,,0.01,6,61,30.09,,,9.94,,160,,13,,,,,,,,,,,,,,,,,,,,,,,,,,,,,,,,,,,,,MET076KCHS 022056Z 16011KT 10SM FEW048 28/20 A3009 RMK AO2 SLP189 T02830200 56005;,,,,,,,,,,,,,,,,,,,,,,,,,,,,
72208013880,2000-07-02T17:00:00,FM-15,C,,SE,0.25,mi,"TEMP, PRECIP, SNOW",,,"MMTS, SRG, SNOWBOARD",,,WFO CHS,,,,,,,,,,,,,,,,,,,,,,,,,,,30.09,68,82,0,,,,63,30.09,,,9.94,,160,,14,,,,,,,,,,,,,,,,,,,,,,,,,,,,,,,,,,,,,MET067KCHS 022156Z 16012KT 10SM CLR 28/20 A3009 RMK AO2 SLP188 T02780200;,,,,,,,,,,,,,,,,,,,,,,,,,,,,
72208013880,2000-07-03T14:00:00,FM-15,C,,SE,0.25,mi,"TEMP, PRECIP, SNOW",,,"MMTS, SRG, SNOWBOARD",,,WFO CHS,,,,,,,,,,,,,,,,,,,,,,,,,,,30.15,68,86,0,,,,55,30.15,,,9.94,,160,,9,,,,,,,,,,,,,,,,,,,,,,,,,,,,,,,,,,,,,MET075KCHS 031856Z 16008KT 120V190 10SM CLR 30/20 A3015 RMK AO2 SLP210 T03000200;,,,,,,,,,,,,,,,,,,,,,,,,,,,,
72208013880,2000-07-03T15:00:00,FM-15,C,,SE,0.25,mi,"TEMP, PRECIP, SNOW",,,"MMTS, SRG, SNOWBOARD",,,WFO CHS,,,,,,,,,,,,,,,,,,,,,,,,,,,30.15,69,86,0,,,,57,30.15,,,9.94,,150,17,10,,,,,,,,,,,,,,,,,,,,,,,,,,,,,,,,,,,,,MET070KCHS 031956Z 15009G15KT 10SM CLR 30/21 A3015 RMK AO2 SLP209 T03000206;,,,,,,,,,,,,,,,,,,,,,,,,,,,,
72208013880,2000-07-09T15:00:00,FM-15,C,,SE,0.25,mi,"TEMP, PRECIP, SNOW",,,"MMTS, SRG, SNOWBOARD",,,WFO CHS,,,,,,,,,,,,,,,,,,,,,,,,,,,30.11,74,85,T,,,,70,30.11,,,9.94,,170,,12,,,,,,,,,,,,,,,,,,,,,,,,,,,,,,,,,,,,,MET085KCHS 091956Z 17010KT 10SM FEW042 29/23 A3011 RMK AO2 RAB26E42 SLP196 P0000 T02940233;,,,,,,,,,,,,,,,,,,,,,,,,,,,,
72208013880,2000-07-11T16:41:00,FM-16,4,,SE,0.25,mi,"TEMP, PRECIP, SNOW",,,"MMTS, SRG, SNOWBOARD",,,WFO CHS,,,,,,,,,,,,,,,,,,,,,,,,,,,29.89,73,88,,,,,62,,,,8,,150,,15,,,,,,,,,,,,,,,,,,,,,,,,,,,,,,,,,,,,,MET061KCHS 112141Z 15013KT 8SM FEW060 31/23 A2989 RMK AO2 TSB13E36;,,,,,,,,,,,,,,,,,,,,,,,,,,,,
72208013880,2000-07-12T17:00:00,FM-15,C,,SE,0.25,mi,"TEMP, PRECIP, SNOW",,,"MMTS, SRG, SNOWBOARD",,,WFO CHS,,,,,,,,,,,,,,,,,,,,,,,,,,,29.88,77,90,0,,,,66,29.88,,,8.95,,160,,10,,,,,,,,,,,,,,,,,,,,,,,,,,,,,,,,,,,,,MET066KCHS 122156Z 16009KT 9SM CLR 32/25 A2988 RMK AO2 SLP118 T03220250;,,,,,,,,,,,,,,,,,,,,,,,,,,,,
72208013880,2000-07-14T12:25:00,FM-15,4,,SE,0.25,mi,"TEMP, PRECIP, SNOW",,,"MMTS, SRG, SNOWBOARD",,,WFO CHS,,,,,,,,,,,,,,,,,,,,,,,,,,,29.89,79,79,0.64,||RA,,,100,,,,1,,160,,9,,,,,,,,,,,,,,,,,,,,,,,,,,,,,,,,,,,,,MET080KCHS 141725Z 16008KT 1SM +RA BR BKN008 OVC021 26/26 A2989 RMK AO2 RAB1658 P0064;,,,,,,,,,,,,,,,,,,,,,,,,,,,,
72208013880,2000-07-14T12:27:00,FM-16,4,,SE,0.25,mi,"TEMP, PRECIP, SNOW",,,"MMTS, SRG, SNOWBOARD",,,WFO CHS,,,,,,,,,,,,,,,,,,,,,,,,,,,29.89,79,79,,||RA,,,100,,,,1.5,,160,,9,,,,,,,,,,,,,,,,,,,,,,,,,,,,,,,,,,,,,MET090KCHS 141727Z 16008KT 1 1/2SM RA BR BKN008 BKN021 OVC027 26/26 A2989 RMK AO2 RAB1658 P0064;,,,,,,,,,,,,,,,,,,,,,,,,,,,,
72208013880,2000-07-14T12:31:00,FM-16,4,,SE,0.25,mi,"TEMP, PRECIP, SNOW",,,"MMTS, SRG, SNOWBOARD",,,WFO CHS,,,,,,,,,,,,,,,,,,,,,,,,,,,29.89,79,79,,||RA,,,100,,,,2,,150,,10,,,,,,,,,,,,,,,,,,,,,,,,,,,,,,,,,,,,,MET086KCHS 141731Z 15009KT 2SM RA BR BKN008 BKN023 OVC036 26/26 A2989 RMK AO2 RAB1658 P0065;,,,,,,,,,,,,,,,,,,,,,,,,,,,,
72208013880,2000-07-14T12:38:00,FM-16,4,,SE,0.25,mi,"TEMP, PRECIP, SNOW",,,"MMTS, SRG, SNOWBOARD",,,WFO CHS,,,,,,,,,,,,,,,,,,,,,,,,,,,29.89,79,79,,||SHRA TS,,,100,,,,5,,150,,9,,,,,,,,,,,,,,,,,,,,,,,,,,,,,,,,,,,,,MET132KCHS 141738Z 15008KT 5SM -TSRA BR BKN014 BKN030 BKN036 26/26 A2989 RMK AO2 TSB38RAB1658 OCNL LTGICCCCG VC MOV SE TS VC MOV SE P0065;,,,,,,,,,,,,,,,,,,,,,,,,,,,,
72208013880,2000-07-14T12:44:00,FM-16,4,,SE,0.25,mi,"TEMP, PRECIP, SNOW",,,"MMTS, SRG, SNOWBOARD",,,WFO CHS,,,,,,,,,,,,,,,,,,,,,,,,,,,29.88,79,79,,||TS,,,100,,,,9,,160,,9,,,,,,,,,,,,,,,,,,,,,,,,,,,,,,,,,,,,,MET126KCHS 141744Z 16008KT 9SM TS SCT020 SCT034 26/26 A2988 RMK AO2 TSB38RAB1658E43 OCNL LTGICCCCG SW-W MOV SE TS SW-W MOV SE P0065;,,,,,,,,,,,,,,,,,,,,,,,,,,,,
72208013880,2000-07-14T12:56:00,FM-15,4,,SE,0.25,mi,"TEMP, PRECIP, SNOW",,,"MMTS, SRG, SNOWBOARD",,,WFO CHS,,,,,,,,,,,,,,,,,,,,,,,,,,,29.89,81,81,0.65,,0.02,7,100,29.89,,,10,,170,,10,,,,,,,,,,,,,,,,,,,,,,,,,,,,,,,,,,,,,MET129KCHS 141756Z 17009KT 10SM FEW034 27/27 A2989 RMK AO2 TSB38E55RAB1658E43 SLP121 TS MOV SE P0065 60065 T02720267 10300 20244 57006;,,,,,,,,,,,,,,,,,,,,,,,,,,,,
72208013880,2000-07-14T13:00:00,SY-MT,C,,SE,0.25,mi,"TEMP, PRECIP, SNOW",,,"MMTS, SRG, SNOWBOARD",,,WFO CHS,,,,,,,,,,,,,,,,,,,,,,,,,,,29.89,80,81,0.65,,,,97,29.89,CLR:00,29.83,9.94,80,170,,10,,,,,,,,,,,,,,,,,,,,,,,,,,,,,,,,,,,,,SYN070AAXX  14184 72208 31966 01509 10280 20270 30102 795// 91802 555 91418;,,,,,,,,,,,,,,,,,,,,,,,,,,,,
72208013880,2000-07-14T13:02:00,FM-16,4,,SE,0.25,mi,"TEMP, PRECIP, SNOW",,,"MMTS, SRG, SNOWBOARD",,,WFO CHS,,,,,,,,,,,,,,,,,,,,,,,,,,,29.88,81,82,,||TS,,,94,,,,10,,150,,10,,,,,,,,,,,,,,,,,,,,,,,,,,,,,,,,,,,,,MET061KCHS 141802Z 15009KT 10SM TS CLR 28/27 A2988 RMK AO2 TSB1757;,,,,,,,,,,,,,,,,,,,,,,,,,,,,
72208013880,2000-07-14T13:20:00,FM-15,4,,SE,0.25,mi,"TEMP, PRECIP, SNOW",,,"MMTS, SRG, SNOWBOARD",,,WFO CHS,,,,,,,,,,,,,,,,,,,,,,,,,,,29.88,81,82,,,,,94,,,,10,,150,,10,,,,,,,,,,,,,,,,,,,,,,,,,,,,,,,,,,,,,MET071KCHS 141820Z 15009KT 10SM CLR 28/27 A2988 RMK AO2 TSB1757E15 TS MOV SE;,,,,,,,,,,,,,,,,,,,,,,,,,,,,
72208013880,2000-07-14T17:00:00,FM-15,C,,SE,0.25,mi,"TEMP, PRECIP, SNOW",,,"MMTS, SRG, SNOWBOARD",,,WFO CHS,,,,,,,,,,,,,,,,,,,,,,,,,,,29.82,77,83,0.06,,,,82,29.82,,,9.94,,150,,9,,,,,,,,,,,,,,,,,,,,,,,,,,,,,,,,,,,,,MET082KCHS 142156Z 15008KT 10SM FEW070 28/25 A2982 RMK AO2 RAE23 SLP098 P0006 T02830250;,,,,,,,,,,,,,,,,,,,,,,,,,,,,
72208013880,2000-07-22T11:00:00,FM-15,C,,SE,0.25,mi,"TEMP, PRECIP, SNOW",,,"MMTS, SRG, SNOWBOARD",,,WFO CHS,,,,,,,,,,,,,,,,,,,,,,,,,,,29.95,79,91,0,,,,68,29.95,,,9.94,,160,,9,,,,,,,,,,,,,,,,,,,,,,,,,,,,,,,,,,,,,MET070KCHS 221556Z 16008KT 10SM FEW035 33/26 A2995 RMK AO2 SLP142 T03280261;,,,,,,,,,,,,,,,,,,,,,,,,,,,,
72208013880,2000-07-23T16:00:00,FM-15,C,,SE,0.25,mi,"TEMP, PRECIP, SNOW",,,"MMTS, SRG, SNOWBOARD",,,WFO CHS,,,,,,,,,,,,,,,,,,,,,,,,,,,29.95,74,86,0,,0.04,5,67,29.95,,,9.94,,150,,10,,,,,,,,,,,,,,,,,,,,,,,,,,,,,,,,,,,,,MET076KCHS 232056Z 15009KT 10SM SCT041 30/23 A2995 RMK AO2 SLP143 T03000233 55012;,,,,,,,,,,,,,,,,,,,,,,,,,,,,
72208013880,2000-07-24T14:42:00,FM-16,4,,SE,0.25,mi,"TEMP, PRECIP, SNOW",,,"MMTS, SRG, SNOWBOARD",,,WFO CHS,,,,,,,,,,,,,,,,,,,,,,,,,,,29.95,75,81,,||RA,,,84,,,,3,,160,,11,,,,,,,,,,,,,,,,,,,,,,,,,,,,,,,,,,,,,MET077KCHS 241942Z 16010KT 3SM RA BR BKN022 BKN037 27/24 A2995 RMK AO2 RAB21 P0004;,,,,,,,,,,,,,,,,,,,,,,,,,,,,
72208013880,2000-07-24T15:00:00,FM-15,C,,SE,0.25,mi,"TEMP, PRECIP, SNOW",,,"MMTS, SRG, SNOWBOARD",,,WFO CHS,,,,,,,,,,,,,,,,,,,,,,,,,,,29.94,76,80,0.06,||RA,,,87,29.94,,,7.95,,150,,9,,,,,,,,,,,,,,,,,,,,,,,,,,,,,,,,,,,,,MET092KCHS 241956Z 15008KT 8SM -RA BKN020 BKN037 27/24 A2994 RMK AO2 RAB21 SLP138 P0006 T02670244;,,,,,,,,,,,,,,,,,,,,,,,,,,,,
72208013880,2000-07-24T15:07:00,FM-16,4,,SE,0.25,mi,"TEMP, PRECIP, SNOW",,,"MMTS, SRG, SNOWBOARD",,,WFO CHS,,,,,,,,,,,,,,,,,,,,,,,,,,,29.94,75,81,,,,,84,,,,10,,150,,8,,,,,,,,,,,,,,,,,,,,,,,,,,,,,,,,,,,,,MET065KCHS 242007Z 15007KT 10SM SCT032 27/24 A2994 RMK AO2 RAE00 P0000;,,,,,,,,,,,,,,,,,,,,,,,,,,,,
72208013880,2000-07-27T16:00:00,FM-15,C,,SE,0.25,mi,"TEMP, PRECIP, SNOW",,,"MMTS, SRG, SNOWBOARD",,,WFO CHS,,,,,,,,,,,,,,,,,,,,,,,,,,,30.05,74,87,0,,0.06,6,65,30.04,,,9.94,,160,,9,,,,,,,,,,,,,,,,,,,,,,,,,,,,,,,,,,,,,MET076KCHS 272056Z 16008KT 10SM FEW050 31/23 A3005 RMK AO2 SLP174 T03060233 56020;,,,,,,,,,,,,,,,,,,,,,,,,,,,,
72208013880,2000-07-27T17:00:00,FM-15,C,,SE,0.25,mi,"TEMP, PRECIP, SNOW",,,"MMTS, SRG, SNOWBOARD",,,WFO CHS,,,,,,,,,,,,,,,,,,,,,,,,,,,30.05,73,85,0,,,,68,30.04,,,8.95,,160,,12,,,,,,,,,,,,,,,,,,,,,,,,,,,,,,,,,,,,,MET069KCHS 272156Z 16010KT 9SM FEW055 29/23 A3005 RMK AO2 SLP173 T02940228;,,,,,,,,,,,,,,,,,,,,,,,,,,,,
72208013880,2000-07-28T14:00:00,FM-15,C,,SE,0.25,mi,"TEMP, PRECIP, SNOW",,,"MMTS, SRG, SNOWBOARD",,,WFO CHS,,,,,,,,,,,,,,,,,,,,,,,,,,,30,73,89,0,,,,59,30,,,9.94,,150,,12,,,,,,,,,,,,,,,,,,,,,,,,,,,,,,,,,,,,,MET070KCHS 281856Z 15010KT 10SM FEW042 32/23 A3000 RMK AO2 SLP159 T03170228;,,,,,,,,,,,,,,,,,,,,,,,,,,,,
72208013880,2000-07-28T15:00:00,FM-15,C,,SE,0.25,mi,"TEMP, PRECIP, SNOW",,,"MMTS, SRG, SNOWBOARD",,,WFO CHS,,,,,,,,,,,,,,,,,,,,,,,,,,,29.99,73,87,0,,,,63,29.98,,,9.94,,160,,12,,,,,,,,,,,,,,,,,,,,,,,,,,,,,,,,,,,,,MET067KCHS 281956Z 16010KT 10SM CLR 31/23 A2999 RMK AO2 SLP153 T03060228;,,,,,,,,,,,,,,,,,,,,,,,,,,,,
72208013880,2000-07-28T16:00:00,FM-15,C,,SE,0.25,mi,"TEMP, PRECIP, SNOW",,,"MMTS, SRG, SNOWBOARD",,,WFO CHS,,,,,,,,,,,,,,,,,,,,,,,,,,,29.98,72,87,0,,0.05,6,61,29.98,,,9.94,,150,,13,,,,,,,,,,,,,,,,,,,,,,,,,,,,,,,,,,,,,MET073KCHS 282056Z 15011KT 10SM CLR 31/22 A2998 RMK AO2 SLP151 T03060222 56016;,,,,,,,,,,,,,,,,,,,,,,,,,,,,
72208013880,2000-07-30T16:00:00,FM-15,C,,SE,0.25,mi,"TEMP, PRECIP, SNOW",,,"MMTS, SRG, SNOWBOARD",,,WFO CHS,,,,,,,,,,,,,,,,,,,,,,,,,,,29.99,76,86,0,,0.05,8,72,29.98,,,9.94,,150,,7,,,,,,,,,,,,,,,,,,,,,,,,,,,,,,,,,,,,,MET082KCHS 302056Z 15006KT 10SM BKN033 30/24 A2999 RMK AO2 SLP153 60009 T03000244 58016;,,,,,,,,,,,,,,,,,,,,,,,,,,,,
72208013880,2000-07-30T17:00:00,FM-15,C,,SE,0.25,mi,"TEMP, PRECIP, SNOW",,,"MMTS, SRG, SNOWBOARD",,,WFO CHS,,,,,,,,,,,,,,,,,,,,,,,,,,,29.99,75,85,0,,,,72,29.98,,,9.94,,150,,13,,,,,,,,,,,,,,,,,,,,,,,,,,,,,,,,,,,,,MET084KCHS 302156Z 15011KT 10SM SCT027 BKN037 BKN044 29/24 A2999 RMK AO2 SLP154 T02940239;,,,,,,,,,,,,,,,,,,,,,,,,,,,,
72208013880,2000-08-01T12:56:00,FM-15,4,,SE,0.25,mi,"TEMP, PRECIP, SNOW",,,"MMTS, SRG, SNOWBOARD",,,WFO CHS,,,,,,,,,,,,,,,,,,,,,,,,,,,30.13,75,88,,,0.01,8,66,30.12,,,10,,170,,14,,,,,,,,,,,,,,,,,,,,,,,,,,,,,,,,,,,,,MET094KCHS 011756Z 17012KT 10SM FEW026 31/24 A3013 RMK AO2 SLP201 60005 T03110244 10317 20261 58004;,,,,,,,,,,,,,,,,,,,,,,,,,,,,
72208013880,2000-08-01T13:00:00,SY-MT,C,,SE,0.25,mi,"TEMP, PRECIP, SNOW",,,"MMTS, SRG, SNOWBOARD",,,WFO CHS,,,,,,,,,,,,,,,,,,,,,,,,,,,30.13,76,88,0,,0.01,8,68,30.12,,30.08,9.94,79,170,,14,,,,,,,,,,,,,,,,,,,,,,,,,,,,,,,,,,,,,SYN098AAXX  01184 72208 12566 21712 10311 20244 30187 40201 58004 60011 91756 333 10317 20261 555 90118;,,,,,,,,,,,,,,,,,,,,,,,,,,,,
72208013880,2000-08-01T17:00:00,FM-15,C,,SE,0.25,mi,"TEMP, PRECIP, SNOW",,,"MMTS, SRG, SNOWBOARD",,,WFO CHS,,,,,,,,,,,,,,,,,,,,,,,,,,,30.07,74,87,0,,,,65,30.06,,,9.94,,150,,12,,,,,,,,,,,,,,,,,,,,,,,,,,,,,,,,,,,,,MET081KCHS 012156Z 15010KT 10SM BKN033 31/23 A3007 RMK AO2 WSHFT 2137 SLP181 T03060233;,,,,,,,,,,,,,,,,,,,,,,,,,,,,
72208013880,2000-08-02T15:00:00,FM-15,C,,SE,0.25,mi,"TEMP, PRECIP, SNOW",,,"MMTS, SRG, SNOWBOARD",,,WFO CHS,,,,,,,,,,,,,,,,,,,,,,,,,,,30.03,75,89,0,,,,63,30.03,,,9.94,,160,,13,,,,,,,,,,,,,,,,,,,,,,,,,,,,,,,,,,,,,MET077KCHS 021956Z 16011KT 10SM FEW034 SCT046 32/24 A3003 RMK AO2 SLP169 T03170239;,,,,,,,,,,,,,,,,,,,,,,,,,,,,
72208013880,2000-08-02T17:00:00,FM-15,C,,SE,0.25,mi,"TEMP, PRECIP, SNOW",,,"MMTS, SRG, SNOWBOARD",,,WFO CHS,,,,,,,,,,,,,,,,,,,,,,,,,,,30.01,75,85,0,,,,72,30.01,,,9.94,,150,,12,,,,,,,,,,,,,,,,,,,,,,,,,,,,,,,,,,,,,MET077KCHS 022156Z 15010KT 10SM FEW033 SCT065 29/24 A3001 RMK AO2 SLP162 T02940239;,,,,,,,,,,,,,,,,,,,,,,,,,,,,
72208013880,2000-08-04T17:00:00,FM-15,C,,SE,0.25,mi,"TEMP, PRECIP, SNOW",,,"MMTS, SRG, SNOWBOARD",,,WFO CHS,,,,,,,,,,,,,,,,,,,,,,,,,,,30.06,73,74,0.08,||FG SHRA,,,97,30.06,,,2.98,,160,,12,,,,,,,,,,,,,,,,,,,,,,,,,,,,,,,,,,,,,MET129KCHS 042156Z 16010KT 3SM -TSRA BR FEW013 BKN044 OVC050 23/23 A3006 RMK AO2 SLP179 OCNL LTGICCCCG VC TS VC MOV NE P0008 T02330228;,,,,,,,,,,,,,,,,,,,,,,,,,,,,
72208013880,2000-08-05T16:00:00,FM-15,C,,SE,0.25,mi,"TEMP, PRECIP, SNOW",,,"MMTS, SRG, SNOWBOARD",,,WFO CHS,,,,,,,,,,,,,,,,,,,,,,,,,,,29.99,76,84,0,,0.05,6,77,29.99,,,9.94,,160,,10,,,,,,,,,,,,,,,,,,,,,,,,,,,,,,,,,,,,,MET083KCHS 052056Z 16009KT 10SM BKN030 OVC039 29/24 A2999 RMK AO2 SLP155 T02890244 56017;,,,,,,,,,,,,,,,,,,,,,,,,,,,,
72208013880,2000-08-07T14:00:00,FM-15,C,,SE,0.25,mi,"TEMP, PRECIP, SNOW",,,"MMTS, SRG, SNOWBOARD",,,WFO CHS,,,,,,,,,,,,,,,,,,,,,,,,,,,30.12,77,89,0,,,,68,30.12,,,9.94,,160,,7,,,,,,,,,,,,,,,,,,,,,,,,,,,,,,,,,,,,,MET070KCHS 071856Z 16006KT 10SM SCT036 32/25 A3012 RMK AO2 SLP200 T03170250;,,,,,,,,,,,,,,,,,,,,,,,,,,,,
72208013880,2000-08-08T15:00:00,FM-15,C,,SE,0.25,mi,"TEMP, PRECIP, SNOW",,,"MMTS, SRG, SNOWBOARD",,,WFO CHS,,,,,,,,,,,,,,,,,,,,,,,,,,,30.05,80,89,0,,,,75,30.05,,,9.94,,160,,14,,,,,,,,,,,,,,,,,,,,,,,,,,,,,,,,,,,,,MET070KCHS 081956Z 16012KT 10SM FEW031 32/27 A3005 RMK AO2 SLP176 T03170267;,,,,,,,,,,,,,,,,,,,,,,,,,,,,
72208013880,2000-08-08T16:00:00,FM-15,C,,SE,0.25,mi,"TEMP, PRECIP, SNOW",,,"MMTS, SRG, SNOWBOARD",,,WFO CHS,,,,,,,,,,,,,,,,,,,,,,,,,,,30.03,80,90,0,,0.05,6,73,30.03,,,9.94,,170,,13,,,,,,,,,,,,,,,,,,,,,,,,,,,,,,,,,,,,,MET073KCHS 082056Z 17011KT 10SM CLR 32/27 A3003 RMK AO2 SLP169 T03220267 56018;,,,,,,,,,,,,,,,,,,,,,,,,,,,,
72208013880,2000-08-09T14:23:00,FM-16,4,,SE,0.25,mi,"TEMP, PRECIP, SNOW",,,"MMTS, SRG, SNOWBOARD",,,WFO CHS,,,,,,,,,,,,,,,,,,,,,,,,,,,30.01,79,90,,||TS,,,71,,,,10,,160,,9,,,,,,,,,,,,,,,,,,,,,,,,,,,,,,,,,,,,,MET087KCHS 091923Z 16008KT 10SM TS SCT049 32/26 A3001 RMK AO2 TSB18 TS OHD MOV SW OCNL LTGCG;,,,,,,,,,,,,,,,,,,,,,,,,,,,,
72208013880,2000-08-10T11:00:00,FM-15,C,,SE,0.25,mi,"TEMP, PRECIP, SNOW",,,"MMTS, SRG, SNOWBOARD",,,WFO CHS,,,,,,,,,,,,,,,,,,,,,,,,,,,29.99,76,86,0,,,,72,29.98,,,8.95,,170,,8,,,,,,,,,,,,,,,,,,,,,,,,,,,,,,,,,,,,,MET066KCHS 101556Z 17007KT 9SM CLR 30/24 A2999 RMK AO2 SLP154 T03000244;,,,,,,,,,,,,,,,,,,,,,,,,,,,,
72208013880,2000-08-15T17:00:00,FM-15,C,,SE,0.25,mi,"TEMP, PRECIP, SNOW",,,"MMTS, SRG, SNOWBOARD",,,WFO CHS,,,,,,,,,,,,,,,,,,,,,,,,,,,30.11,72,87,0,,,,61,30.11,,,7.95,,170,,7,,,,,,,,,,,,,,,,,,,,,,,,,,,,,,,,,,,,,MET069KCHS 152156Z 17006KT 8SM SCT065 31/22 A3011 RMK AO2 SLP196 T03060222;,,,,,,,,,,,,,,,,,,,,,,,,,,,,
72208013880,2000-08-23T12:56:00,FM-15,4,,SE,0.25,mi,"TEMP, PRECIP, SNOW",,,"MMTS, SRG, SNOWBOARD",,,WFO CHS,,,,,,,,,,,,,,,,,,,,,,,,,,,30.23,73,81,0.17,,0.04,6,79,30.23,,,10,,170,,10,,,,,,,,,,,,,,,,,,,,,,,,,,,,,,,,,,,,,MET123KCHS 231756Z 17009KT 10SM FEW022 SCT038 BKN055 27/23 A3023 RMK AO2 RAB15E40 SLP237 P0017 60043 T02720233 10283 20228 56013;,,,,,,,,,,,,,,,,,,,,,,,,,,,,
72208013880,2000-08-23T13:00:00,SY-MT,C,,SE,0.25,mi,"TEMP, PRECIP, SNOW",,,"MMTS, SRG, SNOWBOARD",,,WFO CHS,,,,,,,,,,,,,,,,,,,,,,,,,,,30.23,74,81,0.17,,0.04,6,79,30.23,,30.18,9.94,76,170,,10,,,,,,,,,,,,,,,,,,,,,,,,,,,,,,,,,,,,,SYN082AAXX  23184 72208 12566 61709 10272 20233 30221 40237 56013 60111 91756 555 92318;,,,,,,,,,,,,,,,,,,,,,,,,,,,,
72208013880,2000-08-23T14:00:00,FM-15,C,,SE,0.25,mi,"TEMP, PRECIP, SNOW",,,"MMTS, SRG, SNOWBOARD",,,WFO CHS,,,,,,,,,,,,,,,,,,,,,,,,,,,30.22,73,82,0,,,,74,30.22,,,9.94,,150,,8,,,,,,,,,,,,,,,,,,,,,,,,,,,,,,,,,,,,,MET085KCHS 231856Z 15007KT 120V180 10SM FEW040 SCT050 28/23 A3022 RMK AO2 SLP233 T02780228;,,,,,,,,,,,,,,,,,,,,,,,,,,,,
72208013880,2000-08-26T17:00:00,FM-15,C,,SE,0.25,mi,"TEMP, PRECIP, SNOW",,,"MMTS, SRG, SNOWBOARD",,,WFO CHS,,,,,,,,,,,,,,,,,,,,,,,,,,,29.97,72,82,0,,,,72,29.96,,,7.95,,150,,8,,,,,,,,,,,,,,,,,,,,,,,,,,,,,,,,,,,,,MET066KCHS 262156Z 15007KT 8SM CLR 28/22 A2997 RMK AO2 SLP147 T02780222;,,,,,,,,,,,,,,,,,,,,,,,,,,,,
72208013880,2000-08-27T15:00:00,FM-15,C,,SE,0.25,mi,"TEMP, PRECIP, SNOW",,,"MMTS, SRG, SNOWBOARD",,,WFO CHS,,,,,,,,,,,,,,,,,,,,,,,,,,,29.9,75,84,T,,,,74,29.9,,,9.94,,150,,9,,,,,,,,,,,,,,,,,,,,,,,,,,,,,,,,,,,,,MET132KCHS 271956Z 15008KT 10SM FEW026 SCT032 BKN046 29/24 A2990 RMK AO2 TSE13RAB20E33 SLP124 TS MOVD E CB ALQDS MOVG E P0000 T02890239 $;,,,,,,,,,,,,,,,,,,,,,,,,,,,,
72208013880,2000-08-28T17:00:00,FM-15,C,,SE,0.25,mi,"TEMP, PRECIP, SNOW",,,"MMTS, SRG, SNOWBOARD",,,WFO CHS,,,,,,,,,,,,,,,,,,,,,,,,,,,29.89,72,84,0,,,,67,29.88,,,8.95,,160,,7,,,,,,,,,,,,,,,,,,,,,,,,,,,,,,,,,,,,,MET069KCHS 282156Z 16006KT 9SM OVC038 29/22 A2989 RMK AO2 SLP120 T02890222;,,,,,,,,,,,,,,,,,,,,,,,,,,,,
72208013880,2000-09-01T11:56:00,FM-15,4,,SE,0.25,mi,"TEMP, PRECIP, SNOW",,,"MMTS, SRG, SNOWBOARD",,,WFO CHS,,,,,,,,,,,,,,,,,,,,,,,,,,,30.03,75,81,0.02,||RA,,,84,30.02,,,3,,170,,11,,,,,,,,,,,,,,,,,,,,,,,,,,,,,,,,,,,,,MET101KCHS 011656Z 17010KT 3SM RA BR SCT020 BKN029 BKN035 27/24 A3003 RMK AO2 RAB46 SLP167 P0002 T02670244;,,,,,,,,,,,,,,,,,,,,,,,,,,,,
72208013880,2000-09-01T12:00:00,FM-15,C,,SE,0.25,mi,"TEMP, PRECIP, SNOW",,,"MMTS, SRG, SNOWBOARD",,,WFO CHS,,,,,,,,,,,,,,,,,,,,,,,,,,,30.03,76,80,0.02,||FG RA,,,87,30.02,,,2.98,,170,,12,,,,,,,,,,,,,,,,,,,,,,,,,,,,,,,,,,,,,MET083KCHS 011659Z 17009KT 2 1/2SM -RA BR SCT020 SCT027 BKN037 27/25 A3003 RMK AO2 P0000;,,,,,,,,,,,,,,,,,,,,,,,,,,,,
72208013880,2000-09-01T15:00:00,FM-15,C,,SE,0.25,mi,"TEMP, PRECIP, SNOW",,,"MMTS, SRG, SNOWBOARD",,,WFO CHS,,,,,,,,,,,,,,,,,,,,,,,,,,,29.97,75,86,0,,,,70,29.97,,,8.95,,150,,13,,,,,,,,,,,,,,,,,,,,,,,,,,,,,,,,,,,,,MET077KCHS 011956Z 15011KT 9SM FEW025 30/24 A2997 RMK AO2 RAE1857 SLP148 T03000239;,,,,,,,,,,,,,,,,,,,,,,,,,,,,
72208013880,2000-09-01T15:23:00,FM-16,4,,SE,0.25,mi,"TEMP, PRECIP, SNOW",,,"MMTS, SRG, SNOWBOARD",,,WFO CHS,,,,,,,,,,,,,,,,,,,,,,,,,,,29.97,75,84,,,,,74,,,,8,,150,,10,,,,,,,,,,,,,,,,,,,,,,,,,,,,,,,,,,,,,MET059KCHS 012023Z 15009KT 8SM SCT022 BKN029 29/24 A2997 RMK AO2;,,,,,,,,,,,,,,,,,,,,,,,,,,,,
72208013880,2000-09-01T15:29:00,FM-16,4,,SE,0.25,mi,"TEMP, PRECIP, SNOW",,,"MMTS, SRG, SNOWBOARD",,,WFO CHS,,,,,,,,,,,,,,,,,,,,,,,,,,,29.97,75,84,,,,,74,,,,7,,160,,11,,,,,,,,,,,,,,,,,,,,,,,,,,,,,,,,,,,,,MET052KCHS 012029Z 16010KT 7SM SCT022 29/24 A2997 RMK AO2;,,,,,,,,,,,,,,,,,,,,,,,,,,,,
72208013880,2000-09-01T16:00:00,FM-15,C,,SE,0.25,mi,"TEMP, PRECIP, SNOW",,,"MMTS, SRG, SNOWBOARD",,,WFO CHS,,,,,,,,,,,,,,,,,,,,,,,,,,,29.97,75,84,0,,0.05,5,74,29.97,,,7.95,,150,,12,,,,,,,,,,,,,,,,,,,,,,,,,,,,,,,,,,,,,MET081KCHS 012056Z 15010KT 8SM FEW023 29/24 A2997 RMK AO2 SLP149 60001 T02890239 55017;,,,,,,,,,,,,,,,,,,,,,,,,,,,,
72208013880,2000-09-01T17:00:00,FM-15,C,,SE,0.25,mi,"TEMP, PRECIP, SNOW",,,"MMTS, SRG, SNOWBOARD",,,WFO CHS,,,,,,,,,,,,,,,,,,,,,,,,,,,29.97,74,83,0,,,,74,29.96,,,6.96,,160,,10,,,,,,,,,,,,,,,,,,,,,,,,,,,,,,,,,,,,,MET069KCHS 012156Z 16009KT 7SM FEW025 28/23 A2997 RMK AO2 SLP146 T02830233;,,,,,,,,,,,,,,,,,,,,,,,,,,,,
72208013880,2000-09-02T12:00:00,FM-15,C,,SE,0.25,mi,"TEMP, PRECIP, SNOW",,,"MMTS, SRG, SNOWBOARD",,,WFO CHS,,,,,,,,,,,,,,,,,,,,,,,,,,,29.97,74,83,0,,,,74,29.96,,,9.94,,170,,10,,,,,,,,,,,,,,,,,,,,,,,,,,,,,,,,,,,,,MET084KCHS 021656Z 17009KT 10SM FEW021 SCT027 SCT035 28/23 A2997 RMK AO2 SLP147 T02830233;,,,,,,,,,,,,,,,,,,,,,,,,,,,,
72208013880,2000-09-02T12:56:00,FM-15,4,,SE,0.25,mi,"TEMP, PRECIP, SNOW",,,"MMTS, SRG, SNOWBOARD",,,WFO CHS,,,,,,,,,,,,,,,,,,,,,,,,,,,29.96,73,84,,,0.03,8,70,29.95,,,10,,170,,15,,,,,,,,,,,,,,,,,,,,,,,,,,,,,,,,,,,,,MET101KCHS 021756Z 17013KT 10SM SCT026 SCT033 29/23 A2996 RMK AO2 SLP143 60001 T02940228 10300 20239 58010;,,,,,,,,,,,,,,,,,,,,,,,,,,,,
72208013880,2000-09-02T13:00:00,SY-MT,C,,SE,0.25,mi,"TEMP, PRECIP, SNOW",,,"MMTS, SRG, SNOWBOARD",,,WFO CHS,,,,,,,,,,,,,,,,,,,,,,,,,,,29.96,73,85,0,,0.03,8,68,29.95,,29.91,9.94,77,170,,15,,,,,,,,,,,,,,,,,,,,,,,,,,,,,,,,,,,,,SYN098AAXX  02184 72208 12566 41713 10294 20228 30129 40143 58010 69931 91756 333 10300 20239 555 90218;,,,,,,,,,,,,,,,,,,,,,,,,,,,,
72208013880,2000-09-02T14:00:00,FM-15,C,,SE,0.25,mi,"TEMP, PRECIP, SNOW",,,"MMTS, SRG, SNOWBOARD",,,WFO CHS,,,,,,,,,,,,,,,,,,,,,,,,,,,29.92,75,81,T,,,,82,29.92,,,9.94,,170,,12,,,,,,,,,,,,,,,,,,,,,,,,,,,,,,,,,,,,,MET085KCHS 021856Z 17010KT 10SM SCT014 27/24 A2992 RMK AO2 RAB09E41 SLP132 P0000 T02720239;,,,,,,,,,,,,,,,,,,,,,,,,,,,,
72208013880,2000-09-03T11:00:00,FM-15,C,,SE,0.25,mi,"TEMP, PRECIP, SNOW",,,"MMTS, SRG, SNOWBOARD",,,WFO CHS,,,,,,,,,,,,,,,,,,,,,,,,,,,29.93,75,79,T,,,,88,29.93,,,8.95,,170,,8,,,,,,,,,,,,,,,,,,,,,,,,,,,,,,,,,,,,,MET081KCHS 031556Z 17007KT 9SM CLR 26/24 A2993 RMK AO2 RAB28E40 SLP135 P0000 T02610239;,,,,,,,,,,,,,,,,,,,,,,,,,,,,
72208013880,2000-09-03T12:56:00,FM-15,4,,SE,0.25,mi,"TEMP, PRECIP, SNOW",,,"MMTS, SRG, SNOWBOARD",,,WFO CHS,,,,,,,,,,,,,,,,,,,,,,,,,,,29.9,73,81,,,0.04,8,79,29.9,,,10,,170,,7,,,,,,,,,,,,,,,,,,,,,,,,,,,,,,,,,,,,,MET091KCHS 031756Z 17006KT 10SM CLR 27/23 A2990 RMK AO2 SLP124 60002 T02670233 10267 20233 58013;,,,,,,,,,,,,,,,,,,,,,,,,,,,,
72208013880,2000-09-03T13:00:00,SY-MT,C,,SE,0.25,mi,"TEMP, PRECIP, SNOW",,,"MMTS, SRG, SNOWBOARD",,,WFO CHS,,,,,,,,,,,,,,,,,,,,,,,,,,,29.9,74,80,0,,0.04,8,82,29.9,CLR:00,29.85,9.94,76,170,,7,,,,,,,,,,,,,,,,,,,,,,,,,,,,,,,,,,,,,SYN082AAXX  03184 72208 12966 01706 10267 20233 30109 40124 58013 69951 91756 555 90318;,,,,,,,,,,,,,,,,,,,,,,,,,,,,
72208013880,2000-09-03T14:00:00,FM-15,C,,SE,0.25,mi,"TEMP, PRECIP, SNOW",,,"MMTS, SRG, SNOWBOARD",,,WFO CHS,,,,,,,,,,,,,,,,,,,,,,,,,,,29.88,74,85,0,,,,70,29.88,,,9.94,,170,,12,,,,,,,,,,,,,,,,,,,,,,,,,,,,,,,,,,,,,MET067KCHS 031856Z 17010KT 10SM CLR 29/23 A2988 RMK AO2 SLP117 T02940233;,,,,,,,,,,,,,,,,,,,,,,,,,,,,
72208013880,2000-09-03T15:36:00,FM-16,4,,SE,0.25,mi,"TEMP, PRECIP, SNOW",,,"MMTS, SRG, SNOWBOARD",,,WFO CHS,,,,,,,,,,,,,,,,,,,,,,,,,,,29.86,75,81,,,,,84,,,,10,,170,,10,,,,,,,,,,,,,,,,,,,,,,,,,,,,,,,,,,,,,MET053KCHS 032036Z 17009KT 10SM BKN016 27/24 A2986 RMK AO2;,,,,,,,,,,,,,,,,,,,,,,,,,,,,
72208013880,2000-09-03T16:00:00,FM-15,C,,SE,0.25,mi,"TEMP, PRECIP, SNOW",,,"MMTS, SRG, SNOWBOARD",,,WFO CHS,,,,,,,,,,,,,,,,,,,,,,,,,,,29.86,75,81,0,,0.04,6,82,29.85,,,9.94,,170,,10,,,,,,,,,,,,,,,,,,,,,,,,,,,,,,,,,,,,,MET076KCHS 032056Z 17009KT 10SM BKN016 27/24 A2986 RMK AO2 SLP109 T02720239 56014;,,,,,,,,,,,,,,,,,,,,,,,,,,,,
72208013880,2000-09-03T16:02:00,FM-16,4,,SE,0.25,mi,"TEMP, PRECIP, SNOW",,,"MMTS, SRG, SNOWBOARD",,,WFO CHS,,,,,,,,,,,,,,,,,,,,,,,,,,,29.86,75,81,,,,,84,,,,10,,150,,10,,,,,,,,,,,,,,,,,,,,,,,,,,,,,,,,,,,,,MET053KCHS 032102Z 15009KT 10SM SCT018 27/24 A2986 RMK AO2;,,,,,,,,,,,,,,,,,,,,,,,,,,,,
72208013880,2000-09-03T17:00:00,FM-15,C,,SE,0.25,mi,"TEMP, PRECIP, SNOW",,,"MMTS, SRG, SNOWBOARD",,,WFO CHS,,,,,,,,,,,,,,,,,,,,,,,,,,,29.87,75,82,0,,,,79,29.86,,,9.94,,170,,13,,,,,,,,,,,,,,,,,,,,,,,,,,,,,,,,,,,,,MET067KCHS 032156Z 17011KT 10SM CLR 28/24 A2987 RMK AO2 SLP112 T02780239;,,,,,,,,,,,,,,,,,,,,,,,,,,,,
72208013880,2000-09-04T12:56:00,FM-15,4,,SE,0.25,mi,"TEMP, PRECIP, SNOW",,,"MMTS, SRG, SNOWBOARD",,,WFO CHS,,,,,,,,,,,,,,,,,,,,,,,,,,,29.88,75,82,,,0.04,8,79,29.88,,,10,,170,,7,,,,,,,,,,,,,,,,,,,,,,,,,,,,,,,,,,,,,MET101KCHS 041756Z 17006KT 10SM FEW015 SCT022 28/24 A2988 RMK AO2 SLP117 60001 T02830239 10283 20228 58013;,,,,,,,,,,,,,,,,,,,,,,,,,,,,
72208013880,2000-09-04T13:00:00,SY-MT,C,,SE,0.25,mi,"TEMP, PRECIP, SNOW",,,"MMTS, SRG, SNOWBOARD",,,WFO CHS,,,,,,,,,,,,,,,,,,,,,,,,,,,29.88,75,83,0,,0.04,8,77,29.88,,29.83,9.94,77,170,,7,,,,,,,,,,,,,,,,,,,,,,,,,,,,,,,,,,,,,SYN082AAXX  04184 72208 12466 41706 10283 20239 30102 40117 58013 69931 91756 555 90418;,,,,,,,,,,,,,,,,,,,,,,,,,,,,
72208013880,2000-09-20T12:56:00,FM-15,4,,SE,0.25,mi,"TEMP, PRECIP, SNOW",,,"MMTS, SRG, SNOWBOARD",,,WFO CHS,,,,,,,,,,,,,,,,,,,,,,,,,,,30.06,75,81,,,0.05,8,84,30.05,,,10,,150,,9,,,,,,,,,,,,,,,,,,,,,,,,,,,,,,,,,,,,,MET088KCHS 201756Z 15008KT 10SM FEW022 27/24 A3006 RMK AO2 SLP177 T02720244 10294 20206 58016;,,,,,,,,,,,,,,,,,,,,,,,,,,,,
72208013880,2000-09-20T13:00:00,SY-MT,C,,SE,0.25,mi,"TEMP, PRECIP, SNOW",,,"MMTS, SRG, SNOWBOARD",,,WFO CHS,,,,,,,,,,,,,,,,,,,,,,,,,,,30.06,76,81,0,,0.05,8,85,30.05,,30.01,9.94,77,150,,9,,,,,,,,,,,,,,,,,,,,,,,,,,,,,,,,,,,,,SYN092AAXX  20184 72208 32566 21508 10272 20244 30163 40177 58016 91756 333 10294 20206 555 92018;,,,,,,,,,,,,,,,,,,,,,,,,,,,,
72208013880,2000-09-20T13:42:00,FM-16,4,,SE,0.25,mi,"TEMP, PRECIP, SNOW",,,"MMTS, SRG, SNOWBOARD",,,WFO CHS,,,,,,,,,,,,,,,,,,,,,,,,,,,30.05,75,79,,||SHRA TS,,,89,,,,10,,160,,7,,,,,,,,,,,,,,,,,,,,,,,,,,,,,,,,,,,,,MET076KCHS 201842Z 16006KT 10SM -TSRA SCT017 26/24 A3005 RMK AO2 TSB37RAB32 P0000;,,,,,,,,,,,,,,,,,,,,,,,,,,,,
72208013880,2000-09-22T11:00:00,FM-15,C,,SE,0.25,mi,"TEMP, PRECIP, SNOW",,,"MMTS, SRG, SNOWBOARD",,,WFO CHS,,,,,,,,,,,,,,,,,,,,,,,,,,,30.07,77,83,0,,,,82,30.06,,,9.94,,150,,10,,,,,,,,,,,,,,,,,,,,,,,,,,,,,,,,,,,,,MET077KCHS 221556Z 15009KT 10SM FEW014 SCT027 28/25 A3007 RMK AO2 SLP181 T02830250;,,,,,,,,,,,,,,,,,,,,,,,,,,,,
72208013880,2000-09-22T12:25:00,FM-15,4,,SE,0.25,mi,"TEMP, PRECIP, SNOW",,,"MMTS, SRG, SNOWBOARD",,,WFO CHS,,,,,,,,,,,,,,,,,,,,,,,,,,,30.06,77,82,T,||TS,,,84,,,,10,,150,,13,,,,,,,,,,,,,,,,,,,,,,,,,,,,,,,,,,,,,MET090KCHS 221725Z 15011KT 10SM TS SCT016 BKN028 OVC060 28/25 A3006 RMK AO2 TSB25RAB14E25 P0000;,,,,,,,,,,,,,,,,,,,,,,,,,,,,
72208013880,2000-09-22T12:56:00,FM-15,4,,SE,0.25,mi,"TEMP, PRECIP, SNOW",,,"MMTS, SRG, SNOWBOARD",,,WFO CHS,,,,,,,,,,,,,,,,,,,,,,,,,,,30.06,75,82,T,||TS,0.03,6,79,30.06,,,10,,150,,11,,,,,,,,,,,,,,,,,,,,,,,,,,,,,,,,,,,,,MET141KCHS 221756Z COR 15010KT 10SM TS SCT018 BKN024 BKN031 28/24 A3006 RMK AO2 TS VC TSB25RAB14E25 SLP178 P0000 60000 T02780244 10289 20250 56009;,,,,,,,,,,,,,,,,,,,,,,,,,,,,
72208013880,2000-09-22T13:00:00,SY-MT,C,,SE,0.25,mi,"TEMP, PRECIP, SNOW",,,"MMTS, SRG, SNOWBOARD",,,WFO CHS,,,,,,,,,,,,,,,,,,,,,,,,,,,30.06,76,82,T,||TS,0.03,6,82,30.06,,30.01,9.94,78,150,,12,,,,,,,,,,,,,,,,,,,,,,,,,,,,,,,,,,,,,SYN104AAXX  22184 72208 11466 61510 10278 20244 30163 40178 56009 69901 795// 91756 333 10289 20250 555 92218;,,,,,,,,,,,,,,,,,,,,,,,,,,,,
72208013880,2000-09-22T13:32:00,FM-16,4,,SE,0.25,mi,"TEMP, PRECIP, SNOW",,,"MMTS, SRG, SNOWBOARD",,,WFO CHS,,,,,,,,,,,,,,,,,,,,,,,,,,,30.05,73,81,,,,,79,,,,10,,150,,15,,,,,,,,,,,,,,,,,,,,,,,,,,,,,,,,,,,,,MET073KCHS 221832Z 15013KT 10SM SCT018 BKN030 BKN050 27/23 A3005 RMK AO2 TSE32;,,,,,,,,,,,,,,,,,,,,,,,,,,,,
72208013880,2000-09-22T14:00:00,FM-15,C,,SE,0.25,mi,"TEMP, PRECIP, SNOW",,,"MMTS, SRG, SNOWBOARD",,,WFO CHS,,,,,,,,,,,,,,,,,,,,,,,,,,,30.05,74,80,0,,,,82,30.04,,,9.94,,160,,12,,,,,,,,,,,,,,,,,,,,,,,,,,,,,,,,,,,,,MET073KCHS 221856Z 16010KT 10SM CLR 27/23 A3005 RMK AO2 TSE32 SLP174 T02670233;,,,,,,,,,,,,,,,,,,,,,,,,,,,,
72208013880,2000-09-22T14:04:00,FM-16,4,,SE,0.25,mi,"TEMP, PRECIP, SNOW",,,"MMTS, SRG, SNOWBOARD",,,WFO CHS,,,,,,,,,,,,,,,,,,,,,,,,,,,30.05,73,79,,,,,84,,,,10,,170,,14,,,,,,,,,,,,,,,,,,,,,,,,,,,,,,,,,,,,,MET053KCHS 221904Z 17012KT 10SM BKN015 26/23 A3005 RMK AO2;,,,,,,,,,,,,,,,,,,,,,,,,,,,,
72208013880,2000-09-22T15:00:00,FM-15,C,,SE,0.25,mi,"TEMP, PRECIP, SNOW",,,"MMTS, SRG, SNOWBOARD",,,WFO CHS,,,,,,,,,,,,,,,,,,,,,,,,,,,30.04,73,79,0,,,,82,30.04,,,9.94,,150,,8,,,,,,,,,,,,,,,,,,,,,,,,,,,,,,,,,,,,,MET070KCHS 221956Z 15007KT 10SM BKN015 26/23 A3004 RMK AO2 SLP172 T02610228;,,,,,,,,,,,,,,,,,,,,,,,,,,,,
72208013880,2000-09-22T15:02:00,FM-16,4,,SE,0.25,mi,"TEMP, PRECIP, SNOW",,,"MMTS, SRG, SNOWBOARD",,,WFO CHS,,,,,,,,,,,,,,,,,,,,,,,,,,,30.04,73,79,,,,,84,,,,10,,150,,8,,,,,,,,,,,,,,,,,,,,,,,,,,,,,,,,,,,,,MET060KCHS 222002Z 15007KT 10SM SCT015 BKN060 26/23 A3004 RMK AO2;,,,,,,,,,,,,,,,,,,,,,,,,,,,,
72208013880,2000-09-22T16:00:00,FM-15,C,,SE,0.25,mi,"TEMP, PRECIP, SNOW",,,"MMTS, SRG, SNOWBOARD",,,WFO CHS,,,,,,,,,,,,,,,,,,,,,,,,,,,30.03,73,78,T,,0.02,8,85,30.03,,,9.94,,160,,12,,,,,,,,,,,,,,,,,,,,,,,,,,,,,,,,,,,,,MET104KCHS 222056Z 16010KT 10SM FEW015 SCT090 26/23 A3003 RMK AO2 RAB03E23 SLP168 P0000 60000 T02560228 58007;,,,,,,,,,,,,,,,,,,,,,,,,,,,,
72208013880,2000-10-03T14:00:00,FM-15,C,,SE,0.25,mi,"TEMP, PRECIP, SNOW",,,"MMTS, SRG, SNOWBOARD",,,WFO CHS,,,,,,,,,,,,,,,,,,,,,,,,,,,30.07,60,81,0,,,,49,30.06,,,9.94,,150,,9,,,,,,,,,,,,,,,,,,,,,,,,,,,,,,,,,,,,,MET067KCHS 031856Z 15008KT 10SM CLR 27/16 A3007 RMK AO2 SLP180 T02720156;,,,,,,,,,,,,,,,,,,,,,,,,,,,,
72208013880,2000-10-03T15:00:00,FM-15,C,,SE,0.25,mi,"TEMP, PRECIP, SNOW",,,"MMTS, SRG, SNOWBOARD",,,WFO CHS,,,,,,,,,,,,,,,,,,,,,,,,,,,30.05,59,80,0,,,,49,30.05,,,9.94,,150,,8,,,,,,,,,,,,,,,,,,,,,,,,,,,,,,,,,,,,,MET067KCHS 031956Z 15007KT 10SM CLR 27/15 A3005 RMK AO2 SLP176 T02670150;,,,,,,,,,,,,,,,,,,,,,,,,,,,,
72208013880,2000-10-03T16:00:00,FM-15,C,,SE,0.25,mi,"TEMP, PRECIP, SNOW",,,"MMTS, SRG, SNOWBOARD",,,WFO CHS,,,,,,,,,,,,,,,,,,,,,,,,,,,30.05,59,79,0,,0.03,5,50,30.05,,,9.94,,160,,10,,,,,,,,,,,,,,,,,,,,,,,,,,,,,,,,,,,,,MET073KCHS 032056Z 16009KT 10SM CLR 26/15 A3005 RMK AO2 SLP176 T02610150 55010;,,,,,,,,,,,,,,,,,,,,,,,,,,,,
72208013880,2000-10-03T17:00:00,FM-15,C,,SE,0.25,mi,"TEMP, PRECIP, SNOW",,,"MMTS, SRG, SNOWBOARD",,,WFO CHS,,,,,,,,,,,,,,,,,,,,,,,,,,,30.06,58,76,0,,,,54,30.05,,,9.94,,150,,8,,,,,,,,,,,,,,,,,,,,,,,,,,,,,,,,,,,,,MET067KCHS 032156Z 15007KT 10SM CLR 24/14 A3006 RMK AO2 SLP177 T02440144;,,,,,,,,,,,,,,,,,,,,,,,,,,,,
72208013880,2000-10-05T17:16:00,FM-16,4,,SE,0.25,mi,"TEMP, PRECIP, SNOW",,,"MMTS, SRG, SNOWBOARD",,,WFO CHS,,,,,,,,,,,,,,,,,,,,,,,,,,,29.97,73,79,,,,,84,,,,10,,150,,9,,,,,,,,,,,,,,,,,,,,,,,,,,,,,,,,,,,,,MET053KCHS 052216Z 15008KT 10SM FEW028 26/23 A2997 RMK AO2;,,,,,,,,,,,,,,,,,,,,,,,,,,,,
72208013880,2000-10-16T17:00:00,FM-15,C,,SE,0.25,mi,"TEMP, PRECIP, SNOW",,,"MMTS, SRG, SNOWBOARD",,,WFO CHS,,,,,,,,,,,,,,,,,,,,,,,,,,,30.04,52,76,0,,,,43,30.03,,,9.94,,150,,7,,,,,,,,,,,,,,,,,,,,,,,,,,,,,,,,,,,,,MET067KCHS 162156Z 15006KT 10SM CLR 24/11 A3004 RMK AO2 SLP171 T02440111;,,,,,,,,,,,,,,,,,,,,,,,,,,,,
72208013880,2000-10-21T17:00:00,FM-15,C,,SE,0.25,mi,"TEMP, PRECIP, SNOW",,,"MMTS, SRG, SNOWBOARD",,,WFO CHS,,,,,,,,,,,,,,,,,,,,,,,,,,,30.18,59,73,0,,,,62,30.18,,,9.94,,150,,7,,,,,,,,,,,,,,,,,,,,,,,,,,,,,,,,,,,,,MET067KCHS 212156Z 15006KT 10SM CLR 23/15 A3018 RMK AO2 SLP220 T02280150;,,,,,,,,,,,,,,,,,,,,,,,,,,,,
72208013880,2000-11-02T16:00:00,FM-15,C,,SE,0.25,mi,"TEMP, PRECIP, SNOW",,,"MMTS, SRG, SNOWBOARD",,,WFO CHS,,,,,,,,,,,,,,,,,,,,,,,,,,,30.12,54,73,0,,0.01,5,51,30.11,,,9.94,,150,,9,,,,,,,,,,,,,,,,,,,,,,,,,,,,,,,,,,,,,MET073KCHS 022056Z 15008KT 10SM CLR 23/12 A3012 RMK AO2 SLP198 T02280122 55005;,,,,,,,,,,,,,,,,,,,,,,,,,,,,
72208013880,2000-11-05T17:00:00,FM-15,C,,SE,0.25,mi,"TEMP, PRECIP, SNOW",,,"MMTS, SRG, SNOWBOARD",,,WFO CHS,,,,,,,,,,,,,,,,,,,,,,,,,,,29.96,54,64,0,,,,70,29.96,,,9.94,,160,,7,,,,,,,,,,,,,,,,,,,,,,,,,,,,,,,,,,,,,MET067KCHS 052156Z 16006KT 10SM CLR 18/12 A2996 RMK AO2 SLP146 T01780122;,,,,,,,,,,,,,,,,,,,,,,,,,,,,
72208013880,2000-11-07T11:00:00,FM-15,C,,SE,0.25,mi,"TEMP, PRECIP, SNOW",,,"MMTS, SRG, SNOWBOARD",,,WFO CHS,,,,,,,,,,,,,,,,,,,,,,,,,,,30.07,69,77,0,,,,77,30.06,,,9.94,,160,,13,,,,,,,,,,,,,,,,,,,,,,,,,,,,,,,,,,,,,MET084KCHS 071556Z 16011KT 10SM FEW020 SCT025 BKN033 25/21 A3007 RMK AO2 SLP180 T02500206;,,,,,,,,,,,,,,,,,,,,,,,,,,,,
72208013880,2000-11-07T11:06:00,FM-16,4,,SE,0.25,mi,"TEMP, PRECIP, SNOW",,,"MMTS, SRG, SNOWBOARD",,,WFO CHS,,,,,,,,,,,,,,,,,,,,,,,,,,,30.07,70,79,,,,,74,,,,10,,160,,14,,,,,,,,,,,,,,,,,,,,,,,,,,,,,,,,,,,,,MET060KCHS 071606Z 16012KT 10SM BKN023 BKN033 26/21 A3007 RMK AO2;,,,,,,,,,,,,,,,,,,,,,,,,,,,,
72208013880,2000-11-07T11:14:00,FM-16,4,,SE,0.25,mi,"TEMP, PRECIP, SNOW",,,"MMTS, SRG, SNOWBOARD",,,WFO CHS,,,,,,,,,,,,,,,,,,,,,,,,,,,30.07,68,79,,,,,70,,,,10,,170,,13,,,,,,,,,,,,,,,,,,,,,,,,,,,,,,,,,,,,,MET060KCHS 071614Z 17011KT 10SM FEW023 BKN033 26/20 A3007 RMK AO2;,,,,,,,,,,,,,,,,,,,,,,,,,,,,
72208013880,2000-11-07T14:00:00,FM-15,C,,SE,0.25,mi,"TEMP, PRECIP, SNOW",,,"MMTS, SRG, SNOWBOARD",,,WFO CHS,,,,,,,,,,,,,,,,,,,,,,,,,,,30.01,68,80,0,,,,67,30.01,,,7.95,,170,,9,,,,,,,,,,,,,,,,,,,,,,,,,,,,,,,,,,,,,MET066KCHS 071856Z 17008KT 8SM CLR 27/20 A3001 RMK AO2 SLP163 T02670200;,,,,,,,,,,,,,,,,,,,,,,,,,,,,
72208013880,2000-11-07T16:00:00,FM-15,E,,SE,0.25,mi,"TEMP, PRECIP, SNOW",,,"MMTS, SRG, SNOWBOARD",,,WFO CHS,,,,,,,,,,,,,,,,,,,,,,,,,,,30.02,68,78,0,||HZ,,,71,30.02,,,5.97,,170,,8,,,,,,,,,,,,,,,,,,,,,,,,,,,,,,,,,,,,,,,,,,,,,,,,,,,,,,,,,,,,,,,,,
72208013880,2000-11-23T16:00:00,FM-15,C,,SE,0.25,mi,"TEMP, PRECIP, SNOW",,,"MMTS, SRG, SNOWBOARD",,,WFO CHS,,,,,,,,,,,,,,,,,,,,,,,,,,,30.27,32,56,0,,0.03,5,40,30.27,,,9.94,,150,,7,,,,,,,,,,,,,,,,,,,,,,,,,,,,,,,,,,,,,MET075KCHS 232056Z 15006KT 10SM CLR 13/00 A3027 RMK AO2 SLP250 T01330000 55009 $;,,,,,,,,,,,,,,,,,,,,,,,,,,,,
72208013880,2000-11-25T11:00:00,FM-15,C,,SE,0.25,mi,"TEMP, PRECIP, SNOW",,,"MMTS, SRG, SNOWBOARD",,,WFO CHS,,,,,,,,,,,,,,,,,,,,,,,,,,,29.95,67,68,0.04,||RA,,,96,29.95,,,8.95,,150,,17,,,,,,,,,,,,,,,,,,,,,,,,,,,,,,,,,,,,,MET102KCHS 251556Z 15015KT 9SM -RA SCT010 BKN018 OVC026 20/19 A2995 RMK AO2 RAE17B33 SLP142 P0004 T02000194;,,,,,,,,,,,,,,,,,,,,,,,,,,,,
72208013880,2000-11-25T11:39:00,FM-16,4,,SE,0.25,mi,"TEMP, PRECIP, SNOW",,,"MMTS, SRG, SNOWBOARD",,,WFO CHS,,,,,,,,,,,,,,,,,,,,,,,,,,,29.94,68,70,,||RA,,,94,,,,8,,160,,13,,,,,,,,,,,,,,,,,,,,,,,,,,,,,,,,,,,,,MET087KCHS 251639Z 16011KT 8SM -RA SCT007 BKN020 OVC029 21/20 A2994 RMK AO2 WSHFT 1620 P0001;,,,,,,,,,,,,,,,,,,,,,,,,,,,,
72208013880,2000-11-25T12:00:00,FM-15,C,,SE,0.25,mi,"TEMP, PRECIP, SNOW",,,"MMTS, SRG, SNOWBOARD",,,WFO CHS,,,,,,,,,,,,,,,,,,,,,,,,,,,29.91,68,69,0.02,||FG RA,,,96,29.91,,,3.98,,160,,13,,,,,,,,,,,,,,,,,,,,,,,,,,,,,,,,,,,,,MET114KCHS 251656Z 16011KT 4SM -RA BR FEW009 BKN016 OVC033 21/20 A2991 RMK AO2 WSHFT 1620 PRESFR SLP127 P0002 T02060200;,,,,,,,,,,,,,,,,,,,,,,,,,,,,
72208013880,2000-12-16T14:00:00,FM-15,C,,SE,0.25,mi,"TEMP, PRECIP, SNOW",,,"MMTS, SRG, SNOWBOARD",,,WFO CHS,,,,,,,,,,,,,,,,,,,,,,,,,,,30.07,61,70,0,,,,73,30.06,,,9.94,,150,,8,,,,,,,,,,,,,,,,,,,,,,,,,,,,,,,,,,,,,MET070KCHS 161856Z 15007KT 10SM FEW014 21/16 A3007 RMK AO2 SLP180 T02110161;,,,,,,,,,,,,,,,,,,,,,,,,,,,,
72208013880,2000-12-16T17:00:00,FM-15,C,,SE,0.25,mi,"TEMP, PRECIP, SNOW",,,"MMTS, SRG, SNOWBOARD",,,WFO CHS,,,,,,,,,,,,,,,,,,,,,,,,,,,30.02,63,66,0,,,,90,30.02,,,8.95,,150,,8,,,,,,,,,,,,,,,,,,,,,,,,,,,,,,,,,,,,,MET066KCHS 162156Z 15007KT 9SM CLR 19/17 A3002 RMK AO2 SLP166 T01890172;,,,,,,,,,,,,,,,,,,,,,,,,,,,,
72208013880,2001-01-18T17:33:00,FM-16,4,,SE,0.25,mi,"TEMP, PRECIP, SNOW",,,"MMTS, SRG, SNOWBOARD",,,WFO CHS,,,,,,,,,,,,,,,,,,,,,,,,,,,30.02,59,63,,,,,88,,,,6,,160,,13,,,,,,,,,,,,,,,,,,,,,,,,,,,,,,,,,,,,,MET062KCHS 182233Z 16011KT 6SM BR FEW007 SCT020 17/15 A3002 RMK AO2;,,,,,,,,,,,,,,,,,,,,,,,,,,,,
72208013880,2001-01-24T11:00:00,FM-15,C,,SE,0.25,mi,"TEMP, PRECIP, SNOW",,,"MMTS, SRG, SNOWBOARD",,,WFO CHS,,,,,,,,,,,,,,,,,,,,,,,,,,,30.14,24,53,0,,,,32,30.14,,,9.94,,170,,8,,,,,,,,,,,,,,,,,,,,,,,,,,,,,,,,,,,,,MET068KCHS 241556Z 17007KT 10SM CLR 12/M04 A3014 RMK AO2 SLP206 T01171044;,,,,,,,,,,,,,,,,,,,,,,,,,,,,
72208013880,2001-01-24T12:00:00,FM-15,C,,SE,0.25,mi,"TEMP, PRECIP, SNOW",,,"MMTS, SRG, SNOWBOARD",,,WFO CHS,,,,,,,,,,,,,,,,,,,,,,,,,,,30.11,25,57,0,,,,29,30.11,,,9.94,,170,,9,,,,,,,,,,,,,,,,,,,,,,,,,,,,,,,,,,,,,MET068KCHS 241656Z 17008KT 10SM CLR 14/M04 A3011 RMK AO2 SLP196 T01391039;,,,,,,,,,,,,,,,,,,,,,,,,,,,,
72208013880,2001-01-26T15:00:00,FM-15,C,,SE,0.25,mi,"TEMP, PRECIP, SNOW",,,"MMTS, SRG, SNOWBOARD",,,WFO CHS,,,,,,,,,,,,,,,,,,,,,,,,,,,30.27,17,50,0,,,,27,30.27,,,9.94,,170,,9,,,,,,,,,,,,,,,,,,,,,,,,,,,,,,,,,,,,,MET068KCHS 261956Z 17008KT 10SM CLR 10/M08 A3027 RMK AO2 SLP251 T01001083;,,,,,,,,,,,,,,,,,,,,,,,,,,,,
72208013880,2001-01-26T16:00:00,FM-15,C,,SE,0.25,mi,"TEMP, PRECIP, SNOW",,,"MMTS, SRG, SNOWBOARD",,,WFO CHS,,,,,,,,,,,,,,,,,,,,,,,,,,,30.27,24,48,0,,0.06,6,39,30.27,,,9.94,,160,,9,,,,,,,,,,,,,,,,,,,,,,,,,,,,,,,,,,,,,MET074KCHS 262056Z 16008KT 10SM CLR 09/M04 A3027 RMK AO2 SLP251 T00891044 56020;,,,,,,,,,,,,,,,,,,,,,,,,,,,,
72208013880,2001-01-26T17:00:00,FM-15,C,,SE,0.25,mi,"TEMP, PRECIP, SNOW",,,"MMTS, SRG, SNOWBOARD",,,WFO CHS,,,,,,,,,,,,,,,,,,,,,,,,,,,30.27,26,46,0,,,,46,30.27,,,9.94,,160,,12,,,,,,,,,,,,,,,,,,,,,,,,,,,,,,,,,,,,,MET068KCHS 262156Z 16010KT 10SM CLR 08/M03 A3027 RMK AO2 SLP251 T00781033;,,,,,,,,,,,,,,,,,,,,,,,,,,,,
72208013880,2001-01-28T16:00:00,FM-15,C,,SE,0.25,mi,"TEMP, PRECIP, SNOW",,,"MMTS, SRG, SNOWBOARD",,,WFO CHS,,,,,,,,,,,,,,,,,,,,,,,,,,,30.32,36,58,0,,0.03,5,44,30.32,,,9.94,,150,,12,,,,,,,,,,,,,,,,,,,,,,,,,,,,,,,,,,,,,MET073KCHS 282056Z 15010KT 10SM CLR 14/02 A3032 RMK AO2 SLP266 T01440022 55009;,,,,,,,,,,,,,,,,,,,,,,,,,,,,
72208013880,2001-01-28T17:00:00,FM-15,C,,SE,0.25,mi,"TEMP, PRECIP, SNOW",,,"MMTS, SRG, SNOWBOARD",,,WFO CHS,,,,,,,,,,,,,,,,,,,,,,,,,,,30.34,35,54,0,,,,49,30.33,,,9.94,,150,,9,,,,,,,,,,,,,,,,,,,,,,,,,,,,,,,,,,,,,MET067KCHS 282156Z 15008KT 10SM CLR 12/02 A3034 RMK AO2 SLP271 T01220017;,,,,,,,,,,,,,,,,,,,,,,,,,,,,
72208013880,2001-02-07T15:00:00,FM-15,C,,SE,0.25,mi,"TEMP, PRECIP, SNOW",,,"MMTS, SRG, SNOWBOARD",,,WFO CHS,,,,,,,,,,,,,,,,,,,,,,,,,,,30.28,36,69,0,,,,30,30.28,,,9.94,,160,,12,,,,,,,,,,,,,,,,,,,,,,,,,,,,,,,,,,,,,MET067KCHS 071956Z 16010KT 10SM CLR 21/02 A3028 RMK AO2 SLP253 T02060022;,,,,,,,,,,,,,,,,,,,,,,,,,,,,
72208013880,2001-02-07T16:00:00,SY-MT,C,,SE,0.25,mi,"TEMP, PRECIP, SNOW",,,"MMTS, SRG, SNOWBOARD",,,WFO CHS,,,,,,,,,,,,,,,,,,,,,,,,,,,30.29,33,67,0,,0.01,5,28,30.29,,30.24,9.94,51,170,,10,,,,,,,,,,,,,,,,,,,,,,,,,,,,,,,,,,,,,SYN076AAXX  07214 72208 35966 01709 18194 20006 30241 40256 55004 92056 555 90721;MET073KCHS 072056Z 17009KT 10SM CLR 19/01 A3029 RMK AO2 SLP256 T01940006 55004;,,,,,,,,,,,,,,,,,,,,,,,,,,,,
72208013880,2001-02-08T11:00:00,FM-15,C,,SE,0.25,mi,"TEMP, PRECIP, SNOW",,,"MMTS, SRG, SNOWBOARD",,,WFO CHS,,,,,,,,,,,,,,,,,,,,,,,,,,,30.45,44,67,0,,,,44,30.45,,,9.94,,150,,8,,,,,,,,,,,,,,,,,,,,,,,,,,,,,,,,,,,,,MET067KCHS 081556Z 15007KT 10SM CLR 19/07 A3045 RMK AO2 SLP312 T01940067;,,,,,,,,,,,,,,,,,,,,,,,,,,,,
72208013880,2001-02-08T12:00:00,FM-15,C,,SE,0.25,mi,"TEMP, PRECIP, SNOW",,,"MMTS, SRG, SNOWBOARD",,,WFO CHS,,,,,,,,,,,,,,,,,,,,,,,,,,,30.44,43,69,0,,,,39,30.44,,,9.94,,160,,9,,,,,,,,,,,,,,,,,,,,,,,,,,,,,,,,,,,,,MET067KCHS 081656Z 16008KT 10SM CLR 21/06 A3044 RMK AO2 SLP309 T02060061;,,,,,,,,,,,,,,,,,,,,,,,,,,,,
72208013880,2001-02-09T11:00:00,FM-15,C,,SE,0.25,mi,"TEMP, PRECIP, SNOW",,,"MMTS, SRG, SNOWBOARD",,,WFO CHS,,,,,,,,,,,,,,,,,,,,,,,,,,,30.32,56,70,0,,,,61,,,,9.94,,170,,7,,,,,,,,,,,,,,,,,,,,,,,,,,,,,,,,,,,,,MET069KCHS 091556Z 17006KT 10SM FEW045 21/13 A3032 RMK AO2 SLPNO T02110133;,,,,,,,,,,,,,,,,,,,,,,,,,,,,
72208013880,2001-02-19T14:00:00,FM-15,C,,SE,0.25,mi,"TEMP, PRECIP, SNOW",,,"MMTS, SRG, SNOWBOARD",,,WFO CHS,,,,,,,,,,,,,,,,,,,,,,,,,,,30.42,43,58,0,,,,58,30.42,,,9.94,,150,,9,,,,,,,,,,,,,,,,,,,,,,,,,,,,,,,,,,,,,MET070KCHS 191856Z 15008KT 10SM FEW032 14/06 A3042 RMK AO2 SLP302 T01440061;,,,,,,,,,,,,,,,,,,,,,,,,,,,,
72208013880,2001-02-19T16:00:00,SY-MT,C,,SE,0.25,mi,"TEMP, PRECIP, SNOW",,,"MMTS, SRG, SNOWBOARD",,,WFO CHS,,,,,,,,,,,,,,,,,,,,,,,,,,,30.38,46,60,0,,0.07,6,60,30.38,,30.33,9.94,53,170,,9,,,,,,,,,,,,,,,,,,,,,,,,,,,,,,,,,,,,,SYN076AAXX  19214 72208 35566 61708 10156 20078 30272 40288 56024 92056 555 91921;MET083KCHS 192056Z 17008KT 10SM BKN033 BKN050 16/08 A3038 RMK AO2 SLP288 T01560078 56024;,,,,,,,,,,,,,,,,,,,,,,,,,,,,
72208013880,2001-02-19T17:00:00,FM-15,C,,SE,0.25,mi,"TEMP, PRECIP, SNOW",,,"MMTS, SRG, SNOWBOARD",,,WFO CHS,,,,,,,,,,,,,,,,,,,,,,,,,,,30.37,47,58,0,,,,67,30.37,,,9.94,,150,,9,,,,,,,,,,,,,,,,,,,,,,,,,,,,,,,,,,,,,MET067KCHS 192156Z 15008KT 10SM CLR 14/08 A3037 RMK AO2 SLP284 T01440083;,,,,,,,,,,,,,,,,,,,,,,,,,,,,
72208013880,2001-02-23T17:00:00,FM-15,C,,SE,0.25,mi,"TEMP, PRECIP, SNOW",,,"MMTS, SRG, SNOWBOARD",,,WFO CHS,,,,,,,,,,,,,,,,,,,,,,,,,,,30.3,47,57,0,,,,69,30.3,,,9.94,,160,,9,,,,,,,,,,,,,,,,,,,,,,,,,,,,,,,,,,,,,MET067KCHS 232156Z 16008KT 10SM CLR 14/08 A3030 RMK AO2 SLP260 T01390083;,,,,,,,,,,,,,,,,,,,,,,,,,,,,
72208013880,2001-03-10T16:00:00,SY-MT,C,,SE,0.25,mi,"TEMP, PRECIP, SNOW",,,"MMTS, SRG, SNOWBOARD",,,WFO CHS,,,,,,,,,,,,,,,,,,,,,,,,,,,30.06,32,55,0,,0.04,6,42,30.05,,30.01,9.94,45,150,,9,,,,,,,,,,,,,,,,,,,,,,,,,,,,,,,,,,,,,SYN076AAXX  10214 72208 35966 01508 10128 20000 30163 40177 56015 92056 555 91021;MET073KCHS 102056Z 15008KT 10SM CLR 13/00 A3006 RMK AO2 SLP177 T01280000 56015;,,,,,,,,,,,,,,,,,,,,,,,,,,,,
72208013880,2001-03-11T17:00:00,FM-15,C,,SE,0.25,mi,"TEMP, PRECIP, SNOW",,,"MMTS, SRG, SNOWBOARD",,,WFO CHS,,,,,,,,,,,,,,,,,,,,,,,,,,,30.1,48,70,0,,,,46,30.1,,,9.94,,150,,8,,,,,,,,,,,,,,,,,,,,,,,,,,,,,,,,,,,,,MET075METAR KCHS 112156Z 15007KT 10SM CLR 21/09 A3010 RMK AO2 SLP192 T02110089 $;,,,,,,,,,,,,,,,,,,,,,,,,,,,,
72208013880,2001-03-12T11:00:00,FM-15,C,,SE,0.25,mi,"TEMP, PRECIP, SNOW",,,"MMTS, SRG, SNOWBOARD",,,WFO CHS,,,,,,,,,,,,,,,,,,,,,,,,,,,30.08,63,68,0,,,,84,30.07,,,9.94,,150,,9,,,,,,,,,,,,,,,,,,,,,,,,,,,,,,,,,,,,,MET070KCHS 121556Z 15008KT 10SM BKN012 20/17 A3008 RMK AO2 SLP184 T02000172;,,,,,,,,,,,,,,,,,,,,,,,,,,,,
72208013880,2001-03-12T11:03:00,FM-16,4,,SE,0.25,mi,"TEMP, PRECIP, SNOW",,,"MMTS, SRG, SNOWBOARD",,,WFO CHS,,,,,,,,,,,,,,,,,,,,,,,,,,,30.07,63,68,,,,,83,,,,9,,150,,9,,,,,,,,,,,,,,,,,,,,,,,,,,,,,,,,,,,,,MET052KCHS 121603Z 15008KT 9SM SCT010 20/17 A3007 RMK AO2;,,,,,,,,,,,,,,,,,,,,,,,,,,,,
72208013880,2001-03-12T17:00:00,FM-15,C,,SE,0.25,mi,"TEMP, PRECIP, SNOW",,,"MMTS, SRG, SNOWBOARD",,,WFO CHS,,,,,,,,,,,,,,,,,,,,,,,,,,,29.94,60,67,0,,,,79,29.94,,,8.95,,170,,8,,,,,,,,,,,,,,,,,,,,,,,,,,,,,,,,,,,,,MET073KCHS 122156Z 17007KT 9SM CLR 19/16 A2994 RMK AO2 PRESFR SLP139 T01940156;,,,,,,,,,,,,,,,,,,,,,,,,,,,,
72208013880,2001-03-20T12:56:00,FM-15,4,,SE,0.25,mi,"TEMP, PRECIP, SNOW",,,"MMTS, SRG, SNOWBOARD",,,WFO CHS,,,,,,,,,,,,,,,,,,,,,,,,,,,29.77,61,63,0.16,,0.08,8,94,29.77,,,2,,150,,14,,,,,,,,,,,,,,,,,,,,,,,,,,,,,,,,,,,,,MET136KCHS 201756Z COR 15012KT 2SM BR BKN007 BKN011 OVC017 17/16 A2977 RMK AO2 SFC VIS 6 RAE54 SLP080 P0016 60173 T01670156 10167 20089 58026;,,,,,,,,,,,,,,,,,,,,,,,,,,,,
72208013880,2001-03-20T13:00:00,SY-MT,C,,SE,0.25,mi,"TEMP, PRECIP, SNOW",,,"MMTS, SRG, SNOWBOARD",,,WFO CHS,,,,,,,,,,,,,,,,,,,,,,,,,,,29.77,60,62,0.16,||FG,0.08,8,93,29.77,,29.72,1.99,61,150,,14,,,,,,,,,,,,,,,,,,,,,,,,,,,,,,,,,,,,,SYN104AAXX  20184 72208 11332 81512 10167 20156 30065 40080 58026 60441 710// 91756 333 10167 20089 555 92018;,,,,,,,,,,,,,,,,,,,,,,,,,,,,
72208013880,2001-03-29T12:56:00,FM-15,4,,SE,0.25,mi,"TEMP, PRECIP, SNOW",,,"MMTS, SRG, SNOWBOARD",,,WFO CHS,,,,,,,,,,,,,,,,,,,,,,,,,,,29.88,63,66,0.02,||RA,0.13,8,88,29.87,,,6,,150,25,17,,,,,,,,,,,,,,,,,,,,,,,,,,,,,,,,,,,,,MET115KCHS 291756Z 15015G22KT 6SM -RA BKN032 19/17 A2988 RMK AO2 RAE03B54 SLP116 P0002 60017 T01940167 10200 20106 58044;,,,,,,,,,,,,,,,,,,,,,,,,,,,,
72208013880,2001-03-29T13:00:00,SY-MT,C,,SE,0.25,mi,"TEMP, PRECIP, SNOW",,,"MMTS, SRG, SNOWBOARD",,,WFO CHS,,,,,,,,,,,,,,,,,,,,,,,,,,,29.88,62,67,0.02,||RA,0.13,8,84,29.87,,29.83,5.97,64,150,,17,,,,,,,,,,,,,,,,,,,,,,,,,,,,,,,,,,,,,SYN110AAXX  29184 72208 11559 61515 10194 20167 30102 40116 58044 60041 761// 91756 333 10200 20106 91022 555 92918;,,,,,,,,,,,,,,,,,,,,,,,,,,,,
72208013880,2001-03-29T13:14:00,FM-16,4,,SE,0.25,mi,"TEMP, PRECIP, SNOW",,,"MMTS, SRG, SNOWBOARD",,,WFO CHS,,,,,,,,,,,,,,,,,,,,,,,,,,,29.87,63,66,,||RA,,,88,,,,6,,150,,17,,,,,,,,,,,,,,,,,,,,,,,,,,,,,,,,,,,,,MET079KCHS 291814Z 15015KT 6SM -RA BR BKN026 BKN033 OVC041 19/17 A2987 RMK AO2 P0004;,,,,,,,,,,,,,,,,,,,,,,,,,,,,
72208013880,2001-04-02T17:00:00,FM-15,C,,SE,0.25,mi,"TEMP, PRECIP, SNOW",,,"MMTS, SRG, SNOWBOARD",,,WFO CHS,,,,,,,,,,,,,,,,,,,,,,,,,,,30.11,30,63,0,,,,29,30.11,,,9.94,,150,,15,,,,,,,,,,,,,,,,,,,,,,,,,,,,,,,,,,,,,MET070KCHS 022156Z 15013KT 10SM CLR 17/M01 A3011 RMK AO2 SLP196 T01721011 $;,,,,,,,,,,,,,,,,,,,,,,,,,,,,
72208013880,2001-04-14T17:00:00,FM-15,C,,SE,0.25,mi,"TEMP, PRECIP, SNOW",,,"MMTS, SRG, SNOWBOARD",,,WFO CHS,,,,,,,,,,,,,,,,,,,,,,,,,,,30,48,77,0,,,,36,29.99,,,9.94,,170,,12,,,,,,,,,,,,,,,,,,,,,,,,,,,,,,,,,,,,,MET067KCHS 142156Z 17010KT 10SM CLR 25/09 A3000 RMK AO2 SLP157 T02500089;,,,,,,,,,,,,,,,,,,,,,,,,,,,,
72208013880,2001-04-15T12:00:00,FM-15,C,,SE,0.25,mi,"TEMP, PRECIP, SNOW",,,"MMTS, SRG, SNOWBOARD",,,WFO CHS,,,,,,,,,,,,,,,,,,,,,,,,,,,29.88,66,69,0.01,,,,90,29.88,,,8.95,,170,,10,,,,,,,,,,,,,,,,,,,,,,,,,,,,,,,,,,,,,MET078KCHS 151656Z 17009KT 9SM CLR 21/19 A2988 RMK AO2 RAE25 SLP117 P0001 T02060189;,,,,,,,,,,,,,,,,,,,,,,,,,,,,
72208013880,2001-04-21T14:00:00,FM-15,C,,SE,0.25,mi,"TEMP, PRECIP, SNOW",,,"MMTS, SRG, SNOWBOARD",,,WFO CHS,,,,,,,,,,,,,,,,,,,,,,,,,,,30.45,54,78,0,,,,43,30.44,,,9.94,,170,17,14,,,,,,,,,,,,,,,,,,,,,,,,,,,,,,,,,,,,,MET079METAR KCHS 211856Z 17012G15KT 10SM SCT060 26/12 A3045 RMK AO2 SLP309 T02560122;,,,,,,,,,,,,,,,,,,,,,,,,,,,,
72208013880,2001-04-21T16:00:00,FM-15,C,,SE,0.25,mi,"TEMP, PRECIP, SNOW",,,"MMTS, SRG, SNOWBOARD",,,WFO CHS,,,,,,,,,,,,,,,,,,,,,,,,,,,30.43,53,74,0,,0.04,6,48,30.43,,,9.94,,160,,15,,,,,,,,,,,,,,,,,,,,,,,,,,,,,,,,,,,,,MET076KCHS 212056Z 16013KT 10SM FEW048 23/12 A3043 RMK AO2 SLP304 T02330117 56012;,,,,,,,,,,,,,,,,,,,,,,,,,,,,
72208013880,2001-04-21T17:00:00,FM-15,C,,SE,0.25,mi,"TEMP, PRECIP, SNOW",,,"MMTS, SRG, SNOWBOARD",,,WFO CHS,,,,,,,,,,,,,,,,,,,,,,,,,,,30.43,53,74,0,,,,48,30.42,,,9.94,,170,,13,,,,,,,,,,,,,,,,,,,,,,,,,,,,,,,,,,,,,MET067KCHS 212156Z 17011KT 10SM CLR 23/12 A3043 RMK AO2 SLP303 T02330117;,,,,,,,,,,,,,,,,,,,,,,,,,,,,
72208013880,2001-04-22T11:00:00,FM-15,C,,SE,0.25,mi,"TEMP, PRECIP, SNOW",,,"MMTS, SRG, SNOWBOARD",,,WFO CHS,,,,,,,,,,,,,,,,,,,,,,,,,,,30.45,54,76,0,,,,47,30.44,,,9.94,,160,,9,,,,,,,,,,,,,,,,,,,,,,,,,,,,,,,,,,,,,MET070KCHS 221556Z 16008KT 10SM SCT043 24/12 A3045 RMK AO2 SLP309 T02440122;,,,,,,,,,,,,,,,,,,,,,,,,,,,,
72208013880,2001-04-22T13:00:00,SY-MT,C,,SE,0.25,mi,"TEMP, PRECIP, SNOW",,,"MMTS, SRG, SNOWBOARD",,,WFO CHS,,,,,,,,,,,,,,,,,,,,,,,,,,,30.42,56,76,0,,0.03,8,50,30.42,,30.37,9.94,64,170,,12,,,,,,,,,,,,,,,,,,,,,,,,,,,,,,,,,,,,,SYN092AAXX  22184 72208 32666 21710 10244 20133 30285 40301 58010 91756 333 10261 20150 555 92218;MET088KCHS 221756Z 17010KT 10SM FEW044 24/13 A3042 RMK AO2 SLP301 T02440133 10261 20150 58010;,,,,,,,,,,,,,,,,,,,,,,,,,,,,
72208013880,2001-04-22T14:07:00,FM-16,4,,SE,0.25,mi,"TEMP, PRECIP, SNOW",,,"MMTS, SRG, SNOWBOARD",,,WFO CHS,,,,,,,,,,,,,,,,,,,,,,,,,,,30.4,57,79,,,,,48,,,,10,,150,,9,,,,,,,,,,,,,,,,,,,,,,,,,,,,,,,,,,,,,MET072KCHS 221907Z 15008KT 120V190 10SM SCT044 26/14 A3040 RMK AO2 WSHFT 1848;,,,,,,,,,,,,,,,,,,,,,,,,,,,,
72208013880,2001-04-22T16:00:00,FM-15,C,,SE,0.25,mi,"TEMP, PRECIP, SNOW",,,"MMTS, SRG, SNOWBOARD",,,WFO CHS,,,,,,,,,,,,,,,,,,,,,,,,,,,30.37,57,76,0,,0.05,6,52,30.37,,,9.94,,160,,12,,,,,,,,,,,,,,,,,,,,,,,,,,,,,,,,,,,,,MET076KCHS 222056Z 16010KT 10SM SCT040 24/14 A3037 RMK AO2 SLP285 T02440139 56017;,,,,,,,,,,,,,,,,,,,,,,,,,,,,
72208013880,2001-04-22T17:00:00,FM-15,C,,SE,0.25,mi,"TEMP, PRECIP, SNOW",,,"MMTS, SRG, SNOWBOARD",,,WFO CHS,,,,,,,,,,,,,,,,,,,,,,,,,,,30.37,58,75,0,,,,55,30.37,,,9.94,,150,,9,,,,,,,,,,,,,,,,,,,,,,,,,,,,,,,,,,,,,MET067KCHS 222156Z 15008KT 10SM CLR 24/14 A3037 RMK AO2 SLP283 T02390144;,,,,,,,,,,,,,,,,,,,,,,,,,,,,
72208013880,2001-04-23T11:00:00,FM-15,C,,SE,0.25,mi,"TEMP, PRECIP, SNOW",,,"MMTS, SRG, SNOWBOARD",,,WFO CHS,,,,,,,,,,,,,,,,,,,,,,,,,,,30.33,57,75,0,,,,54,30.33,,,9.94,,170,,8,,,,,,,,,,,,,,,,,,,,,,,,,,,,,,,,,,,,,MET070KCHS 231556Z 17007KT 10SM OVC039 24/14 A3033 RMK AO2 SLP271 T02390139;,,,,,,,,,,,,,,,,,,,,,,,,,,,,
72208013880,2001-04-23T12:00:00,FM-15,C,,SE,0.25,mi,"TEMP, PRECIP, SNOW",,,"MMTS, SRG, SNOWBOARD",,,WFO CHS,,,,,,,,,,,,,,,,,,,,,,,,,,,30.31,57,77,0,,,,50,30.31,,,9.94,,170,,10,,,,,,,,,,,,,,,,,,,,,,,,,,,,,,,,,,,,,MET070KCHS 231656Z 17009KT 10SM OVC043 25/14 A3031 RMK AO2 SLP264 T02500139;,,,,,,,,,,,,,,,,,,,,,,,,,,,,
72208013880,2001-04-23T17:00:00,FM-15,C,,SE,0.25,mi,"TEMP, PRECIP, SNOW",,,"MMTS, SRG, SNOWBOARD",,,WFO CHS,,,,,,,,,,,,,,,,,,,,,,,,,,,30.22,58,77,0,,,,52,30.21,,,9.94,,170,,15,,,,,,,,,,,,,,,,,,,,,,,,,,,,,,,,,,,,,MET070KCHS 232156Z 17013KT 10SM FEW040 25/14 A3022 RMK AO2 SLP231 T02500144;,,,,,,,,,,,,,,,,,,,,,,,,,,,,
72208013880,2001-04-24T15:00:00,FM-15,C,,SE,0.25,mi,"TEMP, PRECIP, SNOW",,,"MMTS, SRG, SNOWBOARD",,,WFO CHS,,,,,,,,,,,,,,,,,,,,,,,,,,,30.05,61,82,0,,,,49,30.05,,,9.94,,170,19,15,,,,,,,,,,,,,,,,,,,,,,,,,,,,,,,,,,,,,MET079METAR KCHS 241956Z 17013G17KT 10SM FEW040 28/16 A3005 RMK AO2 SLP175 T02780161;,,,,,,,,,,,,,,,,,,,,,,,,,,,,
72208013880,2001-04-27T16:00:00,FM-15,C,,SE,0.25,mi,"TEMP, PRECIP, SNOW",,,"MMTS, SRG, SNOWBOARD",,,WFO CHS,,,,,,,,,,,,,,,,,,,,,,,,,,,30.14,45,77,0,,0.07,6,32,30.14,,,9.94,,160,,10,,,,,,,,,,,,,,,,,,,,,,,,,,,,,,,,,,,,,MET081KCHS 272056Z 16009KT 140V210 10SM CLR 25/07 A3014 RMK AO2 SLP206 T02500072 56023;,,,,,,,,,,,,,,,,,,,,,,,,,,,,
72208013880,2001-04-30T16:00:00,FM-15,C,,SE,0.25,mi,"TEMP, PRECIP, SNOW",,,"MMTS, SRG, SNOWBOARD",,,WFO CHS,,,,,,,,,,,,,,,,,,,,,,,,,,,30.31,53,73,0,,0.06,6,50,30.3,,,9.94,,150,,10,,,,,,,,,,,,,,,,,,,,,,,,,,,,,,,,,,,,,MET079METAR KCHS 302056Z 15009KT 10SM CLR 23/12 A3031 RMK AO2 SLP262 T02280117 56021;,,,,,,,,,,,,,,,,,,,,,,,,,,,,
72208013880,2001-05-02T14:00:00,FM-15,C,,SE,0.25,mi,"TEMP, PRECIP, SNOW",,,"MMTS, SRG, SNOWBOARD",,,WFO CHS,,,,,,,,,,,,,,,,,,,,,,,,,,,30.16,53,76,0,,,,45,30.16,,,9.94,,150,17,12,,,,,,,,,,,,,,,,,,,,,,,,,,,,,,,,,,,,,MET073KCHS 021856Z 15010G15KT 10SM FEW050 24/12 A3016 RMK AO2 SLP212 T02440117;,,,,,,,,,,,,,,,,,,,,,,,,,,,,
72208013880,2001-05-03T17:00:00,FM-15,C,,SE,0.25,mi,"TEMP, PRECIP, SNOW",,,"MMTS, SRG, SNOWBOARD",,,WFO CHS,,,,,,,,,,,,,,,,,,,,,,,,,,,30.23,55,74,0,,,,52,30.23,,,9.94,,150,,13,,,,,,,,,,,,,,,,,,,,,,,,,,,,,,,,,,,,,MET067KCHS 032156Z 15011KT 10SM CLR 23/13 A3023 RMK AO2 SLP237 T02330128;,,,,,,,,,,,,,,,,,,,,,,,,,,,,
72208013880,2001-05-04T15:00:00,FM-15,C,,SE,0.25,mi,"TEMP, PRECIP, SNOW",,,"MMTS, SRG, SNOWBOARD",,,WFO CHS,,,,,,,,,,,,,,,,,,,,,,,,,,,30.16,58,79,0,,,,49,30.16,,,9.94,,150,,12,,,,,,,,,,,,,,,,,,,,,,,,,,,,,,,,,,,,,MET067KCHS 041956Z 15010KT 10SM CLR 26/14 A3016 RMK AO2 SLP214 T02610144;,,,,,,,,,,,,,,,,,,,,,,,,,,,,
72208013880,2001-05-05T16:00:00,FM-15,C,,SE,0.25,mi,"TEMP, PRECIP, SNOW",,,"MMTS, SRG, SNOWBOARD",,,WFO CHS,,,,,,,,,,,,,,,,,,,,,,,,,,,30.03,50,83,0,,0.04,6,32,30.03,,,9.94,,150,,12,,,,,,,,,,,,,,,,,,,,,,,,,,,,,,,,,,,,,MET073KCHS 052056Z 15010KT 10SM CLR 28/10 A3003 RMK AO2 SLP168 T02830100 56013;,,,,,,,,,,,,,,,,,,,,,,,,,,,,
72208013880,2001-05-05T17:00:00,FM-15,C,,SE,0.25,mi,"TEMP, PRECIP, SNOW",,,"MMTS, SRG, SNOWBOARD",,,WFO CHS,,,,,,,,,,,,,,,,,,,,,,,,,,,30.03,51,80,0,,,,37,30.03,,,9.94,,160,,12,,,,,,,,,,,,,,,,,,,,,,,,,,,,,,,,,,,,,MET067KCHS 052156Z 16010KT 10SM CLR 27/11 A3003 RMK AO2 SLP168 T02670106;,,,,,,,,,,,,,,,,,,,,,,,,,,,,
72208013880,2001-05-09T17:00:00,FM-15,C,,SE,0.25,mi,"TEMP, PRECIP, SNOW",,,"MMTS, SRG, SNOWBOARD",,,WFO CHS,,,,,,,,,,,,,,,,,,,,,,,,,,,30.15,55,74,0,,,,52,30.14,,,9.94,,170,,12,,,,,,,,,,,,,,,,,,,,,,,,,,,,,,,,,,,,,MET070KCHS 092156Z 17010KT 10SM FEW065 23/13 A3015 RMK AO2 SLP208 T02330128;,,,,,,,,,,,,,,,,,,,,,,,,,,,,
72208013880,2001-05-14T14:00:00,FM-15,C,,SE,0.25,mi,"TEMP, PRECIP, SNOW",,,"MMTS, SRG, SNOWBOARD",,,WFO CHS,,,,,,,,,,,,,,,,,,,,,,,,,,,30.13,58,74,0,,,,57,30.13,,,9.94,,150,,8,,,,,,,,,,,,,,,,,,,,,,,,,,,,,,,,,,,,,MET074KCHS 141856Z COR 15007KT 10SM FEW046 23/14 A3013 RMK AO2 SLP203 T02330144;,,,,,,,,,,,,,,,,,,,,,,,,,,,,
72208013880,2001-05-14T15:00:00,FM-15,C,,SE,0.25,mi,"TEMP, PRECIP, SNOW",,,"MMTS, SRG, SNOWBOARD",,,WFO CHS,,,,,,,,,,,,,,,,,,,,,,,,,,,30.11,59,77,0,,,,54,30.11,,,9.94,,160,,12,,,,,,,,,,,,,,,,,,,,,,,,,,,,,,,,,,,,,MET070KCHS 141956Z 16010KT 10SM FEW050 25/15 A3011 RMK AO2 SLP196 T02500150;,,,,,,,,,,,,,,,,,,,,,,,,,,,,
72208013880,2001-05-14T17:00:00,FM-15,C,,SE,0.25,mi,"TEMP, PRECIP, SNOW",,,"MMTS, SRG, SNOWBOARD",,,WFO CHS,,,,,,,,,,,,,,,,,,,,,,,,,,,30.08,60,75,0,,,,60,30.08,,,9.94,,150,,10,,,,,,,,,,,,,,,,,,,,,,,,,,,,,,,,,,,,,MET070KCHS 142156Z 15009KT 10SM FEW065 24/16 A3008 RMK AO2 SLP186 T02390156;,,,,,,,,,,,,,,,,,,,,,,,,,,,,
72208013880,2001-05-16T14:00:00,FM-15,C,,SE,0.25,mi,"TEMP, PRECIP, SNOW",,,"MMTS, SRG, SNOWBOARD",,,WFO CHS,,,,,,,,,,,,,,,,,,,,,,,,,,,29.83,65,81,0,,,,58,29.83,,,9.94,,150,,12,,,,,,,,,,,,,,,,,,,,,,,,,,,,,,,,,,,,,MET067KCHS 161856Z 15010KT 10SM CLR 27/18 A2983 RMK AO2 SLP102 T02720183;,,,,,,,,,,,,,,,,,,,,,,,,,,,,
72208013880,2001-05-16T15:00:00,FM-15,C,,SE,0.25,mi,"TEMP, PRECIP, SNOW",,,"MMTS, SRG, SNOWBOARD",,,WFO CHS,,,,,,,,,,,,,,,,,,,,,,,,,,,29.82,65,79,0,,,,62,29.82,,,9.94,,150,,15,,,,,,,,,,,,,,,,,,,,,,,,,,,,,,,,,,,,,MET067KCHS 161956Z 15013KT 10SM CLR 26/18 A2982 RMK AO2 SLP098 T02610183;,,,,,,,,,,,,,,,,,,,,,,,,,,,,
72208013880,2001-05-16T16:00:00,FM-15,C,,SE,0.25,mi,"TEMP, PRECIP, SNOW",,,"MMTS, SRG, SNOWBOARD",,,WFO CHS,,,,,,,,,,,,,,,,,,,,,,,,,,,29.82,64,79,0,,0.03,6,60,29.82,,,9.94,,150,,13,,,,,,,,,,,,,,,,,,,,,,,,,,,,,,,,,,,,,MET079METAR KCHS 162056Z 15011KT 10SM CLR 26/18 A2982 RMK AO2 SLP097 T02610178 56010;,,,,,,,,,,,,,,,,,,,,,,,,,,,,
72208013880,2001-05-18T14:00:00,FM-15,C,,SE,0.25,mi,"TEMP, PRECIP, SNOW",,,"MMTS, SRG, SNOWBOARD",,,WFO CHS,,,,,,,,,,,,,,,,,,,,,,,,,,,29.92,73,91,0,,,,56,29.91,,,8.95,,160,,14,,,,,,,,,,,,,,,,,,,,,,,,,,,,,,,,,,,,,MET066KCHS 181856Z 16012KT 9SM CLR 33/23 A2992 RMK AO2 SLP130 T03280228;,,,,,,,,,,,,,,,,,,,,,,,,,,,,
72208013880,2001-05-18T15:00:00,FM-15,C,,SE,0.25,mi,"TEMP, PRECIP, SNOW",,,"MMTS, SRG, SNOWBOARD",,,WFO CHS,,,,,,,,,,,,,,,,,,,,,,,,,,,29.91,71,87,0,,,,59,29.9,,,8.95,,170,,16,,,,,,,,,,,,,,,,,,,,,,,,,,,,,,,,,,,,,MET089METAR KCHS 181956Z 17014KT 9SM FEW035 SCT075 31/22 A2991 RMK AO2 SLP126 TCU NE T03060217;,,,,,,,,,,,,,,,,,,,,,,,,,,,,
72208013880,2001-05-22T15:00:00,FM-15,C,,SE,0.25,mi,"TEMP, PRECIP, SNOW",,,"MMTS, SRG, SNOWBOARD",,,WFO CHS,,,,,,,,,,,,,,,,,,,,,,,,,,,29.82,67,89,0,,,,48,29.81,,,9.94,,170,,16,,,,,,,,,,,,,,,,,,,,,,,,,,,,,,,,,,,,,MET070KCHS 221956Z 17014KT 10SM FEW045 32/19 A2982 RMK AO2 SLP096 T03170194;,,,,,,,,,,,,,,,,,,,,,,,,,,,,
72208013880,2001-05-24T14:00:00,FM-15,C,,SE,0.25,mi,"TEMP, PRECIP, SNOW",,,"MMTS, SRG, SNOWBOARD",,,WFO CHS,,,,,,,,,,,,,,,,,,,,,,,,,,,29.95,56,83,0,,,,40,29.95,,,9.94,,160,,15,,,,,,,,,,,,,,,,,,,,,,,,,,,,,,,,,,,,,MET070KCHS 241856Z 16013KT 10SM SCT090 28/13 A2995 RMK AO2 SLP141 T02830133;,,,,,,,,,,,,,,,,,,,,,,,,,,,,
72208013880,2001-05-24T17:00:00,FM-15,C,,SE,0.25,mi,"TEMP, PRECIP, SNOW",,,"MMTS, SRG, SNOWBOARD",,,WFO CHS,,,,,,,,,,,,,,,,,,,,,,,,,,,29.95,54,80,0,,,,41,29.95,,,9.94,,170,,16,,,,,,,,,,,,,,,,,,,,,,,,,,,,,,,,,,,,,MET067KCHS 242156Z 17014KT 10SM CLR 27/12 A2995 RMK AO2 SLP142 T02670122;,,,,,,,,,,,,,,,,,,,,,,,,,,,,
72208013880,2001-05-25T12:56:00,FM-15,4,,SE,0.25,mi,"TEMP, PRECIP, SNOW",,,"MMTS, SRG, SNOWBOARD",,,WFO CHS,,,,,,,,,,,,,,,,,,,,,,,,,,,30.01,59,84,,,0.01,8,43,30.01,,,10,,170,,10,,,,,,,,,,,,,,,,,,,,,,,,,,,,,,,,,,,,,MET085KCHS 251756Z 17009KT 10SM CLR 29/15 A3001 RMK AO2 SLP162 T02890150 10294 20217 58004;,,,,,,,,,,,,,,,,,,,,,,,,,,,,
72208013880,2001-05-25T13:00:00,SY-MT,C,,SE,0.25,mi,"TEMP, PRECIP, SNOW",,,"MMTS, SRG, SNOWBOARD",,,WFO CHS,,,,,,,,,,,,,,,,,,,,,,,,,,,30.01,59,84,0,,0.01,8,43,30.01,CLR:00,29.96,9.94,68,170,,10,,,,,,,,,,,,,,,,,,,,,,,,,,,,,,,,,,,,,SYN092AAXX  25184 72208 32966 01709 10289 20150 30146 40162 58004 91756 333 10294 20217 555 92518;,,,,,,,,,,,,,,,,,,,,,,,,,,,,
72208013880,2001-05-25T17:00:00,FM-15,C,,SE,0.25,mi,"TEMP, PRECIP, SNOW",,,"MMTS, SRG, SNOWBOARD",,,WFO CHS,,,,,,,,,,,,,,,,,,,,,,,,,,,30,62,82,0,,,,51,29.99,,,9.94,,160,,10,,,,,,,,,,,,,,,,,,,,,,,,,,,,,,,,,,,,,MET067KCHS 252156Z 16009KT 10SM CLR 28/17 A3000 RMK AO2 SLP157 T02780167;,,,,,,,,,,,,,,,,,,,,,,,,,,,,
72208013880,2001-05-30T11:00:00,FM-15,C,,SE,0.25,mi,"TEMP, PRECIP, SNOW",,,"MMTS, SRG, SNOWBOARD",,,WFO CHS,,,,,,,,,,,,,,,,,,,,,,,,,,,30.03,63,83,0,,,,51,30.02,,,9.94,,170,,13,,,,,,,,,,,,,,,,,,,,,,,,,,,,,,,,,,,,,MET067KCHS 301556Z 17011KT 10SM CLR 28/17 A3003 RMK AO2 SLP167 T02830172;,,,,,,,,,,,,,,,,,,,,,,,,,,,,
72208013880,2001-05-31T14:00:00,FM-15,C,,SE,0.25,mi,"TEMP, PRECIP, SNOW",,,"MMTS, SRG, SNOWBOARD",,,WFO CHS,,,,,,,,,,,,,,,,,,,,,,,,,,,29.99,74,85,0,,,,70,29.99,,,9.94,,160,,10,,,,,,,,,,,,,,,,,,,,,,,,,,,,,,,,,,,,,MET077KCHS 311856Z 16009KT 10SM FEW049 SCT060 29/23 A2999 RMK AO2 SLP155 T02940233;,,,,,,,,,,,,,,,,,,,,,,,,,,,,
72208013880,2001-05-31T15:00:00,FM-15,C,,SE,0.25,mi,"TEMP, PRECIP, SNOW",,,"MMTS, SRG, SNOWBOARD",,,WFO CHS,,,,,,,,,,,,,,,,,,,,,,,,,,,29.98,73,84,0,,,,70,29.97,,,9.94,,150,,12,,,,,,,,,,,,,,,,,,,,,,,,,,,,,,,,,,,,,MET070KCHS 311956Z 15010KT 10SM SCT047 29/23 A2998 RMK AO2 SLP150 T02890228;,,,,,,,,,,,,,,,,,,,,,,,,,,,,
72208013880,2001-05-31T16:00:00,FM-15,C,,SE,0.25,mi,"TEMP, PRECIP, SNOW",,,"MMTS, SRG, SNOWBOARD",,,WFO CHS,,,,,,,,,,,,,,,,,,,,,,,,,,,29.96,73,85,0,,0.04,8,68,29.96,,,8.95,,160,,12,,,,,,,,,,,,,,,,,,,,,,,,,,,,,,,,,,,,,MET078METAR KCHS 312056Z 16010KT 9SM CLR 29/23 A2996 RMK AO2 SLP144 T02940228 58015;,,,,,,,,,,,,,,,,,,,,,,,,,,,,
72208013880,2001-05-31T17:00:00,FM-15,C,,SE,0.25,mi,"TEMP, PRECIP, SNOW",,,"MMTS, SRG, SNOWBOARD",,,WFO CHS,,,,,,,,,,,,,,,,,,,,,,,,,,,29.95,73,84,0,,,,70,29.95,,,8.95,,160,,10,,,,,,,,,,,,,,,,,,,,,,,,,,,,,,,,,,,,,MET066KCHS 312156Z 16009KT 9SM CLR 29/23 A2995 RMK AO2 SLP142 T02890228;,,,,,,,,,,,,,,,,,,,,,,,,,,,,
72208013880,2001-05-31T17:44:00,FM-16,4,,SE,0.25,mi,"TEMP, PRECIP, SNOW",,,"MMTS, SRG, SNOWBOARD",,,WFO CHS,,,,,,,,,,,,,,,,,,,,,,,,,,,29.96,73,82,,||TS,,,74,,,,9,,150,,10,,,,,,,,,,,,,,,,,,,,,,,,,,,,,,,,,,,,,MET108KCHS 312244Z 15009KT 9SM TS SCT050 SCT070 28/23 A2996 RMK AO2 TSB44 OCNL LTGICCCCG NW-NE TS NW-NE MOV STNRY;,,,,,,,,,,,,,,,,,,,,,,,,,,,,
72208013880,2001-06-04T15:00:00,FM-15,C,,SE,0.25,mi,"TEMP, PRECIP, SNOW",,,"MMTS, SRG, SNOWBOARD",,,WFO CHS,,,,,,,,,,,,,,,,,,,,,,,,,,,30.04,73,90,0,,,,58,30.03,,,9.94,,170,,9,,,,,,,,,,,,,,,,,,,,,,,,,,,,,,,,,,,,,MET067KCHS 041956Z 17008KT 10SM CLR 32/23 A3004 RMK AO2 SLP170 T03220228;,,,,,,,,,,,,,,,,,,,,,,,,,,,,
72208013880,2001-06-04T17:00:00,FM-15,C,,SE,0.25,mi,"TEMP, PRECIP, SNOW",,,"MMTS, SRG, SNOWBOARD",,,WFO CHS,,,,,,,,,,,,,,,,,,,,,,,,,,,29.99,76,88,0,,,,68,29.98,,,9.94,,170,,12,,,,,,,,,,,,,,,,,,,,,,,,,,,,,,,,,,,,,MET067KCHS 042156Z 17010KT 10SM CLR 31/24 A2999 RMK AO2 SLP154 T03110244;,,,,,,,,,,,,,,,,,,,,,,,,,,,,
72208013880,2001-06-09T13:38:00,FM-16,4,,SE,0.25,mi,"TEMP, PRECIP, SNOW",,,"MMTS, SRG, SNOWBOARD",,,WFO CHS,,,,,,,,,,,,,,,,,,,,,,,,,,,29.91,73,75,,||RA,,,94,,,,1.75,,150,,14,,,,,,,,,,,,,,,,,,,,,,,,,,,,,,,,,,,,,MET074KCHS 091838Z 15012KT 1 3/4SM RA BR OVC022 24/23 A2991 RMK AO2 RAB15 P0010;,,,,,,,,,,,,,,,,,,,,,,,,,,,,
72208013880,2001-06-09T16:00:00,FM-15,C,,SE,0.25,mi,"TEMP, PRECIP, SNOW",,,"MMTS, SRG, SNOWBOARD",,,WFO CHS,,,,,,,,,,,,,,,,,,,,,,,,,,,29.93,72,74,0.02,||FG RA,-0.02,0,94,29.92,,,4.97,,150,,7,,,,,,,,,,,,,,,,,,,,,,,,,,,,,,,,,,,,,MET100METAR KCHS 092056Z 15006KT 5SM -RA BR SCT019 23/22 A2993 RMK AO2 SLP133 P0002 60018 T02330222 50007;,,,,,,,,,,,,,,,,,,,,,,,,,,,,
72208013880,2001-06-09T16:21:00,FM-16,4,,SE,0.25,mi,"TEMP, PRECIP, SNOW",,,"MMTS, SRG, SNOWBOARD",,,WFO CHS,,,,,,,,,,,,,,,,,,,,,,,,,,,29.92,72,73,,||RA,,,94,,,,4,,160,,8,,,,,,,,,,,,,,,,,,,,,,,,,,,,,,,,,,,,,MET072KCHS 092121Z 16007KT 4SM -RA BR SCT005 OVC017 23/22 A2992 RMK AO2 P0000;,,,,,,,,,,,,,,,,,,,,,,,,,,,,
72208013880,2001-06-09T16:38:00,FM-16,4,,SE,0.25,mi,"TEMP, PRECIP, SNOW",,,"MMTS, SRG, SNOWBOARD",,,WFO CHS,,,,,,,,,,,,,,,,,,,,,,,,,,,29.92,72,73,,||RA,,,94,,,,7,,160,,7,,,,,,,,,,,,,,,,,,,,,,,,,,,,,,,,,,,,,MET069KCHS 092138Z 16006KT 7SM -RA FEW005 SCT019 23/22 A2992 RMK AO2 P0000;,,,,,,,,,,,,,,,,,,,,,,,,,,,,
72208013880,2001-06-10T15:00:00,FM-15,C,,SE,0.25,mi,"TEMP, PRECIP, SNOW",,,"MMTS, SRG, SNOWBOARD",,,WFO CHS,,,,,,,,,,,,,,,,,,,,,,,,,,,29.93,73,82,0,,,,74,29.92,,,8.95,,170,,12,,,,,,,,,,,,,,,,,,,,,,,,,,,,,,,,,,,,,MET073KCHS 101956Z COR 17010KT 9SM FEW045 28/23 A2993 RMK AO2 SLP133 T02780228;,,,,,,,,,,,,,,,,,,,,,,,,,,,,
72208013880,2001-06-12T17:00:00,FM-15,C,,SE,0.25,mi,"TEMP, PRECIP, SNOW",,,"MMTS, SRG, SNOWBOARD",,,WFO CHS,,,,,,,,,,,,,,,,,,,,,,,,,,,29.85,74,81,0,,,,79,29.85,,,9.94,,150,,14,,,,,,,,,,,,,,,,,,,,,,,,,,,,,,,,,,,,,MET077KCHS 122156Z 15012KT 10SM FEW038 SCT044 27/23 A2985 RMK AO2 SLP108 T02720233;,,,,,,,,,,,,,,,,,,,,,,,,,,,,
72208013880,2001-06-21T14:22:00,FM-16,4,,SE,0.25,mi,"TEMP, PRECIP, SNOW",,,"MMTS, SRG, SNOWBOARD",,,WFO CHS,,,,,,,,,,,,,,,,,,,,,,,,,,,30.09,70,75,,||SHRA TS,,,83,,,,0.5,,150,45,17,,,,,,,,,,,,,,,,,,,,,,,,,,,,,,,,,,,,,MET155KCHS 211922Z 15015G39KT 110V200 1/2SM +TSRA BKN014 OVC055 24/21 A3009 RMK AO2 PK WND 23039/1918 WSHFT 1905 TSB14RAB07 OCNL LTGICCCCG VC TS VC MOV NE P0060;,,,,,,,,,,,,,,,,,,,,,,,,,,,,
72208013880,2001-06-21T14:44:00,FM-16,4,,SE,0.25,mi,"TEMP, PRECIP, SNOW",,,"MMTS, SRG, SNOWBOARD",,,WFO CHS,,,,,,,,,,,,,,,,,,,,,,,,,,,30.09,70,73,,||FG SHRA TS,,,89,,,,0.5,,170,16,11,,,,,,,,,,,,,,,,,,,,,,,,,,,,,,,,,,,,,MET170SPECI KCHS 211944Z 17010G14KT 140V210 1/2SM TSRA FG FEW001 BKN007 OVC043 23/21 A3009 RMK AO2 PK WND 23039/1918 WSHFT 1918 TSB14RAB07 OCNL LTGICCCCG VC TS VC MOV NE P0159;,,,,,,,,,,,,,,,,,,,,,,,,,,,,
72208013880,2001-06-21T14:47:00,FM-16,4,,SE,0.25,mi,"TEMP, PRECIP, SNOW",,,"MMTS, SRG, SNOWBOARD",,,WFO CHS,,,,,,,,,,,,,,,,,,,,,,,,,,,30.09,70,73,,||SHRA TS,,,89,,,,1,,150,,16,,,,,,,,,,,,,,,,,,,,,,,,,,,,,,,,,,,,,MET152KCHS 211947Z 15014KT 1SM -TSRA BR FEW001 BKN011 OVC043 23/21 A3009 RMK AO2 PK WND 23039/1918 WSHFT 1918 TSB14RAB07 OCNL LTGICCCCG VC TS VC MOV NE P0160;,,,,,,,,,,,,,,,,,,,,,,,,,,,,
72208013880,2001-06-21T14:49:00,FM-16,4,,SE,0.25,mi,"TEMP, PRECIP, SNOW",,,"MMTS, SRG, SNOWBOARD",,,WFO CHS,,,,,,,,,,,,,,,,,,,,,,,,,,,30.09,70,73,,||SHRA TS,,,89,,,,2.5,,150,,15,,,,,,,,,,,,,,,,,,,,,,,,,,,,,,,,,,,,,MET156KCHS 211949Z 15013KT 2 1/2SM -TSRA BR FEW001 BKN011 OVC043 23/21 A3009 RMK AO2 PK WND 23039/1918 WSHFT 1918 TSB14RAB07 OCNL LTGICCCCG VC TS VC MOV NE P0162;,,,,,,,,,,,,,,,,,,,,,,,,,,,,
72208013880,2001-06-21T15:05:00,FM-16,4,,SE,0.25,mi,"TEMP, PRECIP, SNOW",,,"MMTS, SRG, SNOWBOARD",,,WFO CHS,,,,,,,,,,,,,,,,,,,,,,,,,,,30.09,72,73,,||SHRA TS,,,94,,,,1.25,,160,,11,,,,,,,,,,,,,,,,,,,,,,,,,,,,,,,,,,,,,MET127KCHS 212005Z 16010KT 1 1/4SM +TSRA BR BKN009 BKN017 OVC043 23/22 A3009 RMK AO2 WSHFT 1944 OCNL LTGICCCCG VC TS VC MOV NE P0019;,,,,,,,,,,,,,,,,,,,,,,,,,,,,
72208013880,2001-06-21T15:07:00,FM-16,4,,SE,0.25,mi,"TEMP, PRECIP, SNOW",,,"MMTS, SRG, SNOWBOARD",,,WFO CHS,,,,,,,,,,,,,,,,,,,,,,,,,,,30.09,73,73,,||SHRA TS,,,100,,,,1.5,,170,,13,,,,,,,,,,,,,,,,,,,,,,,,,,,,,,,,,,,,,MET126KCHS 212007Z 17011KT 1 1/2SM TSRA BR BKN013 BKN027 OVC070 23/23 A3009 RMK AO2 WSHFT 1944 OCNL LTGICCCCG VC TS VC MOV NE P0019;,,,,,,,,,,,,,,,,,,,,,,,,,,,,
72208013880,2001-06-24T14:00:00,FM-15,C,,SE,0.25,mi,"TEMP, PRECIP, SNOW",,,"MMTS, SRG, SNOWBOARD",,,WFO CHS,,,,,,,,,,,,,,,,,,,,,,,,,,,30.03,69,83,T,,,,63,30.03,,,9.94,,150,,10,,,,,,,,,,,,,,,,,,,,,,,,,,,,,,,,,,,,,MET082KCHS 241856Z 15009KT 10SM BKN060 28/21 A3003 RMK AO2 RAE00 SLP168 P0000 T02830206;,,,,,,,,,,,,,,,,,,,,,,,,,,,,
72208013880,2001-06-24T16:00:00,FM-15,C,,SE,0.25,mi,"TEMP, PRECIP, SNOW",,,"MMTS, SRG, SNOWBOARD",,,WFO CHS,,,,,,,,,,,,,,,,,,,,,,,,,,,30.02,72,82,0,,0.02,8,72,30.01,,,9.94,,160,,9,,,,,,,,,,,,,,,,,,,,,,,,,,,,,,,,,,,,,MET079KCHS 242056Z 16008KT 10SM CLR 28/22 A3002 RMK AO2 SLP164 60000 T02780222 58008;,,,,,,,,,,,,,,,,,,,,,,,,,,,,
72208013880,2001-06-26T11:00:00,FM-15,C,,SE,0.25,mi,"TEMP, PRECIP, SNOW",,,"MMTS, SRG, SNOWBOARD",,,WFO CHS,,,,,,,,,,,,,,,,,,,,,,,,,,,30.28,73,85,0,,,,68,30.27,,,9.94,,150,,8,,,,,,,,,,,,,,,,,,,,,,,,,,,,,,,,,,,,,MET070KCHS 261556Z 15007KT 10SM SCT070 29/23 A3028 RMK AO2 SLP252 T02940228;,,,,,,,,,,,,,,,,,,,,,,,,,,,,
72208013880,2001-06-26T12:00:00,FM-15,C,,SE,0.25,mi,"TEMP, PRECIP, SNOW",,,"MMTS, SRG, SNOWBOARD",,,WFO CHS,,,,,,,,,,,,,,,,,,,,,,,,,,,30.27,76,88,0,,,,68,30.27,,,9.94,,150,,14,,,,,,,,,,,,,,,,,,,,,,,,,,,,,,,,,,,,,MET070KCHS 261656Z 15012KT 10SM FEW025 31/24 A3027 RMK AO2 SLP249 T03110244;,,,,,,,,,,,,,,,,,,,,,,,,,,,,
72208013880,2001-06-26T12:56:00,FM-15,4,,SE,0.25,mi,"TEMP, PRECIP, SNOW",,,"MMTS, SRG, SNOWBOARD",,,WFO CHS,,,,,,,,,,,,,,,,,,,,,,,,,,,30.26,73,88,,,0.01,8,62,30.25,,,10,,150,19,10,,,,,,,,,,,,,,,,,,,,,,,,,,,,,,,,,,,,,MET091KCHS 261756Z 15009G17KT 10SM FEW035 31/23 A3026 RMK AO2 SLP245 T03060233 10311 20244 58003;,,,,,,,,,,,,,,,,,,,,,,,,,,,,
72208013880,2001-06-26T13:00:00,SY-MT,C,,SE,0.25,mi,"TEMP, PRECIP, SNOW",,,"MMTS, SRG, SNOWBOARD",,,WFO CHS,,,,,,,,,,,,,,,,,,,,,,,,,,,30.26,74,87,0,,0.01,8,65,30.25,,30.21,9.94,78,150,,10,,,,,,,,,,,,,,,,,,,,,,,,,,,,,,,,,,,,,SYN098AAXX  26184 72208 32666 21509 10306 20233 30231 40245 58003 91756 333 10311 20244 91017 555 92618;,,,,,,,,,,,,,,,,,,,,,,,,,,,,
72208013880,2001-06-26T14:00:00,FM-15,C,,SE,0.25,mi,"TEMP, PRECIP, SNOW",,,"MMTS, SRG, SNOWBOARD",,,WFO CHS,,,,,,,,,,,,,,,,,,,,,,,,,,,30.25,75,87,0,,,,67,30.25,,,9.94,,160,,12,,,,,,,,,,,,,,,,,,,,,,,,,,,,,,,,,,,,,MET067KCHS 261856Z 16010KT 10SM CLR 31/24 A3025 RMK AO2 SLP244 T03060239;,,,,,,,,,,,,,,,,,,,,,,,,,,,,
72208013880,2001-06-26T15:00:00,FM-15,C,,SE,0.25,mi,"TEMP, PRECIP, SNOW",,,"MMTS, SRG, SNOWBOARD",,,WFO CHS,,,,,,,,,,,,,,,,,,,,,,,,,,,30.26,74,85,0,,,,70,30.26,,,9.94,,160,,13,,,,,,,,,,,,,,,,,,,,,,,,,,,,,,,,,,,,,MET067KCHS 261956Z 16011KT 10SM CLR 29/23 A3026 RMK AO2 SLP247 T02940233;,,,,,,,,,,,,,,,,,,,,,,,,,,,,
72208013880,2001-06-26T16:00:00,FM-15,C,,SE,0.25,mi,"TEMP, PRECIP, SNOW",,,"MMTS, SRG, SNOWBOARD",,,WFO CHS,,,,,,,,,,,,,,,,,,,,,,,,,,,30.25,74,86,0,,0,8,67,30.25,,,9.94,,160,,14,,,,,,,,,,,,,,,,,,,,,,,,,,,,,,,,,,,,,MET073KCHS 262056Z 16012KT 10SM CLR 30/23 A3025 RMK AO2 SLP244 T03000233 58001;,,,,,,,,,,,,,,,,,,,,,,,,,,,,
72208013880,2001-06-28T12:56:00,FM-15,4,,SE,0.25,mi,"TEMP, PRECIP, SNOW",,,"MMTS, SRG, SNOWBOARD",,,WFO CHS,,,,,,,,,,,,,,,,,,,,,,,,,,,30.23,73,82,,,0.02,8,74,30.22,,,10,,150,,7,,,,,,,,,,,,,,,,,,,,,,,,,,,,,,,,,,,,,MET102KCHS 281756Z 15006KT 10SM FEW033 SCT050 BKN080 28/23 A3023 RMK AO2 SLP235 T02780233 10294 20239 58007;,,,,,,,,,,,,,,,,,,,,,,,,,,,,
72208013880,2001-06-28T13:00:00,SY-MT,C,,SE,0.25,mi,"TEMP, PRECIP, SNOW",,,"MMTS, SRG, SNOWBOARD",,,WFO CHS,,,,,,,,,,,,,,,,,,,,,,,,,,,30.23,74,82,0,,0.02,8,77,30.22,,30.18,9.94,76,150,,7,,,,,,,,,,,,,,,,,,,,,,,,,,,,,,,,,,,,,SYN092AAXX  28184 72208 32566 61506 10278 20233 30221 40235 58007 91756 333 10294 20239 555 92818;,,,,,,,,,,,,,,,,,,,,,,,,,,,,
72208013880,2001-06-28T14:00:00,FM-15,C,,SE,0.25,mi,"TEMP, PRECIP, SNOW",,,"MMTS, SRG, SNOWBOARD",,,WFO CHS,,,,,,,,,,,,,,,,,,,,,,,,,,,30.22,75,82,0,||TS TS,,,79,30.22,,,9.94,,150,,8,,,,,,,,,,,,,,,,,,,,,,,,,,,,,,,,,,,,,MET116KCHS 281856Z 15007KT 10SM TS CLR 28/24 A3022 RMK AO2 TSB49 SLP233 OCNL LGTICCGCC E-S MOV NW TS E-S MOV NW T02780239;,,,,,,,,,,,,,,,,,,,,,,,,,,,,
72208013880,2001-06-28T16:00:00,FM-15,C,,SE,0.25,mi,"TEMP, PRECIP, SNOW",,,"MMTS, SRG, SNOWBOARD",,,WFO CHS,,,,,,,,,,,,,,,,,,,,,,,,,,,30.2,75,83,0,,0.03,8,77,30.2,,,9.94,,160,,8,,,,,,,,,,,,,,,,,,,,,,,,,,,,,,,,,,,,,MET076KCHS 282056Z 16007KT 10SM BKN023 28/24 A3020 RMK AO2 SLP226 T02830239 58009;,,,,,,,,,,,,,,,,,,,,,,,,,,,,
72208013880,2001-06-29T15:00:00,FM-15,C,,SE,0.25,mi,"TEMP, PRECIP, SNOW",,,"MMTS, SRG, SNOWBOARD",,,WFO CHS,,,,,,,,,,,,,,,,,,,,,,,,,,,30.14,75,86,0,,,,70,30.14,,,9.94,,150,,10,,,,,,,,,,,,,,,,,,,,,,,,,,,,,,,,,,,,,MET070KCHS 291956Z 15009KT 10SM FEW029 30/24 A3014 RMK AO2 SLP206 T03000239;,,,,,,,,,,,,,,,,,,,,,,,,,,,,
72208013880,2001-06-29T16:00:00,FM-15,C,,SE,0.25,mi,"TEMP, PRECIP, SNOW",,,"MMTS, SRG, SNOWBOARD",,,WFO CHS,,,,,,,,,,,,,,,,,,,,,,,,,,,30.13,74,86,0,,0.04,8,67,30.12,,,9.94,,160,,8,,,,,,,,,,,,,,,,,,,,,,,,,,,,,,,,,,,,,MET076KCHS 292056Z 16007KT 10SM FEW031 30/23 A3013 RMK AO2 SLP201 T03000233 58015;,,,,,,,,,,,,,,,,,,,,,,,,,,,,
72208013880,2001-06-29T17:00:00,FM-15,C,,SE,0.25,mi,"TEMP, PRECIP, SNOW",,,"MMTS, SRG, SNOWBOARD",,,WFO CHS,,,,,,,,,,,,,,,,,,,,,,,,,,,30.12,73,84,0,,,,70,30.12,,,9.94,,150,,9,,,,,,,,,,,,,,,,,,,,,,,,,,,,,,,,,,,,,MET067KCHS 292156Z 15008KT 10SM CLR 29/23 A3012 RMK AO2 SLP200 T02890228;,,,,,,,,,,,,,,,,,,,,,,,,,,,,
72208013880,2001-06-30T11:00:00,FM-15,C,,SE,0.25,mi,"TEMP, PRECIP, SNOW",,,"MMTS, SRG, SNOWBOARD",,,WFO CHS,,,,,,,,,,,,,,,,,,,,,,,,,,,30.15,75,85,0,,,,72,30.15,,,9.94,,150,,7,,,,,,,,,,,,,,,,,,,,,,,,,,,,,,,,,,,,,MET076METAR KCHS 301556Z 15006KT 10SM SCT033 29/24 A3015 RMK AO2 SLP210 T02940239;,,,,,,,,,,,,,,,,,,,,,,,,,,,,
72208013880,2001-06-30T15:00:00,FM-15,C,,SE,0.25,mi,"TEMP, PRECIP, SNOW",,,"MMTS, SRG, SNOWBOARD",,,WFO CHS,,,,,,,,,,,,,,,,,,,,,,,,,,,30.09,74,87,0,,,,65,30.09,,,9.94,,150,16,13,,,,,,,,,,,,,,,,,,,,,,,,,,,,,,,,,,,,,MET070KCHS 301956Z 15011G14KT 10SM CLR 31/23 A3009 RMK AO2 SLP190 T03060233;,,,,,,,,,,,,,,,,,,,,,,,,,,,,
72208013880,2001-06-30T16:00:00,FM-15,C,,SE,0.25,mi,"TEMP, PRECIP, SNOW",,,"MMTS, SRG, SNOWBOARD",,,WFO CHS,,,,,,,,,,,,,,,,,,,,,,,,,,,30.08,74,86,0,,0.04,6,67,30.08,,,9.94,,160,,12,,,,,,,,,,,,,,,,,,,,,,,,,,,,,,,,,,,,,MET073KCHS 302056Z 16010KT 10SM CLR 30/23 A3008 RMK AO2 SLP186 T03000233 56013;,,,,,,,,,,,,,,,,,,,,,,,,,,,,
72208013880,2001-06-30T17:00:00,FM-15,C,,SE,0.25,mi,"TEMP, PRECIP, SNOW",,,"MMTS, SRG, SNOWBOARD",,,WFO CHS,,,,,,,,,,,,,,,,,,,,,,,,,,,30.08,73,84,0,,,,70,30.08,,,9.94,,170,,12,,,,,,,,,,,,,,,,,,,,,,,,,,,,,,,,,,,,,MET067KCHS 302156Z 17010KT 10SM CLR 29/23 A3008 RMK AO2 SLP186 T02890228;,,,,,,,,,,,,,,,,,,,,,,,,,,,,
72208013880,2001-07-01T14:00:00,FM-15,C,,SE,0.25,mi,"TEMP, PRECIP, SNOW",,,"MMTS, SRG, SNOWBOARD",,,WFO CHS,,,,,,,,,,,,,,,,,,,,,,,,,,,30.07,77,87,0,||TS TS,,,72,30.06,,,9.94,,170,,10,,,,,,,,,,,,,,,,,,,,,,,,,,,,,,,,,,,,,MET112METAR KCHS 011856Z 17009KT 10SM TS SCT045 31/25 A3007 RMK AO2 TSB56 SLP180 TS SW MOV NE OCNL LTGCG SW T03060250;,,,,,,,,,,,,,,,,,,,,,,,,,,,,
72208013880,2001-07-02T14:14:00,FM-16,4,,SE,0.25,mi,"TEMP, PRECIP, SNOW",,,"MMTS, SRG, SNOWBOARD",,,WFO CHS,,,,,,,,,,,,,,,,,,,,,,,,,,,30.09,73,79,,||SHRA TS,,,84,,,,10,,170,,8,,,,,,,,,,,,,,,,,,,,,,,,,,,,,,,,,,,,,MET080KCHS 021914Z 17007KT 10SM -TSRA FEW012 SCT046 26/23 A3009 RMK AO2 RAB1858 P0008;,,,,,,,,,,,,,,,,,,,,,,,,,,,,
72208013880,2001-07-02T15:00:00,FM-15,C,,SE,0.25,mi,"TEMP, PRECIP, SNOW",,,"MMTS, SRG, SNOWBOARD",,,WFO CHS,,,,,,,,,,,,,,,,,,,,,,,,,,,30.09,73,77,0.08,||TS TS,,,88,30.09,,,9.94,,150,,15,,,,,,,,,,,,,,,,,,,,,,,,,,,,,,,,,,,,,MET110KCHS 021956Z 15013KT 10SM TS FEW035 SCT085 25/23 A3009 RMK AO2 RAB1858E40 SLP190 TS E-S MOV E P0008 T02500228;,,,,,,,,,,,,,,,,,,,,,,,,,,,,
72208013880,2001-07-03T13:21:00,FM-16,4,,SE,0.25,mi,"TEMP, PRECIP, SNOW",,,"MMTS, SRG, SNOWBOARD",,,WFO CHS,,,,,,,,,,,,,,,,,,,,,,,,,,,30.21,72,73,,||SHRA TS,,,94,,,,1,,150,,17,,,,,,,,,,,,,,,,,,,,,,,,,,,,,,,,,,,,,MET097KCHS 031821Z 15015KT 1SM +TSRA BR SCT011 BKN030 OVC070 23/22 A3021 RMK AO2 TWR VIS 4 RAB00 P0028;,,,,,,,,,,,,,,,,,,,,,,,,,,,,
72208013880,2001-07-04T14:00:00,FM-15,C,,SE,0.25,mi,"TEMP, PRECIP, SNOW",,,"MMTS, SRG, SNOWBOARD",,,WFO CHS,,,,,,,,,,,,,,,,,,,,,,,,,,,30.1,76,88,0,||TS TS,,,68,30.1,,,9.94,,150,,10,,,,,,,,,,,,,,,,,,,,,,,,,,,,,,,,,,,,,MET108KCHS 041856Z 15009KT 10SM TS BKN034 31/24 A3010 RMK AO2 TSB52 SLP193 TS S MOV E DVLPNG N OCNL LTG T03110244;,,,,,,,,,,,,,,,,,,,,,,,,,,,,
72208013880,2001-07-12T12:56:00,FM-15,4,,SE,0.25,mi,"TEMP, PRECIP, SNOW",,,"MMTS, SRG, SNOWBOARD",,,WFO CHS,,,,,,,,,,,,,,,,,,,,,,,,,,,29.85,72,81,0.01,||TS,0.02,8,74,29.85,,,7,,170,30,16,,,,,,,,,,,,,,,,,,,,,,,,,,,,,,,,,,,,,MET169KCHS 121756Z 17014G26KT 7SM TS OVC025 27/22 A2985 RMK AO2 PK WND 19026/1751 TSB41RAB30E46 SLP107 OCNL LTGICCCCG VC TS VC MOV E P0001 60001 T02720222 10328 20267 58008 $;,,,,,,,,,,,,,,,,,,,,,,,,,,,,
72208013880,2001-07-12T13:00:00,SY-MT,C,,SE,0.25,mi,"TEMP, PRECIP, SNOW",,,"MMTS, SRG, SNOWBOARD",,,WFO CHS,,,,,,,,,,,,,,,,,,,,,,,,,,,29.85,72,81,0.01,||TS,0.02,8,74,29.85,,29.8,6.96,75,170,,16,,,,,,,,,,,,,,,,,,,,,,,,,,,,,,,,,,,,,SYN110AAXX  12184 72208 11561 81714 10272 20222 30092 40107 58008 69931 795// 91756 333 10328 20267 91026 555 91218;,,,,,,,,,,,,,,,,,,,,,,,,,,,,
72208013880,2001-07-12T13:04:00,FM-16,4,,SE,0.25,mi,"TEMP, PRECIP, SNOW",,,"MMTS, SRG, SNOWBOARD",,,WFO CHS,,,,,,,,,,,,,,,,,,,,,,,,,,,29.86,72,81,,||TS,,,74,,,,10,,170,,11,,,,,,,,,,,,,,,,,,,,,,,,,,,,,,,,,,,,,MET099KCHS 121804Z 17010KT 10SM TS OVC025 27/22 A2986 RMK AO2 WSHFT 1747 OCNL LTGICCCCG VC TS VC MOV E $;,,,,,,,,,,,,,,,,,,,,,,,,,,,,
72208013880,2001-07-14T15:00:00,FM-15,C,,SE,0.25,mi,"TEMP, PRECIP, SNOW",,,"MMTS, SRG, SNOWBOARD",,,WFO CHS,,,,,,,,,,,,,,,,,,,,,,,,,,,29.91,67,83,0,,,,59,29.9,,,9.94,,160,,10,,,,,,,,,,,,,,,,,,,,,,,,,,,,,,,,,,,,,MET077KCHS 141956Z 16009KT 10SM BKN050 BKN065 28/19 A2991 RMK AO2 SLP126 T02830194;,,,,,,,,,,,,,,,,,,,,,,,,,,,,
72208013880,2001-07-14T16:00:00,FM-15,C,,SE,0.25,mi,"TEMP, PRECIP, SNOW",,,"MMTS, SRG, SNOWBOARD",,,WFO CHS,,,,,,,,,,,,,,,,,,,,,,,,,,,29.91,67,83,0,,0.02,6,59,29.9,,,9.94,,160,,9,,,,,,,,,,,,,,,,,,,,,,,,,,,,,,,,,,,,,MET076KCHS 142056Z 16008KT 10SM SCT060 28/19 A2991 RMK AO2 SLP126 T02830194 56008;,,,,,,,,,,,,,,,,,,,,,,,,,,,,
72208013880,2001-07-14T17:00:00,FM-15,C,,SE,0.25,mi,"TEMP, PRECIP, SNOW",,,"MMTS, SRG, SNOWBOARD",,,WFO CHS,,,,,,,,,,,,,,,,,,,,,,,,,,,29.92,65,82,0,,,,56,29.91,,,9.94,,150,,10,,,,,,,,,,,,,,,,,,,,,,,,,,,,,,,,,,,,,MET070KCHS 142156Z 15009KT 10SM FEW065 28/18 A2992 RMK AO2 SLP130 T02780183;,,,,,,,,,,,,,,,,,,,,,,,,,,,,
72208013880,2001-07-15T14:00:00,FM-15,C,,SE,0.25,mi,"TEMP, PRECIP, SNOW",,,"MMTS, SRG, SNOWBOARD",,,WFO CHS,,,,,,,,,,,,,,,,,,,,,,,,,,,29.99,65,83,0,,,,55,29.99,,,9.94,,150,,8,,,,,,,,,,,,,,,,,,,,,,,,,,,,,,,,,,,,,MET070KCHS 151856Z 15007KT 10SM BKN060 28/18 A2999 RMK AO2 SLP155 T02830183;,,,,,,,,,,,,,,,,,,,,,,,,,,,,
72208013880,2001-07-15T16:00:00,FM-15,C,,SE,0.25,mi,"TEMP, PRECIP, SNOW",,,"MMTS, SRG, SNOWBOARD",,,WFO CHS,,,,,,,,,,,,,,,,,,,,,,,,,,,29.98,64,82,0,,0.02,6,55,29.98,,,9.94,,150,,8,,,,,,,,,,,,,,,,,,,,,,,,,,,,,,,,,,,,,MET076KCHS 152056Z 15007KT 10SM SCT085 28/18 A2998 RMK AO2 SLP151 T02780178 56007;,,,,,,,,,,,,,,,,,,,,,,,,,,,,
72208013880,2001-07-15T17:00:00,FM-15,C,,SE,0.25,mi,"TEMP, PRECIP, SNOW",,,"MMTS, SRG, SNOWBOARD",,,WFO CHS,,,,,,,,,,,,,,,,,,,,,,,,,,,29.98,61,81,0,,,,51,29.98,,,9.94,,150,,9,,,,,,,,,,,,,,,,,,,,,,,,,,,,,,,,,,,,,MET070KCHS 152156Z 15008KT 10SM SCT090 27/16 A2998 RMK AO2 SLP152 T02720161;,,,,,,,,,,,,,,,,,,,,,,,,,,,,
72208013880,2001-07-18T15:00:00,FM-15,C,,SE,0.25,mi,"TEMP, PRECIP, SNOW",,,"MMTS, SRG, SNOWBOARD",,,WFO CHS,,,,,,,,,,,,,,,,,,,,,,,,,,,30.03,75,88,0,,,,66,30.03,,,9.94,,150,,13,,,,,,,,,,,,,,,,,,,,,,,,,,,,,,,,,,,,,MET067KCHS 181956Z 15011KT 10SM CLR 31/24 A3003 RMK AO2 SLP168 T03110239;,,,,,,,,,,,,,,,,,,,,,,,,,,,,
72208013880,2001-07-18T17:00:00,FM-15,C,,SE,0.25,mi,"TEMP, PRECIP, SNOW",,,"MMTS, SRG, SNOWBOARD",,,WFO CHS,,,,,,,,,,,,,,,,,,,,,,,,,,,30.01,73,85,0,,,,68,30,,,9.94,,170,,10,,,,,,,,,,,,,,,,,,,,,,,,,,,,,,,,,,,,,MET067KCHS 182156Z 17009KT 10SM CLR 29/23 A3001 RMK AO2 SLP160 T02940228;,,,,,,,,,,,,,,,,,,,,,,,,,,,,
72208013880,2001-07-23T12:56:00,FM-15,4,,SE,0.25,mi,"TEMP, PRECIP, SNOW",,,"MMTS, SRG, SNOWBOARD",,,WFO CHS,,,,,,,,,,,,,,,,,,,,,,,,,,,29.91,77,84,,,0.01,5,79,29.91,,,10,,160,,9,,,,,,,,,,,,,,,,,,,,,,,,,,,,,,,,,,,,,MET094KCHS 231756Z 16008KT 10SM SCT024 29/25 A2991 RMK AO2 SLP129 60002 T02940250 10300 20239 55004;,,,,,,,,,,,,,,,,,,,,,,,,,,,,
72208013880,2001-07-23T13:00:00,SY-MT,C,,SE,0.25,mi,"TEMP, PRECIP, SNOW",,,"MMTS, SRG, SNOWBOARD",,,WFO CHS,,,,,,,,,,,,,,,,,,,,,,,,,,,29.91,77,85,0,,0.01,5,77,29.91,,29.86,9.94,79,160,,9,,,,,,,,,,,,,,,,,,,,,,,,,,,,,,,,,,,,,SYN098AAXX  23184 72208 12566 41608 10294 20250 30113 40129 55004 69951 91756 333 10300 20239 555 92318;,,,,,,,,,,,,,,,,,,,,,,,,,,,,
72208013880,2001-07-23T14:00:00,FM-15,C,,SE,0.25,mi,"TEMP, PRECIP, SNOW",,,"MMTS, SRG, SNOWBOARD",,,WFO CHS,,,,,,,,,,,,,,,,,,,,,,,,,,,29.91,78,83,0.01,,,,85,29.91,,,9.94,,150,,13,,,,,,,,,,,,,,,,,,,,,,,,,,,,,,,,,,,,,MET092KCHS 231856Z 15011KT 10SM SCT021 BKN028 28/26 A2991 RMK AO2 RAB14E36 SLP127 P0001 T02830256;,,,,,,,,,,,,,,,,,,,,,,,,,,,,
72208013880,2001-07-23T15:21:00,FM-16,4,,SE,0.25,mi,"TEMP, PRECIP, SNOW",,,"MMTS, SRG, SNOWBOARD",,,WFO CHS,,,,,,,,,,,,,,,,,,,,,,,,,,,29.9,77,84,,,,,79,,,,10,,150,,11,,,,,,,,,,,,,,,,,,,,,,,,,,,,,,,,,,,,,MET060KCHS 232021Z 15010KT 10SM BKN027 BKN033 29/25 A2990 RMK AO2;,,,,,,,,,,,,,,,,,,,,,,,,,,,,
72208013880,2001-07-23T16:00:00,FM-15,C,,SE,0.25,mi,"TEMP, PRECIP, SNOW",,,"MMTS, SRG, SNOWBOARD",,,WFO CHS,,,,,,,,,,,,,,,,,,,,,,,,,,,29.91,77,83,T,,0.01,5,82,29.91,,,9.94,,150,,9,,,,,,,,,,,,,,,,,,,,,,,,,,,,,,,,,,,,,MET110METAR KCHS 232056Z 15008KT 10SM FEW021 SCT037 28/25 A2991 RMK AO2 RAB43E54 SLP128 P0000 60001 T02830250 55002;,,,,,,,,,,,,,,,,,,,,,,,,,,,,
72208013880,2001-07-23T17:00:00,FM-15,C,,SE,0.25,mi,"TEMP, PRECIP, SNOW",,,"MMTS, SRG, SNOWBOARD",,,WFO CHS,,,,,,,,,,,,,,,,,,,,,,,,,,,29.9,76,84,0,,,,77,29.9,,,9.94,,170,,13,,,,,,,,,,,,,,,,,,,,,,,,,,,,,,,,,,,,,MET084KCHS 232156Z 17011KT 10SM FEW025 SCT041 BKN055 29/24 A2990 RMK AO2 SLP126 T02890244;,,,,,,,,,,,,,,,,,,,,,,,,,,,,
72208013880,2001-08-03T16:00:00,FM-15,C,,SE,0.25,mi,"TEMP, PRECIP, SNOW",,,"MMTS, SRG, SNOWBOARD",,,WFO CHS,,,,,,,,,,,,,,,,,,,,,,,,,,,30.02,72,84,0,,0.05,7,67,30.02,,,9.94,,170,,12,,,,,,,,,,,,,,,,,,,,,,,,,,,,,,,,,,,,,MET076KCHS 032056Z 17010KT 10SM SCT040 29/22 A3002 RMK AO2 SLP166 T02890222 57016;,,,,,,,,,,,,,,,,,,,,,,,,,,,,
72208013880,2001-08-03T17:00:00,FM-15,C,,SE,0.25,mi,"TEMP, PRECIP, SNOW",,,"MMTS, SRG, SNOWBOARD",,,WFO CHS,,,,,,,,,,,,,,,,,,,,,,,,,,,30.01,71,82,0,,,,69,30.01,,,9.94,,150,,10,,,,,,,,,,,,,,,,,,,,,,,,,,,,,,,,,,,,,MET077KCHS 032156Z 15009KT 10SM BKN038 OVC050 28/22 A3001 RMK AO2 SLP162 T02780217;,,,,,,,,,,,,,,,,,,,,,,,,,,,,
72208013880,2001-08-04T14:00:00,FM-15,C,,SE,0.25,mi,"TEMP, PRECIP, SNOW",,,"MMTS, SRG, SNOWBOARD",,,WFO CHS,,,,,,,,,,,,,,,,,,,,,,,,,,,29.98,73,83,0,,,,72,29.97,,,9.94,,150,,10,,,,,,,,,,,,,,,,,,,,,,,,,,,,,,,,,,,,,MET067KCHS 041856Z 15009KT 10SM CLR 28/23 A2998 RMK AO2 SLP150 T02830228;,,,,,,,,,,,,,,,,,,,,,,,,,,,,
72208013880,2001-08-04T15:00:00,FM-15,C,,SE,0.25,mi,"TEMP, PRECIP, SNOW",,,"MMTS, SRG, SNOWBOARD",,,WFO CHS,,,,,,,,,,,,,,,,,,,,,,,,,,,29.96,75,85,0,,,,72,29.96,,,9.94,,160,,10,,,,,,,,,,,,,,,,,,,,,,,,,,,,,,,,,,,,,MET067KCHS 041956Z 16009KT 10SM CLR 29/24 A2996 RMK AO2 SLP145 T02940239;,,,,,,,,,,,,,,,,,,,,,,,,,,,,
72208013880,2001-08-04T16:00:00,FM-15,C,,SE,0.25,mi,"TEMP, PRECIP, SNOW",,,"MMTS, SRG, SNOWBOARD",,,WFO CHS,,,,,,,,,,,,,,,,,,,,,,,,,,,29.96,74,83,0,,0.02,5,74,29.96,,,9.94,,150,,10,,,,,,,,,,,,,,,,,,,,,,,,,,,,,,,,,,,,,MET076KCHS 042056Z 15009KT 10SM FEW029 28/23 A2996 RMK AO2 SLP146 T02830233 55006;,,,,,,,,,,,,,,,,,,,,,,,,,,,,
72208013880,2001-08-05T11:31:00,FM-16,4,,SE,0.25,mi,"TEMP, PRECIP, SNOW",,,"MMTS, SRG, SNOWBOARD",,,WFO CHS,,,,,,,,,,,,,,,,,,,,,,,,,,,30.1,75,82,,||RA,,,79,,,,8,,160,,9,,,,,,,,,,,,,,,,,,,,,,,,,,,,,,,,,,,,,MET082KCHS 051631Z 16008KT 8SM -RA BKN029 BKN034 OVC048 28/24 A3010 RMK AO2 RAB27 P0001;,,,,,,,,,,,,,,,,,,,,,,,,,,,,
72208013880,2001-08-05T15:21:00,FM-16,4,,SE,0.25,mi,"TEMP, PRECIP, SNOW",,,"MMTS, SRG, SNOWBOARD",,,WFO CHS,,,,,,,,,,,,,,,,,,,,,,,,,,,30.1,75,84,,,,,74,,,,10,,160,,13,,,,,,,,,,,,,,,,,,,,,,,,,,,,,,,,,,,,,MET060KCHS 052021Z 16011KT 10SM BKN028 BKN037 29/24 A3010 RMK AO2;,,,,,,,,,,,,,,,,,,,,,,,,,,,,
72208013880,2001-08-05T15:31:00,FM-16,4,,SE,0.25,mi,"TEMP, PRECIP, SNOW",,,"MMTS, SRG, SNOWBOARD",,,WFO CHS,,,,,,,,,,,,,,,,,,,,,,,,,,,30.1,75,82,,,,,79,,,,10,,150,,14,,,,,,,,,,,,,,,,,,,,,,,,,,,,,,,,,,,,,MET073SPECI KCHS 052031Z 15012KT 10SM SCT026 BKN031 BKN038 28/24 A3010 RMK AO2;,,,,,,,,,,,,,,,,,,,,,,,,,,,,
72208013880,2001-08-05T16:00:00,FM-15,C,,SE,0.25,mi,"TEMP, PRECIP, SNOW",,,"MMTS, SRG, SNOWBOARD",,,WFO CHS,,,,,,,,,,,,,,,,,,,,,,,,,,,30.1,75,85,0,,0,0,72,30.09,,,9.94,,150,,14,,,,,,,,,,,,,,,,,,,,,,,,,,,,,,,,,,,,,MET083KCHS 052056Z 15012KT 10SM SCT027 SCT050 29/24 A3010 RMK AO2 SLP191 T02940239 50001;,,,,,,,,,,,,,,,,,,,,,,,,,,,,
72208013880,2001-08-05T17:00:00,FM-15,C,,SE,0.25,mi,"TEMP, PRECIP, SNOW",,,"MMTS, SRG, SNOWBOARD",,,WFO CHS,,,,,,,,,,,,,,,,,,,,,,,,,,,30.1,75,83,0,,,,77,30.09,,,9.94,,160,,12,,,,,,,,,,,,,,,,,,,,,,,,,,,,,,,,,,,,,MET070KCHS 052156Z 16010KT 10SM FEW027 28/24 A3010 RMK AO2 SLP191 T02830239;,,,,,,,,,,,,,,,,,,,,,,,,,,,,
72208013880,2001-08-06T15:00:00,FM-15,C,,SE,0.25,mi,"TEMP, PRECIP, SNOW",,,"MMTS, SRG, SNOWBOARD",,,WFO CHS,,,,,,,,,,,,,,,,,,,,,,,,,,,30.16,79,88,0,,,,75,30.16,,,9.94,,170,,12,,,,,,,,,,,,,,,,,,,,,,,,,,,,,,,,,,,,,MET066KCHS 061956Z 17010KT 10SM CLR 31/26 A3016 RMK AO2 LP214 T03110261;,,,,,,,,,,,,,,,,,,,,,,,,,,,,
72208013880,2001-08-17T12:56:00,FM-15,4,,SE,0.25,mi,"TEMP, PRECIP, SNOW",,,"MMTS, SRG, SNOWBOARD",,,WFO CHS,,,,,,,,,,,,,,,,,,,,,,,,,,,30.09,79,91,,,0.05,8,67,30.09,,,10,,160,,7,,,,,,,,,,,,,,,,,,,,,,,,,,,,,,,,,,,,,MET095KCHS 171756Z 16006KT 10SM BKN040 BKN049 33/26 A3009 RMK AO2 SLP190 T03280256 10333 20256 58017;,,,,,,,,,,,,,,,,,,,,,,,,,,,,
72208013880,2001-08-17T13:00:00,SY-MT,C,,SE,0.25,mi,"TEMP, PRECIP, SNOW",,,"MMTS, SRG, SNOWBOARD",,,WFO CHS,,,,,,,,,,,,,,,,,,,,,,,,,,,30.09,78,91,0,,0.05,8,66,30.09,,30.04,9.94,81,160,,7,,,,,,,,,,,,,,,,,,,,,,,,,,,,,,,,,,,,,SYN092AAXX  17184 72208 32666 61606 10328 20256 30173 40190 58017 91756 333 10333 20256 555 91718;,,,,,,,,,,,,,,,,,,,,,,,,,,,,
72208013880,2001-08-20T15:00:00,FM-15,C,,SE,0.25,mi,"TEMP, PRECIP, SNOW",,,"MMTS, SRG, SNOWBOARD",,,WFO CHS,,,,,,,,,,,,,,,,,,,,,,,,,,,29.97,74,85,0,,,,70,29.96,,,9.94,,150,,8,,,,,,,,,,,,,,,,,,,,,,,,,,,,,,,,,,,,,MET073KCHS 201956Z 15007KT 10SM CLR 29/23 A2997 RMK AO2 TSE38 SLP146 T02940233;,,,,,,,,,,,,,,,,,,,,,,,,,,,,
72208013880,2001-08-23T16:00:00,FM-15,C,,SE,0.25,mi,"TEMP, PRECIP, SNOW",,,"MMTS, SRG, SNOWBOARD",,,WFO CHS,,,,,,,,,,,,,,,,,,,,,,,,,,,30.07,75,87,0,,0.04,5,67,30.06,,,9.94,,160,,9,,,,,,,,,,,,,,,,,,,,,,,,,,,,,,,,,,,,,MET083KCHS 232056Z 16008KT 10SM FEW045 BKN060 31/24 A3007 RMK AO2 SLP181 T03060239 55012;,,,,,,,,,,,,,,,,,,,,,,,,,,,,
72208013880,2001-08-23T17:00:00,FM-15,C,,SE,0.25,mi,"TEMP, PRECIP, SNOW",,,"MMTS, SRG, SNOWBOARD",,,WFO CHS,,,,,,,,,,,,,,,,,,,,,,,,,,,30.06,73,85,0,,,,68,30.06,,,9.94,,150,,10,,,,,,,,,,,,,,,,,,,,,,,,,,,,,,,,,,,,,MET067KCHS 232156Z 15009KT 10SM CLR 29/23 A3006 RMK AO2 SLP178 T02940228;,,,,,,,,,,,,,,,,,,,,,,,,,,,,
72208013880,2001-09-02T15:14:00,FM-16,4,,SE,0.25,mi,"TEMP, PRECIP, SNOW",,,"MMTS, SRG, SNOWBOARD",,,WFO CHS,,,,,,,,,,,,,,,,,,,,,,,,,,,29.97,73,77,,,,,89,,,,10,,150,,8,,,,,,,,,,,,,,,,,,,,,,,,,,,,,,,,,,,,,MET059KCHS 022014Z 15007KT 10SM FEW011 25/23 A2997 RMK AO2 TSE09;,,,,,,,,,,,,,,,,,,,,,,,,,,,,
72208013880,2001-09-03T17:21:00,FM-16,4,,SE,0.25,mi,"TEMP, PRECIP, SNOW",,,"MMTS, SRG, SNOWBOARD",,,WFO CHS,,,,,,,,,,,,,,,,,,,,,,,,,,,29.97,73,81,,||TS,,,79,,,,10,,170,,10,,,,,,,,,,,,,,,,,,,,,,,,,,,,,,,,,,,,,MET091KCHS 032221Z 17009KT 10SM TS BKN033 27/23 A2997 RMK AO2 TSB16 TS SW MOV N OCNL LTGICCG OHD;,,,,,,,,,,,,,,,,,,,,,,,,,,,,
72208013880,2001-09-04T11:00:00,FM-15,C,,SE,0.25,mi,"TEMP, PRECIP, SNOW",,,"MMTS, SRG, SNOWBOARD",,,WFO CHS,,,,,,,,,,,,,,,,,,,,,,,,,,,30.06,73,74,0.22,||FG RA,,,97,30.06,,,1.99,,150,,8,,,,,,,,,,,,,,,,,,,,,,,,,,,,,,,,,,,,,MET095KCHS 041556Z 15007KT 2SM +RA BR SCT006 OVC028 23/23 A3006 RMK AO2 RAB41 SLP178 P0022 T02330228;,,,,,,,,,,,,,,,,,,,,,,,,,,,,
72208013880,2001-09-05T12:56:00,FM-15,4,,SE,0.25,mi,"TEMP, PRECIP, SNOW",,,"MMTS, SRG, SNOWBOARD",,,WFO CHS,,,,,,,,,,,,,,,,,,,,,,,,,,,30.07,75,79,0.06,||SHRA TS,0,0,89,30.07,,,3,,170,,9,,,,,,,,,,,,,,,,,,,,,,,,,,,,,,,,,,,,,MET167KCHS 051756Z 17008KT 3SM +TSRA BR SCT008 BKN024 OVC046 26/24 A3007 RMK AO2 TSB32RAB48 SLP182 OCNL LTGICCCCG VC TS VC MOV STNRY P0006 60006 T02560239 10294 20239 50000;,,,,,,,,,,,,,,,,,,,,,,,,,,,,
72208013880,2001-09-05T13:00:00,SY-MT,C,,SE,0.25,mi,"TEMP, PRECIP, SNOW",,,"MMTS, SRG, SNOWBOARD",,,WFO CHS,,,,,,,,,,,,,,,,,,,,,,,,,,,30.07,75,78,0.06,||FG,0,0,90,30.07,,30.02,2.98,76,170,,9,,,,,,,,,,,,,,,,,,,,,,,,,,,,,,,,,,,,,SYN110AAXX  05184 72208 11348 81708 10256 20239 30167 40182 50000 60021 710// 91756 333 10294 20239 96010 555 90518;,,,,,,,,,,,,,,,,,,,,,,,,,,,,
72208013880,2001-09-05T13:30:00,FM-15,4,,SE,0.25,mi,"TEMP, PRECIP, SNOW",,,"MMTS, SRG, SNOWBOARD",,,WFO CHS,,,,,,,,,,,,,,,,,,,,,,,,,,,30.05,77,81,0.01,||RA,,,89,,,,8,,170,,7,,,,,,,,,,,,,,,,,,,,,,,,,,,,,,,,,,,,,MET091KCHS 051830Z 17006KT 8SM -RA FEW015 SCT036 BKN075 27/25 A3005 RMK AO2 TSE25 TS DSPTD P0001;,,,,,,,,,,,,,,,,,,,,,,,,,,,,
72208013880,2001-09-09T11:00:00,FM-15,C,,SE,0.25,mi,"TEMP, PRECIP, SNOW",,,"MMTS, SRG, SNOWBOARD",,,WFO CHS,,,,,,,,,,,,,,,,,,,,,,,,,,,30.07,73,83,0,,,,72,30.07,,,9.94,,160,,12,,,,,,,,,,,,,,,,,,,,,,,,,,,,,,,,,,,,,MET077KCHS 091556Z 16010KT 10SM FEW029 SCT065 28/23 A3007 RMK AO2 SLP182 T02830228;,,,,,,,,,,,,,,,,,,,,,,,,,,,,
72208013880,2001-09-09T13:16:00,FM-16,4,,SE,0.25,mi,"TEMP, PRECIP, SNOW",,,"MMTS, SRG, SNOWBOARD",,,WFO CHS,,,,,,,,,,,,,,,,,,,,,,,,,,,30.06,72,75,,||RA,,,89,,,,1,,150,28,11,,,,,,,,,,,,,,,,,,,,,,,,,,,,,,,,,,,,,MET075KCHS 091816Z 15010G24KT 1SM +RA BR FEW007 BKN023 24/22 A3006 RMK AO2 P0020;,,,,,,,,,,,,,,,,,,,,,,,,,,,,
72208013880,2001-09-09T14:00:00,FM-15,C,,SE,0.25,mi,"TEMP, PRECIP, SNOW",,,"MMTS, SRG, SNOWBOARD",,,WFO CHS,,,,,,,,,,,,,,,,,,,,,,,,,,,30.06,75,82,0.22,,,,79,30.05,,,9.94,,160,,9,,,,,,,,,,,,,,,,,,,,,,,,,,,,,,,,,,,,,MET082KCHS 091856Z 16008KT 10SM FEW090 28/24 A3006 RMK AO2 RAE28 SLP177 P0022 T02780239;,,,,,,,,,,,,,,,,,,,,,,,,,,,,
72208013880,2001-09-09T15:00:00,FM-15,C,,SE,0.25,mi,"TEMP, PRECIP, SNOW",,,"MMTS, SRG, SNOWBOARD",,,WFO CHS,,,,,,,,,,,,,,,,,,,,,,,,,,,30.04,75,85,0,,,,72,30.04,,,9.94,,160,,10,,,,,,,,,,,,,,,,,,,,,,,,,,,,,,,,,,,,,MET077KCHS 091956Z 16009KT 10SM FEW035 SCT090 29/24 A3004 RMK AO2 SLP172 T02940239;,,,,,,,,,,,,,,,,,,,,,,,,,,,,
72208013880,2001-09-09T17:00:00,FM-15,C,,SE,0.25,mi,"TEMP, PRECIP, SNOW",,,"MMTS, SRG, SNOWBOARD",,,WFO CHS,,,,,,,,,,,,,,,,,,,,,,,,,,,30.06,72,81,0,,,,74,30.05,,,9.94,,150,,9,,,,,,,,,,,,,,,,,,,,,,,,,,,,,,,,,,,,,MET076METAR KCHS 092156Z 15008KT 10SM SCT035 27/22 A3006 RMK AO2 SLP177 T02720222;,,,,,,,,,,,,,,,,,,,,,,,,,,,,
72208013880,2001-09-10T12:00:00,FM-15,C,,SE,0.25,mi,"TEMP, PRECIP, SNOW",,,"MMTS, SRG, SNOWBOARD",,,WFO CHS,,,,,,,,,,,,,,,,,,,,,,,,,,,30.1,73,87,0,,,,63,30.09,,,9.94,,160,,10,,,,,,,,,,,,,,,,,,,,,,,,,,,,,,,,,,,,,MET067KCHS 101656Z 16009KT 10SM CLR 31/23 A3010 RMK AO2 SLP191 T03060228;,,,,,,,,,,,,,,,,,,,,,,,,,,,,
72208013880,2001-09-10T12:56:00,FM-15,4,,SE,0.25,mi,"TEMP, PRECIP, SNOW",,,"MMTS, SRG, SNOWBOARD",,,WFO CHS,,,,,,,,,,,,,,,,,,,,,,,,,,,30.09,73,88,,,0.01,8,62,30.09,,,10,,150,,7,,,,,,,,,,,,,,,,,,,,,,,,,,,,,,,,,,,,,MET085KCHS 101756Z 15006KT 10SM CLR 31/23 A3009 RMK AO2 SLP190 T03060228 10311 20233 58005;,,,,,,,,,,,,,,,,,,,,,,,,,,,,
72208013880,2001-09-10T13:00:00,SY-MT,C,,SE,0.25,mi,"TEMP, PRECIP, SNOW",,,"MMTS, SRG, SNOWBOARD",,,WFO CHS,,,,,,,,,,,,,,,,,,,,,,,,,,,30.09,73,87,0,,0.01,8,63,30.09,CLR:00,30.04,9.94,77,150,,7,,,,,,,,,,,,,,,,,,,,,,,,,,,,,,,,,,,,,SYN092AAXX  10184 72208 32966 01506 10306 20228 30173 40190 58005 91756 333 10311 20233 555 91018;,,,,,,,,,,,,,,,,,,,,,,,,,,,,
72208013880,2001-09-10T14:00:00,FM-15,C,,SE,0.25,mi,"TEMP, PRECIP, SNOW",,,"MMTS, SRG, SNOWBOARD",,,WFO CHS,,,,,,,,,,,,,,,,,,,,,,,,,,,30.08,74,88,0,,,,63,30.07,,,9.94,,170,,9,,,,,,,,,,,,,,,,,,,,,,,,,,,,,,,,,,,,,MET067KCHS 101856Z 17008KT 10SM CLR 31/23 A3008 RMK AO2 SLP184 T03110233;,,,,,,,,,,,,,,,,,,,,,,,,,,,,
72208013880,2001-09-10T16:00:00,FM-15,C,,SE,0.25,mi,"TEMP, PRECIP, SNOW",,,"MMTS, SRG, SNOWBOARD",,,WFO CHS,,,,,,,,,,,,,,,,,,,,,,,,,,,30.05,75,86,0,,0.04,6,70,30.05,,,9.94,,150,,12,,,,,,,,,,,,,,,,,,,,,,,,,,,,,,,,,,,,,MET090KCHS 102056Z 15010KT 10SM FEW040 30/24 3005 RMK AO2 SLP176 CB NW-N MOV NW T03000239 56013;,,,,,,,,,,,,,,,,,,,,,,,,,,,,
72208013880,2001-09-10T17:00:00,FM-15,C,,SE,0.25,mi,"TEMP, PRECIP, SNOW",,,"MMTS, SRG, SNOWBOARD",,,WFO CHS,,,,,,,,,,,,,,,,,,,,,,,,,,,30.06,74,84,0,,,,72,30.06,,,9.94,,150,,10,,,,,,,,,,,,,,,,,,,,,,,,,,,,,,,,,,,,,MET076METAR KCHS 102156Z 15009KT 10SM FEW035 29/23 A3006 RMK AO2 SLP178 T02890233;,,,,,,,,,,,,,,,,,,,,,,,,,,,,
72208013880,2001-09-18T17:00:00,FM-15,C,,SE,0.25,mi,"TEMP, PRECIP, SNOW",,,"MMTS, SRG, SNOWBOARD",,,WFO CHS,,,,,,,,,,,,,,,,,,,,,,,,,,,30.01,61,78,0,,,,56,30.01,,,9.94,,160,,13,,,,,,,,,,,,,,,,,,,,,,,,,,,,,,,,,,,,,MET067KCHS 182156Z 16011KT 10SM CLR 26/16 A3001 RMK AO2 SLP162 T02560161;,,,,,,,,,,,,,,,,,,,,,,,,,,,,
72208013880,2001-09-19T14:00:00,FM-15,C,,SE,0.25,mi,"TEMP, PRECIP, SNOW",,,"MMTS, SRG, SNOWBOARD",,,WFO CHS,,,,,,,,,,,,,,,,,,,,,,,,,,,30.02,66,82,0,,,,58,30.01,,,9.94,,170,,8,,,,,,,,,,,,,,,,,,,,,,,,,,,,,,,,,,,,,MET070KCHS 191856Z 17007KT 10SM SCT055 28/19 A3002 RMK AO2 SLP164 T02780189;,,,,,,,,,,,,,,,,,,,,,,,,,,,,
72208013880,2001-09-19T15:00:00,FM-15,C,,SE,0.25,mi,"TEMP, PRECIP, SNOW",,,"MMTS, SRG, SNOWBOARD",,,WFO CHS,,,,,,,,,,,,,,,,,,,,,,,,,,,30.01,65,80,0,,,,60,30.01,,,9.94,,150,,12,,,,,,,,,,,,,,,,,,,,,,,,,,,,,,,,,,,,,MET070KCHS 191956Z 15010KT 10SM FEW050 27/18 A3001 RMK AO2 SLP162 T02670183;,,,,,,,,,,,,,,,,,,,,,,,,,,,,
72208013880,2001-09-19T17:00:00,FM-15,C,,SE,0.25,mi,"TEMP, PRECIP, SNOW",,,"MMTS, SRG, SNOWBOARD",,,WFO CHS,,,,,,,,,,,,,,,,,,,,,,,,,,,30.02,65,78,0,,,,64,30.01,,,9.94,,160,,9,,,,,,,,,,,,,,,,,,,,,,,,,,,,,,,,,,,,,MET067KCHS 192156Z 16008KT 10SM CLR 26/18 A3002 RMK AO2 SLP164 T02560183;,,,,,,,,,,,,,,,,,,,,,,,,,,,,
72208013880,2001-09-20T14:00:00,FM-15,C,,SE,0.25,mi,"TEMP, PRECIP, SNOW",,,"MMTS, SRG, SNOWBOARD",,,WFO CHS,,,,,,,,,,,,,,,,,,,,,,,,,,,29.99,73,84,0,,,,70,29.98,,,9.94,,160,,7,,,,,,,,,,,,,,,,,,,,,,,,,,,,,,,,,,,,,MET067KCHS 201856Z 16006KT 10SM CLR 29/23 A2999 RMK AO2 SLP154 T02890228;,,,,,,,,,,,,,,,,,,,,,,,,,,,,
72208013880,2001-09-21T12:46:00,FM-16,4,,SE,0.25,mi,"TEMP, PRECIP, SNOW",,,"MMTS, SRG, SNOWBOARD",,,WFO CHS,,,,,,,,,,,,,,,,,,,,,,,,,,,29.98,73,79,,||RA,,,84,,,,8,,160,,11,,,,,,,,,,,,,,,,,,,,,,,,,,,,,,,,,,,,,MET082KCHS 211746Z 16010KT 8SM -RA FEW014 BKN036 BKN046 26/23 A2998 RMK AO2 RAB28 P0008;,,,,,,,,,,,,,,,,,,,,,,,,,,,,
72208013880,2001-09-21T13:27:00,FM-16,4,,SE,0.25,mi,"TEMP, PRECIP, SNOW",,,"MMTS, SRG, SNOWBOARD",,,WFO CHS,,,,,,,,,,,,,,,,,,,,,,,,,,,29.99,73,79,,,,,84,,,,10,,160,,9,,,,,,,,,,,,,,,,,,,,,,,,,,,,,,,,,,,,,MET069KCHS 211827Z 16008KT 10SM FEW047 26/23 A2999 RMK AO2 TSE26 TS MOV NE;,,,,,,,,,,,,,,,,,,,,,,,,,,,,
72208013880,2001-09-21T16:00:00,FM-15,C,,SE,0.25,mi,"TEMP, PRECIP, SNOW",,,"MMTS, SRG, SNOWBOARD",,,WFO CHS,,,,,,,,,,,,,,,,,,,,,,,,,,,29.96,75,83,0,,0.02,8,77,29.96,,,9.94,,150,,7,,,,,,,,,,,,,,,,,,,,,,,,,,,,,,,,,,,,,MET079KCHS 212056Z 15006KT 10SM CLR 28/24 A2996 RMK AO2 SLP146 60001 T02830239 58007;,,,,,,,,,,,,,,,,,,,,,,,,,,,,
72208013880,2001-09-22T15:00:00,FM-15,C,,SE,0.25,mi,"TEMP, PRECIP, SNOW",,,"MMTS, SRG, SNOWBOARD",,,WFO CHS,,,,,,,,,,,,,,,,,,,,,,,,,,,29.99,75,86,0,,,,70,29.99,,,9.94,,170,,8,,,,,,,,,,,,,,,,,,,,,,,,,,,,,,,,,,,,,MET077KCHS 221956Z 17007KT 10SM BKN034 BKN046 30/24 A2999 RMK AO2 SLP156 T03000239;,,,,,,,,,,,,,,,,,,,,,,,,,,,,
72208013880,2001-09-22T16:00:00,FM-15,C,,SE,0.25,mi,"TEMP, PRECIP, SNOW",,,"MMTS, SRG, SNOWBOARD",,,WFO CHS,,,,,,,,,,,,,,,,,,,,,,,,,,,29.99,74,85,0,,0.04,6,70,29.98,,,9.94,,160,,7,,,,,,,,,,,,,,,,,,,,,,,,,,,,,,,,,,,,,MET073KCHS 222056Z 16006KT 10SM CLR 29/23 A2999 RMK AO2 SLP154 T02940233 56013;,,,,,,,,,,,,,,,,,,,,,,,,,,,,
72208013880,2001-09-22T17:00:00,FM-15,C,,SE,0.25,mi,"TEMP, PRECIP, SNOW",,,"MMTS, SRG, SNOWBOARD",,,WFO CHS,,,,,,,,,,,,,,,,,,,,,,,,,,,29.99,73,82,0,,,,74,29.99,,,9.94,,150,,9,,,,,,,,,,,,,,,,,,,,,,,,,,,,,,,,,,,,,MET067KCHS 222156Z 15008KT 10SM CLR 28/23 A2999 RMK AO2 SLP156 T02780228;,,,,,,,,,,,,,,,,,,,,,,,,,,,,
72208013880,2001-09-23T12:15:00,FM-16,4,,SE,0.25,mi,"TEMP, PRECIP, SNOW",,,"MMTS, SRG, SNOWBOARD",,,WFO CHS,,,,,,,,,,,,,,,,,,,,,,,,,,,30.06,73,82,,,,,74,,,,10,,160,,7,,,,,,,,,,,,,,,,,,,,,,,,,,,,,,,,,,,,,MET066SPECI KCHS 231715Z 16006KT 10SM BKN026 BKN035 28/23 A3006 RMK AO2;,,,,,,,,,,,,,,,,,,,,,,,,,,,,
72208013880,2001-09-23T14:00:00,FM-15,C,,SE,0.25,mi,"TEMP, PRECIP, SNOW",,,"MMTS, SRG, SNOWBOARD",,,WFO CHS,,,,,,,,,,,,,,,,,,,,,,,,,,,30.02,74,83,0,,,,74,30.02,,,9.94,,150,,10,,,,,,,,,,,,,,,,,,,,,,,,,,,,,,,,,,,,,MET084KCHS 231856Z 15009KT 10SM SCT028 SCT033 BKN045 28/23 A3002 RMK AO2 SLP165 T02830233;,,,,,,,,,,,,,,,,,,,,,,,,,,,,
72208013880,2001-09-23T15:00:00,FM-15,C,,SE,0.25,mi,"TEMP, PRECIP, SNOW",,,"MMTS, SRG, SNOWBOARD",,,WFO CHS,,,,,,,,,,,,,,,,,,,,,,,,,,,30.01,74,82,0,,,,77,30.01,,,9.94,,160,,10,,,,,,,,,,,,,,,,,,,,,,,,,,,,,,,,,,,,,MET070KCHS 231956Z 16009KT 10SM FEW032 28/23 A3001 RMK AO2 SLP162 T02780233;,,,,,,,,,,,,,,,,,,,,,,,,,,,,
72208013880,2001-09-23T16:00:00,FM-15,C,,SE,0.25,mi,"TEMP, PRECIP, SNOW",,,"MMTS, SRG, SNOWBOARD",,,WFO CHS,,,,,,,,,,,,,,,,,,,,,,,,,,,30,74,83,0,,0.04,6,74,30,,,9.94,,170,,13,,,,,,,,,,,,,,,,,,,,,,,,,,,,,,,,,,,,,MET083KCHS 232056Z 17011KT 10SM FEW030 SCT090 28/23 A3000 RMK AO2 SLP159 T02830233 56014;,,,,,,,,,,,,,,,,,,,,,,,,,,,,
72208013880,2001-09-23T17:00:00,FM-15,C,,SE,0.25,mi,"TEMP, PRECIP, SNOW",,,"MMTS, SRG, SNOWBOARD",,,WFO CHS,,,,,,,,,,,,,,,,,,,,,,,,,,,30,73,80,0,,,,79,29.99,,,9.94,,160,,12,,,,,,,,,,,,,,,,,,,,,,,,,,,,,,,,,,,,,MET077KCHS 232156Z 16010KT 10SM SCT040 SCT100 27/23 A3000 RMK AO2 SLP157 T02670228;,,,,,,,,,,,,,,,,,,,,,,,,,,,,
72208013880,2001-09-27T17:00:00,FM-15,C,,SE,0.25,mi,"TEMP, PRECIP, SNOW",,,"MMTS, SRG, SNOWBOARD",,,WFO CHS,,,,,,,,,,,,,,,,,,,,,,,,,,,29.93,63,76,0,,,,64,29.93,,,9.94,,150,,8,,,,,,,,,,,,,,,,,,,,,,,,,,,,,,,,,,,,,MET067KCHS 272156Z 15007KT 10SM CLR 24/17 A2993 RMK AO2 SLP136 T02440172;,,,,,,,,,,,,,,,,,,,,,,,,,,,,
72208013880,2001-10-12T12:00:00,FM-15,C,,SE,0.25,mi,"TEMP, PRECIP, SNOW",,,"MMTS, SRG, SNOWBOARD",,,WFO CHS,,,,,,,,,,,,,,,,,,,,,,,,,,,30.13,63,78,0,,,,60,30.12,,,9.94,,150,,9,,,,,,,,,,,,,,,,,,,,,,,,,,,,,,,,,,,,,MET084KCHS 121656Z 15008KT 10SM SCT046 BKN075 BKN250 26/17 A3013 RMK AO2 SLP200 T02560172;,,,,,,,,,,,,,,,,,,,,,,,,,,,,
72208013880,2001-10-12T12:56:00,FM-15,4,,SE,0.25,mi,"TEMP, PRECIP, SNOW",,,"MMTS, SRG, SNOWBOARD",,,WFO CHS,,,,,,,,,,,,,,,,,,,,,,,,,,,30.09,64,81,,,0.06,8,58,30.08,,,10,,150,,10,,,,,,,,,,,,,,,,,,,,,,,,,,,,,,,,,,,,,MET109KCHS 121756Z 15009KT 10SM SCT045 BKN070 BKN200 BKN250 27/18 A3009 RMK AO2 SLP187 T02670183 10267 20172 58019;,,,,,,,,,,,,,,,,,,,,,,,,,,,,
72208013880,2001-10-12T13:00:00,SY-MT,C,,SE,0.25,mi,"TEMP, PRECIP, SNOW",,,"MMTS, SRG, SNOWBOARD",,,WFO CHS,,,,,,,,,,,,,,,,,,,,,,,,,,,30.09,65,80,0,,0.06,8,60,30.08,,30.04,9.94,70,150,,10,,,,,,,,,,,,,,,,,,,,,,,,,,,,,,,,,,,,,SYN092AAXX  12184 72208 32666 61509 10267 20183 30173 40187 58019 91756 333 10267 20172 555 91218;,,,,,,,,,,,,,,,,,,,,,,,,,,,,
72208013880,2001-10-12T14:00:00,FM-15,C,,SE,0.25,mi,"TEMP, PRECIP, SNOW",,,"MMTS, SRG, SNOWBOARD",,,WFO CHS,,,,,,,,,,,,,,,,,,,,,,,,,,,30.08,64,78,0,,,,62,30.08,,,9.94,,170,,7,,,,,,,,,,,,,,,,,,,,,,,,,,,,,,,,,,,,,MET084KCHS 121856Z 17006KT 10SM BKN050 BKN075 OVC250 26/18 A3008 RMK AO2 SLP185 T02560178;,,,,,,,,,,,,,,,,,,,,,,,,,,,,
72208013880,2001-10-12T16:00:00,FM-15,C,,SE,0.25,mi,"TEMP, PRECIP, SNOW",,,"MMTS, SRG, SNOWBOARD",,,WFO CHS,,,,,,,,,,,,,,,,,,,,,,,,,,,30.08,64,77,0,,0.01,5,64,30.07,,,9.94,,150,,9,,,,,,,,,,,,,,,,,,,,,,,,,,,,,,,,,,,,,MET094KCHS 122056Z COR 15008KT 10SM SCT041 BKN075 OVC250 25/18 A3008 RMK AO2 SLP184 T02500178 55003;,,,,,,,,,,,,,,,,,,,,,,,,,,,,
72208013880,2001-10-12T17:00:00,FM-15,C,,SE,0.25,mi,"TEMP, PRECIP, SNOW",,,"MMTS, SRG, SNOWBOARD",,,WFO CHS,,,,,,,,,,,,,,,,,,,,,,,,,,,30.09,64,74,0,,,,71,30.09,,,9.94,,160,,7,,,,,,,,,,,,,,,,,,,,,,,,,,,,,,,,,,,,,MET077KCHS 122156Z 16006KT 10SM SCT075 OVC130 23/18 A3009 RMK AO2 SLP190 T02330178;,,,,,,,,,,,,,,,,,,,,,,,,,,,,
72208013880,2001-10-13T11:00:00,FM-15,C,,SE,0.25,mi,"TEMP, PRECIP, SNOW",,,"MMTS, SRG, SNOWBOARD",,,WFO CHS,,,,,,,,,,,,,,,,,,,,,,,,,,,30.12,63,80,0,,,,56,30.11,,,9.94,,160,,13,,,,,,,,,,,,,,,,,,,,,,,,,,,,,,,,,,,,,MET077KCHS 131556Z 16011KT 10SM SCT045 SCT200 27/17 A3012 RMK AO2 SLP197 T02670172;,,,,,,,,,,,,,,,,,,,,,,,,,,,,
72208013880,2001-10-13T12:00:00,FM-15,C,,SE,0.25,mi,"TEMP, PRECIP, SNOW",,,"MMTS, SRG, SNOWBOARD",,,WFO CHS,,,,,,,,,,,,,,,,,,,,,,,,,,,30.1,64,81,0,,,,57,30.1,,,9.94,,150,,14,,,,,,,,,,,,,,,,,,,,,,,,,,,,,,,,,,,,,MET077KCHS 131656Z 15012KT 10SM SCT040 SCT200 27/18 A3010 RMK AO2 SLP192 T02720178;,,,,,,,,,,,,,,,,,,,,,,,,,,,,
72208013880,2001-10-13T15:00:00,FM-15,C,,SE,0.25,mi,"TEMP, PRECIP, SNOW",,,"MMTS, SRG, SNOWBOARD",,,WFO CHS,,,,,,,,,,,,,,,,,,,,,,,,,,,30.04,66,78,0,,,,67,30.04,,,9.94,,150,,16,,,,,,,,,,,,,,,,,,,,,,,,,,,,,,,,,,,,,MET084KCHS 131956Z 15014KT 10SM SCT055 SCT070 BKN200 26/19 A3004 RMK AO2 SLP173 T02560189;,,,,,,,,,,,,,,,,,,,,,,,,,,,,
72208013880,2001-10-13T17:00:00,FM-15,C,,SE,0.25,mi,"TEMP, PRECIP, SNOW",,,"MMTS, SRG, SNOWBOARD",,,WFO CHS,,,,,,,,,,,,,,,,,,,,,,,,,,,30.02,65,76,0,,,,69,30.01,,,9.94,,150,,13,,,,,,,,,,,,,,,,,,,,,,,,,,,,,,,,,,,,,MET077KCHS 132156Z 15011KT 10SM SCT039 BKN200 24/18 A3002 RMK AO2 SLP164 T02440183;,,,,,,,,,,,,,,,,,,,,,,,,,,,,
72208013880,2001-10-14T11:00:00,FM-15,C,,SE,0.25,mi,"TEMP, PRECIP, SNOW",,,"MMTS, SRG, SNOWBOARD",,,WFO CHS,,,,,,,,,,,,,,,,,,,,,,,,,,,29.95,74,79,0,,,,85,29.94,,,9.94,,170,,15,,,,,,,,,,,,,,,,,,,,,,,,,,,,,,,,,,,,,MET084KCHS 141556Z 17013KT 10SM FEW016 SCT026 OVC050 26/23 A2995 RMK AO2 SLP140 T02610233;,,,,,,,,,,,,,,,,,,,,,,,,,,,,
72208013880,2001-10-14T11:02:00,FM-16,4,,SE,0.25,mi,"TEMP, PRECIP, SNOW",,,"MMTS, SRG, SNOWBOARD",,,WFO CHS,,,,,,,,,,,,,,,,,,,,,,,,,,,29.94,73,79,,||RA,,,84,,,,10,,170,,16,,,,,,,,,,,,,,,,,,,,,,,,,,,,,,,,,,,,,MET085KCHS 141602Z 17014KT 10SM -RA SCT016 SCT023 OVC050 26/23 A2994 RMK AO2 RAB1557 P0000;,,,,,,,,,,,,,,,,,,,,,,,,,,,,
72208013880,2001-10-23T15:00:00,FM-15,C,,SE,0.25,mi,"TEMP, PRECIP, SNOW",,,"MMTS, SRG, SNOWBOARD",,,WFO CHS,,,,,,,,,,,,,,,,,,,,,,,,,,,29.86,73,82,0,,,,74,29.85,22,,9.94,,150,,10,,,,,,,,,,,,,,,,,,,,,,,,,,,,,,,,,,,,,MET090KCHS 231956Z 15009KT 10SM SCT022TCU SCT200 28/23 A2986 RMK AO2 SLP109 TCU SW-NE T02780228;,,,,,,,,,,,,,,,,,,,,,,,,,,,,
72208013880,2001-10-23T17:00:00,FM-15,C,,SE,0.25,mi,"TEMP, PRECIP, SNOW",,,"MMTS, SRG, SNOWBOARD",,,WFO CHS,,,,,,,,,,,,,,,,,,,,,,,,,,,29.86,72,79,0,,,,79,29.85,28,,9.94,,150,,7,,,,,,,,,,,,,,,,,,,,,,,,,,,,,,,,,,,,,MET091KCHS 232156Z 15006KT 10SM FEW028TCU SCT200 26/22 A2986 RMK AO2 SLP110 TCU DSNT W T02610222;,,,,,,,,,,,,,,,,,,,,,,,,,,,,
72208013880,2001-10-24T16:00:00,FM-15,C,,SE,0.25,mi,"TEMP, PRECIP, SNOW",,,"MMTS, SRG, SNOWBOARD",,,WFO CHS,,,,,,,,,,,,,,,,,,,,,,,,,,,29.85,74,83,0,,0.03,6,74,29.84,,,9.94,,160,,13,,,,,,,,,,,,,,,,,,,,,,,,,,,,,,,,,,,,,MET097KCHS 242056Z 16011KT 10SM SCT027 SCT250 28/23 A2985 RMK AO2 SLP106 TCU DSNT W-NW T02830233 56011;,,,,,,,,,,,,,,,,,,,,,,,,,,,,
72208013880,2001-11-10T16:00:00,FM-15,C,,SE,0.25,mi,"TEMP, PRECIP, SNOW",,,"MMTS, SRG, SNOWBOARD",,,WFO CHS,,,,,,,,,,,,,,,,,,,,,,,,,,,30.15,53,73,0,,0.05,6,50,30.14,,,9.94,,150,,12,,,,,,,,,,,,,,,,,,,,,,,,,,,,,,,,,,,,,MET073KCHS 102056Z 15010KT 10SM CLR 23/12 A3015 RMK AO2 SLP208 T02280117 56018;,,,,,,,,,,,,,,,,,,,,,,,,,,,,
72208013880,2001-11-19T14:00:00,FM-15,C,,SE,0.25,mi,"TEMP, PRECIP, SNOW",,,"MMTS, SRG, SNOWBOARD",,,WFO CHS,,,,,,,,,,,,,,,,,,,,,,,,,,,30.12,63,76,0,,,,64,30.11,,,9.94,,170,,10,,,,,,,,,,,,,,,,,,,,,,,,,,,,,,,,,,,,,MET096KCHS 191856Z 17009KT 10SM FEW037 SCT065 BKN250 24/17 A3012 RMK AO2 SLP197 MDT CU N-NE T02440172;,,,,,,,,,,,,,,,,,,,,,,,,,,,,
72208013880,2001-11-19T15:00:00,FM-15,C,,SE,0.25,mi,"TEMP, PRECIP, SNOW",,,"MMTS, SRG, SNOWBOARD",,,WFO CHS,,,,,,,,,,,,,,,,,,,,,,,,,,,30.1,63,73,0,,,,71,30.1,,,9.94,,170,,10,,,,,,,,,,,,,,,,,,,,,,,,,,,,,,,,,,,,,MET077KCHS 191956Z 17009KT 10SM FEW033 BKN250 23/17 A3010 RMK AO2 SLP192 T02280172;,,,,,,,,,,,,,,,,,,,,,,,,,,,,
72208013880,2001-11-22T15:00:00,FM-15,E,,SE,0.25,mi,"TEMP, PRECIP, SNOW",,,"MMTS, SRG, SNOWBOARD",,,WFO CHS,,,,,,,,,,,,,,,,,,,,,,,,,,,30.11,52,65,0,,,,63,30.11,,,9.94,,160,,7,,,,,,,,,,,,,,,,,,,,,,,,,,,,,,,,,,,,,,,,,,,,,,,,,,,,,,,,,,,,,,,,,
72208013880,2001-11-24T12:56:00,FM-15,4,,SE,0.25,mi,"TEMP, PRECIP, SNOW",,,"MMTS, SRG, SNOWBOARD",,,WFO CHS,,,,,,,,,,,,,,,,,,,,,,,,,,,30.06,68,77,,,0.05,8,74,30.05,,,10,,150,,10,,,,,,,,,,,,,,,,,,,,,,,,,,,,,,,,,,,,,MET114KCHS 241756Z 15009KT 10SM SCT033 SCT050 BKN080 25/20 A3006 RMK AO2 SLP177 MDT CU S-NE T02500200 10267 20172 58017;,,,,,,,,,,,,,,,,,,,,,,,,,,,,
72208013880,2001-11-24T13:00:00,SY-MT,C,,SE,0.25,mi,"TEMP, PRECIP, SNOW",,,"MMTS, SRG, SNOWBOARD",,,WFO CHS,,,,,,,,,,,,,,,,,,,,,,,,,,,30.06,68,77,0,,0.05,8,74,30.05,,30.01,9.94,71,150,,10,,,,,,,,,,,,,,,,,,,,,,,,,,,,,,,,,,,,,SYN092AAXX  24184 72208 32566 61509 10250 20200 30163 40177 58017 91756 333 10267 20172 555 92418;,,,,,,,,,,,,,,,,,,,,,,,,,,,,
72208013880,2001-11-24T15:00:00,FM-15,C,,SE,0.25,mi,"TEMP, PRECIP, SNOW",,,"MMTS, SRG, SNOWBOARD",,,WFO CHS,,,,,,,,,,,,,,,,,,,,,,,,,,,30.07,69,76,0,,,,79,30.07,,,9.94,,150,,14,,,,,,,,,,,,,,,,,,,,,,,,,,,,,,,,,,,,,MET077KCHS 241956Z 15012KT 10SM FEW029 BKN055 24/21 A3007 RMK AO2 SLP183 T02440206;,,,,,,,,,,,,,,,,,,,,,,,,,,,,
72208013880,2001-11-24T17:00:00,FM-15,C,,SE,0.25,mi,"TEMP, PRECIP, SNOW",,,"MMTS, SRG, SNOWBOARD",,,WFO CHS,,,,,,,,,,,,,,,,,,,,,,,,,,,30.08,68,73,0,,,,84,30.07,,,9.94,,160,,15,,,,,,,,,,,,,,,,,,,,,,,,,,,,,,,,,,,,,MET083METAR KCHS 242156Z 16013KT 10SM FEW050 BKN060 23/20 A3008 RMK AO2 SLP184 T02280200;,,,,,,,,,,,,,,,,,,,,,,,,,,,,
72208013880,2001-11-25T12:56:00,FM-15,4,,SE,0.25,mi,"TEMP, PRECIP, SNOW",,,"MMTS, SRG, SNOWBOARD",,,WFO CHS,,,,,,,,,,,,,,,,,,,,,,,,,,,30.11,70,75,,,0.07,8,83,30.1,,,10,,170,,13,,,,,,,,,,,,,,,,,,,,,,,,,,,,,,,,,,,,,MET109KCHS 251756Z 17011KT 10SM FEW018 SCT050 SCT085 OVC140 24/21 A3011 RMK AO2 SLP194 T02390206 10239 20194 58024;,,,,,,,,,,,,,,,,,,,,,,,,,,,,
72208013880,2001-11-25T13:00:00,SY-MT,C,,SE,0.25,mi,"TEMP, PRECIP, SNOW",,,"MMTS, SRG, SNOWBOARD",,,WFO CHS,,,,,,,,,,,,,,,,,,,,,,,,,,,30.11,69,75,0,,0.07,8,82,30.1,,30.06,9.94,71,170,,13,,,,,,,,,,,,,,,,,,,,,,,,,,,,,,,,,,,,,SYN092AAXX  25184 72208 32466 81711 10239 20206 30180 40194 58024 91756 333 10239 20194 555 92518;,,,,,,,,,,,,,,,,,,,,,,,,,,,,
72208013880,2001-11-27T15:00:00,FM-15,C,,SE,0.25,mi,"TEMP, PRECIP, SNOW",,,"MMTS, SRG, SNOWBOARD",,,WFO CHS,,,,,,,,,,,,,,,,,,,,,,,,,,,30.1,68,80,0,,,,67,30.1,,,9.94,,170,,12,,,,,,,,,,,,,,,,,,,,,,,,,,,,,,,,,,,,,MET089KCHS 271956Z 17010KT 10SM FEW042 SCT200 27/20 A3010 RMK AO2 SLP192 MDT CU N-NE T02670200;,,,,,,,,,,,,,,,,,,,,,,,,,,,,
72208013880,2001-11-29T12:00:00,FM-15,C,,SE,0.25,mi,"TEMP, PRECIP, SNOW",,,"MMTS, SRG, SNOWBOARD",,,WFO CHS,,,,,,,,,,,,,,,,,,,,,,,,,,,30.21,67,79,0,,,,67,30.21,,,9.94,,160,,15,,,,,,,,,,,,,,,,,,,,,,,,,,,,,,,,,,,,,MET095KCHS 291656Z 16013KT 10SM SCT031 BKN040 BKN050 26/19 A3021 RMK AO2 SLP229 MDT CU E-S T02610194;,,,,,,,,,,,,,,,,,,,,,,,,,,,,
72208013880,2001-11-29T13:00:00,SY-MT,C,,SE,0.25,mi,"TEMP, PRECIP, SNOW",,,"MMTS, SRG, SNOWBOARD",,,WFO CHS,,,,,,,,,,,,,,,,,,,,,,,,,,,30.18,66,78,0,,0.07,8,67,30.18,,30.13,9.94,70,150,,17,,,,,,,,,,,,,,,,,,,,,,,,,,,,,,,,,,,,,SYN092AAXX  29184 72208 32566 61515 10256 20189 30204 40220 58023 91756 333 10261 20161 555 92918;MET095KCHS 291756Z 15015KT 10SM SCT030 BKN035 26/19 A3018 RMK AO2 SLP220 T02560189 10261 20161 58023;,,,,,,,,,,,,,,,,,,,,,,,,,,,,
72208013880,2001-11-29T14:00:00,FM-15,C,,SE,0.25,mi,"TEMP, PRECIP, SNOW",,,"MMTS, SRG, SNOWBOARD",,,WFO CHS,,,,,,,,,,,,,,,,,,,,,,,,,,,30.16,66,78,0,,,,67,30.16,,,9.94,,160,,16,,,,,,,,,,,,,,,,,,,,,,,,,,,,,,,,,,,,,MET101METAR KCHS 291856Z 16014KT 10SM SCT033 BKN042 BKN050 26/19 A3016 RMK AO2 SLP213 MDT CU OHD T02560189;,,,,,,,,,,,,,,,,,,,,,,,,,,,,
72208013880,2001-11-29T15:00:00,FM-15,C,,SE,0.25,mi,"TEMP, PRECIP, SNOW",,,"MMTS, SRG, SNOWBOARD",,,WFO CHS,,,,,,,,,,,,,,,,,,,,,,,,,,,30.16,66,78,0,,,,67,30.16,,,9.94,,150,,17,,,,,,,,,,,,,,,,,,,,,,,,,,,,,,,,,,,,,MET096KCHS 291956Z 15015KT 10SM SCT032 BKN043 BKN055 26/19 A3016 RMK AO2 SLP212 MDT CU W-NW T02560189;,,,,,,,,,,,,,,,,,,,,,,,,,,,,
72208013880,2001-11-29T16:00:00,FM-15,C,,SE,0.25,mi,"TEMP, PRECIP, SNOW",,,"MMTS, SRG, SNOWBOARD",,,WFO CHS,,,,,,,,,,,,,,,,,,,,,,,,,,,30.14,66,76,0,,0.04,6,72,30.14,,,9.94,,160,,14,,,,,,,,,,,,,,,,,,,,,,,,,,,,,,,,,,,,,MET089METAR KCHS 292056Z 16012KT 10SM BKN032 BKN140 24/19 A3014 RMK AO2 SLP206 T02440189 56014;,,,,,,,,,,,,,,,,,,,,,,,,,,,,
72208013880,2001-11-29T17:00:00,FM-15,C,,SE,0.25,mi,"TEMP, PRECIP, SNOW",,,"MMTS, SRG, SNOWBOARD",,,WFO CHS,,,,,,,,,,,,,,,,,,,,,,,,,,,30.13,67,73,0,,,,81,30.13,,,9.94,,150,,12,,,,,,,,,,,,,,,,,,,,,,,,,,,,,,,,,,,,,MET077KCHS 292156Z 15010KT 10SM BKN039 BKN150 23/19 A3013 RMK AO2 SLP203 T02280194;,,,,,,,,,,,,,,,,,,,,,,,,,,,,
72208013880,2001-12-01T14:22:00,FM-16,4,,SE,0.25,mi,"TEMP, PRECIP, SNOW",,,"MMTS, SRG, SNOWBOARD",,,WFO CHS,,,,,,,,,,,,,,,,,,,,,,,,,,,30.11,66,75,,,,,74,,,,10,,170,,7,,,,,,,,,,,,,,,,,,,,,,,,,,,,,,,,,,,,,MET060KCHS 011922Z 17006KT 10SM SCT023 OVC033 24/19 A3011 RMK AO2;,,,,,,,,,,,,,,,,,,,,,,,,,,,,
72208013880,2001-12-06T11:00:00,FM-15,C,,SE,0.25,mi,"TEMP, PRECIP, SNOW",,,"MMTS, SRG, SNOWBOARD",,,WFO CHS,,,,,,,,,,,,,,,,,,,,,,,,,,,30.28,62,75,0,,,,64,30.28,,,9.94,,150,,7,,,,,,,,,,,,,,,,,,,,,,,,,,,,,,,,,,,,,MET070KCHS 061556Z 15006KT 10SM FEW070 24/17 A3028 RMK AO2 SLP253 T02390167;,,,,,,,,,,,,,,,,,,,,,,,,,,,,
72208013880,2001-12-06T12:00:00,FM-15,C,,SE,0.25,mi,"TEMP, PRECIP, SNOW",,,"MMTS, SRG, SNOWBOARD",,,WFO CHS,,,,,,,,,,,,,,,,,,,,,,,,,,,30.25,61,76,0,,,,60,30.25,,,9.94,,160,,8,,,,,,,,,,,,,,,,,,,,,,,,,,,,,,,,,,,,,MET077KCHS 061656Z 16007KT 10SM FEW036 BKN050 24/16 A3025 RMK AO2 SLP243 T02440161;,,,,,,,,,,,,,,,,,,,,,,,,,,,,
72208013880,2001-12-06T12:56:00,FM-15,4,,SE,0.25,mi,"TEMP, PRECIP, SNOW",,,"MMTS, SRG, SNOWBOARD",,,WFO CHS,,,,,,,,,,,,,,,,,,,,,,,,,,,30.22,61,75,,,0.09,6,61,30.22,,,10,,150,,7,,,,,,,,,,,,,,,,,,,,,,,,,,,,,,,,,,,,,MET095KCHS 061756Z 15006KT 10SM SCT036 BKN050 24/16 A3022 RMK AO2 SLP234 T02440161 10244 20111 56029;,,,,,,,,,,,,,,,,,,,,,,,,,,,,
72208013880,2001-12-06T13:00:00,SY-MT,C,,SE,0.25,mi,"TEMP, PRECIP, SNOW",,,"MMTS, SRG, SNOWBOARD",,,WFO CHS,,,,,,,,,,,,,,,,,,,,,,,,,,,30.22,61,76,0,,0.09,6,60,30.22,,30.17,9.94,67,150,,7,,,,,,,,,,,,,,,,,,,,,,,,,,,,,,,,,,,,,SYN092AAXX  06184 72208 32666 61506 10244 20161 30217 40234 56029 91756 333 10244 20111 555 90618;,,,,,,,,,,,,,,,,,,,,,,,,,,,,
72208013880,2001-12-06T14:00:00,FM-15,C,,SE,0.25,mi,"TEMP, PRECIP, SNOW",,,"MMTS, SRG, SNOWBOARD",,,WFO CHS,,,,,,,,,,,,,,,,,,,,,,,,,,,30.19,61,76,0,,,,60,30.19,,,9.94,,150,,7,,,,,,,,,,,,,,,,,,,,,,,,,,,,,,,,,,,,,MET070KCHS 061856Z 15006KT 10SM BKN050 24/16 A3019 RMK AO2 SLP222 T02440161;,,,,,,,,,,,,,,,,,,,,,,,,,,,,
72208013880,2001-12-17T11:00:00,FM-15,C,,SE,0.25,mi,"TEMP, PRECIP, SNOW",,,"MMTS, SRG, SNOWBOARD",,,WFO CHS,,,,,,,,,,,,,,,,,,,,,,,,,,,30.08,62,73,0,,,,69,30.08,,,9.94,,170,,9,,,,,,,,,,,,,,,,,,,,,,,,,,,,,,,,,,,,,MET077KCHS 171556Z 17008KT 10SM FEW180 BKN250 23/17 A3008 RMK AO2 SLP186 T02280167;,,,,,,,,,,,,,,,,,,,,,,,,,,,,
72208013880,2001-12-23T11:00:00,FM-15,C,,SE,0.25,mi,"TEMP, PRECIP, SNOW",,,"MMTS, SRG, SNOWBOARD",,,WFO CHS,,,,,,,,,,,,,,,,,,,,,,,,,,,30.14,52,61,0,,,,72,30.14,,,9.94,,150,,12,,,,,,,,,,,,,,,,,,,,,,,,,,,,,,,,,,,,,MET088KCHS 231556Z COR 15010KT 10SM FEW025 BKN070 OVC250 20/13 A3014 RMK AO2 SLP207 T01610111;,,,,,,,,,,,,,,,,,,,,,,,,,,,,
72208013880,2001-12-23T17:00:00,FM-15,C,,SE,0.25,mi,"TEMP, PRECIP, SNOW",,,"MMTS, SRG, SNOWBOARD",,,WFO CHS,,,,,,,,,,,,,,,,,,,,,,,,,,,30.03,59,66,0,,,,78,30.03,,,9.94,,170,,7,,,,,,,,,,,,,,,,,,,,,,,,,,,,,,,,,,,,,MET084KCHS 232156Z 17006KT 10SM SCT042 BKN065 OVC300 19/15 A3003 RMK AO2 SLP168 T01890150;,,,,,,,,,,,,,,,,,,,,,,,,,,,,
72208013880,2002-01-12T14:00:00,FM-15,C,,SE,0.25,mi,"TEMP, PRECIP, SNOW",,,"MMTS, SRG, SNOWBOARD",,,WFO CHS,,,,,,,,,,,,,,,,,,,,,,,,,,,29.93,50,62,0,,,,65,29.93,,,9.94,,150,,10,,,,,,,,,,,,,,,,,,,,,,,,,,,,,,,,,,,,,MET070KCHS 121856Z 15009KT 10SM OVC033 17/10 A2993 RMK AO2 SLP134 T01670100;,,,,,,,,,,,,,,,,,,,,,,,,,,,,
72208013880,2002-01-12T15:00:00,FM-15,C,,SE,0.25,mi,"TEMP, PRECIP, SNOW",,,"MMTS, SRG, SNOWBOARD",,,WFO CHS,,,,,,,,,,,,,,,,,,,,,,,,,,,29.91,51,63,0,,,,65,29.9,,,9.94,,150,,7,,,,,,,,,,,,,,,,,,,,,,,,,,,,,,,,,,,,,MET084KCHS 121956Z 15006KT 10SM SCT031 SCT080 OVC250 17/11 A2991 RMK AO2 SLP126 T01720106;,,,,,,,,,,,,,,,,,,,,,,,,,,,,
72208013880,2002-01-12T15:34:00,FM-16,4,,SE,0.25,mi,"TEMP, PRECIP, SNOW",,,"MMTS, SRG, SNOWBOARD",,,WFO CHS,,,,,,,,,,,,,,,,,,,,,,,,,,,29.88,52,63,,,,,68,,,,10,,150,,7,,,,,,,,,,,,,,,,,,,,,,,,,,,,,,,,,,,,,MET067KCHS 122034Z 15006KT 10SM BKN029 BKN060 OVC250 17/11 A2988 RMK AO2;,,,,,,,,,,,,,,,,,,,,,,,,,,,,
72208013880,2002-01-12T16:00:00,FM-15,C,,SE,0.25,mi,"TEMP, PRECIP, SNOW",,,"MMTS, SRG, SNOWBOARD",,,WFO CHS,,,,,,,,,,,,,,,,,,,,,,,,,,,29.88,51,63,0,,0.09,6,65,29.87,,,9.94,,160,,7,,,,,,,,,,,,,,,,,,,,,,,,,,,,,,,,,,,,,MET090KCHS 122056Z 16006KT 10SM SCT029 BKN048 OVC250 17/11 A2988 RMK AO2 SLP116 T01720106 56030;,,,,,,,,,,,,,,,,,,,,,,,,,,,,
72208013880,2002-01-12T16:02:00,FM-16,4,,SE,0.25,mi,"TEMP, PRECIP, SNOW",,,"MMTS, SRG, SNOWBOARD",,,WFO CHS,,,,,,,,,,,,,,,,,,,,,,,,,,,29.87,52,63,,,,,68,,,,10,,160,,8,,,,,,,,,,,,,,,,,,,,,,,,,,,,,,,,,,,,,MET067KCHS 122102Z 16007KT 10SM BKN027 BKN048 BKN060 17/11 A2987 RMK AO2;,,,,,,,,,,,,,,,,,,,,,,,,,,,,
72208013880,2002-02-10T16:00:00,FM-15,C,,SE,0.25,mi,"TEMP, PRECIP, SNOW",,,"MMTS, SRG, SNOWBOARD",,,WFO CHS,,,,,,,,,,,,,,,,,,,,,,,,,,,30.08,60,71,0,,0.06,6,68,30.07,,,9.94,,150,,9,,,,,,,,,,,,,,,,,,,,,,,,,,,,,,,,,,,,,MET090KCHS 102056Z 15008KT 10SM FEW033 BKN065 OVC095 22/16 A3008 RMK AO2 SLP184 T02170156 56022;,,,,,,,,,,,,,,,,,,,,,,,,,,,,
72208013880,2002-02-19T12:00:00,FM-15,C,,SE,0.25,mi,"TEMP, PRECIP, SNOW",,,"MMTS, SRG, SNOWBOARD",,,WFO CHS,,,,,,,,,,,,,,,,,,,,,,,,,,,30.37,29,60,0,,,,31,30.37,,,9.94,,150,,7,,,,,,,,,,,,,,,,,,,,,,,,,,,,,,,,,,,,,MET073KCHS 191656Z 15006KT 10SM SCT250 16/M02 A3037 RMK AO2 SLP283 T01561017 $;,,,,,,,,,,,,,,,,,,,,,,,,,,,,
72208013880,2002-02-19T14:00:00,FM-15,C,,SE,0.25,mi,"TEMP, PRECIP, SNOW",,,"MMTS, SRG, SNOWBOARD",,,WFO CHS,,,,,,,,,,,,,,,,,,,,,,,,,,,30.31,32,63,0,,,,31,30.31,,,9.94,,160,,12,,,,,,,,,,,,,,,,,,,,,,,,,,,,,,,,,,,,,MET087METAR KCHS 191856Z COR 16010KT 10SM FEW050 BKN250 17/00 A3031 RMK AO2 SLP263 T01720000;,,,,,,,,,,,,,,,,,,,,,,,,,,,,
72208013880,2002-02-19T16:00:00,FM-15,C,,SE,0.25,mi,"TEMP, PRECIP, SNOW",,,"MMTS, SRG, SNOWBOARD",,,WFO CHS,,,,,,,,,,,,,,,,,,,,,,,,,,,30.31,44,64,0,,0.02,5,48,30.31,,,9.94,,160,,9,,,,,,,,,,,,,,,,,,,,,,,,,,,,,,,,,,,,,MET083KCHS 192056Z 16008KT 10SM FEW050 OVC250 18/07 A3031 RMK AO2 SLP263 T01780067 55008;,,,,,,,,,,,,,,,,,,,,,,,,,,,,
72208013880,2002-02-19T17:00:00,FM-15,C,,SE,0.25,mi,"TEMP, PRECIP, SNOW",,,"MMTS, SRG, SNOWBOARD",,,WFO CHS,,,,,,,,,,,,,,,,,,,,,,,,,,,30.3,44,61,0,,,,54,30.3,,,9.94,,160,,12,,,,,,,,,,,,,,,,,,,,,,,,,,,,,,,,,,,,,MET077KCHS 192156Z 16010KT 10SM SCT095 BKN250 16/07 A3030 RMK AO2 SLP261 T01610067;,,,,,,,,,,,,,,,,,,,,,,,,,,,,
72208013880,2002-03-02T14:09:00,FM-16,4,,SE,0.25,mi,"TEMP, PRECIP, SNOW",,,"MMTS, SRG, SNOWBOARD",,,WFO CHS,,,,,,,,,,,,,,,,,,,,,,,,,,,29.98,63,63,,||RA,,,100,,,,2,,150,,15,,,,,,,,,,,,,,,,,,,,,,,,,,,,,,,,,,,,,MET079KCHS 021909Z 15013KT 2SM +RA BR SCT006 BKN019 OVC033 17/17 A2998 RMK AO2 P0012;,,,,,,,,,,,,,,,,,,,,,,,,,,,,
72208013880,2002-03-02T14:43:00,FM-16,4,,SE,0.25,mi,"TEMP, PRECIP, SNOW",,,"MMTS, SRG, SNOWBOARD",,,WFO CHS,,,,,,,,,,,,,,,,,,,,,,,,,,,29.94,63,63,,||RA,,,100,,,,4,,160,,11,,,,,,,,,,,,,,,,,,,,,,,,,,,,,,,,,,,,,MET090KCHS 021943Z 16010KT 4SM RA BR BKN005 BKN015 OVC022 17/17 A2994 RMK AO2 CIG 004V010 P0026;,,,,,,,,,,,,,,,,,,,,,,,,,,,,
72208013880,2002-03-02T15:18:00,FM-16,4,,SE,0.25,mi,"TEMP, PRECIP, SNOW",,,"MMTS, SRG, SNOWBOARD",,,WFO CHS,,,,,,,,,,,,,,,,,,,,,,,,,,,29.91,64,64,,||RA,,,100,,,,2,,150,,16,,,,,,,,,,,,,,,,,,,,,,,,,,,,,,,,,,,,,MET094KCHS 022018Z 15014KT 2SM -RA BR BKN005 OVC011 18/18 A2991 RMK AO2 SFC VIS 5 CIG 003V007 P0002;,,,,,,,,,,,,,,,,,,,,,,,,,,,,
72208013880,2002-03-05T15:00:00,FM-15,C,,SE,0.25,mi,"TEMP, PRECIP, SNOW",,,"MMTS, SRG, SNOWBOARD",,,WFO CHS,,,,,,,,,,,,,,,,,,,,,,,,,,,30.45,20,52,0,,,,28,30.45,,,9.94,,150,,9,,,,,,,,,,,,,,,,,,,,,,,,,,,,,,,,,,,,,MET079KCHS 051956Z 15008KT 110V180 10SM FEW200 11/M07 A3045 RMK AO2 SLP311 T01111067;,,,,,,,,,,,,,,,,,,,,,,,,,,,,
72208013880,2002-03-05T16:00:00,FM-15,C,,SE,0.25,mi,"TEMP, PRECIP, SNOW",,,"MMTS, SRG, SNOWBOARD",,,WFO CHS,,,,,,,,,,,,,,,,,,,,,,,,,,,30.45,22,51,0,,0.04,5,32,30.45,,,9.94,,160,,9,,,,,,,,,,,,,,,,,,,,,,,,,,,,,,,,,,,,,MET077KCHS 052056Z 16008KT 10SM FEW200 11/M06 A3045 RMK AO2 SLP312 T01061056 55015;,,,,,,,,,,,,,,,,,,,,,,,,,,,,
72208013880,2002-03-05T17:00:00,FM-15,C,,SE,0.25,mi,"TEMP, PRECIP, SNOW",,,"MMTS, SRG, SNOWBOARD",,,WFO CHS,,,,,,,,,,,,,,,,,,,,,,,,,,,30.45,23,49,0,,,,36,30.45,,,9.94,,150,,13,,,,,,,,,,,,,,,,,,,,,,,,,,,,,,,,,,,,,MET071KCHS 052156Z 15011KT 10SM FEW200 09/M05 A3045 RMK AO2 SLP312 T00941050;,,,,,,,,,,,,,,,,,,,,,,,,,,,,
72208013880,2002-03-06T12:00:00,FM-15,C,,SE,0.25,mi,"TEMP, PRECIP, SNOW",,,"MMTS, SRG, SNOWBOARD",,,WFO CHS,,,,,,,,,,,,,,,,,,,,,,,,,,,30.48,31,60,0,,,,33,30.47,,,9.94,,170,,8,,,,,,,,,,,,,,,,,,,,,,,,,,,,,,,,,,,,,MET079KCHS 061656Z 17007KT 120V180 10SM FEW060 16/M01 A3048 RMK AO2 SLP320 T01561006;,,,,,,,,,,,,,,,,,,,,,,,,,,,,
72208013880,2002-03-06T12:56:00,FM-15,4,,SE,0.25,mi,"TEMP, PRECIP, SNOW",,,"MMTS, SRG, SNOWBOARD",,,WFO CHS,,,,,,,,,,,,,,,,,,,,,,,,,,,30.45,36,63,,,0.05,8,37,30.45,,,10,,170,,9,,,,,,,,,,,,,,,,,,,,,,,,,,,,,,,,,,,,,MET096KCHS 061756Z 17008KT 110V200 10SM FEW060 17/02 A3045 RMK AO2 SLP312 T01670017 10172 21017 58017;,,,,,,,,,,,,,,,,,,,,,,,,,,,,
72208013880,2002-03-06T13:00:00,SY-MT,C,,SE,0.25,mi,"TEMP, PRECIP, SNOW",,,"MMTS, SRG, SNOWBOARD",,,WFO CHS,,,,,,,,,,,,,,,,,,,,,,,,,,,30.45,35,62,0,,0.05,8,37,30.45,,30.4,9.94,49,170,,9,,,,,,,,,,,,,,,,,,,,,,,,,,,,,,,,,,,,,SYN092AAXX  06184 72208 32766 21708 10167 20017 30295 40312 58017 91756 333 10172 21017 555 90618;,,,,,,,,,,,,,,,,,,,,,,,,,,,,
72208013880,2002-03-09T11:29:00,FM-16,4,,SE,0.25,mi,"TEMP, PRECIP, SNOW",,,"MMTS, SRG, SNOWBOARD",,,WFO CHS,,,,,,,,,,,,,,,,,,,,,,,,,,,30.32,64,72,,||RA,,,78,,,,10,,160,,15,,,,,,,,,,,,,,,,,,,,,,,,,,,,,,,,,,,,,MET077KCHS 091629Z 16013KT 10SM -RA FEW023 BKN037 OVC055 22/18 A3032 RMK AO2 P0001;,,,,,,,,,,,,,,,,,,,,,,,,,,,,
72208013880,2002-03-09T12:00:00,FM-15,C,,SE,0.25,mi,"TEMP, PRECIP, SNOW",,,"MMTS, SRG, SNOWBOARD",,,WFO CHS,,,,,,,,,,,,,,,,,,,,,,,,,,,30.32,68,73,0.02,,,,84,30.31,,,9.94,,170,,13,,,,,,,,,,,,,,,,,,,,,,,,,,,,,,,,,,,,,MET096KCHS 091656Z 17011KT 10SM SCT037 BKN045 OVC250 23/20 A3032 RMK AO2 RAE54 SLP265 P0002 T02280200;,,,,,,,,,,,,,,,,,,,,,,,,,,,,
72208013880,2002-03-09T12:56:00,FM-15,4,,SE,0.25,mi,"TEMP, PRECIP, SNOW",,,"MMTS, SRG, SNOWBOARD",,,WFO CHS,,,,,,,,,,,,,,,,,,,,,,,,,,,30.3,64,75,,,0.03,8,69,30.29,,,10,,170,,15,,,,,,,,,,,,,,,,,,,,,,,,,,,,,,,,,,,,,MET108KCHS 091756Z 17013KT 10SM FEW023 SCT055 OVC250 24/18 A3030 RMK AO2 SLP259 60002 T02440183 10244 20150 58010;,,,,,,,,,,,,,,,,,,,,,,,,,,,,
72208013880,2002-03-09T13:00:00,SY-MT,C,,SE,0.25,mi,"TEMP, PRECIP, SNOW",,,"MMTS, SRG, SNOWBOARD",,,WFO CHS,,,,,,,,,,,,,,,,,,,,,,,,,,,30.3,65,76,0,,0.03,8,69,30.29,,30.25,9.94,69,170,,15,,,,,,,,,,,,,,,,,,,,,,,,,,,,,,,,,,,,,SYN098AAXX  09184 72208 12566 81713 10244 20183 30244 40259 58010 69951 91756 333 10244 20150 555 90918;,,,,,,,,,,,,,,,,,,,,,,,,,,,,
72208013880,2002-03-09T17:00:00,FM-15,C,,SE,0.25,mi,"TEMP, PRECIP, SNOW",,,"MMTS, SRG, SNOWBOARD",,,WFO CHS,,,,,,,,,,,,,,,,,,,,,,,,,,,30.23,63,75,0,,,,66,30.23,,,9.94,,170,,14,,,,,,,,,,,,,,,,,,,,,,,,,,,,,,,,,,,,,MET083METAR KCHS 092156Z 17012KT 10SM FEW030 OVC250 24/17 A3023 RMK AO2 SLP237 T02390172;,,,,,,,,,,,,,,,,,,,,,,,,,,,,
72208013880,2002-03-12T16:00:00,FM-15,C,,SE,0.25,mi,"TEMP, PRECIP, SNOW",,,"MMTS, SRG, SNOWBOARD",,,WFO CHS,,,,,,,,,,,,,,,,,,,,,,,,,,,29.99,65,69,0,,0.11,6,87,29.99,,,9.94,,150,,9,,,,,,,,,,,,,,,,,,,,,,,,,,,,,,,,,,,,,MET096KCHS 122056Z 15008KT 10SM FEW037 SCT075 OVC200 21/18 A2999 RMK AO2 SLP155 60004 T02060183 56036;,,,,,,,,,,,,,,,,,,,,,,,,,,,,
72208013880,2002-03-12T17:00:00,FM-15,C,,SE,0.25,mi,"TEMP, PRECIP, SNOW",,,"MMTS, SRG, SNOWBOARD",,,WFO CHS,,,,,,,,,,,,,,,,,,,,,,,,,,,29.97,64,69,0,,,,84,29.97,,,9.94,,150,,8,,,,,,,,,,,,,,,,,,,,,,,,,,,,,,,,,,,,,MET084KCHS 122156Z 15007KT 10SM FEW037 SCT085 OVC200 21/18 A2997 RMK AO2 SLP148 T02060178;,,,,,,,,,,,,,,,,,,,,,,,,,,,,
72208013880,2002-03-14T16:00:00,FM-15,C,,SE,0.25,mi,"TEMP, PRECIP, SNOW",,,"MMTS, SRG, SNOWBOARD",,,WFO CHS,,,,,,,,,,,,,,,,,,,,,,,,,,,30.07,57,68,0,,0.01,5,68,30.06,,,9.94,,160,,14,,,,,,,,,,,,,,,,,,,,,,,,,,,,,,,,,,,,,MET076KCHS 142056Z 16012KT 10SM FEW028 20/14 A3007 RMK AO2 SLP181 T02000139 55005;,,,,,,,,,,,,,,,,,,,,,,,,,,,,
72208013880,2002-03-14T17:00:00,FM-15,C,,SE,0.25,mi,"TEMP, PRECIP, SNOW",,,"MMTS, SRG, SNOWBOARD",,,WFO CHS,,,,,,,,,,,,,,,,,,,,,,,,,,,30.07,58,66,0,,,,75,30.07,,,9.94,,150,,15,,,,,,,,,,,,,,,,,,,,,,,,,,,,,,,,,,,,,MET077KCHS 142156Z 15013KT 10SM SCT020 SCT250 19/14 A3007 RMK AO2 SLP183 T01890144;,,,,,,,,,,,,,,,,,,,,,,,,,,,,
72208013880,2002-03-15T14:00:00,FM-15,C,,SE,0.25,mi,"TEMP, PRECIP, SNOW",,,"MMTS, SRG, SNOWBOARD",,,WFO CHS,,,,,,,,,,,,,,,,,,,,,,,,,,,30.07,58,79,0,,,,49,30.06,,,9.94,,170,,9,,,,,,,,,,,,,,,,,,,,,,,,,,,,,,,,,,,,,MET070KCHS 151856Z 17008KT 10SM FEW048 26/14 A3007 RMK AO2 SLP181 T02610144;,,,,,,,,,,,,,,,,,,,,,,,,,,,,
72208013880,2002-03-15T15:00:00,FM-15,C,,SE,0.25,mi,"TEMP, PRECIP, SNOW",,,"MMTS, SRG, SNOWBOARD",,,WFO CHS,,,,,,,,,,,,,,,,,,,,,,,,,,,30.06,57,81,0,,,,44,30.05,,,9.94,,170,18,12,,,,,,,,,,,,,,,,,,,,,,,,,,,,,,,,,,,,,MET073KCHS 151956Z 17010G16KT 10SM FEW050 27/14 A3006 RMK AO2 SLP177 T02720139;,,,,,,,,,,,,,,,,,,,,,,,,,,,,
72208013880,2002-03-23T14:00:00,FM-15,C,,SE,0.25,mi,"TEMP, PRECIP, SNOW",,,"MMTS, SRG, SNOWBOARD",,,WFO CHS,,,,,,,,,,,,,,,,,,,,,,,,,,,30.24,31,60,0,,,,33,30.24,,,9.94,,170,,8,,,,,,,,,,,,,,,,,,,,,,,,,,,,,,,,,,,,,MET079KCHS 231856Z 17007KT 140V200 10SM FEW250 16/M01 A3024 RMK AO2 SLP239 T01561006;,,,,,,,,,,,,,,,,,,,,,,,,,,,,
72208013880,2002-03-23T16:00:00,FM-15,C,,SE,0.25,mi,"TEMP, PRECIP, SNOW",,,"MMTS, SRG, SNOWBOARD",,,WFO CHS,,,,,,,,,,,,,,,,,,,,,,,,,,,30.21,33,59,0,,0.06,6,38,30.21,,,9.94,,160,,10,,,,,,,,,,,,,,,,,,,,,,,,,,,,,,,,,,,,,MET076KCHS 232056Z 16009KT 10SM FEW250 15/01 A3021 RMK AO2 SLP229 T01500006 56021;,,,,,,,,,,,,,,,,,,,,,,,,,,,,
72208013880,2002-03-23T17:00:00,FM-15,C,,SE,0.25,mi,"TEMP, PRECIP, SNOW",,,"MMTS, SRG, SNOWBOARD",,,WFO CHS,,,,,,,,,,,,,,,,,,,,,,,,,,,30.19,33,59,0,,,,38,30.19,,,9.94,,150,,12,,,,,,,,,,,,,,,,,,,,,,,,,,,,,,,,,,,,,MET070KCHS 232156Z 15010KT 10SM FEW250 15/01 A3019 RMK AO2 SLP224 T01500006;,,,,,,,,,,,,,,,,,,,,,,,,,,,,
72208013880,2002-03-24T12:00:00,FM-15,C,,SE,0.25,mi,"TEMP, PRECIP, SNOW",,,"MMTS, SRG, SNOWBOARD",,,WFO CHS,,,,,,,,,,,,,,,,,,,,,,,,,,,30.21,48,71,0,,,,44,30.2,,,9.94,,170,,10,,,,,,,,,,,,,,,,,,,,,,,,,,,,,,,,,,,,,MET067KCHS 241656Z 17009KT 10SM CLR 22/09 A3021 RMK AO2 SLP228 T02170089;,,,,,,,,,,,,,,,,,,,,,,,,,,,,
72208013880,2002-03-24T17:00:00,FM-15,C,,SE,0.25,mi,"TEMP, PRECIP, SNOW",,,"MMTS, SRG, SNOWBOARD",,,WFO CHS,,,,,,,,,,,,,,,,,,,,,,,,,,,30.13,53,69,0,,,,57,30.13,,,9.94,,170,,14,,,,,,,,,,,,,,,,,,,,,,,,,,,,,,,,,,,,,MET076METAR KCHS 242156Z 17012KT 10SM SCT250 21/12 A3013 RMK AO2 SLP202 T02060117;,,,,,,,,,,,,,,,,,,,,,,,,,,,,
72208013880,2002-03-26T14:00:00,FM-15,C,,SE,0.25,mi,"TEMP, PRECIP, SNOW",,,"MMTS, SRG, SNOWBOARD",,,WFO CHS,,,,,,,,,,,,,,,,,,,,,,,,,,,30.03,61,81,0,,,,51,30.02,,,9.94,,170,25,15,,,,,,,,,,,,,,,,,,,,,,,,,,,,,,,,,,,,,MET087KCHS 261856Z 17013G22KT 10SM SCT042 BKN220 BKN250 27/16 A3003 RMK AO2 SLP167 T02720161;,,,,,,,,,,,,,,,,,,,,,,,,,,,,
72208013880,2002-03-26T17:00:00,FM-15,C,,SE,0.25,mi,"TEMP, PRECIP, SNOW",,,"MMTS, SRG, SNOWBOARD",,,WFO CHS,,,,,,,,,,,,,,,,,,,,,,,,,,,29.97,67,74,0,,,,79,29.97,,,9.94,,170,,14,,,,,,,,,,,,,,,,,,,,,,,,,,,,,,,,,,,,,MET077KCHS 262156Z 17012KT 10SM FEW070 OVC250 23/19 A2997 RMK AO2 SLP148 T02330194;,,,,,,,,,,,,,,,,,,,,,,,,,,,,
72208013880,2002-03-29T15:00:00,FM-15,C,,SE,0.25,mi,"TEMP, PRECIP, SNOW",,,"MMTS, SRG, SNOWBOARD",,,WFO CHS,,,,,,,,,,,,,,,,,,,,,,,,,,,30.05,47,80,0,,,,31,30.04,,,9.94,,170,22,15,,,,,,,,,,,,,,,,,,,,,,,,,,,,,,,,,,,,,MET073KCHS 291956Z 17013G19KT 10SM BKN250 27/08 A3005 RMK AO2 SLP174 T02670083;,,,,,,,,,,,,,,,,,,,,,,,,,,,,
72208013880,2002-03-29T16:00:00,FM-15,C,,SE,0.25,mi,"TEMP, PRECIP, SNOW",,,"MMTS, SRG, SNOWBOARD",,,WFO CHS,,,,,,,,,,,,,,,,,,,,,,,,,,,30.03,49,78,0,,0.05,6,36,30.03,,,9.94,,170,,17,,,,,,,,,,,,,,,,,,,,,,,,,,,,,,,,,,,,,MET083KCHS 292056Z 17015KT 10SM FEW055 BKN250 26/09 A3003 RMK AO2 SLP168 T02560094 56016;,,,,,,,,,,,,,,,,,,,,,,,,,,,,
72208013880,2002-03-29T17:00:00,FM-15,C,,SE,0.25,mi,"TEMP, PRECIP, SNOW",,,"MMTS, SRG, SNOWBOARD",,,WFO CHS,,,,,,,,,,,,,,,,,,,,,,,,,,,30.04,55,75,0,,,,50,30.03,,,9.94,,170,,15,,,,,,,,,,,,,,,,,,,,,,,,,,,,,,,,,,,,,MET077KCHS 292156Z 17013KT 10SM FEW050 BKN250 24/13 A3004 RMK AO2 SLP171 T02390128;,,,,,,,,,,,,,,,,,,,,,,,,,,,,
72208013880,2002-04-02T12:56:00,FM-15,4,,SE,0.25,mi,"TEMP, PRECIP, SNOW",,,"MMTS, SRG, SNOWBOARD",,,WFO CHS,,,,,,,,,,,,,,,,,,,,,,,,,,,30.05,55,77,,,0.05,8,47,30.05,,,10,,160,,8,,,,,,,,,,,,,,,,,,,,,,,,,,,,,,,,,,,,,MET109METAR KCHS 021756Z 16007KT 130V190 10SM FEW035 SCT250 25/13 A3005 RMK AO2 SLP175 T02500133 10250 20128 58018;,,,,,,,,,,,,,,,,,,,,,,,,,,,,
72208013880,2002-04-02T13:00:00,SY-MT,C,,SE,0.25,mi,"TEMP, PRECIP, SNOW",,,"MMTS, SRG, SNOWBOARD",,,WFO CHS,,,,,,,,,,,,,,,,,,,,,,,,,,,30.05,56,77,0,,0.05,8,48,30.05,,30,9.94,64,160,,8,,,,,,,,,,,,,,,,,,,,,,,,,,,,,,,,,,,,,SYN092AAXX  02184 72208 32666 41607 10250 20133 30160 40175 58018 91756 333 10250 20128 555 90218;,,,,,,,,,,,,,,,,,,,,,,,,,,,,
72208013880,2002-04-02T14:00:00,FM-15,C,,SE,0.25,mi,"TEMP, PRECIP, SNOW",,,"MMTS, SRG, SNOWBOARD",,,WFO CHS,,,,,,,,,,,,,,,,,,,,,,,,,,,30.03,58,76,0,,,,54,30.02,,,9.94,,150,,10,,,,,,,,,,,,,,,,,,,,,,,,,,,,,,,,,,,,,MET077KCHS 021856Z 15009KT 10SM FEW030 SCT250 24/14 A3003 RMK AO2 SLP167 T02440144;,,,,,,,,,,,,,,,,,,,,,,,,,,,,
72208013880,2002-04-02T15:00:00,FM-15,C,,SE,0.25,mi,"TEMP, PRECIP, SNOW",,,"MMTS, SRG, SNOWBOARD",,,WFO CHS,,,,,,,,,,,,,,,,,,,,,,,,,,,30.02,60,77,0,,,,56,30.01,,,9.94,,160,,12,,,,,,,,,,,,,,,,,,,,,,,,,,,,,,,,,,,,,MET083METAR KCHS 021956Z 16010KT 10SM SCT040 SCT250 25/16 A3002 RMK AO2 SLP163 T02500156;,,,,,,,,,,,,,,,,,,,,,,,,,,,,
72208013880,2002-04-02T16:00:00,FM-15,C,,SE,0.25,mi,"TEMP, PRECIP, SNOW",,,"MMTS, SRG, SNOWBOARD",,,WFO CHS,,,,,,,,,,,,,,,,,,,,,,,,,,,30.02,59,76,0,,0.03,5,56,30.01,,,9.94,,150,,12,,,,,,,,,,,,,,,,,,,,,,,,,,,,,,,,,,,,,MET083KCHS 022056Z 15010KT 10SM SCT040 SCT250 24/15 A3002 RMK AO2 SLP164 T02440150 55011;,,,,,,,,,,,,,,,,,,,,,,,,,,,,
72208013880,2002-04-08T11:00:00,FM-15,C,,SE,0.25,mi,"TEMP, PRECIP, SNOW",,,"MMTS, SRG, SNOWBOARD",,,WFO CHS,,,,,,,,,,,,,,,,,,,,,,,,,,,30.36,53,75,0,,,,46,30.36,,,9.94,,160,24,15,,,,,,,,,,,,,,,,,,,,,,,,,,,,,,,,,,,,,MET080KCHS 081556Z 16013G21KT 10SM SCT055 SCT250 24/12 A3036 RMK AO2 SLP281 T02390117;,,,,,,,,,,,,,,,,,,,,,,,,,,,,
72208013880,2002-04-08T12:00:00,FM-15,C,,SE,0.25,mi,"TEMP, PRECIP, SNOW",,,"MMTS, SRG, SNOWBOARD",,,WFO CHS,,,,,,,,,,,,,,,,,,,,,,,,,,,30.35,54,74,0,,,,50,30.35,,,9.94,,150,22,15,,,,,,,,,,,,,,,,,,,,,,,,,,,,,,,,,,,,,MET080KCHS 081656Z 15013G19KT 10SM BKN049 BKN250 23/12 A3035 RMK AO2 SLP277 T02330122;,,,,,,,,,,,,,,,,,,,,,,,,,,,,
72208013880,2002-04-08T12:56:00,FM-15,4,,SE,0.25,mi,"TEMP, PRECIP, SNOW",,,"MMTS, SRG, SNOWBOARD",,,WFO CHS,,,,,,,,,,,,,,,,,,,,,,,,,,,30.34,54,75,,,0.03,8,47,30.34,,,10,,150,,13,,,,,,,,,,,,,,,,,,,,,,,,,,,,,,,,,,,,,MET101METAR KCHS 081756Z 15011KT 10SM BKN047 BKN090 24/12 A3034 RMK AO2 SLP273 T02390122 10244 20156 58010;,,,,,,,,,,,,,,,,,,,,,,,,,,,,
72208013880,2002-04-08T13:00:00,SY-MT,C,,SE,0.25,mi,"TEMP, PRECIP, SNOW",,,"MMTS, SRG, SNOWBOARD",,,WFO CHS,,,,,,,,,,,,,,,,,,,,,,,,,,,30.34,54,75,0,,0.03,8,48,30.34,,30.29,9.94,63,150,,13,,,,,,,,,,,,,,,,,,,,,,,,,,,,,,,,,,,,,SYN086AAXX  08184 72208 32666 61511 10239 20122 30258 40273 58010 91756 333 10244 555 90818;,,,,,,,,,,,,,,,,,,,,,,,,,,,,
72208013880,2002-04-08T17:00:00,FM-15,C,,SE,0.25,mi,"TEMP, PRECIP, SNOW",,,"MMTS, SRG, SNOWBOARD",,,WFO CHS,,,,,,,,,,,,,,,,,,,,,,,,,,,30.26,56,70,0,,,,61,30.26,,,9.94,,160,26,17,,,,,,,,,,,,,,,,,,,,,,,,,,,,,,,,,,,,,MET080KCHS 082156Z 16015G23KT 10SM FEW047 BKN065 21/13 A3026 RMK AO2 SLP248 T02110133;,,,,,,,,,,,,,,,,,,,,,,,,,,,,
72208013880,2002-04-09T11:00:00,FM-15,C,,SE,0.25,mi,"TEMP, PRECIP, SNOW",,,"MMTS, SRG, SNOWBOARD",,,WFO CHS,,,,,,,,,,,,,,,,,,,,,,,,,,,30.3,57,79,0,,,,47,30.3,,,9.94,,170,,17,,,,,,,,,,,,,,,,,,,,,,,,,,,,,,,,,,,,,MET077KCHS 091556Z 17015KT 10SM BKN048 BKN250 26/14 A3030 RMK AO2 SLP261 T02610139;,,,,,,,,,,,,,,,,,,,,,,,,,,,,
72208013880,2002-04-13T14:00:00,FM-15,C,,SE,0.25,mi,"TEMP, PRECIP, SNOW",,,"MMTS, SRG, SNOWBOARD",,,WFO CHS,,,,,,,,,,,,,,,,,,,,,,,,,,,30.19,60,80,0,,,,51,30.18,,,9.94,,160,,8,,,,,,,,,,,,,,,,,,,,,,,,,,,,,,,,,,,,,MET077KCHS 131856Z 16007KT 10SM SCT047 BKN150 27/16 A3019 RMK AO2 SLP221 T02670156;,,,,,,,,,,,,,,,,,,,,,,,,,,,,
72208013880,2002-04-13T15:00:00,FM-15,C,,SE,0.25,mi,"TEMP, PRECIP, SNOW",,,"MMTS, SRG, SNOWBOARD",,,WFO CHS,,,,,,,,,,,,,,,,,,,,,,,,,,,30.17,61,78,0,,,,56,30.16,,,9.94,,170,,12,,,,,,,,,,,,,,,,,,,,,,,,,,,,,,,,,,,,,MET084KCHS 131956Z 17010KT 10SM SCT042 BKN070 BKN150 26/16 A3017 RMK AO2 SLP215 T02560161;,,,,,,,,,,,,,,,,,,,,,,,,,,,,
72208013880,2002-04-13T16:00:00,FM-15,C,,SE,0.25,mi,"TEMP, PRECIP, SNOW",,,"MMTS, SRG, SNOWBOARD",,,WFO CHS,,,,,,,,,,,,,,,,,,,,,,,,,,,30.15,59,76,0,,0.05,6,56,30.15,,,9.94,,160,,10,,,,,,,,,,,,,,,,,,,,,,,,,,,,,,,,,,,,,MET083KCHS 132056Z 16009KT 10SM FEW045 BKN150 24/15 A3015 RMK AO2 SLP210 T02440150 56017;,,,,,,,,,,,,,,,,,,,,,,,,,,,,
72208013880,2002-04-13T17:00:00,FM-15,C,,SE,0.25,mi,"TEMP, PRECIP, SNOW",,,"MMTS, SRG, SNOWBOARD",,,WFO CHS,,,,,,,,,,,,,,,,,,,,,,,,,,,30.14,61,74,0,,,,64,30.14,,,9.94,,160,,8,,,,,,,,,,,,,,,,,,,,,,,,,,,,,,,,,,,,,MET070KCHS 132156Z 16007KT 10SM OVC150 23/16 A3014 RMK AO2 SLP207 T02330161;,,,,,,,,,,,,,,,,,,,,,,,,,,,,
72208013880,2002-04-14T11:00:00,FM-15,C,,SE,0.25,mi,"TEMP, PRECIP, SNOW",,,"MMTS, SRG, SNOWBOARD",,,WFO CHS,,,,,,,,,,,,,,,,,,,,,,,,,,,30.14,64,80,0,,,,58,30.14,,,9.94,,170,,12,,,,,,,,,,,,,,,,,,,,,,,,,,,,,,,,,,,,,MET077KCHS 141556Z 17010KT 10SM SCT024 BKN031 27/18 A3014 RMK AO2 SLP206 T02670178;,,,,,,,,,,,,,,,,,,,,,,,,,,,,
72208013880,2002-04-14T12:56:00,FM-15,4,,SE,0.25,mi,"TEMP, PRECIP, SNOW",,,"MMTS, SRG, SNOWBOARD",,,WFO CHS,,,,,,,,,,,,,,,,,,,,,,,,,,,30.11,64,81,,,0.04,8,58,30.11,,,10,,170,,16,,,,,,,,,,,,,,,,,,,,,,,,,,,,,,,,,,,,,MET118KCHS 141756Z 17014KT 10SM SCT041 BKN050 BKN150 27/18 A3011 RMK AO2 SLP195 TCU N-NE MOV NE T02670183 10278 20189 58015;,,,,,,,,,,,,,,,,,,,,,,,,,,,,
72208013880,2002-04-14T13:00:00,SY-MT,C,,SE,0.25,mi,"TEMP, PRECIP, SNOW",,,"MMTS, SRG, SNOWBOARD",,,WFO CHS,,,,,,,,,,,,,,,,,,,,,,,,,,,30.11,65,80,0,,0.04,8,60,30.11,,30.06,9.94,70,170,,16,,,,,,,,,,,,,,,,,,,,,,,,,,,,,,,,,,,,,SYN092AAXX  14184 72208 32666 61714 10267 20183 30180 40195 58015 91756 333 10278 20189 555 91418;,,,,,,,,,,,,,,,,,,,,,,,,,,,,
72208013880,2002-04-14T15:00:00,FM-15,C,,SE,0.25,mi,"TEMP, PRECIP, SNOW",,,"MMTS, SRG, SNOWBOARD",,,WFO CHS,,,,,,,,,,,,,,,,,,,,,,,,,,,30.08,68,77,0,,,,74,30.08,,,9.94,,150,21,17,,,,,,,,,,,,,,,,,,,,,,,,,,,,,,,,,,,,,MET090KCHS 141956Z 15015G18KT 10SM SCT033 BKN200 25/20 A3008 RMK AO2 SLP185 CB DSTN N T02500200;,,,,,,,,,,,,,,,,,,,,,,,,,,,,
72208013880,2002-04-14T16:00:00,FM-15,C,,SE,0.25,mi,"TEMP, PRECIP, SNOW",,,"MMTS, SRG, SNOWBOARD",,,WFO CHS,,,,,,,,,,,,,,,,,,,,,,,,,,,30.07,67,78,0,,0.04,6,69,30.07,,,9.94,,160,,17,,,,,,,,,,,,,,,,,,,,,,,,,,,,,,,,,,,,,MET097KCHS COR 142056Z 16015KT 10SM SCT028 SCT200 26/19 A3007 RMK AO2 SLP182 T02560194 56014 CB DSNT N;,,,,,,,,,,,,,,,,,,,,,,,,,,,,
72208013880,2002-04-14T17:00:00,FM-15,C,,SE,0.25,mi,"TEMP, PRECIP, SNOW",,,"MMTS, SRG, SNOWBOARD",,,WFO CHS,,,,,,,,,,,,,,,,,,,,,,,,,,,30.07,66,78,0,,,,67,30.07,,,9.94,,160,,12,,,,,,,,,,,,,,,,,,,,,,,,,,,,,,,,,,,,,MET091KCHS COR 142156Z 16010KT 10SM FEW028 SCT200 26/19 A3007 RMK AO2 SLP182 T02560189 CD DSNT N;,,,,,,,,,,,,,,,,,,,,,,,,,,,,
72208013880,2002-04-16T12:56:00,FM-15,4,,SE,0.25,mi,"TEMP, PRECIP, SNOW",,,"MMTS, SRG, SNOWBOARD",,,WFO CHS,,,,,,,,,,,,,,,,,,,,,,,,,,,30.23,68,84,,,0.03,8,58,30.22,,,10,,160,,14,,,,,,,,,,,,,,,,,,,,,,,,,,,,,,,,,,,,,MET095KCHS 161756Z 16012KT 10SM SCT040 SCT250 29/20 A3023 RMK AO2 SLP234 T02890200 10289 20189 58009;,,,,,,,,,,,,,,,,,,,,,,,,,,,,
72208013880,2002-04-16T13:00:00,SY-MT,C,,SE,0.25,mi,"TEMP, PRECIP, SNOW",,,"MMTS, SRG, SNOWBOARD",,,WFO CHS,,,,,,,,,,,,,,,,,,,,,,,,,,,30.23,68,84,0,,0.03,8,59,30.22,,30.18,9.94,73,160,,14,,,,,,,,,,,,,,,,,,,,,,,,,,,,,,,,,,,,,SYN092AAXX  16184 72208 32666 41612 10289 20200 30221 40234 58009 91756 333 10289 20189 555 91618;,,,,,,,,,,,,,,,,,,,,,,,,,,,,
72208013880,2002-04-16T15:00:00,FM-15,C,,SE,0.25,mi,"TEMP, PRECIP, SNOW",,,"MMTS, SRG, SNOWBOARD",,,WFO CHS,,,,,,,,,,,,,,,,,,,,,,,,,,,30.2,66,84,0,,,,55,30.2,,,9.94,,160,,10,,,,,,,,,,,,,,,,,,,,,,,,,,,,,,,,,,,,,MET077KCHS 161956Z 16009KT 10SM FEW035 SCT250 29/19 A3020 RMK AO2 SLP227 T02890189;,,,,,,,,,,,,,,,,,,,,,,,,,,,,
72208013880,2002-04-16T16:00:00,FM-15,C,,SE,0.25,mi,"TEMP, PRECIP, SNOW",,,"MMTS, SRG, SNOWBOARD",,,WFO CHS,,,,,,,,,,,,,,,,,,,,,,,,,,,30.2,65,83,0,,0.03,8,55,30.19,,,9.94,,150,,13,,,,,,,,,,,,,,,,,,,,,,,,,,,,,,,,,,,,,MET083KCHS 162056Z 15011KT 10SM FEW040 SCT250 28/18 A3020 RMK AO2 SLP224 T02830183 58010;,,,,,,,,,,,,,,,,,,,,,,,,,,,,
72208013880,2002-04-17T16:00:00,FM-15,C,,SE,0.25,mi,"TEMP, PRECIP, SNOW",,,"MMTS, SRG, SNOWBOARD",,,WFO CHS,,,,,,,,,,,,,,,,,,,,,,,,,,,30.14,64,81,0,,0.05,6,57,30.14,,,9.94,,170,,13,,,,,,,,,,,,,,,,,,,,,,,,,,,,,,,,,,,,,MET083KCHS 172056Z 17011KT 10SM FEW150 SCT250 27/18 A3014 RMK AO2 SLP205 T02720178 56018;,,,,,,,,,,,,,,,,,,,,,,,,,,,,
72208013880,2002-04-18T14:00:00,FM-15,C,,SE,0.25,mi,"TEMP, PRECIP, SNOW",,,"MMTS, SRG, SNOWBOARD",,,WFO CHS,,,,,,,,,,,,,,,,,,,,,,,,,,,30.12,71,87,0,,,,59,30.12,,,9.94,,170,19,16,,,,,,,,,,,,,,,,,,,,,,,,,,,,,,,,,,,,,MET073KCHS 181856Z 17014G17KT 10SM FEW041 31/22 A3012 RMK AO2 SLP199 T03060217;,,,,,,,,,,,,,,,,,,,,,,,,,,,,
72208013880,2002-04-24T11:00:00,FM-15,C,,SE,0.25,mi,"TEMP, PRECIP, SNOW",,,"MMTS, SRG, SNOWBOARD",,,WFO CHS,,,,,,,,,,,,,,,,,,,,,,,,,,,30.2,52,76,0,,,,43,30.2,,,9.94,,150,,10,,,,,,,,,,,,,,,,,,,,,,,,,,,,,,,,,,,,,MET067KCHS 241556Z 15009KT 10SM CLR 24/11 A3020 RMK AO2 SLP227 T02440111;,,,,,,,,,,,,,,,,,,,,,,,,,,,,
72208013880,2002-04-24T15:00:00,FM-15,C,,SE,0.25,mi,"TEMP, PRECIP, SNOW",,,"MMTS, SRG, SNOWBOARD",,,WFO CHS,,,,,,,,,,,,,,,,,,,,,,,,,,,30.15,51,78,0,,,,39,30.15,,,9.94,,150,19,13,,,,,,,,,,,,,,,,,,,,,,,,,,,,,,,,,,,,,MET070KCHS 241956Z 15011G17KT 10SM CLR 26/11 A3015 RMK AO2 SLP210 T02560106;,,,,,,,,,,,,,,,,,,,,,,,,,,,,
72208013880,2002-04-24T16:00:00,FM-15,C,,SE,0.25,mi,"TEMP, PRECIP, SNOW",,,"MMTS, SRG, SNOWBOARD",,,WFO CHS,,,,,,,,,,,,,,,,,,,,,,,,,,,30.15,51,77,0,,0.02,6,40,30.15,,,9.94,,150,,13,,,,,,,,,,,,,,,,,,,,,,,,,,,,,,,,,,,,,MET083KCHS 242056Z 15011KT 10SM FEW110 SCT250 25/11 A3015 RMK AO2 SLP209 T02500106 56007;,,,,,,,,,,,,,,,,,,,,,,,,,,,,
72208013880,2002-04-24T17:00:00,FM-15,C,,SE,0.25,mi,"TEMP, PRECIP, SNOW",,,"MMTS, SRG, SNOWBOARD",,,WFO CHS,,,,,,,,,,,,,,,,,,,,,,,,,,,30.14,54,76,0,,,,47,30.14,,,9.94,,150,,16,,,,,,,,,,,,,,,,,,,,,,,,,,,,,,,,,,,,,MET070KCHS 242156Z 15014KT 10SM FEW110 24/12 A3014 RMK AO2 SLP206 T02440122;,,,,,,,,,,,,,,,,,,,,,,,,,,,,
72208013880,2002-04-30T16:00:00,FM-15,C,,SE,0.25,mi,"TEMP, PRECIP, SNOW",,,"MMTS, SRG, SNOWBOARD",,,WFO CHS,,,,,,,,,,,,,,,,,,,,,,,,,,,30.01,56,70,0,,0.05,8,61,30,,,9.94,,170,,8,,,,,,,,,,,,,,,,,,,,,,,,,,,,,,,,,,,,,MET076KCHS 302056Z 17007KT 10SM OVC250 21/13 A3001 RMK AO2 SLP160 T02110133 58017;,,,,,,,,,,,,,,,,,,,,,,,,,,,,
72208013880,2002-05-06T16:00:00,FM-15,C,,SE,0.25,mi,"TEMP, PRECIP, SNOW",,,"MMTS, SRG, SNOWBOARD",,,WFO CHS,,,,,,,,,,,,,,,,,,,,,,,,,,,30.25,64,78,0,,0.04,8,62,30.25,,,9.94,,170,,10,,,,,,,,,,,,,,,,,,,,,,,,,,,,,,,,,,,,,MET083KCHS 062056Z 17009KT 10SM FEW040 BKN250 26/18 A3025 RMK AO2 SLP244 T02560178 58014;,,,,,,,,,,,,,,,,,,,,,,,,,,,,
72208013880,2002-05-06T17:00:00,FM-15,C,,SE,0.25,mi,"TEMP, PRECIP, SNOW",,,"MMTS, SRG, SNOWBOARD",,,WFO CHS,,,,,,,,,,,,,,,,,,,,,,,,,,,30.25,65,76,0,,,,69,30.24,,,9.94,,160,,12,,,,,,,,,,,,,,,,,,,,,,,,,,,,,,,,,,,,,MET077KCHS 062156Z 16010KT 10SM FEW040 OVC250 24/18 A3025 RMK AO2 SLP242 T02440183;,,,,,,,,,,,,,,,,,,,,,,,,,,,,
72208013880,2002-05-09T12:56:00,FM-15,4,,SE,0.25,mi,"TEMP, PRECIP, SNOW",,,"MMTS, SRG, SNOWBOARD",,,WFO CHS,,,,,,,,,,,,,,,,,,,,,,,,,,,30.08,73,84,,,0.04,8,70,30.07,,,10,,170,,14,,,,,,,,,,,,,,,,,,,,,,,,,,,,,,,,,,,,,MET088KCHS 091756Z 17012KT 10SM FEW027 29/23 A3008 RMK AO2 SLP184 T02940233 10294 20228 58012;,,,,,,,,,,,,,,,,,,,,,,,,,,,,
72208013880,2002-05-09T13:00:00,SY-MT,C,,SE,0.25,mi,"TEMP, PRECIP, SNOW",,,"MMTS, SRG, SNOWBOARD",,,WFO CHS,,,,,,,,,,,,,,,,,,,,,,,,,,,30.08,74,85,0,,0.04,8,70,30.07,,30.03,9.94,77,170,,14,,,,,,,,,,,,,,,,,,,,,,,,,,,,,,,,,,,,,SYN092AAXX  09184 72208 32566 21712 10294 20233 30170 40184 58012 91756 333 10294 20228 555 90918;,,,,,,,,,,,,,,,,,,,,,,,,,,,,
72208013880,2002-05-09T15:00:00,FM-15,C,,SE,0.25,mi,"TEMP, PRECIP, SNOW",,,"MMTS, SRG, SNOWBOARD",,,WFO CHS,,,,,,,,,,,,,,,,,,,,,,,,,,,30.06,73,84,0,,,,70,30.06,,,9.94,,170,,15,,,,,,,,,,,,,,,,,,,,,,,,,,,,,,,,,,,,,MET077KCHS 091956Z 17013KT 10SM FEW025 BKN250 29/23 A3006 RMK AO2 SLP178 T02890228;,,,,,,,,,,,,,,,,,,,,,,,,,,,,
72208013880,2002-05-11T12:56:00,FM-15,4,,SE,0.25,mi,"TEMP, PRECIP, SNOW",,,"MMTS, SRG, SNOWBOARD",,,WFO CHS,,,,,,,,,,,,,,,,,,,,,,,,,,,30.3,70,84,,,0.02,8,62,30.29,,,10,,150,,13,,,,,,,,,,,,,,,,,,,,,,,,,,,,,,,,,,,,,MET095KCHS 111756Z 15011KT 10SM SCT035 BKN250 29/21 A3030 RMK AO2 SLP258 T02940211 10300 20239 58007;,,,,,,,,,,,,,,,,,,,,,,,,,,,,
72208013880,2002-05-11T13:00:00,SY-MT,C,,SE,0.25,mi,"TEMP, PRECIP, SNOW",,,"MMTS, SRG, SNOWBOARD",,,WFO CHS,,,,,,,,,,,,,,,,,,,,,,,,,,,30.3,70,85,0,,0.02,8,61,30.29,,30.25,9.94,75,150,,13,,,,,,,,,,,,,,,,,,,,,,,,,,,,,,,,,,,,,SYN092AAXX  11184 72208 32666 61511 10294 20211 30244 40258 58007 91756 333 10300 20239 555 91118;,,,,,,,,,,,,,,,,,,,,,,,,,,,,
72208013880,2002-05-11T14:00:00,FM-15,C,,SE,0.25,mi,"TEMP, PRECIP, SNOW",,,"MMTS, SRG, SNOWBOARD",,,WFO CHS,,,,,,,,,,,,,,,,,,,,,,,,,,,30.3,71,85,0,,,,63,30.29,,,9.94,,150,,14,,,,,,,,,,,,,,,,,,,,,,,,,,,,,,,,,,,,,MET077KCHS 111856Z 15012KT 10SM SCT037 BKN250 29/22 A3030 RMK AO2 SLP258 T02940217;,,,,,,,,,,,,,,,,,,,,,,,,,,,,
72208013880,2002-05-15T15:00:00,FM-15,C,,SE,0.25,mi,"TEMP, PRECIP, SNOW",,,"MMTS, SRG, SNOWBOARD",,,WFO CHS,,,,,,,,,,,,,,,,,,,,,,,,,,,30.22,50,76,0,,,,40,30.22,,,9.94,,150,18,13,,,,,,,,,,,,,,,,,,,,,,,,,,,,,,,,,,,,,MET073KCHS 151956Z 15011G16KT 10SM SCT250 24/10 A3022 RMK AO2 SLP232 T02440100;,,,,,,,,,,,,,,,,,,,,,,,,,,,,
72208013880,2002-05-15T17:00:00,FM-15,C,,SE,0.25,mi,"TEMP, PRECIP, SNOW",,,"MMTS, SRG, SNOWBOARD",,,WFO CHS,,,,,,,,,,,,,,,,,,,,,,,,,,,30.22,52,75,0,,,,45,30.21,,,9.94,,160,,10,,,,,,,,,,,,,,,,,,,,,,,,,,,,,,,,,,,,,MET067KCHS 152156Z 16009KT 10SM CLR 24/11 A3022 RMK AO2 SLP231 T02390111;,,,,,,,,,,,,,,,,,,,,,,,,,,,,
72208013880,2002-05-16T12:56:00,FM-15,4,,SE,0.25,mi,"TEMP, PRECIP, SNOW",,,"MMTS, SRG, SNOWBOARD",,,WFO CHS,,,,,,,,,,,,,,,,,,,,,,,,,,,30.24,55,81,,,0.06,8,42,30.23,,,10,,160,,8,,,,,,,,,,,,,,,,,,,,,,,,,,,,,,,,,,,,,MET095KCHS 161756Z 16007KT 10SM FEW060 SCT250 27/13 A3024 RMK AO2 SLP238 T02670128 10272 20189 58022;,,,,,,,,,,,,,,,,,,,,,,,,,,,,
72208013880,2002-05-16T13:00:00,SY-MT,C,,SE,0.25,mi,"TEMP, PRECIP, SNOW",,,"MMTS, SRG, SNOWBOARD",,,WFO CHS,,,,,,,,,,,,,,,,,,,,,,,,,,,30.24,55,80,0,,0.06,8,42,30.23,,30.19,9.94,65,160,,8,,,,,,,,,,,,,,,,,,,,,,,,,,,,,,,,,,,,,SYN092AAXX  16184 72208 32766 41607 10267 20128 30224 40238 58022 91756 333 10272 20189 555 91618;,,,,,,,,,,,,,,,,,,,,,,,,,,,,
72208013880,2002-05-16T14:00:00,FM-15,C,,SE,0.25,mi,"TEMP, PRECIP, SNOW",,,"MMTS, SRG, SNOWBOARD",,,WFO CHS,,,,,,,,,,,,,,,,,,,,,,,,,,,30.23,56,79,0,,,,45,30.23,,,9.94,,160,21,15,,,,,,,,,,,,,,,,,,,,,,,,,,,,,,,,,,,,,MET080KCHS 161856Z 16013G18KT 10SM FEW065 BKN250 26/13 A3023 RMK AO2 SLP236 T02610133;,,,,,,,,,,,,,,,,,,,,,,,,,,,,
72208013880,2002-05-23T16:00:00,FM-15,C,,SE,0.25,mi,"TEMP, PRECIP, SNOW",,,"MMTS, SRG, SNOWBOARD",,,WFO CHS,,,,,,,,,,,,,,,,,,,,,,,,,,,30.12,54,75,0,,0.06,6,48,30.12,,,9.94,,150,,7,,,,,,,,,,,,,,,,,,,,,,,,,,,,,,,,,,,,,MET073KCHS 232056Z 15006KT 10SM CLR 24/12 A3012 RMK AO2 SLP199 T02390122 56022;,,,,,,,,,,,,,,,,,,,,,,,,,,,,
72208013880,2002-05-23T17:00:00,FM-15,C,,SE,0.25,mi,"TEMP, PRECIP, SNOW",,,"MMTS, SRG, SNOWBOARD",,,WFO CHS,,,,,,,,,,,,,,,,,,,,,,,,,,,30.12,54,74,0,,,,50,30.11,,,9.94,,160,,10,,,,,,,,,,,,,,,,,,,,,,,,,,,,,,,,,,,,,MET067KCHS 232156Z 16009KT 10SM CLR 23/12 A3012 RMK AO2 SLP198 T02330122;,,,,,,,,,,,,,,,,,,,,,,,,,,,,
72208013880,2002-05-25T16:00:00,FM-15,C,,SE,0.25,mi,"TEMP, PRECIP, SNOW",,,"MMTS, SRG, SNOWBOARD",,,WFO CHS,,,,,,,,,,,,,,,,,,,,,,,,,,,30.06,57,84,0,,0.02,6,40,30.06,,,9.94,,170,,12,,,,,,,,,,,,,,,,,,,,,,,,,,,,,,,,,,,,,MET083KCHS 252056Z 17010KT 10SM FEW060 BKN250 29/14 A3006 RMK AO2 SLP178 T02890139 56008;,,,,,,,,,,,,,,,,,,,,,,,,,,,,
72208013880,2002-05-25T17:00:00,FM-15,C,,SE,0.25,mi,"TEMP, PRECIP, SNOW",,,"MMTS, SRG, SNOWBOARD",,,WFO CHS,,,,,,,,,,,,,,,,,,,,,,,,,,,30.06,62,82,0,,,,51,30.05,,,9.94,,160,,12,,,,,,,,,,,,,,,,,,,,,,,,,,,,,,,,,,,,,MET070KCHS 252156Z 16010KT 10SM BKN250 28/17 A3006 RMK AO2 SLP177 T02780167;,,,,,,,,,,,,,,,,,,,,,,,,,,,,
72208013880,2002-05-26T11:00:00,FM-15,C,,SE,0.25,mi,"TEMP, PRECIP, SNOW",,,"MMTS, SRG, SNOWBOARD",,,WFO CHS,,,,,,,,,,,,,,,,,,,,,,,,,,,30.15,61,78,0,,,,56,30.14,,,9.94,,160,,9,,,,,,,,,,,,,,,,,,,,,,,,,,,,,,,,,,,,,MET077KCHS 261556Z 16008KT 10SM SCT042 BKN250 26/16 A3015 RMK AO2 SLP207 T02560161;,,,,,,,,,,,,,,,,,,,,,,,,,,,,
72208013880,2002-05-26T12:56:00,FM-15,4,,SE,0.25,mi,"TEMP, PRECIP, SNOW",,,"MMTS, SRG, SNOWBOARD",,,WFO CHS,,,,,,,,,,,,,,,,,,,,,,,,,,,30.14,61,82,,,0.01,8,48,30.13,,,10,,170,,9,,,,,,,,,,,,,,,,,,,,,,,,,,,,,,,,,,,,,MET095KCHS 261756Z 17008KT 10SM SCT050 BKN250 28/16 A3014 RMK AO2 SLP204 T02780161 10278 20217 58005;,,,,,,,,,,,,,,,,,,,,,,,,,,,,
72208013880,2002-05-26T13:00:00,SY-MT,C,,SE,0.25,mi,"TEMP, PRECIP, SNOW",,,"MMTS, SRG, SNOWBOARD",,,WFO CHS,,,,,,,,,,,,,,,,,,,,,,,,,,,30.14,61,82,0,,0.01,8,49,30.13,,30.09,9.94,69,170,,9,,,,,,,,,,,,,,,,,,,,,,,,,,,,,,,,,,,,,SYN076AAXX  26184 72208 32766 61708 10278 20161 30190 40204 58005 91756 555 92618;,,,,,,,,,,,,,,,,,,,,,,,,,,,,
72208013880,2002-05-26T16:00:00,FM-15,C,,SE,0.25,mi,"TEMP, PRECIP, SNOW",,,"MMTS, SRG, SNOWBOARD",,,WFO CHS,,,,,,,,,,,,,,,,,,,,,,,,,,,30.1,62,81,0,,0.04,6,53,30.1,,,9.94,,170,,10,,,,,,,,,,,,,,,,,,,,,,,,,,,,,,,,,,,,,MET083KCHS 262056Z 17009KT 10SM FEW050 BKN250 27/17 A3010 RMK AO2 SLP192 T02720167 56013;,,,,,,,,,,,,,,,,,,,,,,,,,,,,
72208013880,2002-05-31T14:00:00,FM-15,C,,SE,0.25,mi,"TEMP, PRECIP, SNOW",,,"MMTS, SRG, SNOWBOARD",,,WFO CHS,,,,,,,,,,,,,,,,,,,,,,,,,,,29.85,71,83,0,,,,67,29.85,44,,9.94,,150,,7,,,,,,,,,,,,,,,,,,,,,,,,,,,,,,,,,,,,,MET094KCHS 311856Z 15006KT 10SM FEW029 BKN045TCU BKN200 28/22 A2985 RMK AO2 SLP108 TCU NE T02830217;,,,,,,,,,,,,,,,,,,,,,,,,,,,,
72208013880,2002-05-31T16:00:00,FM-15,C,,SE,0.25,mi,"TEMP, PRECIP, SNOW",,,"MMTS, SRG, SNOWBOARD",,,WFO CHS,,,,,,,,,,,,,,,,,,,,,,,,,,,29.83,71,85,0,,0.05,6,63,29.82,,,9.94,,170,,8,,,,,,,,,,,,,,,,,,,,,,,,,,,,,,,,,,,,,MET091KCHS 312056Z 17007KT 140V200 10SM SCT037 BKN220 29/22 A2983 RMK AO2 SLP099 T02940217 56016;,,,,,,,,,,,,,,,,,,,,,,,,,,,,
72208013880,2002-05-31T17:00:00,FM-15,C,,SE,0.25,mi,"TEMP, PRECIP, SNOW",,,"MMTS, SRG, SNOWBOARD",,,WFO CHS,,,,,,,,,,,,,,,,,,,,,,,,,,,29.82,71,84,0,,,,65,29.82,30,,9.94,,150,,13,,,,,,,,,,,,,,,,,,,,,,,,,,,,,,,,,,,,,MET093KCHS 312156Z 15011KT 10SM SCT030TCU BKN220 BKN250 29/22 A2982 RMK AO2 SLP097 TCU N T02890217;,,,,,,,,,,,,,,,,,,,,,,,,,,,,
72208013880,2002-06-01T15:00:00,FM-15,C,,SE,0.25,mi,"TEMP, PRECIP, SNOW",,,"MMTS, SRG, SNOWBOARD",,,WFO CHS,,,,,,,,,,,,,,,,,,,,,,,,,,,29.8,71,93,0,,,,49,29.8,,,9.94,,170,,15,,,,,,,,,,,,,,,,,,,,,,,,,,,,,,,,,,,,,MET077KCHS 011956Z 17013KT 10SM SCT060 SCT250 34/22 A2980 RMK AO2 SLP090 T03390217;,,,,,,,,,,,,,,,,,,,,,,,,,,,,
72208013880,2002-06-04T12:00:00,FM-15,C,,SE,0.25,mi,"TEMP, PRECIP, SNOW",,,"MMTS, SRG, SNOWBOARD",,,WFO CHS,,,,,,,,,,,,,,,,,,,,,,,,,,,30.08,68,88,0,,,,52,30.08,,,9.94,,150,,10,,,,,,,,,,,,,,,,,,,,,,,,,,,,,,,,,,,,,MET077KCHS 041656Z 15009KT 10SM BKN200 BKN250 31/20 A3008 RMK AO2 SLP185 T03110200;,,,,,,,,,,,,,,,,,,,,,,,,,,,,
72208013880,2002-06-04T14:00:00,FM-15,C,,SE,0.25,mi,"TEMP, PRECIP, SNOW",,,"MMTS, SRG, SNOWBOARD",,,WFO CHS,,,,,,,,,,,,,,,,,,,,,,,,,,,30.07,67,86,0,,,,53,30.07,,,9.94,,170,,13,,,,,,,,,,,,,,,,,,,,,,,,,,,,,,,,,,,,,MET077KCHS 041856Z 17011KT 10SM BKN200 OVC250 30/19 A3007 RMK AO2 SLP183 T03000194;,,,,,,,,,,,,,,,,,,,,,,,,,,,,
72208013880,2002-06-04T15:00:00,FM-15,C,,SE,0.25,mi,"TEMP, PRECIP, SNOW",,,"MMTS, SRG, SNOWBOARD",,,WFO CHS,,,,,,,,,,,,,,,,,,,,,,,,,,,30.07,68,86,0,,,,55,30.06,,,9.94,,160,,13,,,,,,,,,,,,,,,,,,,,,,,,,,,,,,,,,,,,,MET070KCHS 041956Z 16011KT 10SM OVC250 30/20 A3007 RMK AO2 SLP181 T03000200;,,,,,,,,,,,,,,,,,,,,,,,,,,,,
72208013880,2002-06-05T12:00:00,FM-15,C,,SE,0.25,mi,"TEMP, PRECIP, SNOW",,,"MMTS, SRG, SNOWBOARD",,,WFO CHS,,,,,,,,,,,,,,,,,,,,,,,,,,,30.08,73,87,0,,,,63,30.08,,,9.94,,160,,14,,,,,,,,,,,,,,,,,,,,,,,,,,,,,,,,,,,,,MET077KCHS 051656Z 16012KT 10SM FEW032 OVC250 31/23 A3008 RMK AO2 SLP186 T03060228;,,,,,,,,,,,,,,,,,,,,,,,,,,,,
72208013880,2002-06-05T12:56:00,FM-15,4,,SE,0.25,mi,"TEMP, PRECIP, SNOW",,,"MMTS, SRG, SNOWBOARD",,,WFO CHS,,,,,,,,,,,,,,,,,,,,,,,,,,,30.07,72,86,,,0.02,8,62,30.06,,,10,,160,18,13,,,,,,,,,,,,,,,,,,,,,,,,,,,,,,,,,,,,,MET098KCHS 051756Z 16011G16KT 10SM FEW035 BKN250 30/22 A3007 RMK AO2 SLP180 T03000222 10311 20244 58008;,,,,,,,,,,,,,,,,,,,,,,,,,,,,
72208013880,2002-06-05T13:00:00,SY-MT,C,,SE,0.25,mi,"TEMP, PRECIP, SNOW",,,"MMTS, SRG, SNOWBOARD",,,WFO CHS,,,,,,,,,,,,,,,,,,,,,,,,,,,30.07,72,86,0,,0.02,8,63,30.06,,30.02,9.94,76,160,,13,,,,,,,,,,,,,,,,,,,,,,,,,,,,,,,,,,,,,SYN098AAXX  05184 72208 32666 61611 10300 20222 30167 40180 58008 91756 333 10311 20244 91016 555 90518;,,,,,,,,,,,,,,,,,,,,,,,,,,,,
72208013880,2002-06-05T14:00:00,FM-15,C,,SE,0.25,mi,"TEMP, PRECIP, SNOW",,,"MMTS, SRG, SNOWBOARD",,,WFO CHS,,,,,,,,,,,,,,,,,,,,,,,,,,,30.06,70,87,0,,,,57,30.05,,,9.94,,150,17,10,,,,,,,,,,,,,,,,,,,,,,,,,,,,,,,,,,,,,MET080KCHS 051856Z 15009G15KT 10SM FEW035 SCT250 31/21 A3006 RMK AO2 SLP177 T03060211;,,,,,,,,,,,,,,,,,,,,,,,,,,,,
72208013880,2002-06-05T15:00:00,FM-15,C,,SE,0.25,mi,"TEMP, PRECIP, SNOW",,,"MMTS, SRG, SNOWBOARD",,,WFO CHS,,,,,,,,,,,,,,,,,,,,,,,,,,,30.04,71,87,0,,,,59,30.03,,,9.94,,150,,13,,,,,,,,,,,,,,,,,,,,,,,,,,,,,,,,,,,,,MET070KCHS 051956Z 15011KT 10SM FEW035 31/22 A3004 RMK AO2 SLP171 T03060217;,,,,,,,,,,,,,,,,,,,,,,,,,,,,
72208013880,2002-06-05T16:00:00,FM-15,C,,SE,0.25,mi,"TEMP, PRECIP, SNOW",,,"MMTS, SRG, SNOWBOARD",,,WFO CHS,,,,,,,,,,,,,,,,,,,,,,,,,,,30.03,72,85,0,,0.04,7,65,30.03,,,9.94,,150,,15,,,,,,,,,,,,,,,,,,,,,,,,,,,,,,,,,,,,,MET076KCHS 052056Z 15013KT 10SM FEW035 29/22 A3003 RMK AO2 SLP168 T02940222 57013;,,,,,,,,,,,,,,,,,,,,,,,,,,,,
72208013880,2002-06-05T17:00:00,FM-15,C,,SE,0.25,mi,"TEMP, PRECIP, SNOW",,,"MMTS, SRG, SNOWBOARD",,,WFO CHS,,,,,,,,,,,,,,,,,,,,,,,,,,,30.02,71,84,0,,,,65,30.02,,,9.94,,150,,14,,,,,,,,,,,,,,,,,,,,,,,,,,,,,,,,,,,,,MET070KCHS 052156Z 15012KT 10SM FEW035 29/22 A3002 RMK AO2 SLP166 T02890217;,,,,,,,,,,,,,,,,,,,,,,,,,,,,
72208013880,2002-06-06T11:00:00,FM-15,C,,SE,0.25,mi,"TEMP, PRECIP, SNOW",,,"MMTS, SRG, SNOWBOARD",,,WFO CHS,,,,,,,,,,,,,,,,,,,,,,,,,,,29.98,69,86,0,,,,57,29.97,,,9.94,,170,,9,,,,,,,,,,,,,,,,,,,,,,,,,,,,,,,,,,,,,MET070KCHS 061556Z 17008KT 10SM SCT038 30/21 A2998 RMK AO2 SLP150 T03000206;,,,,,,,,,,,,,,,,,,,,,,,,,,,,
72208013880,2002-06-06T12:56:00,FM-15,4,,SE,0.25,mi,"TEMP, PRECIP, SNOW",,,"MMTS, SRG, SNOWBOARD",,,WFO CHS,,,,,,,,,,,,,,,,,,,,,,,,,,,29.95,72,86,,,0.04,6,62,29.95,,,10,,160,,10,,,,,,,,,,,,,,,,,,,,,,,,,,,,,,,,,,,,,MET095KCHS 061756Z 16009KT 10SM FEW032 OVC150 30/22 A2995 RMK AO2 SLP142 T03000222 10311 20244 56012;,,,,,,,,,,,,,,,,,,,,,,,,,,,,
72208013880,2002-06-06T13:00:00,SY-MT,C,,SE,0.25,mi,"TEMP, PRECIP, SNOW",,,"MMTS, SRG, SNOWBOARD",,,WFO CHS,,,,,,,,,,,,,,,,,,,,,,,,,,,29.95,72,86,0,,0.04,6,63,29.95,,29.9,9.94,76,160,,10,,,,,,,,,,,,,,,,,,,,,,,,,,,,,,,,,,,,,SYN092AAXX  06184 72208 32566 81609 10300 20222 30126 40142 56012 91756 333 10311 20244 555 90618;,,,,,,,,,,,,,,,,,,,,,,,,,,,,
72208013880,2002-06-06T17:00:00,FM-15,C,,SE,0.25,mi,"TEMP, PRECIP, SNOW",,,"MMTS, SRG, SNOWBOARD",,,WFO CHS,,,,,,,,,,,,,,,,,,,,,,,,,,,29.88,72,85,0,,,,65,29.88,,,9.94,,170,,10,,,,,,,,,,,,,,,,,,,,,,,,,,,,,,,,,,,,,MET070KCHS 062156Z 17009KT 10SM FEW030 29/22 A2988 RMK AO2 SLP119 T02940222;,,,,,,,,,,,,,,,,,,,,,,,,,,,,
72208013880,2002-06-11T15:00:00,FM-15,C,,SE,0.25,mi,"TEMP, PRECIP, SNOW",,,"MMTS, SRG, SNOWBOARD",,,WFO CHS,,,,,,,,,,,,,,,,,,,,,,,,,,,30.03,68,86,0,,,,55,30.03,,,9.94,,160,,12,,,,,,,,,,,,,,,,,,,,,,,,,,,,,,,,,,,,,MET077KCHS 111956Z 16010KT 10SM SCT037 SCT055 30/20 A3003 RMK AO2 SLP168 T03000200;,,,,,,,,,,,,,,,,,,,,,,,,,,,,
72208013880,2002-06-11T17:00:00,FM-15,C,,SE,0.25,mi,"TEMP, PRECIP, SNOW",,,"MMTS, SRG, SNOWBOARD",,,WFO CHS,,,,,,,,,,,,,,,,,,,,,,,,,,,30,68,83,0,,,,61,29.99,,,9.94,,160,,14,,,,,,,,,,,,,,,,,,,,,,,,,,,,,,,,,,,,,MET070KCHS 112156Z 16012KT 10SM FEW040 28/20 A3000 RMK AO2 SLP157 T02830200;,,,,,,,,,,,,,,,,,,,,,,,,,,,,
72208013880,2002-06-12T12:56:00,FM-15,4,,SE,0.25,mi,"TEMP, PRECIP, SNOW",,,"MMTS, SRG, SNOWBOARD",,,WFO CHS,,,,,,,,,,,,,,,,,,,,,,,,,,,29.94,72,90,,,0.04,8,55,29.93,,,10,,150,,8,,,,,,,,,,,,,,,,,,,,,,,,,,,,,,,,,,,,,MET088KCHS 121756Z 15007KT 10SM BKN043 32/22 A2994 RMK AO2 SLP137 T03170217 10328 20250 58015;,,,,,,,,,,,,,,,,,,,,,,,,,,,,
72208013880,2002-06-12T13:00:00,SY-MT,C,,SE,0.25,mi,"TEMP, PRECIP, SNOW",,,"MMTS, SRG, SNOWBOARD",,,WFO CHS,,,,,,,,,,,,,,,,,,,,,,,,,,,29.94,71,89,0,,0.04,8,55,29.93,,29.89,9.94,76,150,,8,,,,,,,,,,,,,,,,,,,,,,,,,,,,,,,,,,,,,SYN092AAXX  12184 72208 32666 61507 10317 20217 30123 40137 58015 91756 333 10328 20250 555 91218;,,,,,,,,,,,,,,,,,,,,,,,,,,,,
72208013880,2002-06-12T14:00:00,FM-15,C,,SE,0.25,mi,"TEMP, PRECIP, SNOW",,,"MMTS, SRG, SNOWBOARD",,,WFO CHS,,,,,,,,,,,,,,,,,,,,,,,,,,,29.92,72,89,0,,,,57,29.92,,,9.94,,160,,14,,,,,,,,,,,,,,,,,,,,,,,,,,,,,,,,,,,,,MET070KCHS 121856Z 16012KT 10SM FEW043 32/22 A2992 RMK AO2 SLP131 T03170222;,,,,,,,,,,,,,,,,,,,,,,,,,,,,
72208013880,2002-06-12T15:00:00,FM-15,C,,SE,0.25,mi,"TEMP, PRECIP, SNOW",,,"MMTS, SRG, SNOWBOARD",,,WFO CHS,,,,,,,,,,,,,,,,,,,,,,,,,,,29.9,71,87,0,,,,59,29.9,,,9.94,,170,,14,,,,,,,,,,,,,,,,,,,,,,,,,,,,,,,,,,,,,MET070KCHS 121956Z 17012KT 10SM SCT050 31/22 A2990 RMK AO2 SLP125 T03060217;,,,,,,,,,,,,,,,,,,,,,,,,,,,,
72208013880,2002-06-12T17:00:00,FM-15,C,,SE,0.25,mi,"TEMP, PRECIP, SNOW",,,"MMTS, SRG, SNOWBOARD",,,WFO CHS,,,,,,,,,,,,,,,,,,,,,,,,,,,29.89,70,86,0,,,,59,29.88,,,9.94,,170,,13,,,,,,,,,,,,,,,,,,,,,,,,,,,,,,,,,,,,,MET070KCHS 122156Z 17011KT 10SM FEW065 30/21 A2989 RMK AO2 SLP120 T03000211;,,,,,,,,,,,,,,,,,,,,,,,,,,,,
72208013880,2002-06-13T17:00:00,FM-15,C,,SE,0.25,mi,"TEMP, PRECIP, SNOW",,,"MMTS, SRG, SNOWBOARD",,,WFO CHS,,,,,,,,,,,,,,,,,,,,,,,,,,,29.8,71s,90,0,,,,54,29.79,,,9.94,,160,,14,,,,,,,,,,,,,,,,,,,,,,,,,,,,,,,,,,,,,MET073METAR KCHS 132156Z 16012KT 10SM CLR 32/22 A2980 RMK AO2 SLP089 T03220217;,,,,,,,,,,,,,,,,,,,,,,,,,,,,
72208013880,2002-06-14T14:27:00,FM-16,4,,SE,0.25,mi,"TEMP, PRECIP, SNOW",,,"MMTS, SRG, SNOWBOARD",,,WFO CHS,,,,,,,,,,,,,,,,,,,,,,,,,,,29.67,79,82,0.06,,,,89,,,,10,,160,,10,,,,,,,,,,,,,,,,,,,,,,,,,,,,,,,,,,,,,MET095KCHS 141927Z COR 16009KT 10SM FEW008 SCT070 28/26 A2967 RMK AO2 TSE27RAE22 CB W-NE MOV E P0006;,,,,,,,,,,,,,,,,,,,,,,,,,,,,
72208013880,2002-06-14T15:24:00,FM-16,4,,SE,0.25,mi,"TEMP, PRECIP, SNOW",,,"MMTS, SRG, SNOWBOARD",,,WFO CHS,,,,,,,,,,,,,,,,,,,,,,,,,,,29.66,73,77,0.22,||SHRA TS,,,89,,,,2,,150,37,16,,,,,,,,,,,,,,,,,,,,,,,,,,,,,,,,,,,,,MET145KCHS 142024Z 15014G32KT 2SM +TSRA BR BKN012 BKN065 25/23 A2966 RMK AO2 PK WND 19032/2017 WSHFT 2010 TSB00RAB06 OCNL LTGCGIC TS OHD MOV E P0022 $;,,,,,,,,,,,,,,,,,,,,,,,,,,,,
72208013880,2002-06-14T15:36:00,FM-16,4,,SE,0.25,mi,"TEMP, PRECIP, SNOW",,,"MMTS, SRG, SNOWBOARD",,,WFO CHS,,,,,,,,,,,,,,,,,,,,,,,,,,,29.65,75,82,0.22,||TS,,,79,,,,10,,170,,9,,,,,,,,,,,,,,,,,,,,,,,,,,,,,,,,,,,,,MET134KCHS 142036Z 17008KT 10SM TS SCT014 28/24 A2965 RMK AO2 PK WND 19032/2017 WSHFT 2010 TSB00RAB06E34 OCNL LTGCGIC TS N-SE MOV E P0022 $;,,,,,,,,,,,,,,,,,,,,,,,,,,,,
72208013880,2002-06-22T11:10:00,FM-16,4,,SE,0.25,mi,"TEMP, PRECIP, SNOW",,,"MMTS, SRG, SNOWBOARD",,,WFO CHS,,,,,,,,,,,,,,,,,,,,,,,,,,,30.23,70,72,0.22,||RA,,,94,,,,1.25,,150,,10,,,,,,,,,,,,,,,,,,,,,,,,,,,,,,,,,,,,,MET089SPECI KCHS 221610Z 15009KT 1 1/4SM +RA BR FEW005 BKN023 OVC038 22/21 A3023 RMK AO2 P0022;,,,,,,,,,,,,,,,,,,,,,,,,,,,,
72208013880,2002-06-23T12:00:00,FM-15,C,,SE,0.25,mi,"TEMP, PRECIP, SNOW",,,"MMTS, SRG, SNOWBOARD",,,WFO CHS,,,,,,,,,,,,,,,,,,,,,,,,,,,30.22,71,79,0,,,,77,30.21,,,9.94,,150,,15,,,,,,,,,,,,,,,,,,,,,,,,,,,,,,,,,,,,,MET077KCHS 231656Z 15013KT 10SM BKN019 BKN250 26/22 A3022 RMK AO2 SLP231 T02610217;,,,,,,,,,,,,,,,,,,,,,,,,,,,,
72208013880,2002-06-23T12:56:00,FM-15,4,,SE,0.25,mi,"TEMP, PRECIP, SNOW",,,"MMTS, SRG, SNOWBOARD",,,WFO CHS,,,,,,,,,,,,,,,,,,,,,,,,,,,30.21,72,79,,,0.04,6,79,30.2,,,10,,170,,8,,,,,,,,,,,,,,,,,,,,,,,,,,,,,,,,,,,,,MET095KCHS 231756Z 17007KT 10SM BKN019 OVC250 26/22 A3021 RMK AO2 SLP227 T02610222 10272 20228 56012;,,,,,,,,,,,,,,,,,,,,,,,,,,,,
72208013880,2002-06-23T13:00:00,SY-MT,C,,SE,0.25,mi,"TEMP, PRECIP, SNOW",,,"MMTS, SRG, SNOWBOARD",,,WFO CHS,,,,,,,,,,,,,,,,,,,,,,,,,,,30.21,72,79,0,,0.04,6,79,30.2,,30.16,9.94,74,170,,8,,,,,,,,,,,,,,,,,,,,,,,,,,,,,,,,,,,,,SYN092AAXX  23184 72208 32466 81707 10261 20222 30214 40227 56012 91756 333 10272 20211 555 92318;,,,,,,,,,,,,,,,,,,,,,,,,,,,,
72208013880,2002-06-24T11:00:00,FM-15,C,,SE,0.25,mi,"TEMP, PRECIP, SNOW",,,"MMTS, SRG, SNOWBOARD",,,WFO CHS,,,,,,,,,,,,,,,,,,,,,,,,,,,30.17,72,84,0,,,,67,30.16,,,9.94,,150,,10,,,,,,,,,,,,,,,,,,,,,,,,,,,,,,,,,,,,,MET084KCHS 241556Z 15009KT 10SM BKN021 BKN180 BKN250 29/22 A3017 RMK AO2 SLP215 T02890222;,,,,,,,,,,,,,,,,,,,,,,,,,,,,
72208013880,2002-06-24T11:28:00,FM-16,4,,SE,0.25,mi,"TEMP, PRECIP, SNOW",,,"MMTS, SRG, SNOWBOARD",,,WFO CHS,,,,,,,,,,,,,,,,,,,,,,,,,,,30.17,72,82,,,,,70,,,,10,,160,22,15,,,,,,,,,,,,,,,,,,,,,,,,,,,,,,,,,,,,,MET070KCHS 241628Z 16013G19KT 10SM SCT028 BKN033 BKN049 28/22 A3017 RMK AO2;,,,,,,,,,,,,,,,,,,,,,,,,,,,,
72208013880,2002-06-24T12:00:00,FM-15,C,,SE,0.25,mi,"TEMP, PRECIP, SNOW",,,"MMTS, SRG, SNOWBOARD",,,WFO CHS,,,,,,,,,,,,,,,,,,,,,,,,,,,30.17,72,81,0,,,,74,30.16,,,9.94,,160,,12,,,,,,,,,,,,,,,,,,,,,,,,,,,,,,,,,,,,,MET084KCHS 241656Z 16010KT 10SM SCT024 BKN050 BKN130 27/22 A3017 RMK AO2 SLP215 T02720222;,,,,,,,,,,,,,,,,,,,,,,,,,,,,
72208013880,2002-06-24T15:00:00,FM-15,C,,SE,0.25,mi,"TEMP, PRECIP, SNOW",,,"MMTS, SRG, SNOWBOARD",,,WFO CHS,,,,,,,,,,,,,,,,,,,,,,,,,,,30.13,73,83,0,,,,72,30.13,,,9.94,,150,,12,,,,,,,,,,,,,,,,,,,,,,,,,,,,,,,,,,,,,MET077KCHS 241956Z 15010KT 10SM SCT025 OVC250 28/23 A3013 RMK AO2 SLP202 T02830228;,,,,,,,,,,,,,,,,,,,,,,,,,,,,
72208013880,2002-06-24T16:00:00,FM-15,C,,SE,0.25,mi,"TEMP, PRECIP, SNOW",,,"MMTS, SRG, SNOWBOARD",,,WFO CHS,,,,,,,,,,,,,,,,,,,,,,,,,,,30.11,71,84,0,,0.04,8,65,30.11,,,9.94,,170,,13,,,,,,,,,,,,,,,,,,,,,,,,,,,,,,,,,,,,,MET083KCHS 242056Z 17011KT 10SM SCT028 BKN250 29/22 A3011 RMK AO2 SLP196 T02890217 58013;,,,,,,,,,,,,,,,,,,,,,,,,,,,,
72208013880,2002-06-24T17:00:00,FM-15,C,,SE,0.25,mi,"TEMP, PRECIP, SNOW",,,"MMTS, SRG, SNOWBOARD",,,WFO CHS,,,,,,,,,,,,,,,,,,,,,,,,,,,30.1,72,82,0,,,,72,30.1,,,9.94,,150,,14,,,,,,,,,,,,,,,,,,,,,,,,,,,,,,,,,,,,,MET077KCHS 242156Z 15012KT 10SM FEW024 BKN250 28/22 A3010 RMK AO2 SLP193 T02780222;,,,,,,,,,,,,,,,,,,,,,,,,,,,,
72208013880,2002-06-25T17:00:00,FM-15,C,,SE,0.25,mi,"TEMP, PRECIP, SNOW",,,"MMTS, SRG, SNOWBOARD",,,WFO CHS,,,,,,,,,,,,,,,,,,,,,,,,,,,30.11,72,81,0,,,,74,30.11,,,9.94,,170,,14,,,,,,,,,,,,,,,,,,,,,,,,,,,,,,,,,,,,,MET077KCHS 252156Z 17012KT 10SM SCT025 BKN250 27/22 A3011 RMK AO2 SLP196 T02720222;,,,,,,,,,,,,,,,,,,,,,,,,,,,,
72208013880,2002-07-01T14:46:00,FM-16,4,,SE,0.25,mi,"TEMP, PRECIP, SNOW",,,"MMTS, SRG, SNOWBOARD",,,WFO CHS,,,,,,,,,,,,,,,,,,,,,,,,,,,30.14,73,82,0.03,||SHRA TS,,,74,,,,6,,150,,9,,,,,,,,,,,,,,,,,,,,,,,,,,,,,,,,,,,,,MET117KCHS 011946Z 15008KT 6SM TSRA BKN019 BKN060 28/23 A3014 RMK AO2 TSB45RAB04E22B39 OCNL LTGIC TS N AND SW MOV SW P0003;,,,,,,,,,,,,,,,,,,,,,,,,,,,,
72208013880,2002-07-01T16:00:00,FM-15,C,,SE,0.25,mi,"TEMP, PRECIP, SNOW",,,"MMTS, SRG, SNOWBOARD",,,WFO CHS,,,,,,,,,,,,,,,,,,,,,,,,,,,30.12,72,83,T,,0.03,8,70,30.12,,,9.94,,160,,10,,,,,,,,,,,,,,,,,,,,,,,,,,,,,,,,,,,,,MET114KCHS 012056Z 16009KT 10SM FEW050 BKN150 28/22 A3012 RMK AO2 TSE56RAE05 SLP199 TSDSPTD P0000 60004 T02830222 58009;,,,,,,,,,,,,,,,,,,,,,,,,,,,,
72208013880,2002-07-01T17:00:00,FM-15,E,,SE,0.25,mi,"TEMP, PRECIP, SNOW",,,"MMTS, SRG, SNOWBOARD",,,WFO CHS,,,,,,,,,,,,,,,,,,,,,,,,,,,30.11,73,83,0,,,,72,30.11,,,9.94,,150,,10,,,,,,,,,,,,,,,,,,,,,,,,,,,,,,,,,,,,,,,,,,,,,,,,,,,,,,,,,,,,,,,,,
72208013880,2002-07-02T15:00:00,FM-15,C,,SE,0.25,mi,"TEMP, PRECIP, SNOW",,,"MMTS, SRG, SNOWBOARD",,,WFO CHS,,,,,,,,,,,,,,,,,,,,,,,,,,,30.06,73,87,0,,,,63,30.05,,,9.94,,160,,12,,,,,,,,,,,,,,,,,,,,,,,,,,,,,,,,,,,,,MET082KCHS 021956Z 16010KT 10SM FEW043 31/23 A3006 RMK AO2 SLP177 FU HZ ALOFT T03060228;,,,,,,,,,,,,,,,,,,,,,,,,,,,,
72208013880,2002-07-02T17:00:00,FM-15,C,,SE,0.25,mi,"TEMP, PRECIP, SNOW",,,"MMTS, SRG, SNOWBOARD",,,WFO CHS,,,,,,,,,,,,,,,,,,,,,,,,,,,30.02,73,84,0,,,,70,30.01,,,9.94,,150,,10,,,,,,,,,,,,,,,,,,,,,,,,,,,,,,,,,,,,,MET079KCHS 022156Z 15009KT 10SM CLR 29/23 A3002 RMK AO2 SLP164 FU HZ ALOFT T02890228;,,,,,,,,,,,,,,,,,,,,,,,,,,,,
72208013880,2002-07-03T16:00:00,FM-15,C,,SE,0.25,mi,"TEMP, PRECIP, SNOW",,,"MMTS, SRG, SNOWBOARD",,,WFO CHS,,,,,,,,,,,,,,,,,,,,,,,,,,,29.95,70,88,0,,0.06,6,55,29.95,,,9.94,,160,,12,,,,,,,,,,,,,,,,,,,,,,,,,,,,,,,,,,,,,MET076KCHS 032056Z 16010KT 10SM FEW030 31/21 A2995 RMK AO2 SLP141 T03110211 56019;,,,,,,,,,,,,,,,,,,,,,,,,,,,,
72208013880,2002-07-06T15:00:00,FM-15,E,,SE,0.25,mi,"TEMP, PRECIP, SNOW",,,"MMTS, SRG, SNOWBOARD",,,WFO CHS,,,,,,,,,,,,,,,,,,,,,,,,,,,29.97,76,91,0,,,,61,29.96,,,9.94,,150,,10,,,,,,,,,,,,,,,,,,,,,,,,,,,,,,,,,,,,,,,,,,,,,,,,,,,,,,,,,,,,,,,,,
72208013880,2002-07-06T17:00:00,FM-15,C,,SE,0.25,mi,"TEMP, PRECIP, SNOW",,,"MMTS, SRG, SNOWBOARD",,,WFO CHS,,,,,,,,,,,,,,,,,,,,,,,,,,,29.99,71,85,0,,,,63,29.98,,,9.94,,150,,12,,,,,,,,,,,,,,,,,,,,,,,,,,,,,,,,,,,,,MET108KCHS 062156Z 15010KT 10SM FEW040 SCT250 29/22 A2999 RMK AO2 SLP154 TSB41 TS W MOVG W OCNL LTGCG W T02940217;,,,,,,,,,,,,,,,,,,,,,,,,,,,,
72208013880,2002-07-06T17:02:00,FM-16,4,,SE,0.25,mi,"TEMP, PRECIP, SNOW",,,"MMTS, SRG, SNOWBOARD",,,WFO CHS,,,,,,,,,,,,,,,,,,,,,,,,,,,29.99,72,84,,||TS,,,66,,,,10,,150,,11,,,,,,,,,,,,,,,,,,,,,,,,,,,,,,,,,,,,,MET096KCHS 062202Z 15010KT 10SM TS FEW040 SCT250 29/22 A2999 RMK AO2 TSB2157 TS W MOVG W OCNL LTGCG W;,,,,,,,,,,,,,,,,,,,,,,,,,,,,
72208013880,2002-07-08T12:56:00,FM-15,4,,SE,0.25,mi,"TEMP, PRECIP, SNOW",,,"MMTS, SRG, SNOWBOARD",,,WFO CHS,,,,,,,,,,,,,,,,,,,,,,,,,,,30.21,72,84,,,0.03,8,66,30.2,42,,10,,150,,13,,,,,,,,,,,,,,,,,,,,,,,,,,,,,,,,,,,,,MET118KCHS 081756Z 15011KT 10SM BKN043TCU BKN250 29/22 A3021 RMK AO2 SLP228 TCU N-SW VCSH NE-SE T02890222 10311 20239 58009;,,,,,,,,,,,,,,,,,,,,,,,,,,,,
72208013880,2002-07-08T13:00:00,SY-MT,C,,SE,0.25,mi,"TEMP, PRECIP, SNOW",,,"MMTS, SRG, SNOWBOARD",,,WFO CHS,,,,,,,,,,,,,,,,,,,,,,,,,,,30.21,72,84,0,,0.03,8,67,30.2,,30.16,9.94,76,150,,13,,,,,,,,,,,,,,,,,,,,,,,,,,,,,,,,,,,,,SYN092AAXX  08184 72208 32666 61511 10289 20222 30214 40228 58009 91756 333 10311 20239 555 90818;,,,,,,,,,,,,,,,,,,,,,,,,,,,,
72208013880,2002-07-08T15:00:00,FM-15,C,,SE,0.25,mi,"TEMP, PRECIP, SNOW",,,"MMTS, SRG, SNOWBOARD",,,WFO CHS,,,,,,,,,,,,,,,,,,,,,,,,,,,30.19,71,84,0,,,,65,30.19,,,9.94,,160,,10,,,,,,,,,,,,,,,,,,,,,,,,,,,,,,,,,,,,,MET084KCHS 081956Z 16009KT 10SM FEW030 BKN090 OVC250 29/22 A3019 RMK AO2 SLP222 T02890217;,,,,,,,,,,,,,,,,,,,,,,,,,,,,
72208013880,2002-07-08T16:00:00,FM-15,C,,SE,0.25,mi,"TEMP, PRECIP, SNOW",,,"MMTS, SRG, SNOWBOARD",,,WFO CHS,,,,,,,,,,,,,,,,,,,,,,,,,,,30.17,71,83,0,,0.03,8,67,30.17,,,9.94,,150,,9,,,,,,,,,,,,,,,,,,,,,,,,,,,,,,,,,,,,,MET090KCHS 082056Z 15008KT 10SM FEW030 SCT100 OVC250 28/22 A3017 RMK AO2 SLP217 T02830217 58011;,,,,,,,,,,,,,,,,,,,,,,,,,,,,
72208013880,2002-07-08T17:00:00,FM-15,C,,SE,0.25,mi,"TEMP, PRECIP, SNOW",,,"MMTS, SRG, SNOWBOARD",,,WFO CHS,,,,,,,,,,,,,,,,,,,,,,,,,,,30.17,73,83,0,,,,72,30.17,,,9.94,,150,,12,,,,,,,,,,,,,,,,,,,,,,,,,,,,,,,,,,,,,MET084KCHS 082156Z 15010KT 10SM FEW030 SCT100 OVC250 28/23 A3017 RMK AO2 SLP217 T02830228;,,,,,,,,,,,,,,,,,,,,,,,,,,,,
72208013880,2002-07-09T13:00:00,SY-MT,C,,SE,0.25,mi,"TEMP, PRECIP, SNOW",,,"MMTS, SRG, SNOWBOARD",,,WFO CHS,,,,,,,,,,,,,,,,,,,,,,,,,,,30.18,74,86,0,,0.02,8,67,30.18,32,30.13,9.94,78,160,,12,,,,,,,,,,,,,,,,,,,,,,,,,,,,,,,,,,,,,SYN098AAXX  09184 72208 12566 61610 10300 20233 30204 40219 58006 69931 91756 333 10306 20261 555 90918;MET131KCHS 091756Z 16010KT 10SM SCT032TCU SCT130 BKN250 30/23 A3018 RMK AO2 SLP219 TCU NW-N CB DSNT NE 60001 T03000233 10306 20261 58006;,,,,,,,,,,,,,,,,,,,,,,,,,,,,
72208013880,2002-07-13T12:56:00,FM-15,4,,SE,0.25,mi,"TEMP, PRECIP, SNOW",,,"MMTS, SRG, SNOWBOARD",,,WFO CHS,,,,,,,,,,,,,,,,,,,,,,,,,,,29.91,75,82,T,||RA,0.03,8,79,29.91,,,10,,150,,10,,,,,,,,,,,,,,,,,,,,,,,,,,,,,,,,,,,,,MET131KCHS 131756Z 15009KT 10SM -RA FEW033 SCT055 28/24 A2991 RMK AO2 RAB48 SLP128 CB OVHD MOV N P0000 60000 T02830239 10306 20222 58009;,,,,,,,,,,,,,,,,,,,,,,,,,,,,
72208013880,2002-07-13T13:00:00,SY-MT,C,,SE,0.25,mi,"TEMP, PRECIP, SNOW",,,"MMTS, SRG, SNOWBOARD",,,WFO CHS,,,,,,,,,,,,,,,,,,,,,,,,,,,29.91,75,83,T,||RA,0.03,8,77,29.91,,29.86,9.94,77,150,,10,,,,,,,,,,,,,,,,,,,,,,,,,,,,,,,,,,,,,SYN104AAXX  13184 72208 11566 41509 10283 20239 30113 40128 58009 69901 761// 91756 333 10306 20222 555 91318;,,,,,,,,,,,,,,,,,,,,,,,,,,,,
72208013880,2002-07-13T14:00:00,FM-15,C,,SE,0.25,mi,"TEMP, PRECIP, SNOW",,,"MMTS, SRG, SNOWBOARD",,,WFO CHS,,,,,,,,,,,,,,,,,,,,,,,,,,,29.9,75,85,0.09,,,,72,29.9,,,9.94,,170,,10,,,,,,,,,,,,,,,,,,,,,,,,,,,,,,,,,,,,,MET100KCHS 131856Z 17009KT 10SM SCT033 BKN200 29/24 A2990 RMK AO2 RAE30 SLP125 CB N MOV N P0009 T02940239;,,,,,,,,,,,,,,,,,,,,,,,,,,,,
72208013880,2002-07-13T15:00:00,FM-15,C,,SE,0.25,mi,"TEMP, PRECIP, SNOW",,,"MMTS, SRG, SNOWBOARD",,,WFO CHS,,,,,,,,,,,,,,,,,,,,,,,,,,,29.89,74,86,0,,,,67,29.89,,,9.94,,160,,14,,,,,,,,,,,,,,,,,,,,,,,,,,,,,,,,,,,,,MET095KCHS 131956Z 16012KT 10SM SCT034 SCT090 BKN200 30/23 A2989 RMK AO2 SLP121 CB N MOV N T03000233;,,,,,,,,,,,,,,,,,,,,,,,,,,,,
72208013880,2002-07-13T17:00:00,FM-15,C,,SE,0.25,mi,"TEMP, PRECIP, SNOW",,,"MMTS, SRG, SNOWBOARD",,,WFO CHS,,,,,,,,,,,,,,,,,,,,,,,,,,,29.89,73,84,0,,,,70,29.88,,,9.94,,170,,9,,,,,,,,,,,,,,,,,,,,,,,,,,,,,,,,,,,,,MET102KCHS 132156Z 17008KT 10SM FEW032 SCT120 BKN250 29/23 A2989 RMK AO2 SLP120 CB DSNT NE MOV NE T02890228;,,,,,,,,,,,,,,,,,,,,,,,,,,,,
72208013880,2002-07-16T14:00:00,FM-15,C,,SE,0.25,mi,"TEMP, PRECIP, SNOW",,,"MMTS, SRG, SNOWBOARD",,,WFO CHS,,,,,,,,,,,,,,,,,,,,,,,,,,,30.02,78,91,0,,,,66,30.02,49,,8.95,,150,,12,,,,,,,,,,,,,,,,,,,,,,,,,,,,,,,,,,,,,MET093KCHS 161856Z 15010KT 9SM BKN055TCU BKN200 33/26 A3002 RMK AO2 SLP165 TCU S-SW VCSH T03280256;,,,,,,,,,,,,,,,,,,,,,,,,,,,,
72208013880,2002-07-16T15:00:00,FM-15,C,,SE,0.25,mi,"TEMP, PRECIP, SNOW",,,"MMTS, SRG, SNOWBOARD",,,WFO CHS,,,,,,,,,,,,,,,,,,,,,,,,,,,30,76,92,0,,,,60,30,,,9.94,,150,,9,,,,,,,,,,,,,,,,,,,,,,,,,,,,,,,,,,,,,MET077KCHS 161956Z 15008KT 10SM FEW070 SCT250 33/24 A3000 RMK AO2 SLP159 T03330244;,,,,,,,,,,,,,,,,,,,,,,,,,,,,
72208013880,2002-07-16T16:00:00,FM-15,C,,SE,0.25,mi,"TEMP, PRECIP, SNOW",,,"MMTS, SRG, SNOWBOARD",,,WFO CHS,,,,,,,,,,,,,,,,,,,,,,,,,,,29.98,79,92,0,,0.04,8,66,29.98,,,9.94,,160,,12,,,,,,,,,,,,,,,,,,,,,,,,,,,,,,,,,,,,,MET076KCHS 162056Z 16010KT 10SM FEW050 33/26 A2998 RMK AO2 SLP152 T03330261 58015;,,,,,,,,,,,,,,,,,,,,,,,,,,,,
72208013880,2002-07-16T17:00:00,FM-15,C,,SE,0.25,mi,"TEMP, PRECIP, SNOW",,,"MMTS, SRG, SNOWBOARD",,,WFO CHS,,,,,,,,,,,,,,,,,,,,,,,,,,,29.98,79,90,0,,,,70,29.98,49,,8.95,,150,,7,,,,,,,,,,,,,,,,,,,,,,,,,,,,,,,,,,,,,MET081KCHS 162156Z 15006KT 9SM FEW050TCU 32/26 A2998 RMK AO2 SLP153 TCU NE-E T03220261;,,,,,,,,,,,,,,,,,,,,,,,,,,,,
72208013880,2002-07-18T17:00:00,FM-15,C,,SE,0.25,mi,"TEMP, PRECIP, SNOW",,,"MMTS, SRG, SNOWBOARD",,,WFO CHS,,,,,,,,,,,,,,,,,,,,,,,,,,,29.94,75,89,0,,,,63,29.94,,,9.94,,170,,14,,,,,,,,,,,,,,,,,,,,,,,,,,,,,,,,,,,,,MET084KCHS 182156Z 17012KT 10SM FEW250 32/24 A2994 RMK AO2 SLP139 VRY HZY ALOFT T03170239;,,,,,,,,,,,,,,,,,,,,,,,,,,,,
72208013880,2002-07-21T16:00:00,FM-15,C,,SE,0.25,mi,"TEMP, PRECIP, SNOW",,,"MMTS, SRG, SNOWBOARD",,,WFO CHS,,,,,,,,,,,,,,,,,,,,,,,,,,,30.01,75,90,0,,0.06,8,62,30,,,9.94,,170,,9,,,,,,,,,,,,,,,,,,,,,,,,,,,,,,,,,,,,,MET103KCHS 212056Z 17008KT 10SM FEW050 BKN250 32/24 A3001 RMK AO2 TSE46 SLP160 MOV N CB N-NE T03220239 58020;,,,,,,,,,,,,,,,,,,,,,,,,,,,,
72208013880,2002-07-21T17:00:00,FM-15,C,,SE,0.25,mi,"TEMP, PRECIP, SNOW",,,"MMTS, SRG, SNOWBOARD",,,WFO CHS,,,,,,,,,,,,,,,,,,,,,,,,,,,30.05,74,86,0,,,,67,30.04,,,9.94,,150,,8,,,,,,,,,,,,,,,,,,,,,,,,,,,,,,,,,,,,,MET090SPECI KCHS 212156Z 15007KT 10SM SCT041 BKN110 BKN250 30/23 A3005 RMK AO2 SLP174 T03000233;,,,,,,,,,,,,,,,,,,,,,,,,,,,,
72208013880,2002-07-23T11:20:00,FM-15,4,,SE,0.25,mi,"TEMP, PRECIP, SNOW",,,"MMTS, SRG, SNOWBOARD",,,WFO CHS,,,,,,,,,,,,,,,,,,,,,,,,,,,30.18,75,75,0.02,||RA,,,100,,,,8,,170,,10,,,,,,,,,,,,,,,,,,,,,,,,,,,,,,,,,,,,,MET069KCHS 231620Z 17009KT 8SM -RA SCT006 OVC014 24/24 A3018 RMK AO2 P0002;,,,,,,,,,,,,,,,,,,,,,,,,,,,,
72208013880,2002-07-23T12:00:00,FM-15,C,,SE,0.25,mi,"TEMP, PRECIP, SNOW",,,"MMTS, SRG, SNOWBOARD",,,WFO CHS,,,,,,,,,,,,,,,,,,,,,,,,,,,30.18,75,76,0.02,||RA,,,97,30.17,,,9.94,,170,,10,,,,,,,,,,,,,,,,,,,,,,,,,,,,,,,,,,,,,MET094KCHS 231656Z 17009KT 10SM -RA BKN008 BKN020 OVC090 24/24 A3018 RMK AO2 SLP218 P0002 T02440239;,,,,,,,,,,,,,,,,,,,,,,,,,,,,
72208013880,2002-07-23T15:00:00,FM-15,C,,SE,0.25,mi,"TEMP, PRECIP, SNOW",,,"MMTS, SRG, SNOWBOARD",,,WFO CHS,,,,,,,,,,,,,,,,,,,,,,,,,,,30.13,75,83,0,,,,77,30.12,,,9.94,,170,,12,,,,,,,,,,,,,,,,,,,,,,,,,,,,,,,,,,,,,MET077KCHS 231956Z 17010KT 10SM BKN019 OVC250 28/24 A3013 RMK AO2 SLP201 T02830239;,,,,,,,,,,,,,,,,,,,,,,,,,,,,
72208013880,2002-07-24T16:28:00,FM-16,4,,SE,0.25,mi,"TEMP, PRECIP, SNOW",,,"MMTS, SRG, SNOWBOARD",,,WFO CHS,,,,,,,,,,,,,,,,,,,,,,,,,,,30.06,75,84,,,,,74,,,,10,,160,,10,,,,,,,,,,,,,,,,,,,,,,,,,,,,,,,,,,,,,MET067KCHS 242128Z 16009KT 10SM SCT027 BKN038 OVC250 29/24 A3006 RMK AO2;,,,,,,,,,,,,,,,,,,,,,,,,,,,,
72208013880,2002-08-01T15:00:00,FM-15,C,,SE,0.25,mi,"TEMP, PRECIP, SNOW",,,"MMTS, SRG, SNOWBOARD",,,WFO CHS,,,,,,,,,,,,,,,,,,,,,,,,,,,29.9,74,84,0,,,,72,29.9,25,,9.94,,150,,7,,,,,,,,,,,,,,,,,,,,,,,,,,,,,,,,,,,,,MET110KCHS 011956Z 15006KT 10SM FEW025TCU BKN140 OVC250 29/23 A2990 RMK AO2 TSE47 SLP124 TS DSPTD TCU N-E T02890233;,,,,,,,,,,,,,,,,,,,,,,,,,,,,
72208013880,2002-08-06T17:00:00,FM-15,C,,SE,0.25,mi,"TEMP, PRECIP, SNOW",,,"MMTS, SRG, SNOWBOARD",,,WFO CHS,,,,,,,,,,,,,,,,,,,,,,,,,,,29.78,75,89,0,,,,63,29.78,,,9.94,,150,,8,,,,,,,,,,,,,,,,,,,,,,,,,,,,,,,,,,,,,MET069KCHS 062156 15007KT 10SM FEW250 32/24 A2978 RMK AO2 SLP083 T03170239;,,,,,,,,,,,,,,,,,,,,,,,,,,,,
72208013880,2002-08-08T16:00:00,FM-15,C,,SE,0.25,mi,"TEMP, PRECIP, SNOW",,,"MMTS, SRG, SNOWBOARD",,,WFO CHS,,,,,,,,,,,,,,,,,,,,,,,,,,,30.07,58,82,0,,0.03,6,44,30.06,,,9.94,,150,,15,,,,,,,,,,,,,,,,,,,,,,,,,,,,,,,,,,,,,MET087KCHS 082056Z 15013KT 10SM FEW065 28/14 A3007 RMK AO2 WSHFT 2015 SLP180 T02780144 56009;,,,,,,,,,,,,,,,,,,,,,,,,,,,,
72208013880,2002-08-11T16:00:00,FM-15,C,,SE,0.25,mi,"TEMP, PRECIP, SNOW",,,"MMTS, SRG, SNOWBOARD",,,WFO CHS,,,,,,,,,,,,,,,,,,,,,,,,,,,30.12,61,86,0,,0.04,6,43,30.12,,,9.94,,160,,8,,,,,,,,,,,,,,,,,,,,,,,,,,,,,,,,,,,,,MET083KCHS 112056Z 16007KT 10SM FEW060 SCT250 30/16 A3012 RMK AO2 SLP199 T03000161 56014;,,,,,,,,,,,,,,,,,,,,,,,,,,,,
72208013880,2002-08-11T17:00:00,FM-15,C,,SE,0.25,mi,"TEMP, PRECIP, SNOW",,,"MMTS, SRG, SNOWBOARD",,,WFO CHS,,,,,,,,,,,,,,,,,,,,,,,,,,,30.11,59,85,0,,,,42,30.11,,,9.94,,160,,12,,,,,,,,,,,,,,,,,,,,,,,,,,,,,,,,,,,,,MET070KCHS 112156Z 16010KT 10SM FEW250 29/15 A3011 RMK AO2 SLP196 T02940150;,,,,,,,,,,,,,,,,,,,,,,,,,,,,
72208013880,2002-08-12T12:56:00,FM-15,4,,SE,0.25,mi,"TEMP, PRECIP, SNOW",,,"MMTS, SRG, SNOWBOARD",,,WFO CHS,,,,,,,,,,,,,,,,,,,,,,,,,,,30.13,63,90,,,0.05,8,41,30.13,,,10,,170,,7,,,,,,,,,,,,,,,,,,,,,,,,,,,,,,,,,,,,,MET088KCHS 121756Z 17006KT 10SM BKN250 32/17 A3013 RMK AO2 SLP203 T03170167 10317 20206 58016;,,,,,,,,,,,,,,,,,,,,,,,,,,,,
72208013880,2002-08-12T13:00:00,SY-MT,C,,SE,0.25,mi,"TEMP, PRECIP, SNOW",,,"MMTS, SRG, SNOWBOARD",,,WFO CHS,,,,,,,,,,,,,,,,,,,,,,,,,,,30.13,62,89,0,,0.05,8,41,30.13,,30.08,9.94,71,170,,7,,,,,,,,,,,,,,,,,,,,,,,,,,,,,,,,,,,,,SYN092AAXX  12184 72208 32966 61706 10317 20167 30187 40203 58016 91756 333 10317 20206 555 91218;,,,,,,,,,,,,,,,,,,,,,,,,,,,,
72208013880,2002-08-12T16:00:00,FM-15,C,,SE,0.25,mi,"TEMP, PRECIP, SNOW",,,"MMTS, SRG, SNOWBOARD",,,WFO CHS,,,,,,,,,,,,,,,,,,,,,,,,,,,30.1,64,88,0,,0.04,6,45,30.09,,,9.94,,170,,10,,,,,,,,,,,,,,,,,,,,,,,,,,,,,,,,,,,,,MET076KCHS 122056Z 17009KT 10SM BKN250 31/18 A3010 RMK AO2 SLP190 T03110178 56013;,,,,,,,,,,,,,,,,,,,,,,,,,,,,
72208013880,2002-08-13T12:00:00,FM-15,C,,SE,0.25,mi,"TEMP, PRECIP, SNOW",,,"MMTS, SRG, SNOWBOARD",,,WFO CHS,,,,,,,,,,,,,,,,,,,,,,,,,,,30.16,66,83,0,,,,57,30.15,,,9.94,,160,,9,,,,,,,,,,,,,,,,,,,,,,,,,,,,,,,,,,,,,MET103KCHS 131656Z 16008KT 10SM FEW038 BKN120 BKN250 28/19 A3016 RMK AO2 SLP211 CB DSNT E-SW MOV N T02830189;,,,,,,,,,,,,,,,,,,,,,,,,,,,,
72208013880,2002-08-13T14:00:00,FM-15,C,,SE,0.25,mi,"TEMP, PRECIP, SNOW",,,"MMTS, SRG, SNOWBOARD",,,WFO CHS,,,,,,,,,,,,,,,,,,,,,,,,,,,30.14,67,82,0,,,,60,30.14,,,9.94,,160,,10,,,,,,,,,,,,,,,,,,,,,,,,,,,,,,,,,,,,,MET105KCHS 131856Z 16009KT 10SM FEW030 BKN120 BKN250 28/19 A3014 RMK AO2 SLP206 CB DSNT SE-SW MOV NE T02780194;,,,,,,,,,,,,,,,,,,,,,,,,,,,,
72208013880,2002-08-13T17:00:00,FM-15,C,,SE,0.25,mi,"TEMP, PRECIP, SNOW",,,"MMTS, SRG, SNOWBOARD",,,WFO CHS,,,,,,,,,,,,,,,,,,,,,,,,,,,30.11,67,82,0,,,,60,30.11,,,9.94,,160,,12,,,,,,,,,,,,,,,,,,,,,,,,,,,,,,,,,,,,,MET084KCHS 132156Z 16010KT 10SM SCT037 BKN150 OVC250 28/19 A3011 RMK AO2 SLP196 T02780194;,,,,,,,,,,,,,,,,,,,,,,,,,,,,
72208013880,2002-08-15T11:00:00,FM-15,C,,SE,0.25,mi,"TEMP, PRECIP, SNOW",,,"MMTS, SRG, SNOWBOARD",,,WFO CHS,,,,,,,,,,,,,,,,,,,,,,,,,,,30.23,76,85,0,,,,75,30.23,21,,9.94,,170,,8,,,,,,,,,,,,,,,,,,,,,,,,,,,,,,,,,,,,,MET096KCHS 151556Z 17007KT 10SM SCT021TCU BKN250 29/24 A3023 RMK AO2 SLP236 TCU NE DSNT W T02940244 /;,,,,,,,,,,,,,,,,,,,,,,,,,,,,
72208013880,2002-08-15T12:00:00,FM-15,C,,SE,0.25,mi,"TEMP, PRECIP, SNOW",,,"MMTS, SRG, SNOWBOARD",,,WFO CHS,,,,,,,,,,,,,,,,,,,,,,,,,,,30.22,74,86,0,,,,67,30.22,28,,9.94,,170,,12,,,,,,,,,,,,,,,,,,,,,,,,,,,,,,,,,,,,,MET088KCHS 151656Z 17010KT 10SM SCT028TCU BKN250 30/23 A3022 RMK AO2 SLP234 TCU N T03000233 /;,,,,,,,,,,,,,,,,,,,,,,,,,,,,
72208013880,2002-08-15T14:00:00,FM-15,C,,SE,0.25,mi,"TEMP, PRECIP, SNOW",,,"MMTS, SRG, SNOWBOARD",,,WFO CHS,,,,,,,,,,,,,,,,,,,,,,,,,,,30.2,73,88,0,,,,61,30.2,,,9.94,,170,,12,,,,,,,,,,,,,,,,,,,,,,,,,,,,,,,,,,,,,MET079KCHS 151856Z 17010KT 10SM BKN035 BKN250 31/23 A3020 RMK AO2 SLP227 T03110228 /;,,,,,,,,,,,,,,,,,,,,,,,,,,,,
72208013880,2002-08-15T15:00:00,FM-15,C,,SE,0.25,mi,"TEMP, PRECIP, SNOW",,,"MMTS, SRG, SNOWBOARD",,,WFO CHS,,,,,,,,,,,,,,,,,,,,,,,,,,,30.19,75,86,0,,,,70,30.19,,,9.94,,150,,15,,,,,,,,,,,,,,,,,,,,,,,,,,,,,,,,,,,,,MET079KCHS 151956Z 15013KT 10SM BKN033 BKN250 30/24 A3019 RMK AO2 SLP223 T03000240 /;,,,,,,,,,,,,,,,,,,,,,,,,,,,,
72208013880,2002-08-15T16:00:00,FM-15,C,,SE,0.25,mi,"TEMP, PRECIP, SNOW",,,"MMTS, SRG, SNOWBOARD",,,WFO CHS,,,,,,,,,,,,,,,,,,,,,,,,,,,30.19,78,85,0,,0.03,6,81,,,,9.94,,150,,15,,,,,,,,,,,,,,,,,,,,,,,,,,,,,,,,,,,,,MET077KCHS 152056Z 15013KT 10SM BKN033 29/26 A3019 RMK AO2 SLPNO T02940258 56011 /;,,,,,,,,,,,,,,,,,,,,,,,,,,,,
72208013880,2002-08-15T17:00:00,FM-15,C,,SE,0.25,mi,"TEMP, PRECIP, SNOW",,,"MMTS, SRG, SNOWBOARD",,,WFO CHS,,,,,,,,,,,,,,,,,,,,,,,,,,,30.19,74,86,0,,,,67,30.18,,,9.94,,170,,15,,,,,,,,,,,,,,,,,,,,,,,,,,,,,,,,,,,,,MET077KCHS 152156Z 17013KT 10SM FEW038 BKN250 30/23 A3019 RMK AO2 SLP221 T03000233;,,,,,,,,,,,,,,,,,,,,,,,,,,,,
72208013880,2002-08-16T14:00:00,FM-15,C,,SE,0.25,mi,"TEMP, PRECIP, SNOW",,,"MMTS, SRG, SNOWBOARD",,,WFO CHS,,,,,,,,,,,,,,,,,,,,,,,,,,,30.23,72,91,0,,,,54,30.23,,,9.94,,170,,12,,,,,,,,,,,,,,,,,,,,,,,,,,,,,,,,,,,,,MET090KCHS 161856Z 17010KT 10SM SCT045 SCT250 33/22 A3023 RMK AO2 SLP237 CB DSNT N-NE T03280222;,,,,,,,,,,,,,,,,,,,,,,,,,,,,
72208013880,2002-08-16T16:00:00,FM-15,C,,SE,0.25,mi,"TEMP, PRECIP, SNOW",,,"MMTS, SRG, SNOWBOARD",,,WFO CHS,,,,,,,,,,,,,,,,,,,,,,,,,,,30.22,72,89,0,,0.04,6,57,30.22,,,9.94,,170,,14,,,,,,,,,,,,,,,,,,,,,,,,,,,,,,,,,,,,,MET083KCHS 162056Z 17012KT 10SM FEW045 BKN250 32/22 A3022 RMK AO2 SLP232 T03170222 56013;,,,,,,,,,,,,,,,,,,,,,,,,,,,,
72208013880,2002-08-16T17:00:00,FM-15,C,,SE,0.25,mi,"TEMP, PRECIP, SNOW",,,"MMTS, SRG, SNOWBOARD",,,WFO CHS,,,,,,,,,,,,,,,,,,,,,,,,,,,30.21,72,86,0,,,,63,30.21,,,9.94,,160,,14,,,,,,,,,,,,,,,,,,,,,,,,,,,,,,,,,,,,,MET070KCHS 162156Z 16012KT 10SM OVC250 30/22 A3021 RMK AO2 SLP230 T03000222;,,,,,,,,,,,,,,,,,,,,,,,,,,,,
72208013880,2002-08-17T12:37:00,FM-16,4,,SE,0.25,mi,"TEMP, PRECIP, SNOW",,,"MMTS, SRG, SNOWBOARD",,,WFO CHS,,,,,,,,,,,,,,,,,,,,,,,,,,,30.18,75,86,,,,,70,,39,,10,,160,,10,,,,,,,,,,,,,,,,,,,,,,,,,,,,,,,,,,,,,MET111KCHS 171737Z 16009KT 10SM FEW027 SCT040TCU BKN150 30/24 A3018 RMK AO2 WSHFT 1718 RAB22E32 TCU NE-SE VCSH P0000;,,,,,,,,,,,,,,,,,,,,,,,,,,,,
72208013880,2002-08-17T12:56:00,FM-15,4,,SE,0.25,mi,"TEMP, PRECIP, SNOW",,,"MMTS, SRG, SNOWBOARD",,,WFO CHS,,,,,,,,,,,,,,,,,,,,,,,,,,,30.16,77,90,T,,0.05,8,66,30.16,39,,10,,170,,9,,,,,,,,,,,,,,,,,,,,,,,,,,,,,,,,,,,,,MET143KCHS 171756Z 17008KT 10SM FEW030 SCT040TCU SCT150 32/25 A3016 RMK AO2 WSHFT 1718 RAB22E32 SLP213 TCU E P0000 60000 T03170250 10328 20256 58016;,,,,,,,,,,,,,,,,,,,,,,,,,,,,
72208013880,2002-08-17T13:00:00,SY-MT,C,,SE,0.25,mi,"TEMP, PRECIP, SNOW",,,"MMTS, SRG, SNOWBOARD",,,WFO CHS,,,,,,,,,,,,,,,,,,,,,,,,,,,30.16,77,89,T,,0.05,8,68,30.16,,30.11,9.94,80,170,,9,,,,,,,,,,,,,,,,,,,,,,,,,,,,,,,,,,,,,SYN098AAXX  17184 72208 12566 41708 10317 20250 30197 40213 58016 69901 91756 333 10328 20256 555 91718;,,,,,,,,,,,,,,,,,,,,,,,,,,,,
72208013880,2002-08-18T14:00:00,FM-15,C,,SE,0.25,mi,"TEMP, PRECIP, SNOW",,,"MMTS, SRG, SNOWBOARD",,,WFO CHS,,,,,,,,,,,,,,,,,,,,,,,,,,,30,76,91,0,,,,61,30,30,,9.94,,170,,8,,,,,,,,,,,,,,,,,,,,,,,,,,,,,,,,,,,,,MET095KCHS 181856Z 17007KT 10SM SCT030TCU BKN250 33/24 A3000 RMK AO2 SLP158 TCU N-SW MOV E T03280244;,,,,,,,,,,,,,,,,,,,,,,,,,,,,
72208013880,2002-08-18T15:00:00,FM-15,C,,SE,0.25,mi,"TEMP, PRECIP, SNOW",,,"MMTS, SRG, SNOWBOARD",,,WFO CHS,,,,,,,,,,,,,,,,,,,,,,,,,,,29.98,77,89,0,,,,68,29.98,44,,9.94,,170,,14,,,,,,,,,,,,,,,,,,,,,,,,,,,,,,,,,,,,,MET103KCHS 181956Z 17012KT 10SM SCT045TCU BKN060 BKN250 32/25 A2998 RMK AO2 SLP151 TCU ALQDS MOV E T03170250;,,,,,,,,,,,,,,,,,,,,,,,,,,,,
72208013880,2002-08-20T14:00:00,FM-15,C,,SE,0.25,mi,"TEMP, PRECIP, SNOW",,,"MMTS, SRG, SNOWBOARD",,,WFO CHS,,,,,,,,,,,,,,,,,,,,,,,,,,,30,76,89,0,,,,65,29.99,,,9.94,,170,,12,,,,,,,,,,,,,,,,,,,,,,,,,,,,,,,,,,,,,MET077KCHS 201856Z 17010KT 10SM SCT033 SCT180 32/24 A3000 RMK AO2 SLP157 T03170244;,,,,,,,,,,,,,,,,,,,,,,,,,,,,
72208013880,2002-08-22T15:33:00,FM-16,4,,SE,0.25,mi,"TEMP, PRECIP, SNOW",,,"MMTS, SRG, SNOWBOARD",,,WFO CHS,,,,,,,,,,,,,,,,,,,,,,,,,,,30.15,73,75,0.16,||RA,,,94,,,,3,,150,,9,,,,,,,,,,,,,,,,,,,,,,,,,,,,,,,,,,,,,MET107KCHS 222033Z 15008KT 3SM -RA BR BKN022 BKN041 OVC055 24/23 A3015 RMK AO2 PK WND 09031/1957 TWR VIS 4 P0016;,,,,,,,,,,,,,,,,,,,,,,,,,,,,
72208013880,2002-08-22T17:00:00,FM-15,C,,SE,0.25,mi,"TEMP, PRECIP, SNOW",,,"MMTS, SRG, SNOWBOARD",,,WFO CHS,,,,,,,,,,,,,,,,,,,,,,,,,,,30.13,75,84,0,,,,74,30.12,,,9.94,,170,,7,,,,,,,,,,,,,,,,,,,,,,,,,,,,,,,,,,,,,MET083KCHS 222156Z 1700KT 10SM FEW030 SCT100 BKN150 29/24 A3013 RMK AO2 SLP201 T02890239;,,,,,,,,,,,,,,,,,,,,,,,,,,,,
72208013880,2002-08-26T14:24:00,FM-16,4,,SE,0.25,mi,"TEMP, PRECIP, SNOW",,,"MMTS, SRG, SNOWBOARD",,,WFO CHS,,,,,,,,,,,,,,,,,,,,,,,,,,,29.87,73,84,,||TS,,,70,,23,,10,,160,,11,,,,,,,,,,,,,,,,,,,,,,,,,,,,,,,,,,,,,MET104KCHS 261924Z 16010KT 10SM VCTS BKN023TCU 29/23 A2987 RMK AO2 TSB19 OCNL LTGIC VC TS SE MOV NE TCU ALQDS;,,,,,,,,,,,,,,,,,,,,,,,,,,,,
72208013880,2002-08-27T14:00:00,FM-15,C,,SE,0.25,mi,"TEMP, PRECIP, SNOW",,,"MMTS, SRG, SNOWBOARD",,,WFO CHS,,,,,,,,,,,,,,,,,,,,,,,,,,,29.97,74,81,T,,,,79,29.97,,,9.94,,170,,8,,,,,,,,,,,,,,,,,,,,,,,,,,,,,,,,,,,,,MET096KCHS 271856Z 17007KT 10SM FEW022 SCT090 OVC140 27/23 A2997 RMK AO2 RAE04 SLP148 P0000 T02720233;,,,,,,,,,,,,,,,,,,,,,,,,,,,,
72208013880,2002-08-29T11:15:00,FM-16,4,,SE,0.25,mi,"TEMP, PRECIP, SNOW",,,"MMTS, SRG, SNOWBOARD",,,WFO CHS,,,,,,,,,,,,,,,,,,,,,,,,,,,30.03,75,75,0.17,||RA,,,100,,,,1.75,,160,,8,,,,,,,,,,,,,,,,,,,,,,,,,,,,,,,,,,,,,MET093KCHS 291615Z 16007KT 130V200 1 3/4SM +RA BR FEW006 BKN011 OVC030 24/24 A3003 RMK AO2 P0017 /;,,,,,,,,,,,,,,,,,,,,,,,,,,,,
72208013880,2002-08-29T11:22:00,FM-16,4,,SE,0.25,mi,"TEMP, PRECIP, SNOW",,,"MMTS, SRG, SNOWBOARD",,,WFO CHS,,,,,,,,,,,,,,,,,,,,,,,,,,,30.03,75,75,0.21,||RA,,,100,,,,1.75,,150,,8,,,,,,,,,,,,,,,,,,,,,,,,,,,,,,,,,,,,,MET084KCHS 291622Z 15007KT 1 3/4SM RA BR SCT008 BKN016 OVC030 24/24 A3003 RMK AO2 P0021 /;,,,,,,,,,,,,,,,,,,,,,,,,,,,,
72208013880,2002-08-29T11:24:00,FM-16,4,,SE,0.25,mi,"TEMP, PRECIP, SNOW",,,"MMTS, SRG, SNOWBOARD",,,WFO CHS,,,,,,,,,,,,,,,,,,,,,,,,,,,30.03,75,75,0.21,||RA,,,100,,,,3,,160,,9,,,,,,,,,,,,,,,,,,,,,,,,,,,,,,,,,,,,,MET080KCHS 291624Z 16008KT 3SM RA BR SCT008 BKN016 OVC030 24/24 A3003 RMK AO2 P0021 /;,,,,,,,,,,,,,,,,,,,,,,,,,,,,
72208013880,2002-09-05T15:00:00,FM-15,C,,SE,0.25,mi,"TEMP, PRECIP, SNOW",,,"MMTS, SRG, SNOWBOARD",,,WFO CHS,,,,,,,,,,,,,,,,,,,,,,,,,,,29.97,75,86,0,,,,70,29.97,37,,9.94,,160,,9,,,,,,,,,,,,,,,,,,,,,,,,,,,,,,,,,,,,,MET104KCHS 051956Z 16008KT 10SM SCT038TCU SCT046 BKN250 30/24 A2997 RMK AO2 SLP149 VCSH W TCU W-N-E T03000239;,,,,,,,,,,,,,,,,,,,,,,,,,,,,
72208013880,2002-09-13T12:00:00,FM-15,C,,SE,0.25,mi,"TEMP, PRECIP, SNOW",,,"MMTS, SRG, SNOWBOARD",,,WFO CHS,,,,,,,,,,,,,,,,,,,,,,,,,,,30.08,72,87,0,,,,61,30.08,,,9.94,,160,,12,,,,,,,,,,,,,,,,,,,,,,,,,,,,,,,,,,,,,MET070KCHS 131656Z 16010KT 10SM SCT034 31/22 A3008 RMK AO2 SLP186 T03060222;,,,,,,,,,,,,,,,,,,,,,,,,,,,,
72208013880,2002-09-13T12:56:00,FM-15,4,,SE,0.25,mi,"TEMP, PRECIP, SNOW",,,"MMTS, SRG, SNOWBOARD",,,WFO CHS,,,,,,,,,,,,,,,,,,,,,,,,,,,30.07,72,88,,,0.03,8,59,30.06,,,10,,150,19,13,,,,,,,,,,,,,,,,,,,,,,,,,,,,,,,,,,,,,MET098KCHS 131756Z 15011G17KT 10SM SCT035 SCT250 31/22 A3007 RMK AO2 SLP181 T03060222 10311 20239 58009;,,,,,,,,,,,,,,,,,,,,,,,,,,,,
72208013880,2002-09-13T13:00:00,SY-MT,C,,SE,0.25,mi,"TEMP, PRECIP, SNOW",,,"MMTS, SRG, SNOWBOARD",,,WFO CHS,,,,,,,,,,,,,,,,,,,,,,,,,,,30.07,72,87,0,,0.03,8,61,30.06,,30.02,9.94,77,150,,13,,,,,,,,,,,,,,,,,,,,,,,,,,,,,,,,,,,,,SYN098AAXX  13184 72208 32666 41511 10306 20222 30167 40181 58009 91756 333 10311 20239 91017 555 91318;,,,,,,,,,,,,,,,,,,,,,,,,,,,,
72208013880,2002-09-13T16:00:00,FM-15,C,,SE,0.25,mi,"TEMP, PRECIP, SNOW",,,"MMTS, SRG, SNOWBOARD",,,WFO CHS,,,,,,,,,,,,,,,,,,,,,,,,,,,30.04,73,84,0,,0.03,8,70,30.04,,,9.94,,150,,10,,,,,,,,,,,,,,,,,,,,,,,,,,,,,,,,,,,,,MET083KCHS 132056Z 15009KT 10SM SCT035 BKN250 29/23 A3004 RMK AO2 SLP172 T02890228 58009;,,,,,,,,,,,,,,,,,,,,,,,,,,,,
72208013880,2002-09-14T11:00:00,FM-15,C,,SE,0.25,mi,"TEMP, PRECIP, SNOW",,,"MMTS, SRG, SNOWBOARD",,,WFO CHS,,,,,,,,,,,,,,,,,,,,,,,,,,,30.14,75,85,T,,,,72,30.14,25,,9.94,,170,,10,,,,,,,,,,,,,,,,,,,,,,,,,,,,,,,,,,,,,MET112KCHS 141556Z 17009KT 10SM SCT025TCU SCT120 BKN250 29/24 A3014 RMK AO2 RAB14E26 SLP206 TCU ALQDS P0000 T02940239;,,,,,,,,,,,,,,,,,,,,,,,,,,,,
72208013880,2002-09-14T12:56:00,FM-15,4,,SE,0.25,mi,"TEMP, PRECIP, SNOW",,,"MMTS, SRG, SNOWBOARD",,,WFO CHS,,,,,,,,,,,,,,,,,,,,,,,,,,,30.12,73,88,,,0.04,8,62,30.11,,,10,,160,,16,,,,,,,,,,,,,,,,,,,,,,,,,,,,,,,,,,,,,MET129KCHS 141756Z 16014KT 10SM SCT032 BKN150 BKN250 31/23 A3012 RMK AO2 SLP198 TCU DSNT N-NE MOV NE 60000 T03110228 10317 20244 58012;,,,,,,,,,,,,,,,,,,,,,,,,,,,,
72208013880,2002-09-14T13:00:00,SY-MT,C,,SE,0.25,mi,"TEMP, PRECIP, SNOW",,,"MMTS, SRG, SNOWBOARD",,,WFO CHS,,,,,,,,,,,,,,,,,,,,,,,,,,,30.12,73,88,0,,0.04,8,61,30.11,,30.07,9.94,77,160,,16,,,,,,,,,,,,,,,,,,,,,,,,,,,,,,,,,,,,,SYN098AAXX  14184 72208 12566 61614 10311 20228 30184 40198 58012 69901 91756 333 10317 20244 555 91418;,,,,,,,,,,,,,,,,,,,,,,,,,,,,
72208013880,2002-09-14T15:00:00,FM-15,C,,SE,0.25,mi,"TEMP, PRECIP, SNOW",,,"MMTS, SRG, SNOWBOARD",,,WFO CHS,,,,,,,,,,,,,,,,,,,,,,,,,,,30.11,74,85,0,,,,70,30.1,28,,9.94,,160,,13,,,,,,,,,,,,,,,,,,,,,,,,,,,,,,,,,,,,,MET103KCHS 141956Z 16011KT 10SM SCT028TCU BKN120 BKN250 29/23 A3011 RMK AO2 SLP194 TCU ALQDS MOV N T02940233;,,,,,,,,,,,,,,,,,,,,,,,,,,,,
72208013880,2002-09-14T17:00:00,FM-15,C,,SE,0.25,mi,"TEMP, PRECIP, SNOW",,,"MMTS, SRG, SNOWBOARD",,,WFO CHS,,,,,,,,,,,,,,,,,,,,,,,,,,,30.11,73,83,0,,,,72,30.11,,,9.94,,160,,12,,,,,,,,,,,,,,,,,,,,,,,,,,,,,,,,,,,,,MET084KCHS 142156Z 16010KT 10SM FEW025 BKN120 OVC250 28/23 A3011 RMK AO2 SLP195 T02830228;,,,,,,,,,,,,,,,,,,,,,,,,,,,,
72208013880,2002-09-15T11:00:00,FM-15,C,,SE,0.25,mi,"TEMP, PRECIP, SNOW",,,"MMTS, SRG, SNOWBOARD",,,WFO CHS,,,,,,,,,,,,,,,,,,,,,,,,,,,30.15,75,81,T,||RA,,,82,30.14,,,7.95,,160,,10,,,,,,,,,,,,,,,,,,,,,,,,,,,,,,,,,,,,,MET111KCHS 151556Z 16009KT 8SM -RA FEW023 BKN037 OVC250 27/24 A3015 RMK AO2 RAB42 SLP208 CB SW MOV N P0000 T02720239;,,,,,,,,,,,,,,,,,,,,,,,,,,,,
72208013880,2002-09-15T13:17:00,FM-16,4,,SE,0.25,mi,"TEMP, PRECIP, SNOW",,,"MMTS, SRG, SNOWBOARD",,,WFO CHS,,,,,,,,,,,,,,,,,,,,,,,,,,,30.1,77,82,,,,,84,,,,8,,160,,9,,,,,,,,,,,,,,,,,,,,,,,,,,,,,,,,,,,,,MET059KCHS 151817Z 16008KT 8SM SCT015 BKN022 28/25 A3010 RMK AO2;,,,,,,,,,,,,,,,,,,,,,,,,,,,,
72208013880,2002-09-15T17:00:00,FM-15,C,,SE,0.25,mi,"TEMP, PRECIP, SNOW",,,"MMTS, SRG, SNOWBOARD",,,WFO CHS,,,,,,,,,,,,,,,,,,,,,,,,,,,30.07,72,75,0.64,||FG RA,,,90,30.06,,,5.97,,170,,8,,,,,,,,,,,,,,,,,,,,,,,,,,,,,,,,,,,,,MET095KCHS 152156Z 17007KT 6SM RA BR BKN018 BKN032 OVC080 24/22 A3007 RMK AO2 SLP181 P0064 T02390222;,,,,,,,,,,,,,,,,,,,,,,,,,,,,
72208013880,2002-09-17T15:00:00,FM-15,C,,SE,0.25,mi,"TEMP, PRECIP, SNOW",,,"MMTS, SRG, SNOWBOARD",,,WFO CHS,,,,,,,,,,,,,,,,,,,,,,,,,,,29.97,75,85,0,,,,72,29.97,,,9.94,,160,,7,,,,,,,,,,,,,,,,,,,,,,,,,,,,,,,,,,,,,MET088KCHS 171956Z COR 16006KT 10SM FEW030 BKN037 BKN050 29/24 A2997 RMK AO2 SLP148 T02940239;,,,,,,,,,,,,,,,,,,,,,,,,,,,,
72208013880,2002-09-18T14:00:00,FM-15,C,,SE,0.25,mi,"TEMP, PRECIP, SNOW",,,"MMTS, SRG, SNOWBOARD",,,WFO CHS,,,,,,,,,,,,,,,,,,,,,,,,,,,29.97,72,85,0,,,,65,29.97,,,9.94,,160,,9,,,,,,,,,,,,,,,,,,,,,,,,,,,,,,,,,,,,,MET077KCHS 181856Z 16008KT 10SM SCT033 OVC150 29/22 A2997 RMK AO2 SLP148 T02940222;,,,,,,,,,,,,,,,,,,,,,,,,,,,,
72208013880,2002-09-18T15:00:00,FM-15,C,,SE,0.25,mi,"TEMP, PRECIP, SNOW",,,"MMTS, SRG, SNOWBOARD",,,WFO CHS,,,,,,,,,,,,,,,,,,,,,,,,,,,29.97,74,83,T,,,,74,29.96,,,8.95,,150,,9,,,,,,,,,,,,,,,,,,,,,,,,,,,,,,,,,,,,,MET098KCHS 181956Z 15008KT 9SM SCT035 BKN150 OVC250 28/23 A2997 RMK AO2 RAB10E55 SLP147 P0000 T02830233;,,,,,,,,,,,,,,,,,,,,,,,,,,,,
72208013880,2002-09-23T12:00:00,FM-15,C,,SE,0.25,mi,"TEMP, PRECIP, SNOW",,,"MMTS, SRG, SNOWBOARD",,,WFO CHS,,,,,,,,,,,,,,,,,,,,,,,,,,,30,73,78,T,||RA,,,85,29.99,,,9.94,,150,,13,,,,,,,,,,,,,,,,,,,,,,,,,,,,,,,,,,,,,MET100KCHS 231656Z 15011KT 10SM -RA BKN025 BKN035 OVC250 26/23 A3000 RMK AO2 RAB43 SLP157 P0000 T02560228;,,,,,,,,,,,,,,,,,,,,,,,,,,,,
72208013880,2002-09-23T12:43:00,FM-16,4,,SE,0.25,mi,"TEMP, PRECIP, SNOW",,,"MMTS, SRG, SNOWBOARD",,,WFO CHS,,,,,,,,,,,,,,,,,,,,,,,,,,,29.98,72,79,T,,,,79,,22,,10,,150,,8,,,,,,,,,,,,,,,,,,,,,,,,,,,,,,,,,,,,,MET101KCHS 231743Z 15007KT 10SM SCT022TCU BKN080 BKN100 26/22 A2998 RMK AO2 RAE03 TCU N-NE DSNT S-SW P0000;,,,,,,,,,,,,,,,,,,,,,,,,,,,,
72208013880,2002-09-26T11:00:00,FM-15,C,,SE,0.25,mi,"TEMP, PRECIP, SNOW",,,"MMTS, SRG, SNOWBOARD",,,WFO CHS,,,,,,,,,,,,,,,,,,,,,,,,,,,29.9,76,84,0,,,,77,29.9,,,9.94,,150,,17,,,,,,,,,,,,,,,,,,,,,,,,,,,,,,,,,,,,,MET079KCHS 261556Z 15015KT 10SM BKN019 BKN250 29/24 A2990 RMK AO2 SLP126 T02890244 /;,,,,,,,,,,,,,,,,,,,,,,,,,,,,
72208013880,2002-09-26T12:56:00,FM-15,4,,SE,0.25,mi,"TEMP, PRECIP, SNOW",,,"MMTS, SRG, SNOWBOARD",,,WFO CHS,,,,,,,,,,,,,,,,,,,,,,,,,,,29.87,75,84,,,0.05,8,74,29.87,,,10,,150,24,14,,,,,,,,,,,,,,,,,,,,,,,,,,,,,,,,,,,,,MET106KCHS 261756Z 15012G21KT 10SM BKN023 BKN250 29/24 A2987 RMK AO2 SLP114 60008 T02890239 10294 20244 58016 /;,,,,,,,,,,,,,,,,,,,,,,,,,,,,
72208013880,2002-09-26T13:00:00,SY-MT,C,,SE,0.25,mi,"TEMP, PRECIP, SNOW",,,"MMTS, SRG, SNOWBOARD",,,WFO CHS,,,,,,,,,,,,,,,,,,,,,,,,,,,29.87,75,84,0,,0.05,8,74,29.87,,29.82,9.94,78,150,,14,,,,,,,,,,,,,,,,,,,,,,,,,,,,,,,,,,,,,SYN104AAXX  26184 72208 12566 61512 10289 20239 30099 40114 58016 60021 91756 333 10294 20233 91021 555 92618;,,,,,,,,,,,,,,,,,,,,,,,,,,,,
72208013880,2002-09-26T16:00:00,FM-15,C,,SE,0.25,mi,"TEMP, PRECIP, SNOW",,,"MMTS, SRG, SNOWBOARD",,,WFO CHS,,,,,,,,,,,,,,,,,,,,,,,,,,,29.83,75,83,0,,0.04,6,77,29.83,,,9.94,,160,,17,,,,,,,,,,,,,,,,,,,,,,,,,,,,,,,,,,,,,MET085KCHS 262056Z 16015KT 10SM BKN021 OVC250 28/24 A2983 RMK AO2 SLP100 T02830239 56014 /;,,,,,,,,,,,,,,,,,,,,,,,,,,,,
72208013880,2002-09-26T17:00:00,FM-15,C,,SE,0.25,mi,"TEMP, PRECIP, SNOW",,,"MMTS, SRG, SNOWBOARD",,,WFO CHS,,,,,,,,,,,,,,,,,,,,,,,,,,,29.83,75,82,0,,,,79,29.83,,,9.94,,160,,15,,,,,,,,,,,,,,,,,,,,,,,,,,,,,,,,,,,,,MET072KCHS 262156Z 16013KT 10SM OVC021 28/24 A2983 RMK AO2 SLP100 T02780239 /;,,,,,,,,,,,,,,,,,,,,,,,,,,,,
72208013880,2002-10-02T15:00:00,FM-15,C,,SE,0.25,mi,"TEMP, PRECIP, SNOW",,,"MMTS, SRG, SNOWBOARD",,,WFO CHS,,,,,,,,,,,,,,,,,,,,,,,,,,,30.09,70,85,0,,,,61,30.09,,,9.94,,160,,8,,,,,,,,,,,,,,,,,,,,,,,,,,,,,,,,,,,,,MET070KCHS 021956Z 16007KT 10SM SCT046 29/21 A3009 RMK AO2 SLP189 T02940211;,,,,,,,,,,,,,,,,,,,,,,,,,,,,
72208013880,2002-10-02T16:00:00,FM-15,C,,SE,0.25,mi,"TEMP, PRECIP, SNOW",,,"MMTS, SRG, SNOWBOARD",,,WFO CHS,,,,,,,,,,,,,,,,,,,,,,,,,,,30.09,69,84,0,,0.03,6,61,30.08,,,9.94,,170,,8,,,,,,,,,,,,,,,,,,,,,,,,,,,,,,,,,,,,,MET076KCHS 022056Z 17007KT 10SM FEW045 29/21 A3009 RMK AO2 SLP187 T02890206 56010;,,,,,,,,,,,,,,,,,,,,,,,,,,,,
72208013880,2002-10-02T17:00:00,FM-15,C,,SE,0.25,mi,"TEMP, PRECIP, SNOW",,,"MMTS, SRG, SNOWBOARD",,,WFO CHS,,,,,,,,,,,,,,,,,,,,,,,,,,,30.09,68,82,0,,,,63,30.08,,,9.94,,160,,7,,,,,,,,,,,,,,,,,,,,,,,,,,,,,,,,,,,,,MET070KCHS 022156Z 16006KT 10SM FEW035 28/20 A3009 RMK AO2 SLP187 T02780200;,,,,,,,,,,,,,,,,,,,,,,,,,,,,
72208013880,2002-10-04T15:00:00,FM-15,C,,SE,0.25,mi,"TEMP, PRECIP, SNOW",,,"MMTS, SRG, SNOWBOARD",,,WFO CHS,,,,,,,,,,,,,,,,,,,,,,,,,,,30,71,85,0,,,,63,29.99,,,9.94,,150,,12,,,,,,,,,,,,,,,,,,,,,,,,,,,,,,,,,,,,,MET070KCHS 041956Z 15010KT 10SM FEW040 29/22 A3000 RMK AO2 SLP157 T02940217;,,,,,,,,,,,,,,,,,,,,,,,,,,,,
72208013880,2002-10-04T16:00:00,FM-15,C,,SE,0.25,mi,"TEMP, PRECIP, SNOW",,,"MMTS, SRG, SNOWBOARD",,,WFO CHS,,,,,,,,,,,,,,,,,,,,,,,,,,,29.99,70,85,0,,0.03,6,61,29.98,,,9.94,,160,,7,,,,,,,,,,,,,,,,,,,,,,,,,,,,,,,,,,,,,MET083KCHS 042056Z 16006KT 10SM FEW040 SCT250 29/21 A2999 RMK AO2 SLP154 T02940211 56010;,,,,,,,,,,,,,,,,,,,,,,,,,,,,
72208013880,2002-10-04T17:00:00,FM-15,C,,SE,0.25,mi,"TEMP, PRECIP, SNOW",,,"MMTS, SRG, SNOWBOARD",,,WFO CHS,,,,,,,,,,,,,,,,,,,,,,,,,,,29.99,71,82,0,,,,69,29.98,,,9.94,,170,,8,,,,,,,,,,,,,,,,,,,,,,,,,,,,,,,,,,,,,MET077KCHS 042156Z 17007KT 10SM FEW040 SCT250 28/22 A2999 RMK AO2 SLP154 T02780217;,,,,,,,,,,,,,,,,,,,,,,,,,,,,
72208013880,2002-10-07T16:00:00,FM-15,C,,SE,0.25,mi,"TEMP, PRECIP, SNOW",,,"MMTS, SRG, SNOWBOARD",,,WFO CHS,,,,,,,,,,,,,,,,,,,,,,,,,,,29.92,74,85,0,,0.04,6,70,29.92,,,6.96,,150,,8,,,,,,,,,,,,,,,,,,,,,,,,,,,,,,,,,,,,,MET075KCHS 072056Z 15007KT 7SM SCT048 29/23 A2992 RMK AO2 SLP131 T02940233 56013;,,,,,,,,,,,,,,,,,,,,,,,,,,,,
72208013880,2002-10-07T17:00:00,FM-15,C,,SE,0.25,mi,"TEMP, PRECIP, SNOW",,,"MMTS, SRG, SNOWBOARD",,,WFO CHS,,,,,,,,,,,,,,,,,,,,,,,,,,,29.92,74,81,T,||HZ,,,79,29.92,,,5.97,,160,,7,,,,,,,,,,,,,,,,,,,,,,,,,,,,,,,,,,,,,MET101KCHS 072156Z 16006KT 6SM HZ FEW029 SCT044 SCT110 27/23 A2992 RMK AO2 RAB35E45 SLP131 P0000 T02720233;,,,,,,,,,,,,,,,,,,,,,,,,,,,,
72208013880,2002-10-27T15:00:00,FM-15,C,,SE,0.25,mi,"TEMP, PRECIP, SNOW",,,"MMTS, SRG, SNOWBOARD",,,WFO CHS,,,,,,,,,,,,,,,,,,,,,,,,,,,30.06,63,78,0,,,,60,30.06,,,9.94,,170,,10,,,,,,,,,,,,,,,,,,,,,,,,,,,,,,,,,,,,,MET084KCHS 271956Z 17009KT 10SM FEW032 SCT150 SCT250 26/17 A3006 RMK AO2 SLP179 T02560172;,,,,,,,,,,,,,,,,,,,,,,,,,,,,
72208013880,2002-10-27T17:00:00,FM-15,C,,SE,0.25,mi,"TEMP, PRECIP, SNOW",,,"MMTS, SRG, SNOWBOARD",,,WFO CHS,,,,,,,,,,,,,,,,,,,,,,,,,,,30.08,64,74,0,,,,71,30.07,,,9.94,,160,,8,,,,,,,,,,,,,,,,,,,,,,,,,,,,,,,,,,,,,MET084KCHS 272156Z 16007KT 10SM FEW034 SCT180 OVC250 23/18 A3008 RMK AO2 SLP183 T02330178;,,,,,,,,,,,,,,,,,,,,,,,,,,,,
72208013880,2002-11-03T17:00:00,FM-15,C,,SE,0.25,mi,"TEMP, PRECIP, SNOW",,,"MMTS, SRG, SNOWBOARD",,,WFO CHS,,,,,,,,,,,,,,,,,,,,,,,,,,,30.13,45,62,0,,,,54,30.13,,,9.94,,160,,7,,,,,,,,,,,,,,,,,,,,,,,,,,,,,,,,,,,,,MET077KCHS 032156Z 16006KT 10SM BKN150 BKN250 17/07 A3013 RMK AO2 SLP203 T01670072;,,,,,,,,,,,,,,,,,,,,,,,,,,,,
72208013880,2002-11-08T16:00:00,FM-15,C,,SE,0.25,mi,"TEMP, PRECIP, SNOW",,,"MMTS, SRG, SNOWBOARD",,,WFO CHS,,,,,,,,,,,,,,,,,,,,,,,,,,,30.23,50,67,0,,0.04,6,55,30.23,,,9.94,,150,,8,,,,,,,,,,,,,,,,,,,,,,,,,,,,,,,,,,,,,MET076KCHS 082056Z 15007KT 10SM FEW250 19/10 A3023 RMK AO2 SLP236 T01940100 56014;,,,,,,,,,,,,,,,,,,,,,,,,,,,,
72208013880,2002-11-08T17:00:00,FM-15,C,,SE,0.25,mi,"TEMP, PRECIP, SNOW",,,"MMTS, SRG, SNOWBOARD",,,WFO CHS,,,,,,,,,,,,,,,,,,,,,,,,,,,30.23,51,63,0,,,,65,30.23,,,9.94,,150,,7,,,,,,,,,,,,,,,,,,,,,,,,,,,,,,,,,,,,,MET070KCHS 082156Z 15006KT 10SM FEW250 17/11 A3023 RMK AO2 SLP237 T01720106;,,,,,,,,,,,,,,,,,,,,,,,,,,,,
72208013880,2002-11-09T15:00:00,FM-15,C,,SE,0.25,mi,"TEMP, PRECIP, SNOW",,,"MMTS, SRG, SNOWBOARD",,,WFO CHS,,,,,,,,,,,,,,,,,,,,,,,,,,,30.09,57,73,0,,,,57,30.09,,,9.94,,160,,8,,,,,,,,,,,,,,,,,,,,,,,,,,,,,,,,,,,,,MET077KCHS 091956Z 16007KT 10SM BKN150 OVC250 23/14 A3009 RMK AO2 SLP189 T02280139;,,,,,,,,,,,,,,,,,,,,,,,,,,,,
72208013880,2002-11-09T16:00:00,FM-15,C,,SE,0.25,mi,"TEMP, PRECIP, SNOW",,,"MMTS, SRG, SNOWBOARD",,,WFO CHS,,,,,,,,,,,,,,,,,,,,,,,,,,,30.09,56,71,0,,0.05,5,59,30.09,,,9.94,,160,,7,,,,,,,,,,,,,,,,,,,,,,,,,,,,,,,,,,,,,MET083KCHS 092056Z 16006KT 10SM SCT055 OVC250 22/13 A3009 RMK AO2 SLP190 T02170133 55017;,,,,,,,,,,,,,,,,,,,,,,,,,,,,
72208013880,2002-11-10T11:46:00,FM-16,4,,SE,0.25,mi,"TEMP, PRECIP, SNOW",,,"MMTS, SRG, SNOWBOARD",,,WFO CHS,,,,,,,,,,,,,,,,,,,,,,,,,,,29.98,66,68,0.55,||SHRA TS,,,94,,,,2,,170,,8,,,,,,,,,,,,,,,,,,,,,,,,,,,,,,,,,,,,,MET107KCHS 101646Z 17007KT 2SM +TSRA BR FEW004 OVC026 20/19 A2998 RMK AO2 PRESFR FRQ LTGCGIC TS OHD MOV NE P0055;,,,,,,,,,,,,,,,,,,,,,,,,,,,,
72208013880,2002-11-10T12:00:00,FM-15,C,,SE,0.25,mi,"TEMP, PRECIP, SNOW",,,"MMTS, SRG, SNOWBOARD",,,WFO CHS,,,,,,,,,,,,,,,,,,,,,,,,,,,29.97,66,68,0.57,||FG SHRA,,,93,29.97,,,5.97,,160,,10,,,,,,,,,,,,,,,,,,,,,,,,,,,,,,,,,,,,,MET125KCHS 101656Z 16009KT 6SM -TSRA BR FEW004 BKN026 OVC250 20/19 A2997 RMK AO2 SLP149 OCNL LTGCGIC TS OHD MOV NE P0057 T02000189;,,,,,,,,,,,,,,,,,,,,,,,,,,,,
72208013880,2002-11-10T12:09:00,FM-16,4,,SE,0.25,mi,"TEMP, PRECIP, SNOW",,,"MMTS, SRG, SNOWBOARD",,,WFO CHS,,,,,,,,,,,,,,,,,,,,,,,,,,,29.96,66,68,T,||TS,,,94,,,,10,,160,,8,,,,,,,,,,,,,,,,,,,,,,,,,,,,,,,,,,,,,MET113SPECI KCHS 101709Z 16007KT 10SM TS SCT025 BKN065 BKN085 20/19 A2996 RMK AO2 RAE08 OCNL LTGIC TS N-S MOV NE P0000;,,,,,,,,,,,,,,,,,,,,,,,,,,,,
72208013880,2002-11-10T12:28:00,FM-16,4,,SE,0.25,mi,"TEMP, PRECIP, SNOW",,,"MMTS, SRG, SNOWBOARD",,,WFO CHS,,,,,,,,,,,,,,,,,,,,,,,,,,,29.95,66,72,T,,,,83,,49,,10,,170,,11,,,,,,,,,,,,,,,,,,,,,,,,,,,,,,,,,,,,,MET112KCHS 101728Z 17010KT 10SM FEW034 BKN050CB BKN070 22/19 A2995 RMK AO2 TSE23RAE08 TS MOVD NE CB NE-S MOV NE P0000;,,,,,,,,,,,,,,,,,,,,,,,,,,,,
72208013880,2002-11-11T17:00:00,FM-15,C,,SE,0.25,mi,"TEMP, PRECIP, SNOW",,,"MMTS, SRG, SNOWBOARD",,,WFO CHS,,,,,,,,,,,,,,,,,,,,,,,,,,,30,67,69,0.01,||RA,,,93,29.99,,,8.95,,160,,8,,,,,,,,,,,,,,,,,,,,,,,,,,,,,,,,,,,,,MET107KCHS 112156Z 16007KT 9SM -RA FEW042 SCT060 OVC250 21/19 A3000 RMK AO2 RAB2059E09B35 SLP157 P0001 T02060194;,,,,,,,,,,,,,,,,,,,,,,,,,,,,
72208013880,2002-11-14T17:00:00,FM-15,C,,SE,0.25,mi,"TEMP, PRECIP, SNOW",,,"MMTS, SRG, SNOWBOARD",,,WFO CHS,,,,,,,,,,,,,,,,,,,,,,,,,,,30.17,45,59,0,,,,60,30.16,,,9.94,,160,,7,,,,,,,,,,,,,,,,,,,,,,,,,,,,,,,,,,,,,MET067KCHS 142156Z 16006KT 10SM CLR 15/07 A3017 RMK AO2 SLP214 T01500072;,,,,,,,,,,,,,,,,,,,,,,,,,,,,
72208013880,2002-11-15T12:56:00,FM-15,4,,SE,0.25,mi,"TEMP, PRECIP, SNOW",,,"MMTS, SRG, SNOWBOARD",,,WFO CHS,,,,,,,,,,,,,,,,,,,,,,,,,,,30.03,57,73,,,0.07,8,57,30.02,,,10,,150,,9,,,,,,,,,,,,,,,,,,,,,,,,,,,,,,,,,,,,,MET102KCHS 151756Z 15008KT 10SM SCT035 BKN250 23/14 A3003 RMK AO2 SLP166 PRESFR T02280144 10228 20094 58024;,,,,,,,,,,,,,,,,,,,,,,,,,,,,
72208013880,2002-11-15T13:00:00,SY-MT,C,,SE,0.25,mi,"TEMP, PRECIP, SNOW",,,"MMTS, SRG, SNOWBOARD",,,WFO CHS,,,,,,,,,,,,,,,,,,,,,,,,,,,30.03,58,73,0,,0.07,8,59,30.02,,29.98,9.94,64,150,,9,,,,,,,,,,,,,,,,,,,,,,,,,,,,,,,,,,,,,SYN092AAXX  15184 72208 32666 61508 10228 20144 30153 40166 58024 91756 333 10228 20094 555 91518;,,,,,,,,,,,,,,,,,,,,,,,,,,,,
72208013880,2002-11-25T16:00:00,FM-15,C,,SE,0.25,mi,"TEMP, PRECIP, SNOW",,,"MMTS, SRG, SNOWBOARD",,,WFO CHS,,,,,,,,,,,,,,,,,,,,,,,,,,,30.1,53,68,0,,0.03,6,59,30.1,,,9.94,,170,,9,,,,,,,,,,,,,,,,,,,,,,,,,,,,,,,,,,,,,MET076KCHS 252056Z 17008KT 10SM SCT250 20/12 A3010 RMK AO2 SLP193 T02000117 56010;,,,,,,,,,,,,,,,,,,,,,,,,,,,,
72208013880,2002-11-25T17:00:00,FM-15,C,,SE,0.25,mi,"TEMP, PRECIP, SNOW",,,"MMTS, SRG, SNOWBOARD",,,WFO CHS,,,,,,,,,,,,,,,,,,,,,,,,,,,30.13,53,63,0,,,,70,30.12,,,9.94,,160,,10,,,,,,,,,,,,,,,,,,,,,,,,,,,,,,,,,,,,,MET070KCHS 252156Z 16009KT 10SM FEW100 17/12 A3013 RMK AO2 SLP201 T01720117;,,,,,,,,,,,,,,,,,,,,,,,,,,,,
72208013880,2002-11-26T15:00:00,FM-15,C,,SE,0.25,mi,"TEMP, PRECIP, SNOW",,,"MMTS, SRG, SNOWBOARD",,,WFO CHS,,,,,,,,,,,,,,,,,,,,,,,,,,,30.09,52,69,0,,,,55,30.08,,,9.94,,160,,12,,,,,,,,,,,,,,,,,,,,,,,,,,,,,,,,,,,,,MET077KCHS 261956Z 16010KT 10SM SCT043 BKN250 21/11 A3009 RMK AO2 SLP187 T02060111;,,,,,,,,,,,,,,,,,,,,,,,,,,,,
72208013880,2002-12-19T15:00:00,FM-15,C,,SE,0.25,mi,"TEMP, PRECIP, SNOW",,,"MMTS, SRG, SNOWBOARD",,,WFO CHS,,,,,,,,,,,,,,,,,,,,,,,,,,,30.04,62,66,0,,,,87,30.04,,,9.94,,150,,12,,,,,,,,,,,,,,,,,,,,,,,,,,,,,,,,,,,,,MET077KCHS 191956Z 15010KT 10SM SCT010 BKN080 19/17 A3004 RMK AO2 SLP172 T01890167;,,,,,,,,,,,,,,,,,,,,,,,,,,,,
72208013880,2002-12-19T15:05:00,FM-16,4,,SE,0.25,mi,"TEMP, PRECIP, SNOW",,,"MMTS, SRG, SNOWBOARD",,,WFO CHS,,,,,,,,,,,,,,,,,,,,,,,,,,,30.04,63,66,,,,,88,,,,10,,150,,10,,,,,,,,,,,,,,,,,,,,,,,,,,,,,,,,,,,,,MET067KCHS 192005Z 15009KT 10SM BKN008 BKN012 OVC085 19/17 A3004 RMK AO2;,,,,,,,,,,,,,,,,,,,,,,,,,,,,
72208013880,2002-12-19T15:07:00,FM-16,4,,SE,0.25,mi,"TEMP, PRECIP, SNOW",,,"MMTS, SRG, SNOWBOARD",,,WFO CHS,,,,,,,,,,,,,,,,,,,,,,,,,,,30.04,63,66,,,,,88,,,,10,,150,,10,,,,,,,,,,,,,,,,,,,,,,,,,,,,,,,,,,,,,MET060KCHS 192007Z 15009KT 10SM BKN010 BKN085 19/17 A3004 RMK AO2;,,,,,,,,,,,,,,,,,,,,,,,,,,,,
72208013880,2002-12-19T16:00:00,FM-15,C,,SE,0.25,mi,"TEMP, PRECIP, SNOW",,,"MMTS, SRG, SNOWBOARD",,,WFO CHS,,,,,,,,,,,,,,,,,,,,,,,,,,,30.03,62,65,0,,0.07,6,90,30.03,,,9.94,,160,,9,,,,,,,,,,,,,,,,,,,,,,,,,,,,,,,,,,,,,MET083KCHS 192056Z 16008KT 10SM FEW010 OVC095 18/17 A3003 RMK AO2 SLP168 T01830167 56024;,,,,,,,,,,,,,,,,,,,,,,,,,,,,
72208013880,2002-12-19T16:14:00,FM-16,4,,SE,0.25,mi,"TEMP, PRECIP, SNOW",,,"MMTS, SRG, SNOWBOARD",,,WFO CHS,,,,,,,,,,,,,,,,,,,,,,,,,,,30.03,61,66,,,,,83,,,,10,,170,,9,,,,,,,,,,,,,,,,,,,,,,,,,,,,,,,,,,,,,MET060KCHS 192114Z 17008KT 10SM SCT010 BKN095 19/16 A3003 RMK AO2;,,,,,,,,,,,,,,,,,,,,,,,,,,,,
72208013880,2002-12-19T17:00:00,FM-15,C,,SE,0.25,mi,"TEMP, PRECIP, SNOW",,,"MMTS, SRG, SNOWBOARD",,,WFO CHS,,,,,,,,,,,,,,,,,,,,,,,,,,,30.01,61,63,0,,,,93,30.01,,,9.94,,150,,9,,,,,,,,,,,,,,,,,,,,,,,,,,,,,,,,,,,,,MET070KCHS 192156Z 15008KT 10SM FEW010 17/16 A3001 RMK AO2 SLP162 T01720161;,,,,,,,,,,,,,,,,,,,,,,,,,,,,
72208013880,2002-12-23T16:00:00,FM-15,C,,SE,0.25,mi,"TEMP, PRECIP, SNOW",,,"MMTS, SRG, SNOWBOARD",,,WFO CHS,,,,,,,,,,,,,,,,,,,,,,,,,,,30.15,42,62,0,,0.04,6,48,30.14,,,9.94,,150,,9,,,,,,,,,,,,,,,,,,,,,,,,,,,,,,,,,,,,,MET076KCHS 232056Z 15008KT 10SM BKN250 17/06 A3015 RMK AO2 SLP207 T01670056 56015;,,,,,,,,,,,,,,,,,,,,,,,,,,,,
72208013880,2002-12-23T17:00:00,FM-15,C,,SE,0.25,mi,"TEMP, PRECIP, SNOW",,,"MMTS, SRG, SNOWBOARD",,,WFO CHS,,,,,,,,,,,,,,,,,,,,,,,,,,,30.14,40,56,0,,,,55,30.14,,,9.94,,160,,7,,,,,,,,,,,,,,,,,,,,,,,,,,,,,,,,,,,,,MET070KCHS 232156Z 16006KT 10SM BKN250 13/04 A3014 RMK AO2 SLP205 T01330044;,,,,,,,,,,,,,,,,,,,,,,,,,,,,
72208013880,2002-12-24T12:14:00,FM-16,4,,SE,0.25,mi,"TEMP, PRECIP, SNOW",,,"MMTS, SRG, SNOWBOARD",,,WFO CHS,,,,,,,,,,,,,,,,,,,,,,,,,,,29.7,61,63,0.06,||SHRA TS,,,94,,,,2,,150,,14,,,,,,,,,,,,,,,,,,,,,,,,,,,,,,,,,,,,,MET112KCHS 241714Z 15012KT 2SM TSRA BR BKN005 OVC013 17/16 A2970 RMK AO2 SFC VIS 4 TSB14 OCNL LTGIC TS W MOV NE P0006;,,,,,,,,,,,,,,,,,,,,,,,,,,,,
72208013880,2002-12-24T12:27:00,FM-16,4,,SE,0.25,mi,"TEMP, PRECIP, SNOW",,,"MMTS, SRG, SNOWBOARD",,,WFO CHS,,,,,,,,,,,,,,,,,,,,,,,,,,,29.7,63,63,0.23,||SHRA TS,,,100,,,,1.25,,170,,13,,,,,,,,,,,,,,,,,,,,,,,,,,,,,,,,,,,,,MET125KCHS 241727Z 17011KT 1SM TSRA BR OVC005 17/17 A2970 RMK AO2 SFC VIS 1 1/4 TSB14 CIG 003V009 OCNL LTGICCG TS OHD MOV NE P0023;,,,,,,,,,,,,,,,,,,,,,,,,,,,,
72208013880,2002-12-24T14:23:00,FM-16,4,,SE,0.25,mi,"TEMP, PRECIP, SNOW",,,"MMTS, SRG, SNOWBOARD",,,WFO CHS,,,,,,,,,,,,,,,,,,,,,,,,,,,29.66,61,61,0.07,||SHRA TS,,,100,,,,3,,150,,9,,,,,,,,,,,,,,,,,,,,,,,,,,,,,,,,,,,,,MET119KCHS 241923Z 15008KT 3SM -TSRA FEW012 OVC021 16/16 A2966 RMK AO2 SFC VIS 8 TSB18 PRESFR OCNL LTGICCG TS S MOV NE P0007;,,,,,,,,,,,,,,,,,,,,,,,,,,,,
72208013880,2002-12-24T14:43:00,FM-16,4,,SE,0.25,mi,"TEMP, PRECIP, SNOW",,,"MMTS, SRG, SNOWBOARD",,,WFO CHS,,,,,,,,,,,,,,,,,,,,,,,,,,,29.66,61,61,0.08,||RA,,,100,,,,3,,170,,7,,,,,,,,,,,,,,,,,,,,,,,,,,,,,,,,,,,,,MET113SPECI KCHS 241943Z 17006KT 3SM -RA FEW005 SCT012 OVC023 16/16 A2966 RMK AO2 SFC VIS 10 TSB18E43 TS MOVD NE P0008;,,,,,,,,,,,,,,,,,,,,,,,,,,,,
72208013880,2002-12-24T15:28:00,FM-16,4,,SE,0.25,mi,"TEMP, PRECIP, SNOW",,,"MMTS, SRG, SNOWBOARD",,,WFO CHS,,,,,,,,,,,,,,,,,,,,,,,,,,,29.64,61,61,T,,,,100,,,,10,,160,,8,,,,,,,,,,,,,,,,,,,,,,,,,,,,,,,,,,,,,MET089KCHS 242028Z 16007KT 10SM SCT005 BKN012 OVC020 16/16 A2964 RMK AO2 RAB08E18 PRESFR P0000;,,,,,,,,,,,,,,,,,,,,,,,,,,,,
72208013880,2002-12-31T14:00:00,FM-15,C,,SE,0.25,mi,"TEMP, PRECIP, SNOW",,,"MMTS, SRG, SNOWBOARD",,,WFO CHS,,,,,,,,,,,,,,,,,,,,,,,,,,,30.05,62,65,T,,,,90,30.04,,,9.94,,160,,9,,,,,,,,,,,,,,,,,,,,,,,,,,,,,,,,,,,,,MET099KCHS 311856Z 16008KT 10SM BKN055 BKN080 OVC130 18/17 A3005 RMK AO2 RAB16E34 SLP173 P0000 T01830167;,,,,,,,,,,,,,,,,,,,,,,,,,,,,
72208013880,2002-12-31T15:00:00,FM-15,C,,SE,0.25,mi,"TEMP, PRECIP, SNOW",,,"MMTS, SRG, SNOWBOARD",,,WFO CHS,,,,,,,,,,,,,,,,,,,,,,,,,,,30.02,62,66,0,,,,87,30.02,,,9.94,,150,,9,,,,,,,,,,,,,,,,,,,,,,,,,,,,,,,,,,,,,MET084KCHS 311956Z 15008KT 10SM SCT033 OVC070 19/17 A3002 RMK AO2 SLP166 PRESFR T01890167;,,,,,,,,,,,,,,,,,,,,,,,,,,,,
72208013880,2003-01-11T17:00:00,FM-15,C,,SE,0.25,mi,"TEMP, PRECIP, SNOW",,,"MMTS, SRG, SNOWBOARD",,,WFO CHS,,,,,,,,,,,,,,,,,,,,,,,,,,,30.11,31,49,0,,,,50,30.11,,,9.94,,160,,8,,,,,,,,,,,,,,,,,,,,,,,,,,,,,,,,,,,,,MET071KCHS 112156Z 16007KT 10SM BKN250 09/M01 A3011 RMK AO2 SLP195 T00941006;,,,,,,,,,,,,,,,,,,,,,,,,,,,,
72208013880,2003-01-14T16:00:00,FM-15,C,,SE,0.25,mi,"TEMP, PRECIP, SNOW",,,"MMTS, SRG, SNOWBOARD",,,WFO CHS,,,,,,,,,,,,,,,,,,,,,,,,,,,30.1,32,54,0,,0.04,6,43,30.09,,,9.94,,160,,10,,,,,,,,,,,,,,,,,,,,,,,,,,,,,,,,,,,,,MET086KCHS 142056Z 16009KT 10SM FEW020 12/00 A3010 RMK AO2 SLP191 FU FEW020 T01220000 56015;,,,,,,,,,,,,,,,,,,,,,,,,,,,,
72208013880,2003-01-14T17:00:00,FM-15,C,,SE,0.25,mi,"TEMP, PRECIP, SNOW",,,"MMTS, SRG, SNOWBOARD",,,WFO CHS,,,,,,,,,,,,,,,,,,,,,,,,,,,30.1,32,51,0,,,,48,30.1,,,9.94,,170,,9,,,,,,,,,,,,,,,,,,,,,,,,,,,,,,,,,,,,,MET077KCHS 142156Z 17008KT 10SM CLR 11/00 A3010 RMK AO2 SLP193 FU DSNT W T01060000;,,,,,,,,,,,,,,,,,,,,,,,,,,,,
72208013880,2003-01-16T14:00:00,FM-15,C,,SE,0.25,mi,"TEMP, PRECIP, SNOW",,,"MMTS, SRG, SNOWBOARD",,,WFO CHS,,,,,,,,,,,,,,,,,,,,,,,,,,,30.17,33,54,0,,,,45,30.17,,,9.94,,160,,13,,,,,,,,,,,,,,,,,,,,,,,,,,,,,,,,,,,,,MET077KCHS 161856Z 16011KT 10SM BKN039 12/01 A3017 RMK AO2 SLP216 PRESFR T01220006;,,,,,,,,,,,,,,,,,,,,,,,,,,,,
72208013880,2003-01-16T15:00:00,FM-15,C,,SE,0.25,mi,"TEMP, PRECIP, SNOW",,,"MMTS, SRG, SNOWBOARD",,,WFO CHS,,,,,,,,,,,,,,,,,,,,,,,,,,,30.15,36,54,0,,,,51,30.14,,,9.94,,150,,12,,,,,,,,,,,,,,,,,,,,,,,,,,,,,,,,,,,,,MET070KCHS 161956Z 15010KT 10SM BKN040 12/02 A3015 RMK AO2 SLP208 T01220022;,,,,,,,,,,,,,,,,,,,,,,,,,,,,
72208013880,2003-01-16T17:00:00,FM-15,C,,SE,0.25,mi,"TEMP, PRECIP, SNOW",,,"MMTS, SRG, SNOWBOARD",,,WFO CHS,,,,,,,,,,,,,,,,,,,,,,,,,,,30.07,41,53,0,,,,64,30.07,,,9.94,,150,,8,,,,,,,,,,,,,,,,,,,,,,,,,,,,,,,,,,,,,MET070KCHS 162156Z 15007KT 10SM SCT055 12/05 A3007 RMK AO2 SLP182 T01170050;,,,,,,,,,,,,,,,,,,,,,,,,,,,,
72208013880,2003-02-09T17:00:00,FM-15,C,,SE,0.25,mi,"TEMP, PRECIP, SNOW",,,"MMTS, SRG, SNOWBOARD",,,WFO CHS,,,,,,,,,,,,,,,,,,,,,,,,,,,30.1,33,55,0,,,,44,30.1,,,9.94,,150,,10,,,,,,,,,,,,,,,,,,,,,,,,,,,,,,,,,,,,,MET070KCHS 092156Z 15009KT 10SM FEW070 13/01 A3010 RMK AO2 SLP192 T01280006;,,,,,,,,,,,,,,,,,,,,,,,,,,,,
72208013880,2003-02-14T15:00:00,FM-15,C,,SE,0.25,mi,"TEMP, PRECIP, SNOW",,,"MMTS, SRG, SNOWBOARD",,,WFO CHS,,,,,,,,,,,,,,,,,,,,,,,,,,,30.21,29,58,0,,,,33,30.21,,,9.94,,170,,8,,,,,,,,,,,,,,,,,,,,,,,,,,,,,,,,,,,,,MET078KCHS 141956Z 17007KT 10SM BKN100 OVC140 14/M02 A3021 RMK AO2 SLP229 T01441017;,,,,,,,,,,,,,,,,,,,,,,,,,,,,
72208013880,2003-02-14T16:00:00,FM-15,C,,SE,0.25,mi,"TEMP, PRECIP, SNOW",,,"MMTS, SRG, SNOWBOARD",,,WFO CHS,,,,,,,,,,,,,,,,,,,,,,,,,,,30.2,30,59,0,,0.04,6,33,30.19,,,9.94,,160,,7,,,,,,,,,,,,,,,,,,,,,,,,,,,,,,,,,,,,,MET084KCHS 142056Z 16006KT 10SM SCT110 OVC150 15/M01 A3020 RMK AO2 SLP224 T01501011 56012;,,,,,,,,,,,,,,,,,,,,,,,,,,,,
72208013880,2003-02-14T17:00:00,FM-15,C,,SE,0.25,mi,"TEMP, PRECIP, SNOW",,,"MMTS, SRG, SNOWBOARD",,,WFO CHS,,,,,,,,,,,,,,,,,,,,,,,,,,,30.19,31,58,0,,,,36,30.19,,,9.94,,160,,8,,,,,,,,,,,,,,,,,,,,,,,,,,,,,,,,,,,,,MET071KCHS 142156Z 16007KT 10SM OVC120 14/M01 A3019 RMK AO2 SLP224 T01441006;,,,,,,,,,,,,,,,,,,,,,,,,,,,,
72208013880,2003-02-19T14:00:00,FM-15,C,,SE,0.25,mi,"TEMP, PRECIP, SNOW",,,"MMTS, SRG, SNOWBOARD",,,WFO CHS,,,,,,,,,,,,,,,,,,,,,,,,,,,30.26,48,62,0,,,,60,30.26,,,9.94,,170,,8,,,,,,,,,,,,,,,,,,,,,,,,,,,,,,,,,,,,,MET084KCHS 191856Z 17007KT 10SM SCT033 BKN200 BKN250 17/09 A3026 RMK AO2 SLP247 T01670089;,,,,,,,,,,,,,,,,,,,,,,,,,,,,
72208013880,2003-02-19T17:00:00,FM-15,C,,SE,0.25,mi,"TEMP, PRECIP, SNOW",,,"MMTS, SRG, SNOWBOARD",,,WFO CHS,,,,,,,,,,,,,,,,,,,,,,,,,,,30.24,50,59,0,,,,72,30.23,,,9.94,,150,,12,,,,,,,,,,,,,,,,,,,,,,,,,,,,,,,,,,,,,MET077KCHS 192156Z 15010KT 10SM SCT180 OVC250 15/10 A3024 RMK AO2 SLP238 T01500100;,,,,,,,,,,,,,,,,,,,,,,,,,,,,
72208013880,2003-03-03T15:00:00,FM-15,C,,SE,0.25,mi,"TEMP, PRECIP, SNOW",,,"MMTS, SRG, SNOWBOARD",,,WFO CHS,,,,,,,,,,,,,,,,,,,,,,,,,,,30.03,41,58,0,,,,53,30.03,,,9.94,,150,,9,,,,,,,,,,,,,,,,,,,,,,,,,,,,,,,,,,,,,MET077KCHS 031956Z 15008KT 10SM SCT140 BKN250 14/05 A3003 RMK AO2 SLP168 T01440050;,,,,,,,,,,,,,,,,,,,,,,,,,,,,
72208013880,2003-03-13T15:00:00,FM-15,C,,SE,0.25,mi,"TEMP, PRECIP, SNOW",,,"MMTS, SRG, SNOWBOARD",,,WFO CHS,,,,,,,,,,,,,,,,,,,,,,,,,,,29.97,63,65,0.06,||RA,,,93,29.97,,,8.95,,160,,8,,,,,,,,,,,,,,,,,,,,,,,,,,,,,,,,,,,,,MET093KCHS 131956Z 16007KT 9SM -RA BKN026 OVC060 18/17 A2997 RMK AO2 SLP149 PRESFR P0006 T01830172;,,,,,,,,,,,,,,,,,,,,,,,,,,,,
72208013880,2003-03-13T15:18:00,FM-16,4,,SE,0.25,mi,"TEMP, PRECIP, SNOW",,,"MMTS, SRG, SNOWBOARD",,,WFO CHS,,,,,,,,,,,,,,,,,,,,,,,,,,,29.96,63,66,0.01,,,,88,,,,10,,160,,13,,,,,,,,,,,,,,,,,,,,,,,,,,,,,,,,,,,,,MET079KCHS 132018Z 16011KT 10SM SCT024 BKN060 BKN130 19/17 A2996 RMK AO2 RAE17 P0001;,,,,,,,,,,,,,,,,,,,,,,,,,,,,
72208013880,2003-03-13T16:00:00,FM-15,C,,SE,0.25,mi,"TEMP, PRECIP, SNOW",,,"MMTS, SRG, SNOWBOARD",,,WFO CHS,,,,,,,,,,,,,,,,,,,,,,,,,,,29.96,63,68,0.01,,0.09,6,84,29.96,,,9.94,,160,,7,,,,,,,,,,,,,,,,,,,,,,,,,,,,,,,,,,,,,MET108KCHS 132056Z 16006KT 10SM FEW024 SCT060 OVC250 20/17 A2996 RMK AO2 RAE17 SLP144 P0001 60015 T02000172 56029;,,,,,,,,,,,,,,,,,,,,,,,,,,,,
72208013880,2003-03-18T16:00:00,FM-15,C,,SE,0.25,mi,"TEMP, PRECIP, SNOW",,,"MMTS, SRG, SNOWBOARD",,,WFO CHS,,,,,,,,,,,,,,,,,,,,,,,,,,,29.66,60,69,0,,-0.01,3,73,29.66,,,9.94,,160,,7,,,,,,,,,,,,,,,,,,,,,,,,,,,,,,,,,,,,,MET090KCHS 182056Z 16006KT 10SM BKN024 BKN035 OVC060 21/16 A2966 RMK AO2 SLP044 T02060156 53003;,,,,,,,,,,,,,,,,,,,,,,,,,,,,
72208013880,2003-03-25T17:00:00,FM-15,C,,SE,0.25,mi,"TEMP, PRECIP, SNOW",,,"MMTS, SRG, SNOWBOARD",,,WFO CHS,,,,,,,,,,,,,,,,,,,,,,,,,,,30.04,51,70,0,,,,51,30.03,,,9.94,,160,,10,,,,,,,,,,,,,,,,,,,,,,,,,,,,,,,,,,,,,MET067KCHS 252156Z 16009KT 10SM CLR 21/11 A3004 RMK AO2 SLP171 T02110106;,,,,,,,,,,,,,,,,,,,,,,,,,,,,
72208013880,2003-03-29T12:00:00,FM-15,C,,SE,0.25,mi,"TEMP, PRECIP, SNOW",,,"MMTS, SRG, SNOWBOARD",,,WFO CHS,,,,,,,,,,,,,,,,,,,,,,,,,,,29.96,65,82,0,,,,56,29.96,,,9.94,,170,,10,,,,,,,,,,,,,,,,,,,,,,,,,,,,,,,,,,,,,MET087KCHS 291656Z 17009KT 10SM SCT049 28/18 A2996 RMK AO2 SLP145 TCU ALQDS MOV NE T02780183;,,,,,,,,,,,,,,,,,,,,,,,,,,,,
72208013880,2003-03-29T15:00:00,FM-15,C,,SE,0.25,mi,"TEMP, PRECIP, SNOW",,,"MMTS, SRG, SNOWBOARD",,,WFO CHS,,,,,,,,,,,,,,,,,,,,,,,,,,,29.9,64,82,0,,,,55,29.89,,,9.94,,170,,13,,,,,,,,,,,,,,,,,,,,,,,,,,,,,,,,,,,,,MET099KCHS 291956Z 17011KT 10SM FEW049 SCT060 SCT250 28/18 A2990 RMK AO2 SLP123 TCU N-NE MOV E T02780178;,,,,,,,,,,,,,,,,,,,,,,,,,,,,
72208013880,2003-03-29T16:00:00,FM-15,C,,SE,0.25,mi,"TEMP, PRECIP, SNOW",,,"MMTS, SRG, SNOWBOARD",,,WFO CHS,,,,,,,,,,,,,,,,,,,,,,,,,,,29.88,64,83,0,,0.05,6,53,29.88,,,9.94,,160,,14,,,,,,,,,,,,,,,,,,,,,,,,,,,,,,,,,,,,,MET107KCHS 292056Z 16012KT 10SM FEW049 SCT060 SCT250 28/18 A2988 RMK AO2 SLP118 TCU DSNT N MOV E T02830178 56018;,,,,,,,,,,,,,,,,,,,,,,,,,,,,
72208013880,2003-04-13T15:00:00,FM-15,C,,SE,0.25,mi,"TEMP, PRECIP, SNOW",,,"MMTS, SRG, SNOWBOARD",,,WFO CHS,,,,,,,,,,,,,,,,,,,,,,,,,,,30.06,51,81,0,,,,35,30.06,,,9.94,,160,,13,,,,,,,,,,,,,,,,,,,,,,,,,,,,,,,,,,,,,MET070KCHS 131956Z 16011KT 10SM FEW085 27/11 A3006 RMK AO2 SLP180 T02720106;,,,,,,,,,,,,,,,,,,,,,,,,,,,,
72208013880,2003-04-13T16:00:00,FM-15,C,,SE,0.25,mi,"TEMP, PRECIP, SNOW",,,"MMTS, SRG, SNOWBOARD",,,WFO CHS,,,,,,,,,,,,,,,,,,,,,,,,,,,30.07,47,80,0,,0.01,5,31,30.06,,,9.94,,170,,12,,,,,,,,,,,,,,,,,,,,,,,,,,,,,,,,,,,,,MET073KCHS 132056Z 17010KT 10SM CLR 27/08 A3007 RMK AO2 SLP181 T02670083 55003;,,,,,,,,,,,,,,,,,,,,,,,,,,,,
72208013880,2003-04-13T17:00:00,FM-15,C,,SE,0.25,mi,"TEMP, PRECIP, SNOW",,,"MMTS, SRG, SNOWBOARD",,,WFO CHS,,,,,,,,,,,,,,,,,,,,,,,,,,,30.08,49,77,0,,,,37,30.07,,,9.94,,170,,12,,,,,,,,,,,,,,,,,,,,,,,,,,,,,,,,,,,,,MET070KCHS 132156Z 17010KT 10SM FEW085 25/09 A3008 RMK AO2 SLP184 T02500094;,,,,,,,,,,,,,,,,,,,,,,,,,,,,
72208013880,2003-04-14T14:00:00,FM-15,C,,SE,0.25,mi,"TEMP, PRECIP, SNOW",,,"MMTS, SRG, SNOWBOARD",,,WFO CHS,,,,,,,,,,,,,,,,,,,,,,,,,,,30.29,55,79,0,,,,44,30.29,,,9.94,,160,17,14,,,,,,,,,,,,,,,,,,,,,,,,,,,,,,,,,,,,,MET080KCHS 141856Z 16012G15KT 10SM FEW055 SCT200 26/13 A3029 RMK AO2 SLP257 T02610128;,,,,,,,,,,,,,,,,,,,,,,,,,,,,
72208013880,2003-04-14T15:00:00,FM-15,C,,SE,0.25,mi,"TEMP, PRECIP, SNOW",,,"MMTS, SRG, SNOWBOARD",,,WFO CHS,,,,,,,,,,,,,,,,,,,,,,,,,,,30.28,55,78,0,,,,45,30.27,,,9.94,,160,,8,,,,,,,,,,,,,,,,,,,,,,,,,,,,,,,,,,,,,MET070KCHS 141956Z 16007KT 10SM FEW055 26/13 A3028 RMK AO2 SLP252 T02560128;,,,,,,,,,,,,,,,,,,,,,,,,,,,,
72208013880,2003-04-15T12:56:00,FM-15,4,,SE,0.25,mi,"TEMP, PRECIP, SNOW",,,"MMTS, SRG, SNOWBOARD",,,WFO CHS,,,,,,,,,,,,,,,,,,,,,,,,,,,30.27,50,75,,,0.06,8,41,30.27,,,10,,150,,8,,,,,,,,,,,,,,,,,,,,,,,,,,,,,,,,,,,,,MET095KCHS 151756Z 15007KT 10SM FEW060 SCT250 24/10 A3027 RMK AO2 SLP250 T02440100 10250 20167 58020;,,,,,,,,,,,,,,,,,,,,,,,,,,,,
72208013880,2003-04-15T13:00:00,SY-MT,C,,SE,0.25,mi,"TEMP, PRECIP, SNOW",,,"MMTS, SRG, SNOWBOARD",,,WFO CHS,,,,,,,,,,,,,,,,,,,,,,,,,,,30.27,50,76,0,,0.06,8,40,30.27,,30.22,9.94,61,150,,8,,,,,,,,,,,,,,,,,,,,,,,,,,,,,,,,,,,,,SYN092AAXX  15184 72208 32766 41507 10244 20100 30234 40250 58020 91756 333 10250 20167 555 91518;,,,,,,,,,,,,,,,,,,,,,,,,,,,,
72208013880,2003-04-15T15:00:00,FM-15,C,,SE,0.25,mi,"TEMP, PRECIP, SNOW",,,"MMTS, SRG, SNOWBOARD",,,WFO CHS,,,,,,,,,,,,,,,,,,,,,,,,,,,30.22,53,77,0,,,,43,30.22,,,9.94,,150,,13,,,,,,,,,,,,,,,,,,,,,,,,,,,,,,,,,,,,,MET070KCHS 151956Z 15011KT 10SM FEW045 25/12 A3022 RMK AO2 SLP234 T02500117;,,,,,,,,,,,,,,,,,,,,,,,,,,,,
72208013880,2003-04-15T17:00:00,FM-15,C,,SE,0.25,mi,"TEMP, PRECIP, SNOW",,,"MMTS, SRG, SNOWBOARD",,,WFO CHS,,,,,,,,,,,,,,,,,,,,,,,,,,,30.21,53,73,0,,,,50,30.21,,,9.94,,150,,12,,,,,,,,,,,,,,,,,,,,,,,,,,,,,,,,,,,,,MET070KCHS 152156Z 15010KT 10SM FEW250 23/12 A3021 RMK AO2 SLP229 T02280117;,,,,,,,,,,,,,,,,,,,,,,,,,,,,
72208013880,2003-04-16T15:00:00,FM-15,C,,SE,0.25,mi,"TEMP, PRECIP, SNOW",,,"MMTS, SRG, SNOWBOARD",,,WFO CHS,,,,,,,,,,,,,,,,,,,,,,,,,,,30.03,46,77,0,,,,33,30.02,,,9.94,,170,,14,,,,,,,,,,,,,,,,,,,,,,,,,,,,,,,,,,,,,MET077KCHS 161956Z 17012KT 10SM FEW045 SCT250 25/08 A3003 RMK AO2 SLP167 T02500078;,,,,,,,,,,,,,,,,,,,,,,,,,,,,
72208013880,2003-04-17T11:00:00,FM-15,C,,SE,0.25,mi,"TEMP, PRECIP, SNOW",,,"MMTS, SRG, SNOWBOARD",,,WFO CHS,,,,,,,,,,,,,,,,,,,,,,,,,,,29.99,60,76,0,,,,58,29.98,,,9.94,,170,,7,,,,,,,,,,,,,,,,,,,,,,,,,,,,,,,,,,,,,MET077KCHS 171556Z 17006KT 10SM BKN036 BKN150 24/16 A2999 RMK AO2 SLP153 T02440156;,,,,,,,,,,,,,,,,,,,,,,,,,,,,
72208013880,2003-04-17T14:00:00,FM-15,C,,SE,0.25,mi,"TEMP, PRECIP, SNOW",,,"MMTS, SRG, SNOWBOARD",,,WFO CHS,,,,,,,,,,,,,,,,,,,,,,,,,,,29.95,61,77,0,,,,58,29.94,,,9.94,,150,21,15,,,,,,,,,,,,,,,,,,,,,,,,,,,,,,,,,,,,,MET089KCHS 171856Z 15013G18KT 10SM SCT039 BKN065 BKN180 25/16 A2995 RMK AO2 SLP140 T02500161 /;,,,,,,,,,,,,,,,,,,,,,,,,,,,,
72208013880,2003-04-17T15:00:00,FM-15,C,,SE,0.25,mi,"TEMP, PRECIP, SNOW",,,"MMTS, SRG, SNOWBOARD",,,WFO CHS,,,,,,,,,,,,,,,,,,,,,,,,,,,29.94,61,74,T,||RA,,,64,29.94,,,9.94,,160,,14,,,,,,,,,,,,,,,,,,,,,,,,,,,,,,,,,,,,,MET100KCHS 171956Z 16012KT 10SM -RA SCT035 BKN070 BKN200 23/16 A2994 RMK AO2 RAB55 SLP138 P0000 T02330161;,,,,,,,,,,,,,,,,,,,,,,,,,,,,
72208013880,2003-04-17T16:00:00,FM-15,C,,SE,0.25,mi,"TEMP, PRECIP, SNOW",,,"MMTS, SRG, SNOWBOARD",,,WFO CHS,,,,,,,,,,,,,,,,,,,,,,,,,,,29.94,60,76,T,,0.02,6,58,29.94,,,9.94,,160,,14,,,,,,,,,,,,,,,,,,,,,,,,,,,,,,,,,,,,,MET101KCHS 172056Z 16012KT 10SM SCT070 SCT150 24/16 A2994 RMK AO2 RAE05 SLP138 P0000 60000 T02440156 56007;,,,,,,,,,,,,,,,,,,,,,,,,,,,,
72208013880,2003-04-24T14:00:00,FM-15,C,,SE,0.25,mi,"TEMP, PRECIP, SNOW",,,"MMTS, SRG, SNOWBOARD",,,WFO CHS,,,,,,,,,,,,,,,,,,,,,,,,,,,30.04,47,75,0,,,,37,30.03,,,9.94,,170,,9,,,,,,,,,,,,,,,,,,,,,,,,,,,,,,,,,,,,,MET070KCHS 241856Z 17008KT 10SM BKN250 24/08 A3004 RMK AO2 SLP171 T02390083;,,,,,,,,,,,,,,,,,,,,,,,,,,,,
72208013880,2003-04-25T11:00:00,FM-15,C,,SE,0.25,mi,"TEMP, PRECIP, SNOW",,,"MMTS, SRG, SNOWBOARD",,,WFO CHS,,,,,,,,,,,,,,,,,,,,,,,,,,,29.8,67,68,0.2,||FG SHRA,,,96,29.8,,,0.99,,170,,8,,,,,,,,,,,,,,,,,,,,,,,,,,,,,,,,,,,,,MET143KCHS 251556Z 17007KT 1SM +TSRA BR SCT009 BKN020 OVC045 20/19 A2980 RMK AO2 SFC VIS 1 1/4 TSB49 SLP090 NO VIS LTG TS S-W MOV NE P0020 T02000194;,,,,,,,,,,,,,,,,,,,,,,,,,,,,
72208013880,2003-04-28T17:00:00,FM-15,C,,SE,0.25,mi,"TEMP, PRECIP, SNOW",,,"MMTS, SRG, SNOWBOARD",,,WFO CHS,,,,,,,,,,,,,,,,,,,,,,,,,,,30.03,60,75,0,,,,60,30.03,,,9.94,,150,,9,,,,,,,,,,,,,,,,,,,,,,,,,,,,,,,,,,,,,MET070KCHS 282156Z 15008KT 10SM FEW045 24/16 A3003 RMK AO2 SLP169 T02390156;,,,,,,,,,,,,,,,,,,,,,,,,,,,,
72208013880,2003-04-29T16:00:00,FM-15,C,,SE,0.25,mi,"TEMP, PRECIP, SNOW",,,"MMTS, SRG, SNOWBOARD",,,WFO CHS,,,,,,,,,,,,,,,,,,,,,,,,,,,29.94,59,81,0,,0.07,6,47,29.93,,,9.94,,170,,9,,,,,,,,,,,,,,,,,,,,,,,,,,,,,,,,,,,,,MET084KCHS 292056Z 17008KT 140V210 10SM FEW050 27/15 A2994 RMK AO2 SLP137 T02720150 56023;,,,,,,,,,,,,,,,,,,,,,,,,,,,,
72208013880,2003-04-29T17:00:00,FM-15,C,,SE,0.25,mi,"TEMP, PRECIP, SNOW",,,"MMTS, SRG, SNOWBOARD",,,WFO CHS,,,,,,,,,,,,,,,,,,,,,,,,,,,29.95,55,79,0,,,,44,29.94,,,9.94,,170,,12,,,,,,,,,,,,,,,,,,,,,,,,,,,,,,,,,,,,,MET067KCHS 292156Z 17010KT 10SM CLR 26/13 A2995 RMK AO2 SLP140 T02610128;,,,,,,,,,,,,,,,,,,,,,,,,,,,,
72208013880,2003-04-30T12:56:00,FM-15,4,,SE,0.25,mi,"TEMP, PRECIP, SNOW",,,"MMTS, SRG, SNOWBOARD",,,WFO CHS,,,,,,,,,,,,,,,,,,,,,,,,,,,30.06,63,82,,,0.02,8,51,30.06,,,10,,160,18,13,,,,,,,,,,,,,,,,,,,,,,,,,,,,,,,,,,,,,MET098KCHS 301756Z 16011G16KT 10SM SCT047 SCT250 28/17 A3006 RMK AO2 SLP178 T02830167 10289 20172 58006;,,,,,,,,,,,,,,,,,,,,,,,,,,,,
72208013880,2003-04-30T13:00:00,SY-MT,C,,SE,0.25,mi,"TEMP, PRECIP, SNOW",,,"MMTS, SRG, SNOWBOARD",,,WFO CHS,,,,,,,,,,,,,,,,,,,,,,,,,,,30.06,62,83,0,,0.02,8,49,30.06,,30.01,9.94,70,160,,13,,,,,,,,,,,,,,,,,,,,,,,,,,,,,,,,,,,,,SYN098AAXX  30184 72208 32666 41611 10283 20167 30163 40178 58006 91756 333 10289 20172 91016 555 93018;,,,,,,,,,,,,,,,,,,,,,,,,,,,,
72208013880,2003-04-30T14:00:00,FM-15,C,,SE,0.25,mi,"TEMP, PRECIP, SNOW",,,"MMTS, SRG, SNOWBOARD",,,WFO CHS,,,,,,,,,,,,,,,,,,,,,,,,,,,30.04,63,83,0,,,,51,30.04,,,9.94,,170,18,13,,,,,,,,,,,,,,,,,,,,,,,,,,,,,,,,,,,,,MET080KCHS 301856Z 17011G16KT 10SM SCT048 SCT250 28/17 A3004 RMK AO2 SLP173 T02830172;,,,,,,,,,,,,,,,,,,,,,,,,,,,,
72208013880,2003-04-30T16:00:00,FM-15,C,,SE,0.25,mi,"TEMP, PRECIP, SNOW",,,"MMTS, SRG, SNOWBOARD",,,WFO CHS,,,,,,,,,,,,,,,,,,,,,,,,,,,30.01,65,80,0,,0.04,6,60,30.01,,,9.94,,150,,12,,,,,,,,,,,,,,,,,,,,,,,,,,,,,,,,,,,,,MET076KCHS 302056Z 15010KT 10SM SCT040 27/18 A3001 RMK AO2 SLP163 T02670183 56015;,,,,,,,,,,,,,,,,,,,,,,,,,,,,
72208013880,2003-05-05T11:00:00,FM-15,C,,SE,0.25,mi,"TEMP, PRECIP, SNOW",,,"MMTS, SRG, SNOWBOARD",,,WFO CHS,,,,,,,,,,,,,,,,,,,,,,,,,,,30.07,68,80,0,,,,67,30.07,,,9.94,,160,,14,,,,,,,,,,,,,,,,,,,,,,,,,,,,,,,,,,,,,MET084KCHS 051556Z 16012KT 10SM FEW023 SCT060 OVC250 27/20 A3007 RMK AO2 SLP182 T02670200;,,,,,,,,,,,,,,,,,,,,,,,,,,,,
72208013880,2003-05-05T12:56:00,FM-15,4,,SE,0.25,mi,"TEMP, PRECIP, SNOW",,,"MMTS, SRG, SNOWBOARD",,,WFO CHS,,,,,,,,,,,,,,,,,,,,,,,,,,,30.03,70,81,,,0.04,8,70,30.03,,,10,,170,,16,,,,,,,,,,,,,,,,,,,,,,,,,,,,,,,,,,,,,MET102KCHS 051756Z 17014KT 10SM BKN030 BKN038 OVC250 27/21 A3003 RMK AO2 SLP169 T02670206 10278 20194 58012;,,,,,,,,,,,,,,,,,,,,,,,,,,,,
72208013880,2003-05-05T13:00:00,SY-MT,C,,SE,0.25,mi,"TEMP, PRECIP, SNOW",,,"MMTS, SRG, SNOWBOARD",,,WFO CHS,,,,,,,,,,,,,,,,,,,,,,,,,,,30.03,69,80,0,,0.04,8,69,30.03,,29.98,9.94,73,170,,16,,,,,,,,,,,,,,,,,,,,,,,,,,,,,,,,,,,,,SYN092AAXX  05184 72208 32566 81714 10267 20206 30153 40169 58012 91756 333 10278 20194 555 90518;,,,,,,,,,,,,,,,,,,,,,,,,,,,,
72208013880,2003-05-05T13:17:00,FM-16,4,,SE,0.25,mi,"TEMP, PRECIP, SNOW",,,"MMTS, SRG, SNOWBOARD",,,WFO CHS,,,,,,,,,,,,,,,,,,,,,,,,,,,30.03,70,79,,,,,74,,,,10,,170,,14,,,,,,,,,,,,,,,,,,,,,,,,,,,,,,,,,,,,,MET067KCHS 051817Z 17012KT 10SM BKN028 BKN038 OVC250 26/21 A3003 RMK AO2;,,,,,,,,,,,,,,,,,,,,,,,,,,,,
72208013880,2003-05-05T16:00:00,FM-15,C,,SE,0.25,mi,"TEMP, PRECIP, SNOW",,,"MMTS, SRG, SNOWBOARD",,,WFO CHS,,,,,,,,,,,,,,,,,,,,,,,,,,,30,71,79,0,,0.03,5,77,30,,,9.94,,170,,16,,,,,,,,,,,,,,,,,,,,,,,,,,,,,,,,,,,,,MET083KCHS 052056Z 17014KT 10SM BKN024 OVC030 26/22 A3000 RMK AO2 SLP158 T02610217 55011;,,,,,,,,,,,,,,,,,,,,,,,,,,,,
72208013880,2003-05-05T17:00:00,FM-15,C,,SE,0.25,mi,"TEMP, PRECIP, SNOW",,,"MMTS, SRG, SNOWBOARD",,,WFO CHS,,,,,,,,,,,,,,,,,,,,,,,,,,,30.02,71,78,0,,,,79,30.02,,,9.94,,170,,10,,,,,,,,,,,,,,,,,,,,,,,,,,,,,,,,,,,,,MET077KCHS 052156Z 17009KT 10SM BKN021 OVC028 26/22 A3002 RMK AO2 SLP165 T02560217;,,,,,,,,,,,,,,,,,,,,,,,,,,,,
72208013880,2003-05-14T14:00:00,FM-15,C,,SE,0.25,mi,"TEMP, PRECIP, SNOW",,,"MMTS, SRG, SNOWBOARD",,,WFO CHS,,,,,,,,,,,,,,,,,,,,,,,,,,,30.02,51,74,0,,,,45,30.02,,,9.94,,160,,7,,,,,,,,,,,,,,,,,,,,,,,,,,,,,,,,,,,,,MET070KCHS 141856Z 16006KT 10SM OVC150 23/11 A3002 RMK AO2 SLP165 T02330106;,,,,,,,,,,,,,,,,,,,,,,,,,,,,
72208013880,2003-05-14T17:00:00,FM-15,C,,SE,0.25,mi,"TEMP, PRECIP, SNOW",,,"MMTS, SRG, SNOWBOARD",,,WFO CHS,,,,,,,,,,,,,,,,,,,,,,,,,,,29.98,55,74,T,||RA,,,52,29.98,,,9.94,,150,,7,,,,,,,,,,,,,,,,,,,,,,,,,,,,,,,,,,,,,MET093KCHS 142156Z 15006KT 10SM -RA FEW110 OVC150 23/13 A2998 RMK AO2 RAB48 SLP151 P0000 T02330128;,,,,,,,,,,,,,,,,,,,,,,,,,,,,
72208013880,2003-05-21T12:00:00,FM-15,C,,SE,0.25,mi,"TEMP, PRECIP, SNOW",,,"MMTS, SRG, SNOWBOARD",,,WFO CHS,,,,,,,,,,,,,,,,,,,,,,,,,,,30.13,63,79,0,,,,58,30.13,,30.09,9.94,69,150,,7,,,,,,,,,,,,,,,,,,,,,,,,,,,,,,,,,,,,,MET084KCHS 211656Z 15006KT 10SM SCT038 BKN060 BKN150 26/17 A3013 RMK AO2 SLP202 T02610172;,,,,,,,,,,,,,,,,,,,,,,,,,,,,
72208013880,2003-05-21T12:56:00,FM-15,4,,SE,0.25,mi,"TEMP, PRECIP, SNOW",,,"MMTS, SRG, SNOWBOARD",,,WFO CHS,,,,,,,,,,,,,,,,,,,,,,,,,,,30.12,63,79,,,0.03,8,58,30.11,,30.07,10,69,150,,11,,,,,,,,,,,,,,,,,,,,,,,,,,,,,,,,,,,,,MET102KCHS 211756Z 15010KT 10SM SCT041 BKN070 OVC200 26/17 A3012 RMK AO2 SLP197 T02610172 10267 20211 58010;,,,,,,,,,,,,,,,,,,,,,,,,,,,,
72208013880,2003-05-21T13:00:00,SY-MT,C,,SE,0.25,mi,"TEMP, PRECIP, SNOW",,,"MMTS, SRG, SNOWBOARD",,,WFO CHS,,,,,,,,,,,,,,,,,,,,,,,,,,,30.12,63,79,0,,0.03,8,58,30.11,,30.07,9.94,69,150,,12,,,,,,,,,,,,,,,,,,,,,,,,,,,,,,,,,,,,,SYN092AAXX  21184 72208 32666 81510 10261 20172 30184 40197 58010 91756 333 10267 20211 555 92118;,,,,,,,,,,,,,,,,,,,,,,,,,,,,
72208013880,2003-05-21T14:00:00,FM-15,C,,SE,0.25,mi,"TEMP, PRECIP, SNOW",,,"MMTS, SRG, SNOWBOARD",,,WFO CHS,,,,,,,,,,,,,,,,,,,,,,,,,,,30.1,63,78,0,,,,60,30.1,,30.06,9.94,68,160,,13,,,,,,,,,,,,,,,,,,,,,,,,,,,,,,,,,,,,,MET092KCHS 211856Z 16011KT 10SM SCT037 BKN060 BKN200 26/17 A3010 RMK AO2 SLP192 VCSH NW T02560172;,,,,,,,,,,,,,,,,,,,,,,,,,,,,
72208013880,2003-05-21T15:00:00,FM-15,C,,SE,0.25,mi,"TEMP, PRECIP, SNOW",,,"MMTS, SRG, SNOWBOARD",,,WFO CHS,,,,,,,,,,,,,,,,,,,,,,,,,,,30.09,62,78,0,,,,58,30.09,,30.05,9.94,68,150,,10,,,,,,,,,,,,,,,,,,,,,,,,,,,,,,,,,,,,,MET077KCHS 211956Z 15009KT 10SM FEW044 BKN065 26/17 A3009 RMK AO2 SLP190 T02560167;,,,,,,,,,,,,,,,,,,,,,,,,,,,,
72208013880,2003-05-21T16:00:00,FM-15,C,,SE,0.25,mi,"TEMP, PRECIP, SNOW",,,"MMTS, SRG, SNOWBOARD",,,WFO CHS,,,,,,,,,,,,,,,,,,,,,,,,,,,30.08,64,77,0,,0.03,6,64,30.08,,30.04,9.94,69,170,,12,,,,,,,,,,,,,,,,,,,,,,,,,,,,,,,,,,,,,MET083KCHS 212056Z 17010KT 10SM FEW030 OVC060 25/18 A3008 RMK AO2 SLP186 T02500178 56011;,,,,,,,,,,,,,,,,,,,,,,,,,,,,
72208013880,2003-05-21T17:00:00,FM-15,C,,SE,0.25,mi,"TEMP, PRECIP, SNOW",,,"MMTS, SRG, SNOWBOARD",,,WFO CHS,,,,,,,,,,,,,,,,,,,,,,,,,,,30.08,63,77,0,,,,62,30.07,,30.03,9.94,68,170,,10,,,,,,,,,,,,,,,,,,,,,,,,,,,,,,,,,,,,,MET077KCHS 212156Z 17009KT 10SM FEW030 OVC065 25/17 A3008 RMK AO2 SLP184 T02500172;,,,,,,,,,,,,,,,,,,,,,,,,,,,,
72208013880,2003-05-22T12:00:00,FM-15,C,,SE,0.25,mi,"TEMP, PRECIP, SNOW",,,"MMTS, SRG, SNOWBOARD",,,WFO CHS,,,,,,,,,,,,,,,,,,,,,,,,,,,30.03,64,79,0,,,,60,30.03,,29.99,9.94,69,150,,14,,,,,,,,,,,,,,,,,,,,,,,,,,,,,,,,,,,,,MET084KCHS 221656Z 15012KT 10SM BKN038 BKN070 OVC100 26/18 A3003 RMK AO2 SLP169 T02610178;,,,,,,,,,,,,,,,,,,,,,,,,,,,,
72208013880,2003-05-22T14:00:00,FM-15,C,,SE,0.25,mi,"TEMP, PRECIP, SNOW",,,"MMTS, SRG, SNOWBOARD",,,WFO CHS,,,,,,,,,,,,,,,,,,,,,,,,,,,30.01,67,75,T,,,,76,30.01,,29.96,9.94,70,160,,13,,,,,,,,,,,,,,,,,,,,,,,,,,,,,,,,,,,,,MET099KCHS 221856Z 16011KT 10SM FEW036 BKN065 OVC090 24/19 A3001 RMK AO2 RAB31E55 SLP161 P0000 T02390194;,,,,,,,,,,,,,,,,,,,,,,,,,,,,
72208013880,2003-05-22T15:00:00,FM-15,C,,SE,0.25,mi,"TEMP, PRECIP, SNOW",,,"MMTS, SRG, SNOWBOARD",,,WFO CHS,,,,,,,,,,,,,,,,,,,,,,,,,,,30,64,74,0,,,,71,30,,29.96,9.94,68,160,23,13,,,,,,,,,,,,,,,,,,,,,,,,,,,,,,,,,,,,,MET073KCHS 221956Z 16011G20KT 10SM OVC050 23/18 A3000 RMK AO2 SLP158 T02330178;,,,,,,,,,,,,,,,,,,,,,,,,,,,,
72208013880,2003-05-22T16:00:00,FM-15,C,,SE,0.25,mi,"TEMP, PRECIP, SNOW",,,"MMTS, SRG, SNOWBOARD",,,WFO CHS,,,,,,,,,,,,,,,,,,,,,,,,,,,30,66,71,0.01,||RA,0.01,6,84,30,,29.96,9.94,68,160,,12,,,,,,,,,,,,,,,,,,,,,,,,,,,,,,,,,,,,,MET105KCHS 222056Z 16010KT 10SM -RA SCT044 OVC060 22/19 A3000 RMK AO2 RAB06 SLP158 P0001 60001 T02170189 56005;,,,,,,,,,,,,,,,,,,,,,,,,,,,,
72208013880,2003-05-22T17:00:00,FM-15,C,,SE,0.25,mi,"TEMP, PRECIP, SNOW",,,"MMTS, SRG, SNOWBOARD",,,WFO CHS,,,,,,,,,,,,,,,,,,,,,,,,,,,30.01,66,70,0.02,,,,87,30,,29.96,9.94,67,150,,10,,,,,,,,,,,,,,,,,,,,,,,,,,,,,,,,,,,,,MET089KCHS 222156Z 15009KT 10SM BKN044 OVC055 21/19 A3001 RMK AO2 RAE45 SLP160 P0002 T02110189;,,,,,,,,,,,,,,,,,,,,,,,,,,,,
72208013880,2003-05-25T11:00:00,FM-15,C,,SE,0.25,mi,"TEMP, PRECIP, SNOW",,,"MMTS, SRG, SNOWBOARD",,,WFO CHS,,,,,,,,,,,,,,,,,,,,,,,,,,,29.94,71,81,0,,,,72,29.93,28,29.89,9.94,74,160,,13,,,,,,,,,,,,,,,,,,,,,,,,,,,,,,,,,,,,,MET090KCHS 251556Z 16011KT 10SM SCT028TCU BKN049 27/22 A2994 RMK AO2 SLP136 TCU ALQDS T02720217;,,,,,,,,,,,,,,,,,,,,,,,,,,,,
72208013880,2003-05-25T16:00:00,FM-15,C,,SE,0.25,mi,"TEMP, PRECIP, SNOW",,,"MMTS, SRG, SNOWBOARD",,,WFO CHS,,,,,,,,,,,,,,,,,,,,,,,,,,,29.88,70,80,0,,0.05,6,71,29.88,,29.83,9.94,73,150,,13,,,,,,,,,,,,,,,,,,,,,,,,,,,,,,,,,,,,,MET090KCHS 252056Z 15011KT 10SM FEW027 SCT037 BKN060 27/21 A2988 RMK AO2 SLP117 T02670211 56016;,,,,,,,,,,,,,,,,,,,,,,,,,,,,
72208013880,2003-05-25T17:00:00,FM-15,C,,SE,0.25,mi,"TEMP, PRECIP, SNOW",,,"MMTS, SRG, SNOWBOARD",,,WFO CHS,,,,,,,,,,,,,,,,,,,,,,,,,,,29.89,71,81,0,,,,72,29.88,,29.84,9.94,74,150,,12,,,,,,,,,,,,,,,,,,,,,,,,,,,,,,,,,,,,,MET077KCHS 252156Z 15010KT 10SM FEW050 BKN060 27/22 A2989 RMK AO2 SLP119 T02720217;,,,,,,,,,,,,,,,,,,,,,,,,,,,,
72208013880,2003-06-02T17:00:00,FM-15,C,,SE,0.25,mi,"TEMP, PRECIP, SNOW",,,"MMTS, SRG, SNOWBOARD",,,WFO CHS,,,,,,,,,,,,,,,,,,,,,,,,,,,29.96,56,80,0,,,,44,29.96,,29.91,9.94,65,160,,10,,,,,,,,,,,,,,,,,,,,,,,,,,,,,,,,,,,,,MET067KCHS 022156Z 16009KT 10SM CLR 27/13 A2996 RMK AO2 SLP144 T02670133;,,,,,,,,,,,,,,,,,,,,,,,,,,,,
72208013880,2003-06-03T12:00:00,FM-15,C,,SE,0.25,mi,"TEMP, PRECIP, SNOW",,,"MMTS, SRG, SNOWBOARD",,,WFO CHS,,,,,,,,,,,,,,,,,,,,,,,,,,,29.96,65,79,0,,,,62,29.96,,29.91,9.94,70,150,,15,,,,,,,,,,,,,,,,,,,,,,,,,,,,,,,,,,,,,MET077KCHS 031656Z 15013KT 10SM FEW034 OVC043 26/18 A2996 RMK AO2 SLP144 T02610183;,,,,,,,,,,,,,,,,,,,,,,,,,,,,
72208013880,2003-06-03T13:00:00,FM-15,C,,SE,0.25,mi,"TEMP, PRECIP, SNOW",,,"MMTS, SRG, SNOWBOARD",,,WFO CHS,,,,,,,,,,,,,,,,,,,,,,,,,,,29.93,68,83,0,,0.05,8,61,29.92,,29.88,9.94,73,160,,15,,,,,,,,,,,,,,,,,,,,,,,,,,,,,,,,,,,,,MET088KCHS 031756Z 16013KT 10SM BKN034 28/20 A2993 RMK AO2 SLP133 T02830200 10283 20228 58018;,,,,,,,,,,,,,,,,,,,,,,,,,,,,
72208013880,2003-06-03T14:00:00,FM-15,C,,SE,0.25,mi,"TEMP, PRECIP, SNOW",,,"MMTS, SRG, SNOWBOARD",,,WFO CHS,,,,,,,,,,,,,,,,,,,,,,,,,,,29.91,67,80,0,,,,64,29.91,,29.87,9.94,71,150,,15,,,,,,,,,,,,,,,,,,,,,,,,,,,,,,,,,,,,,MET070KCHS 031856Z 15013KT 10SM OVC032 27/19 A2991 RMK AO2 SLP129 T02670194;,,,,,,,,,,,,,,,,,,,,,,,,,,,,
72208013880,2003-06-03T14:35:00,FM-16,4,,SE,0.25,mi,"TEMP, PRECIP, SNOW",,,"MMTS, SRG, SNOWBOARD",,,WFO CHS,,,,,,,,,,,,,,,,,,,,,,,,,,,29.9,68,81,,,,,66,,,,10,,160,,14,,,,,,,,,,,,,,,,,,,,,,,,,,,,,,,,,,,,,MET053KCHS 031935Z 16012KT 10SM OVC028 27/20 A2990 RMK AO2;,,,,,,,,,,,,,,,,,,,,,,,,,,,,
72208013880,2003-06-03T15:00:00,FM-15,C,,SE,0.25,mi,"TEMP, PRECIP, SNOW",,,"MMTS, SRG, SNOWBOARD",,,WFO CHS,,,,,,,,,,,,,,,,,,,,,,,,,,,29.89,68,80,0,,,,67,29.89,,29.85,9.94,72,150,,15,,,,,,,,,,,,,,,,,,,,,,,,,,,,,,,,,,,,,MET070KCHS 031956Z 15013KT 10SM OVC028 27/20 A2989 RMK AO2 SLP122 T02670200;,,,,,,,,,,,,,,,,,,,,,,,,,,,,
72208013880,2003-06-03T16:00:00,FM-15,C,,SE,0.25,mi,"TEMP, PRECIP, SNOW",,,"MMTS, SRG, SNOWBOARD",,,WFO CHS,,,,,,,,,,,,,,,,,,,,,,,,,,,29.87,69,79,0,,0.05,8,72,29.87,,29.83,9.94,72,160,18,14,,,,,,,,,,,,,,,,,,,,,,,,,,,,,,,,,,,,,MET079KCHS 032056Z 16012G16KT 10SM OVC024 26/21 A2987 RMK AO2 SLP115 T02610206 58018;,,,,,,,,,,,,,,,,,,,,,,,,,,,,
72208013880,2003-06-03T17:00:00,FM-15,C,,SE,0.25,mi,"TEMP, PRECIP, SNOW",,,"MMTS, SRG, SNOWBOARD",,,WFO CHS,,,,,,,,,,,,,,,,,,,,,,,,,,,29.87,70,78,0,,,,76,29.87,,29.83,9.94,73,160,23,13,,,,,,,,,,,,,,,,,,,,,,,,,,,,,,,,,,,,,MET080KCHS 032156Z 16011G20KT 10SM BKN022 OVC060 26/21 A2987 RMK AO2 SLP115 T02560211;,,,,,,,,,,,,,,,,,,,,,,,,,,,,
72208013880,2003-06-06T17:46:00,FM-16,4,,SE,0.25,mi,"TEMP, PRECIP, SNOW",,,"MMTS, SRG, SNOWBOARD",,,WFO CHS,,,,,,,,,,,,,,,,,,,,,,,,,,,29.97,73,79,,,,,84,,,,10,,150,,11,,,,,,,,,,,,,,,,,,,,,,,,,,,,,,,,,,,,,MET060KCHS 062246Z 15010KT 10SM SCT017 SCT038 26/23 A2997 RMK AO2;,,,,,,,,,,,,,,,,,,,,,,,,,,,,
72208013880,2003-06-11T17:00:00,FM-15,C,,SE,0.25,mi,"TEMP, PRECIP, SNOW",,,"MMTS, SRG, SNOWBOARD",,,WFO CHS,,,,,,,,,,,,,,,,,,,,,,,,,,,29.97,73,86,0,,,,65,29.97,,29.92,9.94,77,170,,14,,,,,,,,,,,,,,,,,,,,,,,,,,,,,,,,,,,,,MET070KCHS 112156Z 17012KT 10SM SCT250 30/23 A2997 RMK AO2 SLP148 T03000228;,,,,,,,,,,,,,,,,,,,,,,,,,,,,
72208013880,2003-06-16T15:36:00,FM-16,4,,SE,0.25,mi,"TEMP, PRECIP, SNOW",,,"MMTS, SRG, SNOWBOARD",,,WFO CHS,,,,,,,,,,,,,,,,,,,,,,,,,,,29.96,75,84,T,||TS,,,74,29.96,27,29.91,10,78,160,,13,,,,,,,,,,,,,,,,,,,,,,,,,,,,,,,,,,,,,MET113KCHS 162036Z 16011KT 10SM VCTS FEW027CB SCT055 29/24 A2996 RMK AO2 TSB31RAE06 NO VIS LTG VC TS NW-N MOV NE P0000;,,,,,,,,,,,,,,,,,,,,,,,,,,,,
72208013880,2003-06-17T17:00:00,FM-15,C,,SE,0.25,mi,"TEMP, PRECIP, SNOW",,,"MMTS, SRG, SNOWBOARD",,,WFO CHS,,,,,,,,,,,,,,,,,,,,,,,,,,,29.98,75,84,0,,,,74,29.98,17,29.93,9.94,78,170,,10,,,,,,,,,,,,,,,,,,,,,,,,,,,,,,,,,,,,,MET103KCHS 172156Z 17009KT 10SM SCT017TCU SCT150 BKN200 29/24 A2998 RMK AO2 SLP152 TCU W CB DSNT N T02890239;,,,,,,,,,,,,,,,,,,,,,,,,,,,,
72208013880,2003-06-24T17:00:00,FM-15,C,,SE,0.25,mi,"TEMP, PRECIP, SNOW",,,"MMTS, SRG, SNOWBOARD",,,WFO CHS,,,,,,,,,,,,,,,,,,,,,,,,,,,30.06,65,86,0,,,,49,30.06,,30.01,9.94,72,150,,8,,,,,,,,,,,,,,,,,,,,,,,,,,,,,,,,,,,,,MET070KCHS 242156Z 15007KT 10SM FEW060 30/18 A3006 RMK AO2 SLP179 T03000183;,,,,,,,,,,,,,,,,,,,,,,,,,,,,
72208013880,2003-06-25T16:00:00,FM-15,C,,SE,0.25,mi,"TEMP, PRECIP, SNOW",,,"MMTS, SRG, SNOWBOARD",,,WFO CHS,,,,,,,,,,,,,,,,,,,,,,,,,,,30.08,65,90,0,,0.04,6,44,30.08,,30.03,9.94,73,150,,10,,,,,,,,,,,,,,,,,,,,,,,,,,,,,,,,,,,,,MET076KCHS 252056Z 15009KT 10SM FEW065 32/18 A3008 RMK AO2 SLP185 T03220183 56012;,,,,,,,,,,,,,,,,,,,,,,,,,,,,
72208013880,2003-06-25T17:00:00,FM-15,C,,SE,0.25,mi,"TEMP, PRECIP, SNOW",,,"MMTS, SRG, SNOWBOARD",,,WFO CHS,,,,,,,,,,,,,,,,,,,,,,,,,,,30.07,65,88,0,,,,46,30.07,,30.02,9.94,73,160,,9,,,,,,,,,,,,,,,,,,,,,,,,,,,,,,,,,,,,,MET070KCHS 252156Z 16008KT 10SM FEW065 31/18 A3007 RMK AO2 SLP183 T03110183;,,,,,,,,,,,,,,,,,,,,,,,,,,,,
72208013880,2003-06-28T12:56:00,FM-15,4,,SE,0.25,mi,"TEMP, PRECIP, SNOW",,,"MMTS, SRG, SNOWBOARD",,,WFO CHS,,,,,,,,,,,,,,,,,,,,,,,,,,,30.06,70,88,,,,,55,30.06,36,30.01,10,76,160,,9,,,,,,,,,,,,,,,,,,,,,,,,,,,,,,,,,,,,,MET112KCHS 281756Z 16008KT 10SM SCT037TCU BKN250 31/21 A3006 RMK AO2 SLP178 TCU W DSNT NE T03110211 10311 20256 58000;,,,,,,,,,,,,,,,,,,,,,,,,,,,,
72208013880,2003-06-28T13:00:00,SY-MT,C,,SE,0.25,mi,"TEMP, PRECIP, SNOW",,,"MMTS, SRG, SNOWBOARD",,,WFO CHS,,,,,,,,,,,,,,,,,,,,,,,,,,,30.06,70,88,0,,0,4,55,30.06,,30.01,9.94,76,160,,9,,,,,,,,,,,,,,,,,,,,,,,,,,,,,,,,,,,,,SYN092AAXX  28184 72208 32666 61608 10311 20211 30163 40178 58000 91756 333 10311 20256 555 92818;,,,,,,,,,,,,,,,,,,,,,,,,,,,,
72208013880,2003-06-28T14:00:00,FM-15,C,,SE,0.25,mi,"TEMP, PRECIP, SNOW",,,"MMTS, SRG, SNOWBOARD",,,WFO CHS,,,,,,,,,,,,,,,,,,,,,,,,,,,30.04,71,87,0,,,,59,30.04,,29.99,9.94,76,150,,12,,,,,,,,,,,,,,,,,,,,,,,,,,,,,,,,,,,,,MET077KCHS 281856Z 15010KT 10SM SCT037 BKN250 31/22 A3004 RMK AO2 SLP173 T03060217;,,,,,,,,,,,,,,,,,,,,,,,,,,,,
72208013880,2003-06-28T15:00:00,FM-15,C,,SE,0.25,mi,"TEMP, PRECIP, SNOW",,,"MMTS, SRG, SNOWBOARD",,,WFO CHS,,,,,,,,,,,,,,,,,,,,,,,,,,,30.04,71,85,0,,,,63,30.03,,29.99,9.94,75,150,,13,,,,,,,,,,,,,,,,,,,,,,,,,,,,,,,,,,,,,MET077KCHS 281956Z 15011KT 10SM FEW035 OVC250 29/22 A3004 RMK AO2 SLP171 T02940217;,,,,,,,,,,,,,,,,,,,,,,,,,,,,
72208013880,2003-06-28T17:00:00,FM-15,C,,SE,0.25,mi,"TEMP, PRECIP, SNOW",,,"MMTS, SRG, SNOWBOARD",,,WFO CHS,,,,,,,,,,,,,,,,,,,,,,,,,,,30.06,71,83,0,,,,67,30.06,,30.01,9.94,75,170,,7,,,,,,,,,,,,,,,,,,,,,,,,,,,,,,,,,,,,,MET084KCHS 282156Z 17006KT 10SM FEW050 BKN120 OVC250 28/22 A3006 RMK AO2 SLP180 T02830217;,,,,,,,,,,,,,,,,,,,,,,,,,,,,
72208013880,2003-07-10T13:44:00,FM-16,4,,SE,0.25,mi,"TEMP, PRECIP, SNOW",,,"MMTS, SRG, SNOWBOARD",,,WFO CHS,,,,,,,,,,,,,,,,,,,,,,,,,,,30.01,79,84,,,,,84,30.01,41,29.96,10,80,170,,10,,,,,,,,,,,,,,,,,,,,,,,,,,,,,,,,,,,,,MET098KCHS 101844Z 17009KT 10SM SCT042CB BKN050 BKN250 29/26 A3001 RMK AO2 TSE39 TS MOV E CB SE-S MOV E;,,,,,,,,,,,,,,,,,,,,,,,,,,,,
72208013880,2003-07-13T14:00:00,FM-15,C,,SE,0.25,mi,"TEMP, PRECIP, SNOW",,,"MMTS, SRG, SNOWBOARD",,,WFO CHS,,,,,,,,,,,,,,,,,,,,,,,,,,,30.11,73,85,0,,,,68,30.11,,30.06,9.94,77,170,19,15,,,,,,,,,,,,,,,,,,,,,,,,,,,,,,,,,,,,,MET087KCHS 131856Z 17013G17KT 10SM SCT028 SCT100 BKN150 29/23 A3011 RMK AO2 SLP195 T02940228;,,,,,,,,,,,,,,,,,,,,,,,,,,,,
72208013880,2003-07-14T15:00:00,FM-15,C,,SE,0.25,mi,"TEMP, PRECIP, SNOW",,,"MMTS, SRG, SNOWBOARD",,,WFO CHS,,,,,,,,,,,,,,,,,,,,,,,,,,,30.11,71,78,0,,,,79,30.11,,30.06,9.94,73,150,,7,,,,,,,,,,,,,,,,,,,,,,,,,,,,,,,,,,,,,MET077KCHS 141956Z 15006KT 10SM FEW016 OVC250 26/22 A3011 RMK AO2 SLP196 T02560217;,,,,,,,,,,,,,,,,,,,,,,,,,,,,
72208013880,2003-07-14T16:00:00,FM-15,C,,SE,0.25,mi,"TEMP, PRECIP, SNOW",,,"MMTS, SRG, SNOWBOARD",,,WFO CHS,,,,,,,,,,,,,,,,,,,,,,,,,,,30.11,71,78,0,,0.03,7,79,30.11,,30.06,9.94,73,170,,9,,,,,,,,,,,,,,,,,,,,,,,,,,,,,,,,,,,,,MET083KCHS 142056Z 17008KT 10SM FEW020 OVC250 26/22 A3011 RMK AO2 SLP195 T02560217 57009;,,,,,,,,,,,,,,,,,,,,,,,,,,,,
72208013880,2003-07-14T17:00:00,FM-15,C,,SE,0.25,mi,"TEMP, PRECIP, SNOW",,,"MMTS, SRG, SNOWBOARD",,,WFO CHS,,,,,,,,,,,,,,,,,,,,,,,,,,,30.1,71,76,0,,,,85,30.09,,30.05,9.94,73,160,,7,,,,,,,,,,,,,,,,,,,,,,,,,,,,,,,,,,,,,MET084KCHS 142156Z 16006KT 10SM FEW020 BKN150 OVC250 24/22 A3010 RMK AO2 SLP191 T02440217;,,,,,,,,,,,,,,,,,,,,,,,,,,,,
72208013880,2003-07-15T17:00:00,FM-15,C,,SE,0.25,mi,"TEMP, PRECIP, SNOW",,,"MMTS, SRG, SNOWBOARD",,,WFO CHS,,,,,,,,,,,,,,,,,,,,,,,,,,,30.07,75,82,0,,,,79,30.06,,30.02,9.94,77,150,,13,,,,,,,,,,,,,,,,,,,,,,,,,,,,,,,,,,,,,MET077KCHS 152156Z 15011KT 10SM SCT024 OVC250 28/24 A3007 RMK AO2 SLP181 T02780239;,,,,,,,,,,,,,,,,,,,,,,,,,,,,
72208013880,2003-07-19T17:00:00,FM-15,C,,SE,0.25,mi,"TEMP, PRECIP, SNOW",,,"MMTS, SRG, SNOWBOARD",,,WFO CHS,,,,,,,,,,,,,,,,,,,,,,,,,,,30.01,72,77,0.01,||TS TS,,,85,30,30,29.96,9.94,74,150,,8,,,,,,,,,,,,,,,,,,,,,,,,,,,,,,,,,,,,,MET128KCHS 192156Z 15007KT 10SM TS FEW010 SCT030CB BKN200 25/22 A3001 RMK AO2 TSB56RAE19 SLP160 OCNL LTGCG TS E MOV E P0001 T02500222;,,,,,,,,,,,,,,,,,,,,,,,,,,,,
72208013880,2003-07-20T15:00:00,FM-15,C,,SE,0.25,mi,"TEMP, PRECIP, SNOW",,,"MMTS, SRG, SNOWBOARD",,,WFO CHS,,,,,,,,,,,,,,,,,,,,,,,,,,,29.99,77,88,0,,,,70,29.98,35,29.94,9.94,80,160,,10,,,,,,,,,,,,,,,,,,,,,,,,,,,,,,,,,,,,,MET083KCHS 201956Z 16009KT 10SM BKN036TCU 31/25 A2999 RMK AO2 SLP154 TCU ALQDS T03110250;,,,,,,,,,,,,,,,,,,,,,,,,,,,,
72208013880,2003-07-20T16:00:00,FM-15,C,,SE,0.25,mi,"TEMP, PRECIP, SNOW",,,"MMTS, SRG, SNOWBOARD",,,WFO CHS,,,,,,,,,,,,,,,,,,,,,,,,,,,29.99,77,86,0,,0.03,6,75,29.98,27,29.94,9.94,80,150,,14,,,,,,,,,,,,,,,,,,,,,,,,,,,,,,,,,,,,,MET091KCHS 202056Z 15012KT 10SM BKN027TCU 30/25 A2999 RMK AO2 SLP153 TCU SW-N-NE T03000250 56010;,,,,,,,,,,,,,,,,,,,,,,,,,,,,
72208013880,2003-07-20T16:02:00,FM-16,4,,SE,0.25,mi,"TEMP, PRECIP, SNOW",,,"MMTS, SRG, SNOWBOARD",,,WFO CHS,,,,,,,,,,,,,,,,,,,,,,,,,,,29.99,77,84,,,,,79,29.98,,29.94,10,79,150,,11,,,,,,,,,,,,,,,,,,,,,,,,,,,,,,,,,,,,,MET060KCHS 202102Z 15010KT 10SM BKN048 BKN080 29/25 A2999 RMK AO2;,,,,,,,,,,,,,,,,,,,,,,,,,,,,
72208013880,2003-07-20T17:00:00,FM-15,C,,SE,0.25,mi,"TEMP, PRECIP, SNOW",,,"MMTS, SRG, SNOWBOARD",,,WFO CHS,,,,,,,,,,,,,,,,,,,,,,,,,,,29.98,75,84,0,,,,74,29.98,,29.93,9.94,78,170,,12,,,,,,,,,,,,,,,,,,,,,,,,,,,,,,,,,,,,,MET077KCHS 202156Z 17010KT 10SM SCT022 BKN033 29/24 A2998 RMK AO2 SLP153 T02890239;,,,,,,,,,,,,,,,,,,,,,,,,,,,,
72208013880,2003-07-27T16:02:00,FM-16,4,,SE,0.25,mi,"TEMP, PRECIP, SNOW",,,"MMTS, SRG, SNOWBOARD",,,WFO CHS,,,,,,,,,,,,,,,,,,,,,,,,,,,30.12,75,79,T,||RA,,,89,30.11,30,30.07,10,76,170,,7,,,,,,,,,,,,,,,,,,,,,,,,,,,,,,,,,,,,,MET092KCHS 272102Z 17006KT 10SM -RA BKN030CB BKN039 OVC085 26/24 A3012 RMK AO2 CB NE MOV NE P0000;,,,,,,,,,,,,,,,,,,,,,,,,,,,,
72208013880,2003-07-31T16:00:00,FM-15,C,,SE,0.25,mi,"TEMP, PRECIP, SNOW",,,"MMTS, SRG, SNOWBOARD",,,WFO CHS,,,,,,,,,,,,,,,,,,,,,,,,,,,30.04,77,87,0,||TS TS,0.04,6,72,30.04,,29.99,9.94,80,160,,13,,,,,,,,,,,,,,,,,,,,,,,,,,,,,,,,,,,,,MET129KCHS 312056Z 16011KT 10SM TS SCT035 BKN250 31/25 A3004 RMK AO2 TSB56 SLP173 OCNL LTGCG TS N MOVG N CB W-N MOVG N T03060250 56014;,,,,,,,,,,,,,,,,,,,,,,,,,,,,
72208013880,2003-08-02T12:56:00,FM-15,4,,SE,0.25,mi,"TEMP, PRECIP, SNOW",,,"MMTS, SRG, SNOWBOARD",,,WFO CHS,,,,,,,,,,,,,,,,,,,,,,,,,,,30.07,73,88,,,0.02,8,62,30.07,39,30.02,10,77,160,,10,,,,,,,,,,,,,,,,,,,,,,,,,,,,,,,,,,,,,MET106KCHS 021756Z 16009KT 10SM SCT040TCU SCT250 31/23 A3007 RMK AO2 SLP183 TCU W-N T03110233 10311 20244 58008;,,,,,,,,,,,,,,,,,,,,,,,,,,,,
72208013880,2003-08-02T13:00:00,SY-MT,C,,SE,0.25,mi,"TEMP, PRECIP, SNOW",,,"MMTS, SRG, SNOWBOARD",,,WFO CHS,,,,,,,,,,,,,,,,,,,,,,,,,,,30.07,74,88,0,,0.02,8,63,30.07,,30.02,9.94,78,160,,10,,,,,,,,,,,,,,,,,,,,,,,,,,,,,,,,,,,,,SYN092AAXX  02184 72208 32666 41609 10311 20233 30167 40183 58008 91756 333 10311 20233 555 90218;,,,,,,,,,,,,,,,,,,,,,,,,,,,,
72208013880,2003-08-02T16:00:00,FM-15,C,,SE,0.25,mi,"TEMP, PRECIP, SNOW",,,"MMTS, SRG, SNOWBOARD",,,WFO CHS,,,,,,,,,,,,,,,,,,,,,,,,,,,30.06,73,87,0,,0.01,5,63,30.06,,30.01,9.94,77,170,,14,,,,,,,,,,,,,,,,,,,,,,,,,,,,,,,,,,,,,MET083KCHS 022056Z 17012KT 10SM FEW033 BKN250 31/23 A3006 RMK AO2 SLP178 T03060228 55005;,,,,,,,,,,,,,,,,,,,,,,,,,,,,
72208013880,2003-08-02T17:00:00,FM-15,C,,SE,0.25,mi,"TEMP, PRECIP, SNOW",,,"MMTS, SRG, SNOWBOARD",,,WFO CHS,,,,,,,,,,,,,,,,,,,,,,,,,,,30.06,73,85,0,,,,68,30.05,,30.01,9.94,77,170,,13,,,,,,,,,,,,,,,,,,,,,,,,,,,,,,,,,,,,,MET074KCHS 022156Z 17011KT 10SM CLR BKN250 29/23 A3006 RMK AO2 SLP177 T02940228;,,,,,,,,,,,,,,,,,,,,,,,,,,,,
72208013880,2003-08-03T12:00:00,FM-15,C,,SE,0.25,mi,"TEMP, PRECIP, SNOW",,,"MMTS, SRG, SNOWBOARD",,,WFO CHS,,,,,,,,,,,,,,,,,,,,,,,,,,,30.08,75,83,0,,,,77,30.08,20,30.03,9.94,77,150,,7,,,,,,,,,,,,,,,,,,,,,,,,,,,,,,,,,,,,,MET093KCHS 031656Z 15006KT 10SM SCT020TCU SCT180 BKN250 28/24 A3008 RMK AO2 SLP185 TCU W T02830239;,,,,,,,,,,,,,,,,,,,,,,,,,,,,
72208013880,2003-08-03T14:00:00,FM-15,C,,SE,0.25,mi,"TEMP, PRECIP, SNOW",,,"MMTS, SRG, SNOWBOARD",,,WFO CHS,,,,,,,,,,,,,,,,,,,,,,,,,,,30.04,74,83,0.01,,,,74,30.04,32,29.99,9.94,77,150,,10,,,,,,,,,,,,,,,,,,,,,,,,,,,,,,,,,,,,,MET135KCHS 031856Z 15009KT 10SM FEW025 SCT032TCU SCT070 28/23 A3004 RMK AO2 RAB10E52 SLP172 VCSH N AND SE CB DSNT NW TCU N-S P0001 T02830233;,,,,,,,,,,,,,,,,,,,,,,,,,,,,
72208013880,2003-08-03T15:00:00,FM-15,C,,SE,0.25,mi,"TEMP, PRECIP, SNOW",,,"MMTS, SRG, SNOWBOARD",,,WFO CHS,,,,,,,,,,,,,,,,,,,,,,,,,,,30.01,76,85,0,,,,75,30.01,,29.96,9.94,79,160,,10,,,,,,,,,,,,,,,,,,,,,,,,,,,,,,,,,,,,,MET097KCHS 031956Z 16009KT 10SM FEW025 SCT120 BKN250 29/24 A3001 RMK AO2 SLP162 CB DSNT W-NW T02940244;,,,,,,,,,,,,,,,,,,,,,,,,,,,,
72208013880,2003-08-03T16:00:00,FM-15,C,,SE,0.25,mi,"TEMP, PRECIP, SNOW",,,"MMTS, SRG, SNOWBOARD",,,WFO CHS,,,,,,,,,,,,,,,,,,,,,,,,,,,30.01,74,86,0,,0.06,6,67,30,,29.96,9.94,78,170,,15,,,,,,,,,,,,,,,,,,,,,,,,,,,,,,,,,,,,,MET105KCHS 032056Z 17013KT 10SM FEW025 BKN250 30/23 A3001 RMK AO2 SLP160 CB DSNT N AND W 60001 T03000233 56019;,,,,,,,,,,,,,,,,,,,,,,,,,,,,
72208013880,2003-08-03T17:00:00,FM-15,C,,SE,0.25,mi,"TEMP, PRECIP, SNOW",,,"MMTS, SRG, SNOWBOARD",,,WFO CHS,,,,,,,,,,,,,,,,,,,,,,,,,,,30.02,73,84,0,,,,70,30.02,,29.97,9.94,76,170,,16,,,,,,,,,,,,,,,,,,,,,,,,,,,,,,,,,,,,,MET104KCHS 032156Z 17014KT 10SM FEW025 SCT030 SCT075 BKN250 29/23 A3002 RMK AO2 SLP165 CB DSNT N-NW T02890228;,,,,,,,,,,,,,,,,,,,,,,,,,,,,
72208013880,2003-08-08T16:43:00,FM-16,4,,SE,0.25,mi,"TEMP, PRECIP, SNOW",,,"MMTS, SRG, SNOWBOARD",,,WFO CHS,,,,,,,,,,,,,,,,,,,,,,,,,,,29.86,75,82,,,,,79,29.85,,29.81,9,77,160,,15,,,,,,,,,,,,,,,,,,,,,,,,,,,,,,,,,,,,,MET079SPECI KCHS 082143Z 16013KT 9SM FEW017 BKN023 BKN031 OVC250 28/24 A2986 RMK AO2;,,,,,,,,,,,,,,,,,,,,,,,,,,,,
72208013880,2003-08-08T17:00:00,FM-15,C,,SE,0.25,mi,"TEMP, PRECIP, SNOW",,,"MMTS, SRG, SNOWBOARD",,,WFO CHS,,,,,,,,,,,,,,,,,,,,,,,,,,,29.86,75,82,0,,,,79,29.85,,29.81,8.95,77,170,,12,,,,,,,,,,,,,,,,,,,,,,,,,,,,,,,,,,,,,MET083KCHS 082156Z 17010KT 9SM SCT017 BKN023 OVC250 28/24 A2986 RMK AO2 SLP110 T02780239;,,,,,,,,,,,,,,,,,,,,,,,,,,,,
72208013880,2003-08-09T16:00:00,FM-15,C,,SE,0.25,mi,"TEMP, PRECIP, SNOW",,,"MMTS, SRG, SNOWBOARD",,,WFO CHS,,,,,,,,,,,,,,,,,,,,,,,,,,,29.91,76,85,T,,0.01,5,75,29.9,39,29.86,9.94,79,160,,14,,,,,,,,,,,,,,,,,,,,,,,,,,,,,,,,,,,,,MET118KCHS 092056Z 16012KT 10SM FEW040TCU SCT120 BKN250 29/24 A2991 RMK AO2 RAE01 SLP126 TCU NW P0000 60000 T02940244 55003;,,,,,,,,,,,,,,,,,,,,,,,,,,,,
72208013880,2003-08-09T17:00:00,FM-15,C,,SE,0.25,mi,"TEMP, PRECIP, SNOW",,,"MMTS, SRG, SNOWBOARD",,,WFO CHS,,,,,,,,,,,,,,,,,,,,,,,,,,,29.9,75,83,0,,,,77,29.9,,29.85,9.94,77,160,,16,,,,,,,,,,,,,,,,,,,,,,,,,,,,,,,,,,,,,MET096KCHS 092156Z 16014KT 10SM FEW045 SCT140 OVC250 28/24 A2990 RMK AO2 SLP124 CB DSNT NNE T02830239;,,,,,,,,,,,,,,,,,,,,,,,,,,,,
72208013880,2003-08-10T17:02:00,FM-16,4,,SE,0.25,mi,"TEMP, PRECIP, SNOW",,,"MMTS, SRG, SNOWBOARD",,,WFO CHS,,,,,,,,,,,,,,,,,,,,,,,,,,,29.91,73,82,,,,,74,29.91,,29.86,10,76,170,,15,,,,,,,,,,,,,,,,,,,,,,,,,,,,,,,,,,,,,MET053KCHS 102202Z 17013KT 10SM BKN027 28/23 A2991 RMK AO2;,,,,,,,,,,,,,,,,,,,,,,,,,,,,
72208013880,2003-08-11T15:00:00,FM-15,C,,SE,0.25,mi,"TEMP, PRECIP, SNOW",,,"MMTS, SRG, SNOWBOARD",,,WFO CHS,,,,,,,,,,,,,,,,,,,,,,,,,,,29.94,75,85,0,,,,72,29.94,30,29.89,8.95,78,160,,10,,,,,,,,,,,,,,,,,,,,,,,,,,,,,,,,,,,,,MET093KCHS 111956Z 16009KT 9SM BKN030CB 29/24 A2994 RMK AO2 SLP138 SHRA CB ALQDS MOVG NE T02940239;,,,,,,,,,,,,,,,,,,,,,,,,,,,,
72208013880,2003-08-11T16:00:00,FM-15,C,,SE,0.25,mi,"TEMP, PRECIP, SNOW",,,"MMTS, SRG, SNOWBOARD",,,WFO CHS,,,,,,,,,,,,,,,,,,,,,,,,,,,29.95,74,84,0,,0.03,5,72,29.94,,29.9,7.95,77,160,,12,,,,,,,,,,,,,,,,,,,,,,,,,,,,,,,,,,,,,MET082KCHS 112056Z 16010KT 8SM FEW049 BKN250 29/23 A2995 RMK AO2 SLP140 T02890233 55011;,,,,,,,,,,,,,,,,,,,,,,,,,,,,
72208013880,2003-08-11T17:00:00,FM-15,C,,SE,0.25,mi,"TEMP, PRECIP, SNOW",,,"MMTS, SRG, SNOWBOARD",,,WFO CHS,,,,,,,,,,,,,,,,,,,,,,,,,,,29.96,74,82,0,,,,77,29.95,,29.91,6.96,76,170,,12,,,,,,,,,,,,,,,,,,,,,,,,,,,,,,,,,,,,,MET076KCHS 112156Z 17010KT 7SM FEW050 OVC250 28/23 A2996 RMK AO2 SLP143 T02780233;,,,,,,,,,,,,,,,,,,,,,,,,,,,,
72208013880,2003-08-12T12:56:00,FM-15,4,,SE,0.25,mi,"TEMP, PRECIP, SNOW",,,"MMTS, SRG, SNOWBOARD",,,WFO CHS,,,,,,,,,,,,,,,,,,,,,,,,,,,30.07,73,88,0.02,,0,0,62,30.06,,30.02,10,77,150,,7,,,,,,,,,,,,,,,,,,,,,,,,,,,,,,,,,,,,,MET120KCHS 121756Z 15006KT 10SM FEW028 SCT110 BKN250 31/23 A3007 RMK AO2 RAE13 SLP181 P0002 60023 T03060233 10306 20250 50000;,,,,,,,,,,,,,,,,,,,,,,,,,,,,
72208013880,2003-08-12T13:00:00,SY-MT,C,,SE,0.25,mi,"TEMP, PRECIP, SNOW",,,"MMTS, SRG, SNOWBOARD",,,WFO CHS,,,,,,,,,,,,,,,,,,,,,,,,,,,30.07,74,87,0.02,,0,0,65,30.06,,30.02,9.94,78,150,,7,,,,,,,,,,,,,,,,,,,,,,,,,,,,,,,,,,,,,SYN098AAXX  12184 72208 12566 61506 10306 20233 30167 40181 50000 60061 91756 333 10306 20233 555 91218;,,,,,,,,,,,,,,,,,,,,,,,,,,,,
72208013880,2003-08-12T15:00:00,FM-15,C,,SE,0.25,mi,"TEMP, PRECIP, SNOW",,,"MMTS, SRG, SNOWBOARD",,,WFO CHS,,,,,,,,,,,,,,,,,,,,,,,,,,,30.07,74,86,0,,,,67,30.07,,30.02,9.94,78,150,,13,,,,,,,,,,,,,,,,,,,,,,,,,,,,,,,,,,,,,MET088KCHS 121956Z 15011KT 10SM FEW044 BKN250 30/23 A3007 RMK AO2 SLP182 TCU DSNT N T03000233;,,,,,,,,,,,,,,,,,,,,,,,,,,,,
72208013880,2003-08-12T17:00:00,FM-15,C,,SE,0.25,mi,"TEMP, PRECIP, SNOW",,,"MMTS, SRG, SNOWBOARD",,,WFO CHS,,,,,,,,,,,,,,,,,,,,,,,,,,,30.1,75,82,0,,,,79,30.09,,30.05,9.94,77,170,,10,,,,,,,,,,,,,,,,,,,,,,,,,,,,,,,,,,,,,MET077KCHS 122156Z 17009KT 10SM FEW045 OVC250 28/24 A3010 RMK AO2 SLP190 T02780239;,,,,,,,,,,,,,,,,,,,,,,,,,,,,
72208013880,2003-08-15T15:00:00,FM-15,C,,SE,0.25,mi,"TEMP, PRECIP, SNOW",,,"MMTS, SRG, SNOWBOARD",,,WFO CHS,,,,,,,,,,,,,,,,,,,,,,,,,,,30.15,75,88,0,,,,66,30.15,44,30.1,9.94,79,150,,13,,,,,,,,,,,,,,,,,,,,,,,,,,,,,,,,,,,,,MET083KCHS 151956Z 15011KT 10SM FEW045TCU 31/24 A3015 RMK AO2 SLP210 TCU ALQDS T03110239;,,,,,,,,,,,,,,,,,,,,,,,,,,,,
72208013880,2003-08-15T16:00:00,FM-15,C,,SE,0.25,mi,"TEMP, PRECIP, SNOW",,,"MMTS, SRG, SNOWBOARD",,,WFO CHS,,,,,,,,,,,,,,,,,,,,,,,,,,,30.14,74,87,0,,0.06,6,65,30.14,37,30.09,9.94,78,150,,10,,,,,,,,,,,,,,,,,,,,,,,,,,,,,,,,,,,,,MET087KCHS 152056Z 15009KT 10SM FEW038TCU 31/23 A3014 RMK AO2 SLP206 TCU W-N T03060233 56020;,,,,,,,,,,,,,,,,,,,,,,,,,,,,
72208013880,2003-08-15T17:00:00,FM-15,C,,SE,0.25,mi,"TEMP, PRECIP, SNOW",,,"MMTS, SRG, SNOWBOARD",,,WFO CHS,,,,,,,,,,,,,,,,,,,,,,,,,,,30.13,73,87,0,,,,63,30.13,30,30.08,9.94,77,160,,9,,,,,,,,,,,,,,,,,,,,,,,,,,,,,,,,,,,,,MET079KCHS 152156Z 16008KT 10SM FEW030TCU 31/23 A3013 RMK AO2 SLP202 TCU N T03060228;,,,,,,,,,,,,,,,,,,,,,,,,,,,,
72208013880,2003-08-19T15:00:00,FM-15,C,,SE,0.25,mi,"TEMP, PRECIP, SNOW",,,"MMTS, SRG, SNOWBOARD",,,WFO CHS,,,,,,,,,,,,,,,,,,,,,,,,,,,30.08,75,87,0,||HZ,,,67,30.07,32,30.03,5.97,78,150,,7,,,,,,,,,,,,,,,,,,,,,,,,,,,,,,,,,,,,,MET092KCHS 191956Z 15006KT 6SM HZ SCT032TCU BKN200 31/24 A3008 RMK AO2 SLP184 TCU ALQDS T03060239;,,,,,,,,,,,,,,,,,,,,,,,,,,,,
72208013880,2003-08-19T16:00:00,FM-15,C,,SE,0.25,mi,"TEMP, PRECIP, SNOW",,,"MMTS, SRG, SNOWBOARD",,,WFO CHS,,,,,,,,,,,,,,,,,,,,,,,,,,,30.08,76,86,0,,0.02,6,72,30.07,35,30.03,6.96,79,160,,10,,,,,,,,,,,,,,,,,,,,,,,,,,,,,,,,,,,,,MET090KCHS 192056Z 16009KT 7SM SCT036TCU 30/24 A3008 RMK AO2 SLP184 TCU W AND N T03000244 56007;,,,,,,,,,,,,,,,,,,,,,,,,,,,,
72208013880,2003-08-19T17:00:00,FM-15,C,,SE,0.25,mi,"TEMP, PRECIP, SNOW",,,"MMTS, SRG, SNOWBOARD",,,WFO CHS,,,,,,,,,,,,,,,,,,,,,,,,,,,30.07,75,85,0,||HZ TS TS,,,72,30.07,30,30.02,5.97,78,150,,8,,,,,,,,,,,,,,,,,,,,,,,,,,,,,,,,,,,,,MET105KCHS 192156Z 15007KT 6SM TS HZ SCT030CB 29/24 A3007 RMK AO2 TSB56 SLP182 OCNL LTGCG TS N STNRY T02940239;,,,,,,,,,,,,,,,,,,,,,,,,,,,,
72208013880,2003-08-24T13:35:00,FM-16,4,,SE,0.25,mi,"TEMP, PRECIP, SNOW",,,"MMTS, SRG, SNOWBOARD",,,WFO CHS,,,,,,,,,,,,,,,,,,,,,,,,,,,30.03,73,77,T,||SHRA TS,,,89,30.02,,29.98,4,74,150,26,15,,,,,,,,,,,,,,,,,,,,,,,,,,,,,,,,,,,,,MET138KCHS 241835Z 15013G23KT 110V200 4SM -TSRA BR FEW015 SCT023 OVC032 25/23 A3003 RMK AO2 WSHFT 1816 TSB15RAB26 FRQ LTGCG TS OHD MOV SW P0000;,,,,,,,,,,,,,,,,,,,,,,,,,,,,
72208013880,2003-08-24T15:46:00,FM-16,4,,SE,0.25,mi,"TEMP, PRECIP, SNOW",,,"MMTS, SRG, SNOWBOARD",,,WFO CHS,,,,,,,,,,,,,,,,,,,,,,,,,,,30.04,75,79,T,,,,89,30.03,,29.99,6,76,160,,8,,,,,,,,,,,,,,,,,,,,,,,,,,,,,,,,,,,,,MET095KCHS 242046Z 16007KT 6SM BR FEW010 BKN080 26/24 A3004 RMK AO2 TSE41RAB36E45 CB NE MOV NE P0000;,,,,,,,,,,,,,,,,,,,,,,,,,,,,
72208013880,2003-08-27T15:00:00,FM-15,C,,SE,0.25,mi,"TEMP, PRECIP, SNOW",,,"MMTS, SRG, SNOWBOARD",,,WFO CHS,,,,,,,,,,,,,,,,,,,,,,,,,,,30.03,77,91,0,,,,64,30.03,44,29.98,9.94,81,170,,13,,,,,,,,,,,,,,,,,,,,,,,,,,,,,,,,,,,,,MET081KCHS 271956Z 17011KT 10SM FEW045TCU 33/25 A3003 RMK AO2 SLP169 TCU W-N T03280250;,,,,,,,,,,,,,,,,,,,,,,,,,,,,
72208013880,2003-08-27T16:00:00,FM-15,C,,SE,0.25,mi,"TEMP, PRECIP, SNOW",,,"MMTS, SRG, SNOWBOARD",,,WFO CHS,,,,,,,,,,,,,,,,,,,,,,,,,,,30.02,76,90,0,,0.05,6,63,30.02,44,29.97,9.94,80,170,,9,,,,,,,,,,,,,,,,,,,,,,,,,,,,,,,,,,,,,MET086KCHS 272056Z 17008KT 10SM FEW045TCU 32/24 A3002 RMK AO2 SLP165 TCU NW T03220244 56017;,,,,,,,,,,,,,,,,,,,,,,,,,,,,
72208013880,2003-08-28T15:00:00,FM-15,C,,SE,0.25,mi,"TEMP, PRECIP, SNOW",,,"MMTS, SRG, SNOWBOARD",,,WFO CHS,,,,,,,,,,,,,,,,,,,,,,,,,,,30.09,76,91,0,,,,61,30.09,,30.04,9.94,80,170,,12,,,,,,,,,,,,,,,,,,,,,,,,,,,,,,,,,,,,,MET077KCHS 281956Z 17010KT 10SM SCT039 SCT050 33/24 A3009 RMK AO2 SLP188 T03280244;,,,,,,,,,,,,,,,,,,,,,,,,,,,,
72208013880,2003-08-28T16:00:00,FM-15,C,,SE,0.25,mi,"TEMP, PRECIP, SNOW",,,"MMTS, SRG, SNOWBOARD",,,WFO CHS,,,,,,,,,,,,,,,,,,,,,,,,,,,30.09,71,90,0,,0.03,6,54,30.09,,30.04,9.94,77,160,,14,,,,,,,,,,,,,,,,,,,,,,,,,,,,,,,,,,,,,MET076KCHS 282056Z 16012KT 10SM FEW040 32/22 A3009 RMK AO2 SLP188 T03220217 56009;,,,,,,,,,,,,,,,,,,,,,,,,,,,,
72208013880,2003-08-29T12:56:00,FM-16,4,,SE,0.25,mi,"TEMP, PRECIP, SNOW",,,"MMTS, SRG, SNOWBOARD",,,WFO CHS,,,,,,,,,,,,,,,,,,,,,,,,,,,30.17,73,90,,,0.03,8,59,30.17,,30.12,10,78,170,,8,,,,,,,,,,,,,,,,,,,,,,,,,,,,,,,,,,,,,MET120KCHS 291756Z 17007KT 10SM SCT036 SCT200 BKN250 32/23 A3017 RMK AO2 SLP217 CB DSNT NE AND SW T03220233 10322 20261 58010;,,,,,,,,,,,,,,,,,,,,,,,,,,,,
72208013880,2003-08-29T13:00:00,SY-MT,C,,SE,0.25,mi,"TEMP, PRECIP, SNOW",,,"MMTS, SRG, SNOWBOARD",,,WFO CHS,,,,,,,,,,,,,,,,,,,,,,,,,,,30.17,74,90,0,,0.03,8,59,30.17,,30.12,9.94,79,170,,8,,,,,,,,,,,,,,,,,,,,,,,,,,,,,,,,,,,,,SYN092AAXX  29184 72208 32666 61707 10322 20233 30201 40217 58010 91756 333 10322 20261 555 92918;,,,,,,,,,,,,,,,,,,,,,,,,,,,,
72208013880,2003-08-29T15:00:00,FM-15,C,,SE,0.25,mi,"TEMP, PRECIP, SNOW",,,"MMTS, SRG, SNOWBOARD",,,WFO CHS,,,,,,,,,,,,,,,,,,,,,,,,,,,30.14,71,90,0,,,,54,30.14,,30.09,9.94,77,170,,9,,,,,,,,,,,,,,,,,,,,,,,,,,,,,,,,,,,,,MET087KCHS 291956Z 17008KT 10SM FEW030 SCT250 32/22 A3014 RMK AO2 SLP206 CB DSNT W T03220217;,,,,,,,,,,,,,,,,,,,,,,,,,,,,
72208013880,2003-08-29T17:00:00,FM-15,C,,SE,0.25,mi,"TEMP, PRECIP, SNOW",,,"MMTS, SRG, SNOWBOARD",,,WFO CHS,,,,,,,,,,,,,,,,,,,,,,,,,,,30.13,73,88,0,,,,61,30.12,,30.08,9.94,77,160,,9,,,,,,,,,,,,,,,,,,,,,,,,,,,,,,,,,,,,,MET077KCHS 292156Z 16008KT 10SM FEW030 SCT250 31/23 A3013 RMK AO2 SLP201 T03110228;,,,,,,,,,,,,,,,,,,,,,,,,,,,,
72208013880,2003-08-30T12:00:00,FM-15,C,,SE,0.25,mi,"TEMP, PRECIP, SNOW",,,"MMTS, SRG, SNOWBOARD",,,WFO CHS,,,,,,,,,,,,,,,,,,,,,,,,,,,30.21,76,90,0,,,,63,30.21,36,30.16,9.94,80,160,,12,,,,,,,,,,,,,,,,,,,,,,,,,,,,,,,,,,,,,MET105KCHS 301656Z 16010KT 10SM BKN037TCU BKN250 32/24 A3021 RMK AO2 SLP229 CB DSNT E AND SE TCU W-N T03220244;,,,,,,,,,,,,,,,,,,,,,,,,,,,,
72208013880,2003-08-30T12:32:00,FM-16,4,,SE,0.25,mi,"TEMP, PRECIP, SNOW",,,"MMTS, SRG, SNOWBOARD",,,WFO CHS,,,,,,,,,,,,,,,,,,,,,,,,,,,30.21,77,91,,||TS,,,63,30.2,33,30.16,10,81,160,,10,,,,,,,,,,,,,,,,,,,,,,,,,,,,,,,,,,,,,MET127KCHS 301732Z COR 16009KT 10SM TS SCT034CB BKN045 BKN250 33/25 A3021 RMK AO2 TSB29 OCNL LTGCG TS N MOV SLO N CB DSNT SE TCU W-N;,,,,,,,,,,,,,,,,,,,,,,,,,,,,
72208013880,2003-08-30T12:56:00,FM-15,4,,SE,0.25,mi,"TEMP, PRECIP, SNOW",,,"MMTS, SRG, SNOWBOARD",,,WFO CHS,,,,,,,,,,,,,,,,,,,,,,,,,,,30.21,75,91,,,0.01,8,59,30.2,33,30.16,10,80,150,,10,,,,,,,,,,,,,,,,,,,,,,,,,,,,,,,,,,,,,MET162KCHS 301756Z 15009KT 10SM SCT030 BKN034CB BKN250 33/24 A3021 RMK AO2 TSB29E53 SLP228 CB VCSH N MOV SLO N CB DSNT SE-S TCU ALQDS 60000 T03280244 10328 20256 58004;,,,,,,,,,,,,,,,,,,,,,,,,,,,,
72208013880,2003-08-30T13:00:00,SY-MT,C,,SE,0.25,mi,"TEMP, PRECIP, SNOW",,,"MMTS, SRG, SNOWBOARD",,,WFO CHS,,,,,,,,,,,,,,,,,,,,,,,,,,,30.21,76,91,0,,0.01,8,61,30.2,,30.16,9.94,80,150,,10,,,,,,,,,,,,,,,,,,,,,,,,,,,,,,,,,,,,,SYN098AAXX  30184 72208 12566 61509 10328 20244 30214 40228 58004 69901 91756 333 10328 20256 555 93018;,,,,,,,,,,,,,,,,,,,,,,,,,,,,
72208013880,2003-08-30T14:00:00,FM-15,C,,SE,0.25,mi,"TEMP, PRECIP, SNOW",,,"MMTS, SRG, SNOWBOARD",,,WFO CHS,,,,,,,,,,,,,,,,,,,,,,,,,,,30.19,76,91,0,,,,61,30.18,36,30.14,9.94,80,150,,10,,,,,,,,,,,,,,,,,,,,,,,,,,,,,,,,,,,,,MET120KCHS 301856Z 15009KT 10SM BKN037TCU BKN250 33/24 A3019 RMK AO2 SLP221 CB SHRA DSNT N CB DSNT NE TCU S AND W-N T03280244;,,,,,,,,,,,,,,,,,,,,,,,,,,,,
72208013880,2003-08-30T16:00:00,FM-15,C,,SE,0.25,mi,"TEMP, PRECIP, SNOW",,,"MMTS, SRG, SNOWBOARD",,,WFO CHS,,,,,,,,,,,,,,,,,,,,,,,,,,,30.16,75,87,0,,0.04,6,67,30.16,,30.11,9.94,78,160,,13,,,,,,,,,,,,,,,,,,,,,,,,,,,,,,,,,,,,,MET083KCHS 302056Z 16011KT 10SM FEW030 SCT250 31/24 A3016 RMK AO2 SLP213 T03060239 56015;,,,,,,,,,,,,,,,,,,,,,,,,,,,,
72208013880,2003-08-31T12:56:00,FM-15,4,,SE,0.25,mi,"TEMP, PRECIP, SNOW",,,"MMTS, SRG, SNOWBOARD",,,WFO CHS,,,,,,,,,,,,,,,,,,,,,,,,,,,30.22,73,90,,,0.01,8,59,30.21,,30.17,10,78,160,,9,,,,,,,,,,,,,,,,,,,,,,,,,,,,,,,,,,,,,MET095KCHS 311756Z 16008KT 10SM SCT040 SCT250 32/23 A3022 RMK AO2 SLP231 T03220228 10322 20261 58005;,,,,,,,,,,,,,,,,,,,,,,,,,,,,
72208013880,2003-08-31T13:00:00,SY-MT,C,,SE,0.25,mi,"TEMP, PRECIP, SNOW",,,"MMTS, SRG, SNOWBOARD",,,WFO CHS,,,,,,,,,,,,,,,,,,,,,,,,,,,30.22,73,90,0,,0.01,8,58,30.21,,30.17,9.94,78,160,,9,,,,,,,,,,,,,,,,,,,,,,,,,,,,,,,,,,,,,SYN092AAXX  31184 72208 32666 41608 10322 20228 30217 40231 58005 91756 333 10322 20261 555 93118;,,,,,,,,,,,,,,,,,,,,,,,,,,,,
72208013880,2003-08-31T14:00:00,FM-15,C,,SE,0.25,mi,"TEMP, PRECIP, SNOW",,,"MMTS, SRG, SNOWBOARD",,,WFO CHS,,,,,,,,,,,,,,,,,,,,,,,,,,,30.2,74,89,0,,,,61,30.2,,30.15,9.94,78,160,,14,,,,,,,,,,,,,,,,,,,,,,,,,,,,,,,,,,,,,MET089KCHS 311856Z 16012KT 10SM SCT040 SCT250 32/23 A3020 RMK AO2 SLP226 TCU DSNT NW T03170233;,,,,,,,,,,,,,,,,,,,,,,,,,,,,
72208013880,2003-08-31T16:00:00,FM-15,C,,SE,0.25,mi,"TEMP, PRECIP, SNOW",,,"MMTS, SRG, SNOWBOARD",,,WFO CHS,,,,,,,,,,,,,,,,,,,,,,,,,,,30.19,75,87,0,,0.02,6,67,30.19,39,30.14,9.94,78,150,,10,,,,,,,,,,,,,,,,,,,,,,,,,,,,,,,,,,,,,MET094KCHS 312056Z 15009KT 10SM FEW040TCU SCT250 31/24 A3019 RMK AO2 SLP223 TCU SSE T03060239 56008;,,,,,,,,,,,,,,,,,,,,,,,,,,,,
72208013880,2003-08-31T17:00:00,FM-15,C,,SE,0.25,mi,"TEMP, PRECIP, SNOW",,,"MMTS, SRG, SNOWBOARD",,,WFO CHS,,,,,,,,,,,,,,,,,,,,,,,,,,,30.2,75,86,0,,,,70,30.19,,30.15,9.94,78,160,,10,,,,,,,,,,,,,,,,,,,,,,,,,,,,,,,,,,,,,MET077KCHS 312156Z 16009KT 10SM FEW040 SCT250 30/24 A3020 RMK AO2 SLP225 T03000239;,,,,,,,,,,,,,,,,,,,,,,,,,,,,
72208013880,2003-09-01T14:47:00,FM-16,4,,SE,0.25,mi,"TEMP, PRECIP, SNOW",,,"MMTS, SRG, SNOWBOARD",,,WFO CHS,,,,,,,,,,,,,,,,,,,,,,,,,,,,,,0.49,,,,,,,,,,150,,17,,,,,,,,,,,,,,,,,,,,,,,,,,,,,,,,,,,,,MET143KCHS 011947Z 15015KT 3/4SM +TSRA BR BKN002 BKN020 OVC029 23/23 A3021 RMK AO2 PK WND 16033/1930 WSHFT 1924 TSB32RAB33 OCNL LTGCG TS MOV N P0049;,,,,,,,,,,,,,,,,,,,,,,,,,,,,
72208013880,2003-09-02T12:00:00,FM-15,C,,SE,0.25,mi,"TEMP, PRECIP, SNOW",,,"MMTS, SRG, SNOWBOARD",,,WFO CHS,,,,,,,,,,,,,,,,,,,,,,,,,,,30.12,72,88,0,,,,59,30.12,34,30.07,9.94,77,160,,13,,,,,,,,,,,,,,,,,,,,,,,,,,,,,,,,,,,,,MET095KCHS 021656Z 16011KT 10SM FEW035CB SCT250 31/22 A3012 RMK AO2 SLP200 CB NW-NE MOV NW T03110222;,,,,,,,,,,,,,,,,,,,,,,,,,,,,
72208013880,2003-09-02T14:00:00,FM-15,C,,SE,0.25,mi,"TEMP, PRECIP, SNOW",,,"MMTS, SRG, SNOWBOARD",,,WFO CHS,,,,,,,,,,,,,,,,,,,,,,,,,,,30.09,74,87,0,,,,65,30.09,,30.04,9.94,78,150,,7,,,,,,,,,,,,,,,,,,,,,,,,,,,,,,,,,,,,,MET090KCHS 021856Z 15006KT 10SM FEW035 SCT090 31/23 A3009 RMK AO2 SLP189 CB DSNT NW-N T03060233;,,,,,,,,,,,,,,,,,,,,,,,,,,,,
72208013880,2003-09-02T15:00:00,FM-15,C,,SE,0.25,mi,"TEMP, PRECIP, SNOW",,,"MMTS, SRG, SNOWBOARD",,,WFO CHS,,,,,,,,,,,,,,,,,,,,,,,,,,,30.08,75,89,0,,,,63,30.08,,30.03,9.94,79,170,17,12,,,,,,,,,,,,,,,,,,,,,,,,,,,,,,,,,,,,,MET088KCHS 021956Z 17010G15KT 130V200 10SM SCT032 BKN250 32/24 A3008 RMK AO2 SLP185 T03170239;,,,,,,,,,,,,,,,,,,,,,,,,,,,,
72208013880,2003-09-02T16:00:00,FM-15,C,,SE,0.25,mi,"TEMP, PRECIP, SNOW",,,"MMTS, SRG, SNOWBOARD",,,WFO CHS,,,,,,,,,,,,,,,,,,,,,,,,,,,30.07,72,86,0,,0.04,6,63,30.07,34,30.02,9.94,76,160,,14,,,,,,,,,,,,,,,,,,,,,,,,,,,,,,,,,,,,,MET092KCHS 022056Z 16012KT 10SM FEW035TCU BKN250 30/22 A3007 RMK AO2 SLP182 TCU N T03000222 56013;,,,,,,,,,,,,,,,,,,,,,,,,,,,,
72208013880,2003-09-02T17:00:00,FM-15,C,,SE,0.25,mi,"TEMP, PRECIP, SNOW",,,"MMTS, SRG, SNOWBOARD",,,WFO CHS,,,,,,,,,,,,,,,,,,,,,,,,,,,30.07,74,85,0,,,,70,30.07,,30.02,9.94,77,160,,12,,,,,,,,,,,,,,,,,,,,,,,,,,,,,,,,,,,,,MET077KCHS 022156Z 16010KT 10SM FEW035 BKN250 29/23 A3007 RMK AO2 SLP183 T02940233;,,,,,,,,,,,,,,,,,,,,,,,,,,,,
72208013880,2003-09-03T12:00:00,FM-15,C,,SE,0.25,mi,"TEMP, PRECIP, SNOW",,,"MMTS, SRG, SNOWBOARD",,,WFO CHS,,,,,,,,,,,,,,,,,,,,,,,,,,,30.07,74,85,0.01,,,,70,30.07,28,30.02,9.94,77,150,,9,,,,,,,,,,,,,,,,,,,,,,,,,,,,,,,,,,,,,MET118KCHS 031656Z 15008KT 10SM SCT028TCU BKN060 BKN100 29/23 A3007 RMK AO2 RAB13E26 SLP182 TCU S DSNT W-NE P0001 T02940233;,,,,,,,,,,,,,,,,,,,,,,,,,,,,
72208013880,2003-09-03T16:00:00,FM-15,C,,SE,0.25,mi,"TEMP, PRECIP, SNOW",,,"MMTS, SRG, SNOWBOARD",,,WFO CHS,,,,,,,,,,,,,,,,,,,,,,,,,,,30.01,73,85,0,,0.05,6,68,30.01,,29.96,9.94,77,170,,14,,,,,,,,,,,,,,,,,,,,,,,,,,,,,,,,,,,,,MET100KCHS 032056Z 17012KT 10SM FEW034 SCT047 BKN250 29/23 A3001 RMK AO2 SLP162 TCU ALQDS T02940228 56017;,,,,,,,,,,,,,,,,,,,,,,,,,,,,
72208013880,2003-09-03T17:00:00,FM-15,C,,SE,0.25,mi,"TEMP, PRECIP, SNOW",,,"MMTS, SRG, SNOWBOARD",,,WFO CHS,,,,,,,,,,,,,,,,,,,,,,,,,,,30,74,85,0,,,,70,30,37,29.95,9.94,77,150,,10,,,,,,,,,,,,,,,,,,,,,,,,,,,,,,,,,,,,,MET090KCHS 032156Z 15009KT 10SM SCT029 BKN038TCU 29/23 A3000 RMK AO2 SLP159 TCU W-N-E T02940233;,,,,,,,,,,,,,,,,,,,,,,,,,,,,
72208013880,2003-09-13T17:00:00,FM-15,C,,SE,0.25,mi,"TEMP, PRECIP, SNOW",,,"MMTS, SRG, SNOWBOARD",,,WFO CHS,,,,,,,,,,,,,,,,,,,,,,,,,,,30.05,69,80,0,,,,69,30.05,,30,9.94,73,160,,10,,,,,,,,,,,,,,,,,,,,,,,,,,,,,,,,,,,,,MET070KCHS 132156Z 16009KT 10SM SCT044 27/21 A3005 RMK AO2 SLP175 T02670206;,,,,,,,,,,,,,,,,,,,,,,,,,,,,
72208013880,2003-09-20T14:56:00,FM-15,4,,SE,0.25,mi,"TEMP, PRECIP, SNOW",,,"MMTS, SRG, SNOWBOARD",,,WFO CHS,,,,,,,,,,,,,,,,,,,,,,,,,,,30.1,64,86,,,,,49,30.09,,30.05,10,72,160,,9,,,,,,,,,,,,,,,,,,,,,,,,,,,,,,,,,,,,,MET070KCHS 201956Z 16008KT 10SM FEW050 30/18 A3010 RMK AO2 SLP191 T03000178;,,,,,,,,,,,,,,,,,,,,,,,,,,,,
72208013880,2003-09-20T15:00:00,SY-MT,C,,SE,0.25,mi,"TEMP, PRECIP, SNOW",,,"MMTS, SRG, SNOWBOARD",,,WFO CHS,,,,,,,,,,,,,,,,,,,,,,,,,,,30.1,64,86,0,,0.03,8,48,30.09,CLR:00,30.08,9.94,72,160,,9,,,,,,,,,,,,,,,,,,,,,,,,,,,,,,,,,,,,,SYN092AAXX  20204 72208 32966 01905 10306 20172 30187 40201 58011 91756 333 10306 20178 555 92018;,,,,,,,,,,,,,,,,,,,,,,,,,,,,
72208013880,2003-09-20T16:00:00,FM-15,E,,SE,0.25,mi,"TEMP, PRECIP, SNOW",,,"MMTS, SRG, SNOWBOARD",,,WFO CHS,,,,,,,,,,,,,,,,,,,,,,,,,,,30.1,66,84,0,,,,55,30.1,,,9.94,,160,,12,,,,,,,,,,,,,,,,,,,,,,,,,,,,,,,,,,,,,,,,,,,,,,,,,,,,,,,,,,,,,,,,,
72208013880,2003-09-20T17:00:00,FM-15,C,,SE,0.25,mi,"TEMP, PRECIP, SNOW",,,"MMTS, SRG, SNOWBOARD",,,WFO CHS,,,,,,,,,,,,,,,,,,,,,,,,,,,30.11,64,82,0,,,,55,30.1,,30.06,9.94,70,160,,9,,,,,,,,,,,,,,,,,,,,,,,,,,,,,,,,,,,,,MET070KCHS 202156Z 16008KT 10SM FEW060 28/18 A3011 RMK AO2 SLP194 T02780178;,,,,,,,,,,,,,,,,,,,,,,,,,,,,
72208013880,2003-09-22T11:00:00,FM-15,C,,SE,0.25,mi,"TEMP, PRECIP, SNOW",,,"MMTS, SRG, SNOWBOARD",,,WFO CHS,,,,,,,,,,,,,,,,,,,,,,,,,,,30.08,74,84,0,,,,72,30.08,,30.03,9.94,77,160,,14,,,,,,,,,,,,,,,,,,,,,,,,,,,,,,,,,,,,,MET077KCHS 221556Z 16012KT 10SM BKN023 BKN250 29/23 A3008 RMK AO2 SLP186 T02890233;,,,,,,,,,,,,,,,,,,,,,,,,,,,,
72208013880,2003-09-22T11:29:00,FM-16,4,,SE,0.25,mi,"TEMP, PRECIP, SNOW",,,"MMTS, SRG, SNOWBOARD",,,WFO CHS,,,,,,,,,,,,,,,,,,,,,,,,,,,30.07,73,86,,,,,66,30.07,,30.02,10,77,170,,15,,,,,,,,,,,,,,,,,,,,,,,,,,,,,,,,,,,,,MET064KCHS 221629Z COR 17013KT 10SM BKN030 BKN250 30/23 A3007 RMK AO2;,,,,,,,,,,,,,,,,,,,,,,,,,,,,
72208013880,2003-09-22T11:43:00,FM-16,4,,SE,0.25,mi,"TEMP, PRECIP, SNOW",,,"MMTS, SRG, SNOWBOARD",,,WFO CHS,,,,,,,,,,,,,,,,,,,,,,,,,,,30.07,73,88,,,,,62,30.07,,30.02,10,77,160,21,14,,,,,,,,,,,,,,,,,,,,,,,,,,,,,,,,,,,,,MET063KCHS 221643Z 16012G18KT 10SM BKN029 BKN250 31/23 A3007 RMK AO2;,,,,,,,,,,,,,,,,,,,,,,,,,,,,
72208013880,2003-09-22T12:00:00,FM-15,E,,SE,0.25,mi,"TEMP, PRECIP, SNOW",,,"MMTS, SRG, SNOWBOARD",,,WFO CHS,,,,,,,,,,,,,,,,,,,,,,,,,,,30.06,74,86,0,,,,67,30.06,,,9.94,,170,,17,,,,,,,,,,,,,,,,,,,,,,,,,,,,,,,,,,,,,,,,,,,,,,,,,,,,,,,,,,,,,,,,,
72208013880,2003-09-22T12:39:00,FM-16,4,,SE,0.25,mi,"TEMP, PRECIP, SNOW",,,"MMTS, SRG, SNOWBOARD",,,WFO CHS,,,,,,,,,,,,,,,,,,,,,,,,,,,30.04,73,84,,,,,70,30.04,,29.99,10,76,170,,16,,,,,,,,,,,,,,,,,,,,,,,,,,,,,,,,,,,,,MET060KCHS 221739Z 17014KT 10SM SCT029 BKN250 29/23 A3004 RMK AO2;,,,,,,,,,,,,,,,,,,,,,,,,,,,,
72208013880,2003-09-22T15:00:00,FM-15,C,,SE,0.25,mi,"TEMP, PRECIP, SNOW",,,"MMTS, SRG, SNOWBOARD",,,WFO CHS,,,,,,,,,,,,,,,,,,,,,,,,,,,29.99,74,86,0,,,,67,29.98,,29.94,9.94,78,160,,15,,,,,,,,,,,,,,,,,,,,,,,,,,,,,,,,,,,,,MET077KCHS 221956Z 16013KT 10SM SCT030 BKN120 30/23 A2999 RMK AO2 SLP153 T03000233;,,,,,,,,,,,,,,,,,,,,,,,,,,,,
72208013880,2003-10-05T16:00:00,FM-15,C,,SE,0.25,mi,"TEMP, PRECIP, SNOW",,,"MMTS, SRG, SNOWBOARD",,,WFO CHS,,,,,,,,,,,,,,,,,,,,,,,,,,,29.99,60,80,0,,0.03,6,51,29.99,,29.94,9.94,67,150,,9,,,,,,,,,,,,,,,,,,,,,,,,,,,,,,,,,,,,,MET076KCHS 052056Z 15008KT 10SM BKN060 27/16 A2999 RMK AO2 SLP155 T02670156 56009;,,,,,,,,,,,,,,,,,,,,,,,,,,,,
72208013880,2003-10-05T17:00:00,FM-15,C,,SE,0.25,mi,"TEMP, PRECIP, SNOW",,,"MMTS, SRG, SNOWBOARD",,,WFO CHS,,,,,,,,,,,,,,,,,,,,,,,,,,,30,58,75,0,,,,55,30,,29.95,9.94,65,150,,9,,,,,,,,,,,,,,,,,,,,,,,,,,,,,,,,,,,,,MET070KCHS 052156Z 15008KT 10SM BKN060 24/14 A3000 RMK AO2 SLP159 T02390144;,,,,,,,,,,,,,,,,,,,,,,,,,,,,
72208013880,2003-10-08T15:45:00,FM-15,4,,SE,0.25,mi,"TEMP, PRECIP, SNOW",,,"MMTS, SRG, SNOWBOARD",,,WFO CHS,,,,,,,,,,,,,,,,,,,,,,,,,,,30.04,66,75,,,,,74,30.04,33,29.99,10,69,160,,8,,,,,,,,,,,,,,,,,,,,,,,,,,,,,,,,,,,,,MET095KCHS 082045Z 16007KT 10SM SCT022 BKN034TCU BKN043 24/19 A3004 RMK AO2 TSE40 TS DSPTD TCU E-S-W;,,,,,,,,,,,,,,,,,,,,,,,,,,,,
72208013880,2003-10-08T16:07:00,FM-16,4,,SE,0.25,mi,"TEMP, PRECIP, SNOW",,,"MMTS, SRG, SNOWBOARD",,,WFO CHS,,,,,,,,,,,,,,,,,,,,,,,,,,,30.04,68,75,,||TS,,,78,30.04,31,29.99,10,70,170,,7,,,,,,,,,,,,,,,,,,,,,,,,,,,,,,,,,,,,,MET110KCHS 082107Z 17006KT 10SM TS FEW024 SCT031CB OVC040 24/20 A3004 RMK AO2 TSB02 OCNL LTGCG S MOVG E TCU ALQDS /;,,,,,,,,,,,,,,,,,,,,,,,,,,,,
72208013880,2003-10-08T17:00:00,FM-15,C,,SE,0.25,mi,"TEMP, PRECIP, SNOW",,,"MMTS, SRG, SNOWBOARD",,,WFO CHS,,,,,,,,,,,,,,,,,,,,,,,,,,,30.05,67,74,0,||TS TS,,,79,30.05,22,30,9.94,69,170,,10,,,,,,,,,,,,,,,,,,,,,,,,,,,,,,,,,,,,,MET120KCHS 082156Z 17009KT 10SM TS BKN022CB OVC028 23/19 A3005 RMK AO2 TSB02 SLP176 OCNL LTGCG S MOVG E TCU ALQDS T02330194 /;,,,,,,,,,,,,,,,,,,,,,,,,,,,,
72208013880,2003-10-13T14:00:00,FM-15,C,,SE,0.25,mi,"TEMP, PRECIP, SNOW",,,"MMTS, SRG, SNOWBOARD",,,WFO CHS,,,,,,,,,,,,,,,,,,,,,,,,,,,29.94,64,81,0,,,,57,29.93,,29.89,9.94,70,150,,9,,,,,,,,,,,,,,,,,,,,,,,,,,,,,,,,,,,,,MET077KCHS 131856Z 15008KT 10SM SCT042 SCT090 27/18 A2994 RMK AO2 SLP136 T02720178;,,,,,,,,,,,,,,,,,,,,,,,,,,,,
72208013880,2003-10-13T17:00:00,FM-15,C,,SE,0.25,mi,"TEMP, PRECIP, SNOW",,,"MMTS, SRG, SNOWBOARD",,,WFO CHS,,,,,,,,,,,,,,,,,,,,,,,,,,,29.93,63,75,0,,,,66,29.93,,29.88,9.94,67,160,,9,,,,,,,,,,,,,,,,,,,,,,,,,,,,,,,,,,,,,MET070KCHS 132156Z 16008KT 10SM FEW090 24/17 A2993 RMK AO2 SLP134 T02390172;,,,,,,,,,,,,,,,,,,,,,,,,,,,,
72208013880,2003-10-14T12:00:00,FM-15,C,,SE,0.25,mi,"TEMP, PRECIP, SNOW",,,"MMTS, SRG, SNOWBOARD",,,WFO CHS,,,,,,,,,,,,,,,,,,,,,,,,,,,29.75,74,81,0,,,,79,29.74,16,29.7,9.94,76,170,,7,,,,,,,,,,,,,,,,,,,,,,,,,,,,,,,,,,,,,MET095KCHS 141656Z 17006KT 10SM SCT016TCU BKN040 BKN080 27/23 A2975 RMK AO2 SLP072 TCU N-S T02720233;,,,,,,,,,,,,,,,,,,,,,,,,,,,,
72208013880,2003-10-16T12:00:00,FM-15,C,,SE,0.25,mi,"TEMP, PRECIP, SNOW",,,"MMTS, SRG, SNOWBOARD",,,WFO CHS,,,,,,,,,,,,,,,,,,,,,,,,,,,30.22,47,73,0,,,,40,30.21,,30.17,9.94,59,150,,9,,,,,,,,,,,,,,,,,,,,,,,,,,,,,,,,,,,,,MET067KCHS 161656Z 15008KT 10SM CLR 23/08 A3022 RMK AO2 SLP231 T02280083;,,,,,,,,,,,,,,,,,,,,,,,,,,,,
72208013880,2003-10-16T15:00:00,FM-15,C,,SE,0.25,mi,"TEMP, PRECIP, SNOW",,,"MMTS, SRG, SNOWBOARD",,,WFO CHS,,,,,,,,,,,,,,,,,,,,,,,,,,,30.17,47,74,0,,,,38,30.17,,30.12,9.94,59,170,,9,,,,,,,,,,,,,,,,,,,,,,,,,,,,,,,,,,,,,MET067KCHS 161956Z 17008KT 10SM CLR 23/08 A3017 RMK AO2 SLP216 T02330083;,,,,,,,,,,,,,,,,,,,,,,,,,,,,
72208013880,2003-10-17T14:00:00,FM-15,C,,SE,0.25,mi,"TEMP, PRECIP, SNOW",,,"MMTS, SRG, SNOWBOARD",,,WFO CHS,,,,,,,,,,,,,,,,,,,,,,,,,,,30.05,61,78,0,,,,56,30.04,40,30,9.94,67,160,19,10,,,,,,,,,,,,,,,,,,,,,,,,,,,,,,,,,,,,,MET092KCHS 171856Z 16009G17KT 10SM SCT041TCU SCT070 26/16 A3005 RMK AO2 SLP174 TCU NW-N T02560161;,,,,,,,,,,,,,,,,,,,,,,,,,,,,
72208013880,2003-10-17T15:00:00,FM-15,C,,SE,0.25,mi,"TEMP, PRECIP, SNOW",,,"MMTS, SRG, SNOWBOARD",,,WFO CHS,,,,,,,,,,,,,,,,,,,,,,,,,,,30.03,62,78,0,,,,58,30.03,,29.98,9.94,68,150,16,10,,,,,,,,,,,,,,,,,,,,,,,,,,,,,,,,,,,,,MET073KCHS 171956Z 15009G14KT 10SM FEW039 26/17 A3003 RMK AO2 SLP169 T02560167;,,,,,,,,,,,,,,,,,,,,,,,,,,,,
72208013880,2003-10-17T16:00:00,FM-15,C,,SE,0.25,mi,"TEMP, PRECIP, SNOW",,,"MMTS, SRG, SNOWBOARD",,,WFO CHS,,,,,,,,,,,,,,,,,,,,,,,,,,,30.03,63,77,0,,0.06,6,62,30.02,,29.98,9.94,68,150,,9,,,,,,,,,,,,,,,,,,,,,,,,,,,,,,,,,,,,,MET076KCHS 172056Z 15008KT 10SM FEW040 25/17 A3003 RMK AO2 SLP167 T02500172 56019;,,,,,,,,,,,,,,,,,,,,,,,,,,,,
72208013880,2003-10-17T17:00:00,FM-15,C,,SE,0.25,mi,"TEMP, PRECIP, SNOW",,,"MMTS, SRG, SNOWBOARD",,,WFO CHS,,,,,,,,,,,,,,,,,,,,,,,,,,,30.01,62,76,0,,,,62,30.01,,29.96,9.94,67,160,,7,,,,,,,,,,,,,,,,,,,,,,,,,,,,,,,,,,,,,MET077KCHS 172156Z 16006KT 10SM FEW040 SCT100 24/17 A3001 RMK AO2 SLP161 T02440167;,,,,,,,,,,,,,,,,,,,,,,,,,,,,
72208013880,2003-10-20T15:00:00,FM-15,C,,SE,0.25,mi,"TEMP, PRECIP, SNOW",,,"MMTS, SRG, SNOWBOARD",,,WFO CHS,,,,,,,,,,,,,,,,,,,,,,,,,,,30.15,55,78,0,,,,45,30.14,,30.1,9.94,64,150,,7,,,,,,,,,,,,,,,,,,,,,,,,,,,,,,,,,,,,,MET067KCHS 201956Z 15006KT 10SM CLR 26/13 A3015 RMK AO2 SLP208 T02560128;,,,,,,,,,,,,,,,,,,,,,,,,,,,,
72208013880,2003-10-20T17:00:00,FM-15,C,,SE,0.25,mi,"TEMP, PRECIP, SNOW",,,"MMTS, SRG, SNOWBOARD",,,WFO CHS,,,,,,,,,,,,,,,,,,,,,,,,,,,30.14,57,73,0,,,,57,30.14,,30.09,9.94,63,150,,7,,,,,,,,,,,,,,,,,,,,,,,,,,,,,,,,,,,,,MET067KCHS 202156Z 15006KT 10SM CLR 23/14 A3014 RMK AO2 SLP207 T02280139;,,,,,,,,,,,,,,,,,,,,,,,,,,,,
72208013880,2003-10-26T11:00:00,FM-15,C,,SE,0.25,mi,"TEMP, PRECIP, SNOW",,,"MMTS, SRG, SNOWBOARD",,,WFO CHS,,,,,,,,,,,,,,,,,,,,,,,,,,,30.2,61,79,0,,,,54,30.19,,30.15,9.94,68,170,,13,,,,,,,,,,,,,,,,,,,,,,,,,,,,,,,,,,,,,MET069KCHS 261556Z 17011KT 10SM CLR 26/16 A3020 RMK AO2 SLP224 T02610161 /;,,,,,,,,,,,,,,,,,,,,,,,,,,,,
72208013880,2003-10-26T12:00:00,FM-15,C,,SE,0.25,mi,"TEMP, PRECIP, SNOW",,,"MMTS, SRG, SNOWBOARD",,,WFO CHS,,,,,,,,,,,,,,,,,,,,,,,,,,,30.16,62,81,0,,,,53,30.16,,30.11,9.94,69,160,,10,,,,,,,,,,,,,,,,,,,,,,,,,,,,,,,,,,,,,MET072KCHS 261656Z 16009KT 10SM SCT044 27/17 A3016 RMK AO2 SLP213 T02720167 /;,,,,,,,,,,,,,,,,,,,,,,,,,,,,
72208013880,2003-10-26T14:00:00,FM-15,C,,SE,0.25,mi,"TEMP, PRECIP, SNOW",,,"MMTS, SRG, SNOWBOARD",,,WFO CHS,,,,,,,,,,,,,,,,,,,,,,,,,,,30.09,62,78,0,,,,58,30.09,,30.04,9.94,68,160,,12,,,,,,,,,,,,,,,,,,,,,,,,,,,,,,,,,,,,,MET072KCHS 261856Z 16010KT 10SM BKN060 26/17 A3009 RMK AO2 SLP189 T02560167 /;,,,,,,,,,,,,,,,,,,,,,,,,,,,,
72208013880,2003-11-04T12:56:00,FM-15,4,,SE,0.25,mi,"TEMP, PRECIP, SNOW",,,"MMTS, SRG, SNOWBOARD",,,WFO CHS,,,,,,,,,,,,,,,,,,,,,,,,,,,30.09,72,82,,,0.06,8,70,30.09,,30.04,10,75,160,,9,,,,,,,,,,,,,,,,,,,,,,,,,,,,,,,,,,,,,MET088KCHS 041756Z 16008KT 10SM SCT031 28/22 A3009 RMK AO2 SLP188 T02830217 10294 20200 58020;,,,,,,,,,,,,,,,,,,,,,,,,,,,,
72208013880,2003-11-04T13:00:00,SY-MT,C,,SE,0.25,mi,"TEMP, PRECIP, SNOW",,,"MMTS, SRG, SNOWBOARD",,,WFO CHS,,,,,,,,,,,,,,,,,,,,,,,,,,,30.09,71,83,0,,0.06,8,67,30.09,,30.04,9.94,75,160,,9,,,,,,,,,,,,,,,,,,,,,,,,,,,,,,,,,,,,,SYN092AAXX  04184 72208 32566 41608 10283 20217 30173 40188 58020 91756 333 10294 20200 555 90418;,,,,,,,,,,,,,,,,,,,,,,,,,,,,
72208013880,2003-11-04T14:00:00,FM-15,C,,SE,0.25,mi,"TEMP, PRECIP, SNOW",,,"MMTS, SRG, SNOWBOARD",,,WFO CHS,,,,,,,,,,,,,,,,,,,,,,,,,,,30.08,71,83,0,,,,67,30.08,,30.03,9.94,75,160,,12,,,,,,,,,,,,,,,,,,,,,,,,,,,,,,,,,,,,,MET070KCHS 041856Z 16010KT 10SM BKN031 28/22 A3008 RMK AO2 SLP186 T02830217;,,,,,,,,,,,,,,,,,,,,,,,,,,,,
72208013880,2003-11-04T15:00:00,FM-15,C,,SE,0.25,mi,"TEMP, PRECIP, SNOW",,,"MMTS, SRG, SNOWBOARD",,,WFO CHS,,,,,,,,,,,,,,,,,,,,,,,,,,,30.07,70,82,0,,,,67,30.07,31,30.02,9.94,74,150,,10,,,,,,,,,,,,,,,,,,,,,,,,,,,,,,,,,,,,,MET099KCHS 041956Z 15009KT 10SM SCT031TCU SCT065 28/21 A3007 RMK AO2 SLP182 TCU E CB DSNT W-NW T02780211;,,,,,,,,,,,,,,,,,,,,,,,,,,,,
72208013880,2003-11-04T16:00:00,FM-15,C,,SE,0.25,mi,"TEMP, PRECIP, SNOW",,,"MMTS, SRG, SNOWBOARD",,,WFO CHS,,,,,,,,,,,,,,,,,,,,,,,,,,,30.07,72,81,0,,0.01,5,74,30.07,,30.02,9.94,75,160,,10,,,,,,,,,,,,,,,,,,,,,,,,,,,,,,,,,,,,,MET087KCHS 042056Z 16009KT 10SM FEW030 27/22 A3007 RMK AO2 SLP183 CB DSNT SW T02720222 55005;,,,,,,,,,,,,,,,,,,,,,,,,,,,,
72208013880,2003-11-05T11:10:00,FM-16,4,,SE,0.25,mi,"TEMP, PRECIP, SNOW",,,"MMTS, SRG, SNOWBOARD",,,WFO CHS,,,,,,,,,,,,,,,,,,,,,,,,,,,30.16,73,82,T,,,,74,30.15,,30.11,10,76,170,16,11,,,,,,,,,,,,,,,,,,,,,,,,,,,,,,,,,,,,,MET080KCHS 051610Z 17010G14KT 10SM BKN025 BKN045 28/23 A3016 RMK AO2 RAE01 VCSH P0000;,,,,,,,,,,,,,,,,,,,,,,,,,,,,
72208013880,2003-11-05T12:00:00,FM-15,C,,SE,0.25,mi,"TEMP, PRECIP, SNOW",,,"MMTS, SRG, SNOWBOARD",,,WFO CHS,,,,,,,,,,,,,,,,,,,,,,,,,,,30.14,71,85,T,,,,63,30.14,,30.09,9.94,75,160,,15,,,,,,,,,,,,,,,,,,,,,,,,,,,,,,,,,,,,,MET100KCHS 051656Z 16013KT 10SM SCT027 SCT050 29/22 A3014 RMK AO2 RAE01 SLP207 TCU DSNT N P0000 T02940217;,,,,,,,,,,,,,,,,,,,,,,,,,,,,
72208013880,2003-11-05T12:56:00,FM-15,4,,SE,0.25,mi,"TEMP, PRECIP, SNOW",,,"MMTS, SRG, SNOWBOARD",,,WFO CHS,,,,,,,,,,,,,,,,,,,,,,,,,,,30.12,72,84,,,0.05,8,66,30.12,,30.07,10,76,160,,13,,,,,,,,,,,,,,,,,,,,,,,,,,,,,,,,,,,,,MET101KCHS 051756Z 16011KT 10SM SCT030 SCT055 29/22 A3012 RMK AO2 SLP199 60000 T02940217 10306 20217 58017;,,,,,,,,,,,,,,,,,,,,,,,,,,,,
72208013880,2003-11-05T13:00:00,SY-MT,C,,SE,0.25,mi,"TEMP, PRECIP, SNOW",,,"MMTS, SRG, SNOWBOARD",,,WFO CHS,,,,,,,,,,,,,,,,,,,,,,,,,,,30.12,71,85,0,,0.05,8,63,30.12,,30.07,9.94,75,160,,13,,,,,,,,,,,,,,,,,,,,,,,,,,,,,,,,,,,,,SYN098AAXX  05184 72208 12566 41611 10294 20217 30184 40199 58017 69901 91756 333 10306 20217 555 90518;,,,,,,,,,,,,,,,,,,,,,,,,,,,,
72208013880,2003-11-05T14:00:00,FM-15,C,,SE,0.25,mi,"TEMP, PRECIP, SNOW",,,"MMTS, SRG, SNOWBOARD",,,WFO CHS,,,,,,,,,,,,,,,,,,,,,,,,,,,30.1,72,86,0,,,,63,30.1,30,30.05,9.94,76,170,,13,,,,,,,,,,,,,,,,,,,,,,,,,,,,,,,,,,,,,MET087KCHS 051856Z 17011KT 10SM SCT030TCU SCT060 30/22 A3010 RMK AO2 SLP192 TCU SW T03000222;,,,,,,,,,,,,,,,,,,,,,,,,,,,,
72208013880,2003-11-05T15:00:00,FM-15,C,,SE,0.25,mi,"TEMP, PRECIP, SNOW",,,"MMTS, SRG, SNOWBOARD",,,WFO CHS,,,,,,,,,,,,,,,,,,,,,,,,,,,30.08,71,85,0,,,,63,30.08,,30.03,9.94,75,170,,12,,,,,,,,,,,,,,,,,,,,,,,,,,,,,,,,,,,,,MET080KCHS 051956Z 17010KT 10SM SCT029 29/22 A3008 RMK AO2 SLP186 CB DSNT W T02940217;,,,,,,,,,,,,,,,,,,,,,,,,,,,,
72208013880,2003-11-05T16:00:00,FM-15,C,,SE,0.25,mi,"TEMP, PRECIP, SNOW",,,"MMTS, SRG, SNOWBOARD",,,WFO CHS,,,,,,,,,,,,,,,,,,,,,,,,,,,30.09,72,84,0,,0.03,5,67,30.09,,30.04,9.94,76,170,,10,,,,,,,,,,,,,,,,,,,,,,,,,,,,,,,,,,,,,MET076KCHS 052056Z 17009KT 10SM SCT029 29/22 A3009 RMK AO2 SLP189 T02890222 55010;,,,,,,,,,,,,,,,,,,,,,,,,,,,,
72208013880,2003-11-05T17:00:00,FM-15,C,,SE,0.25,mi,"TEMP, PRECIP, SNOW",,,"MMTS, SRG, SNOWBOARD",,,WFO CHS,,,,,,,,,,,,,,,,,,,,,,,,,,,30.1,73,79,0,,,,82,30.1,,30.05,9.94,75,150,,12,,,,,,,,,,,,,,,,,,,,,,,,,,,,,,,,,,,,,MET070KCHS 052156Z 15010KT 10SM FEW027 26/23 A3010 RMK AO2 SLP192 T02610228;,,,,,,,,,,,,,,,,,,,,,,,,,,,,
72208013880,2003-11-15T16:00:00,FM-15,C,,SE,0.25,mi,"TEMP, PRECIP, SNOW",,,"MMTS, SRG, SNOWBOARD",,,WFO CHS,,,,,,,,,,,,,,,,,,,,,,,,,,,30.19,34,65,0,,0.01,5,32,30.18,,30.14,9.94,50,150,,9,,,,,,,,,,,,,,,,,,,,,,,,,,,,,,,,,,,,,MET073KCHS 152056Z 15008KT 10SM CLR 18/01 A3019 RMK AO2 SLP221 T01830011 55004;,,,,,,,,,,,,,,,,,,,,,,,,,,,,
72208013880,2003-11-15T17:00:00,FM-15,C,,SE,0.25,mi,"TEMP, PRECIP, SNOW",,,"MMTS, SRG, SNOWBOARD",,,WFO CHS,,,,,,,,,,,,,,,,,,,,,,,,,,,30.18,33,61,0,,,,35,30.18,,30.13,9.94,48,160,,8,,,,,,,,,,,,,,,,,,,,,,,,,,,,,,,,,,,,,MET067KCHS 152156Z 16007KT 10SM CLR 16/01 A3018 RMK AO2 SLP220 T01610006;,,,,,,,,,,,,,,,,,,,,,,,,,,,,
72208013880,2003-11-18T14:00:00,FM-15,C,,SE,0.25,mi,"TEMP, PRECIP, SNOW",,,"MMTS, SRG, SNOWBOARD",,,WFO CHS,,,,,,,,,,,,,,,,,,,,,,,,,,,30.08,64,79,0,,,,60,30.07,,30.03,9.94,69,170,25,17,,,,,,,,,,,,,,,,,,,,,,,,,,,,,,,,,,,,,MET080KCHS 181856Z 17015G22KT 10SM BKN043 BKN075 26/18 A3008 RMK AO2 SLP184 T02610178;,,,,,,,,,,,,,,,,,,,,,,,,,,,,
72208013880,2003-11-18T15:00:00,FM-15,C,,SE,0.25,mi,"TEMP, PRECIP, SNOW",,,"MMTS, SRG, SNOWBOARD",,,WFO CHS,,,,,,,,,,,,,,,,,,,,,,,,,,,30.06,67,77,0,,,,71,30.05,,30.01,9.94,70,150,24,14,,,,,,,,,,,,,,,,,,,,,,,,,,,,,,,,,,,,,MET078KCHS 181956Z 15012G21KT 10SM BKN035 25/19 A3006 RMK AO2 SLP177 VCSH T02500194;,,,,,,,,,,,,,,,,,,,,,,,,,,,,
72208013880,2003-11-18T16:00:00,FM-15,C,,SE,0.25,mi,"TEMP, PRECIP, SNOW",,,"MMTS, SRG, SNOWBOARD",,,WFO CHS,,,,,,,,,,,,,,,,,,,,,,,,,,,30.05,65,78,T,,0.05,6,64,30.05,,30,9.94,70,170,,12,,,,,,,,,,,,,,,,,,,,,,,,,,,,,,,,,,,,,MET106KCHS 182056Z 17010KT 10SM FEW035 BKN065 26/18 A3005 RMK AO2 RAB1959E10 SLP175 P0000 60000 T02560183 56018;,,,,,,,,,,,,,,,,,,,,,,,,,,,,
72208013880,2003-11-18T17:00:00,FM-15,C,,SE,0.25,mi,"TEMP, PRECIP, SNOW",,,"MMTS, SRG, SNOWBOARD",,,WFO CHS,,,,,,,,,,,,,,,,,,,,,,,,,,,30.04,65,75,0,,,,71,30.04,,29.99,9.94,69,170,,12,,,,,,,,,,,,,,,,,,,,,,,,,,,,,,,,,,,,,MET067KCHS 182156Z 17010KT 10SM CLR 24/18 A3004 RMK AO2 SLP172 T02390183;,,,,,,,,,,,,,,,,,,,,,,,,,,,,
72208013880,2003-11-23T16:00:00,FM-15,C,,SE,0.25,mi,"TEMP, PRECIP, SNOW",,,"MMTS, SRG, SNOWBOARD",,,WFO CHS,,,,,,,,,,,,,,,,,,,,,,,,,,,30.11,52,71,0,,0.02,5,51,30.11,,30.06,9.94,60,150,,7,,,,,,,,,,,,,,,,,,,,,,,,,,,,,,,,,,,,,MET075KCHS 232056Z 15006KT 10SM SCT044 22/11 A3011 RMK AO2 SLP195 T0217011 55008;,,,,,,,,,,,,,,,,,,,,,,,,,,,,
72208013880,2003-11-23T17:00:00,FM-15,C,,SE,0.25,mi,"TEMP, PRECIP, SNOW",,,"MMTS, SRG, SNOWBOARD",,,WFO CHS,,,,,,,,,,,,,,,,,,,,,,,,,,,30.12,51,67,0,,,,57,30.11,,30.07,9.94,58,160,,7,,,,,,,,,,,,,,,,,,,,,,,,,,,,,,,,,,,,,MET070KCHS 232156Z 16006KT 10SM BKN045 19/11 A3012 RMK AO2 SLP198 T01940106;,,,,,,,,,,,,,,,,,,,,,,,,,,,,
72208013880,2003-11-27T15:00:00,FM-15,C,,SE,0.25,mi,"TEMP, PRECIP, SNOW",,,"MMTS, SRG, SNOWBOARD",,,WFO CHS,,,,,,,,,,,,,,,,,,,,,,,,,,,30.12,62,74,0,,,,67,30.12,,30.07,9.94,67,150,,12,,,,,,,,,,,,,,,,,,,,,,,,,,,,,,,,,,,,,MET077KCHS 271956Z 15010KT 10SM FEW055 BKN085 23/17 A3012 RMK AO2 SLP199 T02330167;,,,,,,,,,,,,,,,,,,,,,,,,,,,,
72208013880,2003-11-27T16:00:00,FM-15,C,,SE,0.25,mi,"TEMP, PRECIP, SNOW",,,"MMTS, SRG, SNOWBOARD",,,WFO CHS,,,,,,,,,,,,,,,,,,,,,,,,,,,30.12,62,73,0,,0.02,5,69,30.12,,30.07,9.94,66,160,,7,,,,,,,,,,,,,,,,,,,,,,,,,,,,,,,,,,,,,MET076KCHS 272056Z 16006KT 10SM OVC080 23/17 A3012 RMK AO2 SLP200 T02280167 55006;,,,,,,,,,,,,,,,,,,,,,,,,,,,,
72208013880,2003-12-08T16:00:00,FM-15,C,,SE,0.25,mi,"TEMP, PRECIP, SNOW",,,"MMTS, SRG, SNOWBOARD",,,WFO CHS,,,,,,,,,,,,,,,,,,,,,,,,,,,30.16,35,58,0,,0.02,5,42,30.16,,30.11,9.94,47,160,,8,,,,,,,,,,,,,,,,,,,,,,,,,,,,,,,,,,,,,MET073KCHS 082056Z 16007KT 10SM CLR 14/02 A3016 RMK AO2 SLP213 T01440017 55007;,,,,,,,,,,,,,,,,,,,,,,,,,,,,
72208013880,2003-12-09T16:00:00,FM-15,C,,SE,0.25,mi,"TEMP, PRECIP, SNOW",,,"MMTS, SRG, SNOWBOARD",,,WFO CHS,,,,,,,,,,,,,,,,,,,,,,,,,,,30.15,32,60,0,,0.03,5,35,30.14,,30.1,9.94,47,160,,10,,,,,,,,,,,,,,,,,,,,,,,,,,,,,,,,,,,,,MET076KCHS 092056Z 16009KT 10SM SCT065 16/00 A3015 RMK AO2 SLP208 T01560000 55010;,,,,,,,,,,,,,,,,,,,,,,,,,,,,
72208013880,2003-12-09T17:00:00,FM-15,C,,SE,0.25,mi,"TEMP, PRECIP, SNOW",,,"MMTS, SRG, SNOWBOARD",,,WFO CHS,,,,,,,,,,,,,,,,,,,,,,,,,,,30.15,32,57,0,,,,39,30.14,,30.1,9.94,46,160,,8,,,,,,,,,,,,,,,,,,,,,,,,,,,,,,,,,,,,,MET070KCHS 092156Z 16007KT 10SM BKN065 14/00 A3015 RMK AO2 SLP208 T01390000;,,,,,,,,,,,,,,,,,,,,,,,,,,,,
72208013880,2003-12-22T17:00:00,FM-15,C,,SE,0.25,mi,"TEMP, PRECIP, SNOW",,,"MMTS, SRG, SNOWBOARD",,,WFO CHS,,,,,,,,,,,,,,,,,,,,,,,,,,,30.3,41,57,0,,,,55,30.3,,30.25,9.94,49,150,,10,,,,,,,,,,,,,,,,,,,,,,,,,,,,,,,,,,,,,MET067KCHS 222156Z 15009KT 10SM CLR 14/05 A3030 RMK AO2 SLP260 T01390050;,,,,,,,,,,,,,,,,,,,,,,,,,,,,
72208013880,2003-12-23T13:56:00,FM-15,4,,SE,0.25,mi,"TEMP, PRECIP, SNOW",,,"MMTS, SRG, SNOWBOARD",,,WFO CHS,,,,,,,,,,,,,,,,,,,,,,,,,,,30.05,57,70,,,,,64,30.05,,30,10,62,160,,9,,,,,,,,,,,,,,,,,,,,,,,,,,,,,,,,,,,,,MET077KCHS 231856Z 16008KT 10SM FEW026 BKN110 21/14 A3005 RMK AO2 SLP176 T02060144;,,,,,,,,,,,,,,,,,,,,,,,,,,,,
72208013880,2003-12-23T14:00:00,SY-MT,C,,SE,0.25,mi,"TEMP, PRECIP, SNOW",,,"MMTS, SRG, SNOWBOARD",,,WFO CHS,,,,,,,,,,,,,,,,,,,,,,,,,,,30.05,58,69,0,,,,68,30.05,,,9.94,,160,,9,,,,,,,,,,,,,,,,,,,,,,,,,,,,,,,,,,,,,SYN058AAXX  2319/ 72208 41309 11170 321120028555 56037 84 92318;,,,,,,,,,,,,,,,,,,,,,,,,,,,,
72208013880,2003-12-23T15:00:00,FM-15,C,,SE,0.25,mi,"TEMP, PRECIP, SNOW",,,"MMTS, SRG, SNOWBOARD",,,WFO CHS,,,,,,,,,,,,,,,,,,,,,,,,,,,30.04,58,69,0,,,,68,30.03,,29.99,9.94,62,150,,9,,,,,,,,,,,,,,,,,,,,,,,,,,,,,,,,,,,,,MET077KCHS 231956Z 15008KT 10SM FEW026 BKN090 21/14 A3004 RMK AO2 SLP171 T02060144;,,,,,,,,,,,,,,,,,,,,,,,,,,,,
72208013880,2003-12-23T16:00:00,FM-15,C,,SE,0.25,mi,"TEMP, PRECIP, SNOW",,,"MMTS, SRG, SNOWBOARD",,,WFO CHS,,,,,,,,,,,,,,,,,,,,,,,,,,,30.04,58,65,0,,0.04,6,78,30.03,,29.99,9.94,61,150,,12,,,,,,,,,,,,,,,,,,,,,,,,,,,,,,,,,,,,,MET076KCHS 232056Z 15010KT 10SM OVC070 18/14 A3004 RMK AO2 SLP171 T01830144 56013;,,,,,,,,,,,,,,,,,,,,,,,,,,,,
72208013880,2003-12-23T17:00:00,FM-15,C,,SE,0.25,mi,"TEMP, PRECIP, SNOW",,,"MMTS, SRG, SNOWBOARD",,,WFO CHS,,,,,,,,,,,,,,,,,,,,,,,,,,,30.02,58,63,0,,,,84,30.01,,29.97,9.94,60,160,,9,,,,,,,,,,,,,,,,,,,,,,,,,,,,,,,,,,,,,MET070KCHS 232156Z 16008KT 10SM BKN085 17/14 A3002 RMK AO2 SLP163 T01720144;,,,,,,,,,,,,,,,,,,,,,,,,,,,,
72208013880,2003-12-28T16:00:00,FM-15,C,,SE,0.25,mi,"TEMP, PRECIP, SNOW",,,"MMTS, SRG, SNOWBOARD",,,WFO CHS,,,,,,,,,,,,,,,,,,,,,,,,,,,30.3,31,63,0,,0.01,5,30,30.3,,30.25,9.94,48,150,,9,,,,,,,,,,,,,,,,,,,,,,,,,,,,,,,,,,,,,MET077KCHS 282056Z 15008KT 10SM FEW090 17/M01 A3030 RMK AO2 SLP260 T01721006 55003;,,,,,,,,,,,,,,,,,,,,,,,,,,,,
72208013880,2003-12-28T17:00:00,FM-15,C,,SE,0.25,mi,"TEMP, PRECIP, SNOW",,,"MMTS, SRG, SNOWBOARD",,,WFO CHS,,,,,,,,,,,,,,,,,,,,,,,,,,,30.31,35,54,0,,,,49,30.3,,30.26,9.94,45,170,,8,,,,,,,,,,,,,,,,,,,,,,,,,,,,,,,,,,,,,MET070KCHS 282156Z 17007KT 10SM FEW080 12/02 A3031 RMK AO2 SLP262 T01220017;,,,,,,,,,,,,,,,,,,,,,,,,,,,,
72208013880,2004-01-01T17:00:00,FM-15,C,,SE,0.25,mi,"TEMP, PRECIP, SNOW",,,"MMTS, SRG, SNOWBOARD",,,WFO CHS,,,,,,,,,,,,,,,,,,,,,,,,,,,30.37,36,59,0,,,,42,30.36,,,9.94,,150,,7,,,,,,,,,,,,,,,,,,,,,,,,,,,,,,,,,,,,,MET067KCHS 012156Z 15006KT 10SM CLR 15/02 A3037 RMK AO2 SLP282 T01500022;,,,,,,,,,,,,,,,,,,,,,,,,,,,,
72208013880,2004-01-08T17:00:00,FM-15,C,,SE,0.25,mi,"TEMP, PRECIP, SNOW",,,"MMTS, SRG, SNOWBOARD",,,WFO CHS,,,,,,,,,,,,,,,,,,,,,,,,,,,30.31,26,50,0,,,,39,30.31,,,9.94,,150,,7,,,,,,,,,,,,,,,,,,,,,,,,,,,,,,,,,,,,,MET071KCHS 082156Z 15006KT 10SM OVC110 10/M03 A3031 RMK AO2 SLP263 T01001033;,,,,,,,,,,,,,,,,,,,,,,,,,,,,
72208013880,2004-01-17T12:56:00,FM-15,4,,SE,0.25,mi,"TEMP, PRECIP, SNOW",,,"MMTS, SRG, SNOWBOARD",,,WFO CHS,,,,,,,,,,,,,,,,,,,,,,,,,,,30.15,45,59,,,0.06,8,59,30.14,,,10,,150,,10,,,,,,,,,,,,,,,,,,,,,,,,,,,,,,,,,,,,,MET087KCHS 171756Z 15009KT 10SM CLR 15/07 A3015 RMK AO2 SLP208 T01500067 10156 21017 58019 /;,,,,,,,,,,,,,,,,,,,,,,,,,,,,
72208013880,2004-01-17T13:00:00,SY-MT,C,,SE,0.25,mi,"TEMP, PRECIP, SNOW",,,"MMTS, SRG, SNOWBOARD",,,WFO CHS,,,,,,,,,,,,,,,,,,,,,,,,,,,30.15,44,59,0,,0.06,8,58,30.14,CLR:00,30.1,9.94,51,150,,10,,,,,,,,,,,,,,,,,,,,,,,,,,,,,,,,,,,,,SYN092AAXX  17184 72208 32966 01509 10150 20067 30194 40208 58019 91756 333 10156 21017 555 91718;,,,,,,,,,,,,,,,,,,,,,,,,,,,,
72208013880,2004-01-21T16:00:00,FM-15,C,,SE,0.25,mi,"TEMP, PRECIP, SNOW",,,"MMTS, SRG, SNOWBOARD",,,WFO CHS,,,,,,,,,,,,,,,,,,,,,,,,,,,30.18,32,51,0,,0.05,6,48,30.18,,,9.94,,170,,12,,,,,,,,,,,,,,,,,,,,,,,,,,,,,,,,,,,,,MET076KCHS 212056Z 17010KT 10SM FEW080 11/00 A3018 RMK AO2 SLP219 T01060000 56018;,,,,,,,,,,,,,,,,,,,,,,,,,,,,
72208013880,2004-01-21T17:00:00,FM-15,C,,SE,0.25,mi,"TEMP, PRECIP, SNOW",,,"MMTS, SRG, SNOWBOARD",,,WFO CHS,,,,,,,,,,,,,,,,,,,,,,,,,,,30.18,33,48,0,,,,56,30.18,,,9.94,,150,,12,,,,,,,,,,,,,,,,,,,,,,,,,,,,,,,,,,,,,MET070KCHS 212156Z 15010KT 10SM FEW080 09/01 A3018 RMK AO2 SLP221 T00890006;,,,,,,,,,,,,,,,,,,,,,,,,,,,,
72208013880,2004-02-04T14:00:00,FM-15,C,,SE,0.25,mi,"TEMP, PRECIP, SNOW",,,"MMTS, SRG, SNOWBOARD",,,WFO CHS,,,,,,,,,,,,,,,,,,,,,,,,,,,30.3,41,58,0,,,,53,30.3,,,9.94,,150,,8,,,,,,,,,,,,,,,,,,,,,,,,,,,,,,,,,,,,,MET077KCHS 041856Z 15007KT 10SM FEW070 SCT120 14/05 A3030 RMK AO2 SLP260 T01440050;,,,,,,,,,,,,,,,,,,,,,,,,,,,,
72208013880,2004-02-08T17:00:00,FM-15,C,,SE,0.25,mi,"TEMP, PRECIP, SNOW",,,"MMTS, SRG, SNOWBOARD",,,WFO CHS,,,,,,,,,,,,,,,,,,,,,,,,,,,30.53,24,47,0,,,,41,30.53,,,9.94,,150,,8,,,,,,,,,,,,,,,,,,,,,,,,,,,,,,,,,,,,,MET068KCHS 082156Z 15007KT 10SM CLR 08/M04 A3053 RMK AO2 SLP338 T00831044;,,,,,,,,,,,,,,,,,,,,,,,,,,,,
72208013880,2004-02-22T17:00:00,FM-15,C,,SE,0.25,mi,"TEMP, PRECIP, SNOW",,,"MMTS, SRG, SNOWBOARD",,,WFO CHS,,,,,,,,,,,,,,,,,,,,,,,,,,,30.12,41,57,0,,,,55,30.12,,,9.94,,170,,9,,,,,,,,,,,,,,,,,,,,,,,,,,,,,,,,,,,,,MET069KCHS 222156Z 17008KT 10SM CLR 14/05 A3012 RMK AO2 SLP200 T01390050 /;,,,,,,,,,,,,,,,,,,,,,,,,,,,,
72208013880,2004-02-29T12:56:00,FM-15,4,,SE,0.25,mi,"TEMP, PRECIP, SNOW",,,"MMTS, SRG, SNOWBOARD",,,WFO CHS,,,,,,,,,,,,,,,,,,,,,,,,,,,30.43,39,64,,,0.03,8,40,30.43,,,10,,170,,8,,,,,,,,,,,,,,,,,,,,,,,,,,,,,,,,,,,,,MET085KCHS 291756Z 17007KT 10SM CLR 18/04 A3043 RMK AO2 SLP305 T01780039 10178 21011 58011;,,,,,,,,,,,,,,,,,,,,,,,,,,,,
72208013880,2004-02-29T13:00:00,SY-MT,C,,SE,0.25,mi,"TEMP, PRECIP, SNOW",,,"MMTS, SRG, SNOWBOARD",,,WFO CHS,,,,,,,,,,,,,,,,,,,,,,,,,,,30.43,39,64,0,,0.03,8,40,30.43,CLR:00,30.38,9.94,52,170,,8,,,,,,,,,,,,,,,,,,,,,,,,,,,,,,,,,,,,,SYN092AAXX  29184 72208 32966 01707 10178 20039 30288 40305 58011 91756 333 10178 21011 555 92918;,,,,,,,,,,,,,,,,,,,,,,,,,,,,
72208013880,2004-02-29T17:00:00,FM-15,C,,SE,0.25,mi,"TEMP, PRECIP, SNOW",,,"MMTS, SRG, SNOWBOARD",,,WFO CHS,,,,,,,,,,,,,,,,,,,,,,,,,,,30.35,42,65,0,,,,43,30.35,,,9.94,,150,,8,,,,,,,,,,,,,,,,,,,,,,,,,,,,,,,,,,,,,MET070KCHS 292156Z 15007KT 10SM FEW035 18/06 A3035 RMK AO2 SLP278 T01830056;,,,,,,,,,,,,,,,,,,,,,,,,,,,,
72208013880,2004-03-01T11:00:00,FM-15,C,,SE,0.25,mi,"TEMP, PRECIP, SNOW",,,"MMTS, SRG, SNOWBOARD",,,WFO CHS,,,,,,,,,,,,,,,,,,,,,,,,,,,30.38,51,70,0,,,,51,30.38,,,9.94,,170,,14,,,,,,,,,,,,,,,,,,,,,,,,,,,,,,,,,,,,,MET070KCHS 011556Z 17012KT 10SM BKN070 21/11 A3038 RMK AO2 SLP287 T02110106;,,,,,,,,,,,,,,,,,,,,,,,,,,,,
72208013880,2004-03-01T12:00:00,FM-15,C,,SE,0.25,mi,"TEMP, PRECIP, SNOW",,,"MMTS, SRG, SNOWBOARD",,,WFO CHS,,,,,,,,,,,,,,,,,,,,,,,,,,,30.37,50,74,0,,,,43,30.36,,,9.94,,170,,16,,,,,,,,,,,,,,,,,,,,,,,,,,,,,,,,,,,,,MET077KCHS 011656Z 17014KT 10SM FEW050 BKN070 23/10 A3037 RMK AO2 SLP282 T02330100;,,,,,,,,,,,,,,,,,,,,,,,,,,,,
72208013880,2004-03-01T12:56:00,FM-15,4,,SE,0.25,mi,"TEMP, PRECIP, SNOW",,,"MMTS, SRG, SNOWBOARD",,,WFO CHS,,,,,,,,,,,,,,,,,,,,,,,,,,,30.33,50,73,,,0.05,8,44,30.33,,,10,,160,,17,,,,,,,,,,,,,,,,,,,,,,,,,,,,,,,,,,,,,MET095KCHS 011756Z 16015KT 10SM FEW055 BKN070 23/10 A3033 RMK AO2 SLP271 T02280100 10239 20078 58018;,,,,,,,,,,,,,,,,,,,,,,,,,,,,
72208013880,2004-03-01T13:00:00,SY-MT,C,,SE,0.25,mi,"TEMP, PRECIP, SNOW",,,"MMTS, SRG, SNOWBOARD",,,WFO CHS,,,,,,,,,,,,,,,,,,,,,,,,,,,30.33,50,73,0,,0.05,8,44,30.33,,30.28,9.94,60,160,,17,,,,,,,,,,,,,,,,,,,,,,,,,,,,,,,,,,,,,SYN092AAXX  01184 72208 32766 61615 10228 20100 30255 40271 58018 91756 333 10239 20078 555 90118;,,,,,,,,,,,,,,,,,,,,,,,,,,,,
72208013880,2004-03-01T14:00:00,FM-15,C,,SE,0.25,mi,"TEMP, PRECIP, SNOW",,,"MMTS, SRG, SNOWBOARD",,,WFO CHS,,,,,,,,,,,,,,,,,,,,,,,,,,,30.33,51,71,0,,,,49,30.32,,,9.94,,170,,15,,,,,,,,,,,,,,,,,,,,,,,,,,,,,,,,,,,,,MET077KCHS 011856Z 17013KT 10SM FEW055 BKN070 22/11 A3033 RMK AO2 SLP268 T02170106;,,,,,,,,,,,,,,,,,,,,,,,,,,,,
72208013880,2004-03-01T16:00:00,FM-15,C,,SE,0.25,mi,"TEMP, PRECIP, SNOW",,,"MMTS, SRG, SNOWBOARD",,,WFO CHS,,,,,,,,,,,,,,,,,,,,,,,,,,,30.3,54,71,0,,0.03,8,55,30.3,,,9.94,,170,,16,,,,,,,,,,,,,,,,,,,,,,,,,,,,,,,,,,,,,MET076KCHS 012056Z 17014KT 10SM OVC075 22/12 A3030 RMK AO2 SLP261 T02170122 58010;,,,,,,,,,,,,,,,,,,,,,,,,,,,,
72208013880,2004-03-14T13:00:00,SY-MT,C,,SE,0.25,mi,"TEMP, PRECIP, SNOW",,,"MMTS, SRG, SNOWBOARD",,,WFO CHS,,,,,,,,,,,,,,,,,,,,,,,,,,,30.34,52,71,0,,,,51,30.34,,,9.94,,150,,14,,,,,,,,,,,,,,,,,,,,,,,,,,,,,,,,,,,,,SYN090AAXX  14184 72208 32666 61512 10217 201 30258 40274 58018 91756 333 10222 20089 555 91418;,,,,,,,,,,,,,,,,,,,,,,,,,,,,
72208013880,2004-03-14T16:00:00,FM-15,C,,SE,0.25,mi,"TEMP, PRECIP, SNOW",,,"MMTS, SRG, SNOWBOARD",,,WFO CHS,,,,,,,,,,,,,,,,,,,,,,,,,,,30.28,48,72,0,,0.06,6,43,30.28,,,9.94,,150,,10,,,,,,,,,,,,,,,,,,,,,,,,,,,,,,,,,,,,,MET078KCHS 142056Z 15009KT 10SM FEW055 22/09 A3028 RMK AO2 SLP253 T02220089 56021 /;,,,,,,,,,,,,,,,,,,,,,,,,,,,,
72208013880,2004-03-20T17:00:00,FM-15,C,,SE,0.25,mi,"TEMP, PRECIP, SNOW",,,"MMTS, SRG, SNOWBOARD",,,WFO CHS,,,,,,,,,,,,,,,,,,,,,,,,,,,30.28,55,68,0,,,,63,30.27,,,9.94,,170,,15,,,,,,,,,,,,,,,,,,,,,,,,,,,,,,,,,,,,,MET072KCHS 202156Z 17013KT 10SM BKN035 20/13 A3028 RMK AO2 SLP252 T02000128 /;,,,,,,,,,,,,,,,,,,,,,,,,,,,,
72208013880,2004-03-26T12:00:00,FM-15,C,,SE,0.25,mi,"TEMP, PRECIP, SNOW",,,"MMTS, SRG, SNOWBOARD",,,WFO CHS,,,,,,,,,,,,,,,,,,,,,,,,,,,30.47,55,74,0,,,,52,30.47,,,9.94,,150,21,12,,,,,,,,,,,,,,,,,,,,,,,,,,,,,,,,,,,,,MET080KCHS 261656Z 15010G18KT 10SM SCT046 SCT100 23/13 A3047 RMK AO2 SLP318 T02330128;,,,,,,,,,,,,,,,,,,,,,,,,,,,,
72208013880,2004-03-27T15:00:00,FM-15,C,,SE,0.25,mi,"TEMP, PRECIP, SNOW",,,"MMTS, SRG, SNOWBOARD",,,WFO CHS,,,,,,,,,,,,,,,,,,,,,,,,,,,30.25,56,75,0,,,,52,30.24,,,9.94,,160,,10,,,,,,,,,,,,,,,,,,,,,,,,,,,,,,,,,,,,,MET070KCHS 271956Z 16009KT 10SM FEW050 24/13 A3025 RMK AO2 SLP242 T02390133;,,,,,,,,,,,,,,,,,,,,,,,,,,,,
72208013880,2004-03-29T16:00:00,FM-15,C,,SE,0.25,mi,"TEMP, PRECIP, SNOW",,,"MMTS, SRG, SNOWBOARD",,,WFO CHS,,,,,,,,,,,,,,,,,,,,,,,,,,,30.15,53,69,0,,0.06,6,57,30.14,,,9.94,,160,,12,,,,,,,,,,,,,,,,,,,,,,,,,,,,,,,,,,,,,MET073KCHS 292056Z 16010KT 10SM CLR 21/12 A3015 RMK AO2 SLP208 T02060117 56022;,,,,,,,,,,,,,,,,,,,,,,,,,,,,
72208013880,2004-03-30T12:00:00,FM-15,C,,SE,0.25,mi,"TEMP, PRECIP, SNOW",,,"MMTS, SRG, SNOWBOARD",,,WFO CHS,,,,,,,,,,,,,,,,,,,,,,,,,,,30.1,52,64,0,,,,65,30.1,,,9.94,,160,,8,,,,,,,,,,,,,,,,,,,,,,,,,,,,,,,,,,,,,MET077KCHS 301656Z 16007KT 10SM FEW025 SCT100 18/11 A3010 RMK AO2 SLP192 T01780111;,,,,,,,,,,,,,,,,,,,,,,,,,,,,
72208013880,2004-04-06T13:00:00,FM-15,C,,SE,0.25,mi,"TEMP, PRECIP, SNOW",,,"MMTS, SRG, SNOWBOARD",,,WFO CHS,,,,,,,,,,,,,,,,,,,,,,,,,,,30.11,36,67,0,,0.05,8,32,30.11,,,9.94,,160,,9,,,,,,,,,,,,,,,,,,,,,,,,,,,,,,,,,,,,,MET096KCHS 061756Z 16008KT 130V200 10SM FEW100 19/02 A3011 RMK AO2 SLP195 T01940022 10200 20078 58017;,,,,,,,,,,,,,,,,,,,,,,,,,,,,
72208013880,2004-04-06T15:00:00,FM-15,C,,SE,0.25,mi,"TEMP, PRECIP, SNOW",,,"MMTS, SRG, SNOWBOARD",,,WFO CHS,,,,,,,,,,,,,,,,,,,,,,,,,,,30.07,38,67,0,,,,35,30.06,,,9.94,,160,,12,,,,,,,,,,,,,,,,,,,,,,,,,,,,,,,,,,,,,MET070KCHS 061956Z 16010KT 10SM FEW110 19/03 A3007 RMK AO2 SLP181 T01940033;,,,,,,,,,,,,,,,,,,,,,,,,,,,,
72208013880,2004-04-06T16:00:00,FM-15,C,,SE,0.25,mi,"TEMP, PRECIP, SNOW",,,"MMTS, SRG, SNOWBOARD",,,WFO CHS,,,,,,,,,,,,,,,,,,,,,,,,,,,30.04,39,67,0,,0.07,8,36,30.03,,,9.94,,160,,12,,,,,,,,,,,,,,,,,,,,,,,,,,,,,,,,,,,,,MET073KCHS 062056Z 16010KT 10SM CLR 19/04 A3004 RMK AO2 SLP170 T01940039 58024;,,,,,,,,,,,,,,,,,,,,,,,,,,,,
72208013880,2004-04-09T12:56:00,FM-15,4,,SE,0.25,mi,"TEMP, PRECIP, SNOW",,,"MMTS, SRG, SNOWBOARD",,,WFO CHS,,,,,,,,,,,,,,,,,,,,,,,,,,,29.87,54,79,,,0.01,8,42,29.87,,,10,,160,,11,,,,,,,,,,,,,,,,,,,,,,,,,,,,,,,,,,,,,MET088KCHS 091756Z 16010KT 10SM FEW090 26/12 A2987 RMK AO2 SLP114 T02610117 10267 20150 58003;,,,,,,,,,,,,,,,,,,,,,,,,,,,,
72208013880,2004-04-09T13:00:00,SY-MT,C,,SE,0.25,mi,"TEMP, PRECIP, SNOW",,,"MMTS, SRG, SNOWBOARD",,,WFO CHS,,,,,,,,,,,,,,,,,,,,,,,,,,,29.87,53,79,0,,0.01,8,41,29.87,,29.82,9.94,64,160,,12,,,,,,,,,,,,,,,,,,,,,,,,,,,,,,,,,,,,,SYN092AAXX  09184 72208 32966 21610 10261 20117 30099 40114 58003 91756 333 10267 20150 555 90918;,,,,,,,,,,,,,,,,,,,,,,,,,,,,
72208013880,2004-04-09T14:00:00,FM-15,C,,SE,0.25,mi,"TEMP, PRECIP, SNOW",,,"MMTS, SRG, SNOWBOARD",,,WFO CHS,,,,,,,,,,,,,,,,,,,,,,,,,,,29.87,50,78,0,,,,37,29.86,,,9.94,,150,,13,,,,,,,,,,,,,,,,,,,,,,,,,,,,,,,,,,,,,MET070KCHS 091856Z 15011KT 10SM FEW070 26/10 A2987 RMK AO2 SLP112 T02560100;,,,,,,,,,,,,,,,,,,,,,,,,,,,,
72208013880,2004-04-09T15:00:00,FM-15,C,,SE,0.25,mi,"TEMP, PRECIP, SNOW",,,"MMTS, SRG, SNOWBOARD",,,WFO CHS,,,,,,,,,,,,,,,,,,,,,,,,,,,29.86,48,75,0,,,,39,29.85,,,9.94,,160,,14,,,,,,,,,,,,,,,,,,,,,,,,,,,,,,,,,,,,,MET070KCHS 091956Z 16012KT 10SM FEW050 24/09 A2986 RMK AO2 SLP109 T02390089;,,,,,,,,,,,,,,,,,,,,,,,,,,,,
72208013880,2004-04-10T12:56:00,FM-15,4,,SE,0.25,mi,"TEMP, PRECIP, SNOW",,,"MMTS, SRG, SNOWBOARD",,,WFO CHS,,,,,,,,,,,,,,,,,,,,,,,,,,,29.91,54,82,,,0.04,8,37,29.9,,,10,,170,,15,,,,,,,,,,,,,,,,,,,,,,,,,,,,,,,,,,,,,MET085KCHS 101756Z 17013KT 10SM CLR 28/12 A2991 RMK AO2 SLP126 T02780117 10283 20144 58012;,,,,,,,,,,,,,,,,,,,,,,,,,,,,
72208013880,2004-04-10T13:00:00,SY-MT,C,,SE,0.25,mi,"TEMP, PRECIP, SNOW",,,"MMTS, SRG, SNOWBOARD",,,WFO CHS,,,,,,,,,,,,,,,,,,,,,,,,,,,29.91,53,82,0,,0.04,8,37,29.9,CLR:00,29.86,9.94,65,170,,15,,,,,,,,,,,,,,,,,,,,,,,,,,,,,,,,,,,,,SYN092AAXX  10184 72208 32966 01713 10278 20117 30113 40126 58012 91756 333 10283 20144 555 91018;,,,,,,,,,,,,,,,,,,,,,,,,,,,,
72208013880,2004-04-10T14:00:00,FM-15,C,,SE,0.25,mi,"TEMP, PRECIP, SNOW",,,"MMTS, SRG, SNOWBOARD",,,WFO CHS,,,,,,,,,,,,,,,,,,,,,,,,,,,29.89,50,82,0,,,,33,29.88,,,9.94,,170,19,16,,,,,,,,,,,,,,,,,,,,,,,,,,,,,,,,,,,,,MET073KCHS 101856Z 17014G17KT 10SM FEW065 28/10 A2989 RMK AO2 SLP120 T02780100;,,,,,,,,,,,,,,,,,,,,,,,,,,,,
72208013880,2004-04-10T17:00:00,FM-15,C,,SE,0.25,mi,"TEMP, PRECIP, SNOW",,,"MMTS, SRG, SNOWBOARD",,,WFO CHS,,,,,,,,,,,,,,,,,,,,,,,,,,,29.86,59,77,0,,,,54,29.85,,,9.94,,170,,16,,,,,,,,,,,,,,,,,,,,,,,,,,,,,,,,,,,,,MET069KCHS 102156Z 17014KT 10SM CLR 25/15 A2986 RMK AO2 SLP110 T02500150 /;,,,,,,,,,,,,,,,,,,,,,,,,,,,,
72208013880,2004-04-12T11:27:00,FM-16,4,,SE,0.25,mi,"TEMP, PRECIP, SNOW",,,"MMTS, SRG, SNOWBOARD",,,WFO CHS,,,,,,,,,,,,,,,,,,,,,,,,,,,29.79,66,70,T,||RA,,,88,,,,4,,150,,7,,,,,,,,,,,,,,,,,,,,,,,,,,,,,,,,,,,,,MET078KCHS 121627Z 15006KT 4SM -RA BR BKN013 OVC030 21/19 A2979 RMK AO2 RAB20 P0000;,,,,,,,,,,,,,,,,,,,,,,,,,,,,
72208013880,2004-04-12T12:00:00,FM-15,C,,SE,0.25,mi,"TEMP, PRECIP, SNOW",,,"MMTS, SRG, SNOWBOARD",,,WFO CHS,,,,,,,,,,,,,,,,,,,,,,,,,,,29.77,69,74,T,,,,85,29.77,,,6.96,,170,,16,,,,,,,,,,,,,,,,,,,,,,,,,,,,,,,,,,,,,MET091KCHS 121656Z 17014KT 7SM BKN016 OVC043 23/21 A2977 RMK AO2 RAB20E50 SLP080 P0000 T02330206;,,,,,,,,,,,,,,,,,,,,,,,,,,,,
72208013880,2004-04-12T16:00:00,FM-15,C,,SE,0.25,mi,"TEMP, PRECIP, SNOW",,,"MMTS, SRG, SNOWBOARD",,,WFO CHS,,,,,,,,,,,,,,,,,,,,,,,,,,,29.76,68,77,0,,0.01,8,74,29.76,,,7.95,,170,,16,,,,,,,,,,,,,,,,,,,,,,,,,,,,,,,,,,,,,MET075KCHS 122056Z 17014KT 8SM BKN022 25/20 A2976 RMK AO2 SLP078 T02500200 58004;,,,,,,,,,,,,,,,,,,,,,,,,,,,,
72208013880,2004-04-12T17:00:00,FM-15,C,,SE,0.25,mi,"TEMP, PRECIP, SNOW",,,"MMTS, SRG, SNOWBOARD",,,WFO CHS,,,,,,,,,,,,,,,,,,,,,,,,,,,29.76,69,75,0,,,,82,29.76,,,6.96,,170,,13,,,,,,,,,,,,,,,,,,,,,,,,,,,,,,,,,,,,,MET069KCHS 122156Z 17011KT 7SM BKN018 24/21 A2976 RMK AO2 SLP078 T02390206;,,,,,,,,,,,,,,,,,,,,,,,,,,,,
72208013880,2004-04-17T12:00:00,FM-15,C,,SE,0.25,mi,"TEMP, PRECIP, SNOW",,,"MMTS, SRG, SNOWBOARD",,,WFO CHS,,,,,,,,,,,,,,,,,,,,,,,,,,,30.42,52,76,0,,,,43,30.42,,,9.94,,170,,9,,,,,,,,,,,,,,,,,,,,,,,,,,,,,,,,,,,,,MET075KCHS 171656Z 17008KT 140V210 10SM CLR 24/11 A3042 RMK AO2 SLP300 T02440111;,,,,,,,,,,,,,,,,,,,,,,,,,,,,
72208013880,2004-04-21T12:56:00,FM-15,4,,SE,0.25,mi,"TEMP, PRECIP, SNOW",,,"MMTS, SRG, SNOWBOARD",,,WFO CHS,,,,,,,,,,,,,,,,,,,,,,,,,,,30.06,63,81,,,0.04,6,54,30.05,,,10,,150,,10,,,,,,,,,,,,,,,,,,,,,,,,,,,,,,,,,,,,,MET088KCHS 211756Z 15009KT 10SM SCT040 27/17 A3006 RMK AO2 SLP177 T02670172 10272 20183 56013;,,,,,,,,,,,,,,,,,,,,,,,,,,,,
72208013880,2004-04-21T13:00:00,SY-MT,C,,SE,0.25,mi,"TEMP, PRECIP, SNOW",,,"MMTS, SRG, SNOWBOARD",,,WFO CHS,,,,,,,,,,,,,,,,,,,,,,,,,,,30.06,63,80,0,,0.04,6,56,30.05,,30.01,9.94,69,150,,10,,,,,,,,,,,,,,,,,,,,,,,,,,,,,,,,,,,,,SYN092AAXX  21184 72208 32666 41509 10267 20172 30163 40177 56013 91756 333 10272 20183 555 92118;,,,,,,,,,,,,,,,,,,,,,,,,,,,,
72208013880,2004-04-21T14:00:00,FM-15,C,,SE,0.25,mi,"TEMP, PRECIP, SNOW",,,"MMTS, SRG, SNOWBOARD",,,WFO CHS,,,,,,,,,,,,,,,,,,,,,,,,,,,30.05,61,81,0,,,,51,30.05,,,9.94,,170,,14,,,,,,,,,,,,,,,,,,,,,,,,,,,,,,,,,,,,,MET070KCHS 211856Z 17012KT 10SM FEW043 27/16 A3005 RMK AO2 SLP175 T02720161;,,,,,,,,,,,,,,,,,,,,,,,,,,,,
72208013880,2004-04-22T15:00:00,FM-15,C,,SE,0.25,mi,"TEMP, PRECIP, SNOW",,,"MMTS, SRG, SNOWBOARD",,,WFO CHS,,,,,,,,,,,,,,,,,,,,,,,,,,,30.12,62,80,0,,,,54,30.12,,,9.94,,170,,16,,,,,,,,,,,,,,,,,,,,,,,,,,,,,,,,,,,,,MET072KCHS 221956Z 17014KT 10SM FEW043 27/17 A3012 RMK AO2 SLP199 T02670167 /;,,,,,,,,,,,,,,,,,,,,,,,,,,,,
72208013880,2004-04-22T15:56:00,FM-15,4,,SE,0.25,mi,"TEMP, PRECIP, SNOW",,,"MMTS, SRG, SNOWBOARD",,,WFO CHS,,,,,,,,,,,,,,,,,,,,,,,,,,,30.12,64,79,,,0.03,6,61,30.11,,,10,,160,,17,,,,,,,,,,,,,,,,,,,,,,,,,,,,,,,,,,,,,MET085KCHS 222056Z 16015KT 10SM SCT039 BKN070 26/18 A3012 RMK AO2 SLP198 T02560178 56010 /;,,,,,,,,,,,,,,,,,,,,,,,,,,,,
72208013880,2004-04-22T16:00:00,SY-MT,C,,SE,0.25,mi,"TEMP, PRECIP, SNOW",,,"MMTS, SRG, SNOWBOARD",,,WFO CHS,,,,,,,,,,,,,,,,,,,,,,,,,,,30.12,64,78,0,,0.03,6,62,30.11,,30.07,9.94,69,160,,17,,,,,,,,,,,,,,,,,,,,,,,,,,,,,,,,,,,,,SYN076AAXX  22214 72208 35666 61615 10256 20178 30184 40198 56010 92056 555 92221;,,,,,,,,,,,,,,,,,,,,,,,,,,,,
72208013880,2004-04-22T17:00:00,FM-15,C,,SE,0.25,mi,"TEMP, PRECIP, SNOW",,,"MMTS, SRG, SNOWBOARD",,,WFO CHS,,,,,,,,,,,,,,,,,,,,,,,,,,,30.12,64,76,0,,,,67,30.12,,,9.94,,170,,15,,,,,,,,,,,,,,,,,,,,,,,,,,,,,,,,,,,,,MET072KCHS 222156Z 17013KT 10SM OVC070 24/18 A3012 RMK AO2 SLP199 T02440178 /;,,,,,,,,,,,,,,,,,,,,,,,,,,,,
72208013880,2004-04-25T15:00:00,FM-15,C,,SE,0.25,mi,"TEMP, PRECIP, SNOW",,,"MMTS, SRG, SNOWBOARD",,,WFO CHS,,,,,,,,,,,,,,,,,,,,,,,,,,,30.14,62,78,0,,,,58,30.13,,,9.94,,150,,12,,,,,,,,,,,,,,,,,,,,,,,,,,,,,,,,,,,,,MET069KCHS 251956Z 15010KT 10SM CLR 26/17 A3014 RMK AO2 SLP204 T02560167 /;,,,,,,,,,,,,,,,,,,,,,,,,,,,,
72208013880,2004-04-25T15:56:00,FM-15,4,,SE,0.25,mi,"TEMP, PRECIP, SNOW",,,"MMTS, SRG, SNOWBOARD",,,WFO CHS,,,,,,,,,,,,,,,,,,,,,,,,,,,30.14,63,77,,,0.04,6,61,30.13,,,10,,170,,11,,,,,,,,,,,,,,,,,,,,,,,,,,,,,,,,,,,,,MET078KCHS 252056Z 17010KT 10SM SCT039 25/17 A3014 RMK AO2 SLP204 T02500167 56013 /;,,,,,,,,,,,,,,,,,,,,,,,,,,,,
72208013880,2004-04-25T16:00:00,SY-MT,C,,SE,0.25,mi,"TEMP, PRECIP, SNOW",,,"MMTS, SRG, SNOWBOARD",,,WFO CHS,,,,,,,,,,,,,,,,,,,,,,,,,,,30.14,62,77,0,,0.04,6,60,30.13,,30.09,9.94,68,170,,12,,,,,,,,,,,,,,,,,,,,,,,,,,,,,,,,,,,,,SYN076AAXX  25214 72208 35666 41710 10250 20167 30190 40204 56013 92056 555 92521;,,,,,,,,,,,,,,,,,,,,,,,,,,,,
72208013880,2004-04-25T17:00:00,FM-15,C,,SE,0.25,mi,"TEMP, PRECIP, SNOW",,,"MMTS, SRG, SNOWBOARD",,,WFO CHS,,,,,,,,,,,,,,,,,,,,,,,,,,,30.12,63,76,0,,,,64,30.12,,,9.94,,160,,12,,,,,,,,,,,,,,,,,,,,,,,,,,,,,,,,,,,,,MET072KCHS 252156Z 16010KT 10SM FEW041 24/17 A3012 RMK AO2 SLP200 T02440172 /;,,,,,,,,,,,,,,,,,,,,,,,,,,,,
72208013880,2004-04-28T14:00:00,FM-15,C,,SE,0.25,mi,"TEMP, PRECIP, SNOW",,,"MMTS, SRG, SNOWBOARD",,,WFO CHS,,,,,,,,,,,,,,,,,,,,,,,,,,,30.27,46,69,0,,,,44,30.27,,,9.94,,150,17,8,,,,,,,,,,,,,,,,,,,,,,,,,,,,,,,,,,,,,MET080KCHS 281856Z 15007G15KT 130V190 10SM CLR 21/08 A3027 RMK AO2 SLP251 T02060078 /;,,,,,,,,,,,,,,,,,,,,,,,,,,,,
72208013880,2004-04-28T15:56:00,FM-15,4,,SE,0.25,mi,"TEMP, PRECIP, SNOW",,,"MMTS, SRG, SNOWBOARD",,,WFO CHS,,,,,,,,,,,,,,,,,,,,,,,,,,,30.28,48,68,,,0.01,5,49,30.27,,,10,,150,,11,,,,,,,,,,,,,,,,,,,,,,,,,,,,,,,,,,,,,MET073KCHS 282056Z 15010KT 10SM CLR 20/09 A3028 RMK AO2 SLP252 T02000089 55002;,,,,,,,,,,,,,,,,,,,,,,,,,,,,
72208013880,2004-04-28T16:00:00,SY-MT,C,,SE,0.25,mi,"TEMP, PRECIP, SNOW",,,"MMTS, SRG, SNOWBOARD",,,WFO CHS,,,,,,,,,,,,,,,,,,,,,,,,,,,30.28,48,68,0,,0.01,5,49,30.27,CLR:00,30.23,9.94,57,150,,12,,,,,,,,,,,,,,,,,,,,,,,,,,,,,,,,,,,,,SYN076AAXX  28214 72208 35966 01510 10200 20089 30238 40252 55002 92056 555 92821;,,,,,,,,,,,,,,,,,,,,,,,,,,,,
72208013880,2004-04-28T17:00:00,FM-15,C,,SE,0.25,mi,"TEMP, PRECIP, SNOW",,,"MMTS, SRG, SNOWBOARD",,,WFO CHS,,,,,,,,,,,,,,,,,,,,,,,,,,,30.29,48,67,0,,,,51,30.28,,,9.94,,150,,13,,,,,,,,,,,,,,,,,,,,,,,,,,,,,,,,,,,,,MET069KCHS 282156Z 15011KT 10SM CLR 19/09 A3029 RMK AO2 SLP255 T01940089 /;,,,,,,,,,,,,,,,,,,,,,,,,,,,,
72208013880,2004-04-30T11:00:00,FM-15,C,,SE,0.25,mi,"TEMP, PRECIP, SNOW",,,"MMTS, SRG, SNOWBOARD",,,WFO CHS,,,,,,,,,,,,,,,,,,,,,,,,,,,30.27,66,78,0,,,,67,30.27,,,9.94,,150,,15,,,,,,,,,,,,,,,,,,,,,,,,,,,,,,,,,,,,,MET072KCHS 301556Z 15013KT 10SM BKN032 26/19 A3027 RMK AO2 SLP249 T02560189 /;,,,,,,,,,,,,,,,,,,,,,,,,,,,,
72208013880,2004-05-01T11:14:00,FM-16,4,,SE,0.25,mi,"TEMP, PRECIP, SNOW",,,"MMTS, SRG, SNOWBOARD",,,WFO CHS,,,,,,,,,,,,,,,,,,,,,,,,,,,30.08,66,66,0.02,||RA,,,100,,,,5,,150,,13,,,,,,,,,,,,,,,,,,,,,,,,,,,,,,,,,,,,,MET079KCHS 011614Z 15011KT 5SM -RA BR OVC005 19/19 A3008 RMK AO2 CIG 003V009 P0002 /;,,,,,,,,,,,,,,,,,,,,,,,,,,,,
72208013880,2004-05-01T12:00:00,FM-15,C,,SE,0.25,mi,"TEMP, PRECIP, SNOW",,,"MMTS, SRG, SNOWBOARD",,,WFO CHS,,,,,,,,,,,,,,,,,,,,,,,,,,,30.05,67,67,0.04,,,,100,30.05,,,9.94,,150,,8,,,,,,,,,,,,,,,,,,,,,,,,,,,,,,,,,,,,,MET091KCHS 011656Z 15007KT 10SM BKN005 OVC013 19/19 A3005 RMK AO2 RAE52 SLP176 P0004 T01940194 /;,,,,,,,,,,,,,,,,,,,,,,,,,,,,
72208013880,2004-05-01T14:00:00,FM-15,C,,SE,0.25,mi,"TEMP, PRECIP, SNOW",,,"MMTS, SRG, SNOWBOARD",,,WFO CHS,,,,,,,,,,,,,,,,,,,,,,,,,,,30.03,70,71,T,||RA,,,96,30.03,,,6.96,,170,,8,,,,,,,,,,,,,,,,,,,,,,,,,,,,,,,,,,,,,MET099KCHS 011856Z 17007KT 7SM -RA OVC007 22/21 A3003 RMK AO2 RAB48 CIG 004V010 SLP169 P0000 T02170211 /;,,,,,,,,,,,,,,,,,,,,,,,,,,,,
72208013880,2004-05-01T15:23:00,FM-16,4,,SE,0.25,mi,"TEMP, PRECIP, SNOW",,,"MMTS, SRG, SNOWBOARD",,,WFO CHS,,,,,,,,,,,,,,,,,,,,,,,,,,,30,72,72,0.1,||RA,,,100,,,,3,,170,,7,,,,,,,,,,,,,,,,,,,,,,,,,,,,,,,,,,,,,MET080KCHS 012023Z 17006KT 3SM -RA BR FEW013 OVC019 22/22 A3000 RMK AO2 RAB08 P0010 /;,,,,,,,,,,,,,,,,,,,,,,,,,,,,
72208013880,2004-05-01T15:56:00,FM-15,4,,SE,0.25,mi,"TEMP, PRECIP, SNOW",,,"MMTS, SRG, SNOWBOARD",,,WFO CHS,,,,,,,,,,,,,,,,,,,,,,,,,,,30,72,72,0.14,||SHRA TS,0.04,8,100,30,26,,4,,170,,7,,,,,,,,,,,,,,,,,,,,,,,,,,,,,,,,,,,,,MET150KCHS 012056Z 17006KT 4SM -TSRA BR FEW012 BKN019 BKN026CB 22/22 A3000 RMK AO2 TSB56RAB08 SLP160 OCNL LTGIC TS OHD MOV NE P0014 60014 T02170217 58014 /;,,,,,,,,,,,,,,,,,,,,,,,,,,,,
72208013880,2004-05-01T16:00:00,SY-MT,C,,SE,0.25,mi,"TEMP, PRECIP, SNOW",,,"MMTS, SRG, SNOWBOARD",,,WFO CHS,,,,,,,,,,,,,,,,,,,,,,,,,,,30,71,71,0.14,||FG,0.04,8,100,30,,29.95,3.98,71,170,,7,,,,,,,,,,,,,,,,,,,,,,,,,,,,,,,,,,,,,SYN088AAXX  01214 72208 17456 61706 10217 20217 30143 40160 58014 60047 710// 92056 555 90121;,,,,,,,,,,,,,,,,,,,,,,,,,,,,
72208013880,2004-05-06T16:30:00,FM-15,4,,SE,0.25,mi,"TEMP, PRECIP, SNOW",,,"MMTS, SRG, SNOWBOARD",,,WFO CHS,,,,,,,,,,,,,,,,,,,,,,,,,,,30.12,63,84,,,,,48,,,,10,,160,,13,,,,,,,,,,,,,,,,,,,,,,,,,,,,,,,,,,,,,MET064KCHS 062130Z 16011KT 10SM SCT075 29/17 A3012 RMK AO2 WSHFT 2111;,,,,,,,,,,,,,,,,,,,,,,,,,,,,
72208013880,2004-05-08T12:56:00,FM-15,4,,SE,0.25,mi,"TEMP, PRECIP, SNOW",,,"MMTS, SRG, SNOWBOARD",,,WFO CHS,,,,,,,,,,,,,,,,,,,,,,,,,,,30.16,70,88,,,0.01,6,55,30.16,,,8,,150,,9,,,,,,,,,,,,,,,,,,,,,,,,,,,,,,,,,,,,,MET086KCHS 081756Z 15008KT 8SM CLR 31/21 A3016 RMK AO2 SLP212 T03110211 10311 20211 56003 /;,,,,,,,,,,,,,,,,,,,,,,,,,,,,
72208013880,2004-05-08T13:00:00,SY-MT,C,,SE,0.25,mi,"TEMP, PRECIP, SNOW",,,"MMTS, SRG, SNOWBOARD",,,WFO CHS,,,,,,,,,,,,,,,,,,,,,,,,,,,30.16,70,88,0,,0.01,6,55,30.16,CLR:00,30.11,7.95,76,150,,9,,,,,,,,,,,,,,,,,,,,,,,,,,,,,,,,,,,,,SYN092AAXX  08184 72208 32962 01508 10311 20211 30197 40212 56003 91756 333 10311 20211 555 90818;,,,,,,,,,,,,,,,,,,,,,,,,,,,,
72208013880,2004-05-08T14:00:00,FM-15,C,,SE,0.25,mi,"TEMP, PRECIP, SNOW",,,"MMTS, SRG, SNOWBOARD",,,WFO CHS,,,,,,,,,,,,,,,,,,,,,,,,,,,30.15,65,88,0,,,,46,30.15,,,7.95,,160,,12,,,,,,,,,,,,,,,,,,,,,,,,,,,,,,,,,,,,,MET067KCHS 081856Z 16010KT 8SM CLR 31/18 A3015 RMK AO2 SLP210 T0310183 /;,,,,,,,,,,,,,,,,,,,,,,,,,,,,
72208013880,2004-05-08T15:00:00,FM-15,C,,SE,0.25,mi,"TEMP, PRECIP, SNOW",,,"MMTS, SRG, SNOWBOARD",,,WFO CHS,,,,,,,,,,,,,,,,,,,,,,,,,,,30.15,68,86,0,,,,55,30.14,,,7.95,,170,,12,,,,,,,,,,,,,,,,,,,,,,,,,,,,,,,,,,,,,MET068KCHS 081956Z 17010KT 8SM CLR 30/20 A3015 RMK AO2 SLP208 T03000200 /;,,,,,,,,,,,,,,,,,,,,,,,,,,,,
72208013880,2004-05-09T12:56:00,FM-15,4,,SE,0.25,mi,"TEMP, PRECIP, SNOW",,,"MMTS, SRG, SNOWBOARD",,,WFO CHS,,,,,,,,,,,,,,,,,,,,,,,,,,,30.22,64,81,,,0.04,8,58,30.22,,,10,,160,,9,,,,,,,,,,,,,,,,,,,,,,,,,,,,,,,,,,,,,MET090KCHS 091756Z 16008KT 10SM FEW050 27/18 A3022 RMK AO2 SLP232 T02720178 10278 20206 58013 /;,,,,,,,,,,,,,,,,,,,,,,,,,,,,
72208013880,2004-05-09T13:00:00,SY-MT,C,,SE,0.25,mi,"TEMP, PRECIP, SNOW",,,"MMTS, SRG, SNOWBOARD",,,WFO CHS,,,,,,,,,,,,,,,,,,,,,,,,,,,30.22,64,81,0,,0.04,8,57,30.22,,30.17,9.94,70,160,,9,,,,,,,,,,,,,,,,,,,,,,,,,,,,,,,,,,,,,SYN090AAXX  09184 72208 32766 21608 10272 20178 30217 40232 58013 916 333 10278 20206 555 90918;,,,,,,,,,,,,,,,,,,,,,,,,,,,,
72208013880,2004-05-09T14:00:00,FM-15,C,,SE,0.25,mi,"TEMP, PRECIP, SNOW",,,"MMTS, SRG, SNOWBOARD",,,WFO CHS,,,,,,,,,,,,,,,,,,,,,,,,,,,30.2,62,80,0,,,,54,30.2,,,9.94,,170,17,9,,,,,,,,,,,,,,,,,,,,,,,,,,,,,,,,,,,,,MET075KCHS 091856Z 17008G15KT 10SM FEW050 27/17 A3020 RMK AO2 SLP227 T02670167 /;,,,,,,,,,,,,,,,,,,,,,,,,,,,,
72208013880,2004-05-09T15:00:00,FM-15,C,,SE,0.25,mi,"TEMP, PRECIP, SNOW",,,"MMTS, SRG, SNOWBOARD",,,WFO CHS,,,,,,,,,,,,,,,,,,,,,,,,,,,30.19,62,80,0,,,,54,30.18,,,9.94,,150,,13,,,,,,,,,,,,,,,,,,,,,,,,,,,,,,,,,,,,,MET072KCHS 091956Z 15011KT 10SM FEW060 27/17 A3019 RMK AO2 SLP221 T02670167 /;,,,,,,,,,,,,,,,,,,,,,,,,,,,,
72208013880,2004-05-09T15:56:00,FM-15,4,,SE,0.25,mi,"TEMP, PRECIP, SNOW",,,"MMTS, SRG, SNOWBOARD",,,WFO CHS,,,,,,,,,,,,,,,,,,,,,,,,,,,30.18,59,81,,,0.04,6,48,30.17,,,10,,170,,13,,,,,,,,,,,,,,,,,,,,,,,,,,,,,,,,,,,,,MET075KCHS 092056Z 17011KT 10SM CLR 27/15 A3018 RMK AO2 SLP218 T02670150 56014 /;,,,,,,,,,,,,,,,,,,,,,,,,,,,,
72208013880,2004-05-09T16:00:00,SY-MT,C,,SE,0.25,mi,"TEMP, PRECIP, SNOW",,,"MMTS, SRG, SNOWBOARD",,,WFO CHS,,,,,,,,,,,,,,,,,,,,,,,,,,,30.18,59,80,0,,0.04,6,49,30.17,CLR:00,30.13,9.94,67,170,,13,,,,,,,,,,,,,,,,,,,,,,,,,,,,,,,,,,,,,SYN076AAXX  09214 72208 35966 01711 10267 20150 30204 40218 56014 92056 555 90921;,,,,,,,,,,,,,,,,,,,,,,,,,,,,
72208013880,2004-05-09T17:00:00,FM-15,C,,SE,0.25,mi,"TEMP, PRECIP, SNOW",,,"MMTS, SRG, SNOWBOARD",,,WFO CHS,,,,,,,,,,,,,,,,,,,,,,,,,,,30.17,59,78,0,,,,52,30.16,,,9.94,,170,,15,,,,,,,,,,,,,,,,,,,,,,,,,,,,,,,,,,,,,MET069KCHS 092156Z 17013KT 10SM CLR 26/15 A3017 RMK AO2 SLP215 T02560150 /;,,,,,,,,,,,,,,,,,,,,,,,,,,,,
72208013880,2004-05-10T12:56:00,FM-15,4,,SE,0.25,mi,"TEMP, PRECIP, SNOW",,,"MMTS, SRG, SNOWBOARD",,,WFO CHS,,,,,,,,,,,,,,,,,,,,,,,,,,,30.24,63,79,,,0.03,6,58,30.24,,,10,,150,,14,,,,,,,,,,,,,,,,,,,,,,,,,,,,,,,,,,,,,MET088KCHS 101756Z 15012KT 10SM SCT046 26/17 A3024 RMK AO2 SLP239 T02610167 10272 20194 56009;,,,,,,,,,,,,,,,,,,,,,,,,,,,,
72208013880,2004-05-10T13:00:00,SY-MT,C,,SE,0.25,mi,"TEMP, PRECIP, SNOW",,,"MMTS, SRG, SNOWBOARD",,,WFO CHS,,,,,,,,,,,,,,,,,,,,,,,,,,,30.24,62,79,0,,0.03,6,56,30.24,,30.19,9.94,68,150,,14,,,,,,,,,,,,,,,,,,,,,,,,,,,,,,,,,,,,,SYN092AAXX  10184 72208 32666 41512 10261 20167 30224 40239 56009 91756 333 10272 20194 555 91018;,,,,,,,,,,,,,,,,,,,,,,,,,,,,
72208013880,2004-05-10T17:00:00,FM-15,C,,SE,0.25,mi,"TEMP, PRECIP, SNOW",,,"MMTS, SRG, SNOWBOARD",,,WFO CHS,,,,,,,,,,,,,,,,,,,,,,,,,,,30.2,64,77,0,,,,64,30.2,,,9.94,,160,,9,,,,,,,,,,,,,,,,,,,,,,,,,,,,,,,,,,,,,MET070KCHS 102156Z 16008KT 10SM FEW040 25/18 A3020 RMK AO2 SLP227 T02500178;,,,,,,,,,,,,,,,,,,,,,,,,,,,,
72208013880,2004-05-11T12:00:00,FM-15,C,,SE,0.25,mi,"TEMP, PRECIP, SNOW",,,"MMTS, SRG, SNOWBOARD",,,WFO CHS,,,,,,,,,,,,,,,,,,,,,,,,,,,30.25,67,80,0,,,,64,30.24,,,9.94,,170,,12,,,,,,,,,,,,,,,,,,,,,,,,,,,,,,,,,,,,,MET079KCHS 111656Z 17010KT 10SM SCT036 BKN085 27/19 A3025 RMK AO2 SLP242 T02670194 /;,,,,,,,,,,,,,,,,,,,,,,,,,,,,
72208013880,2004-05-11T14:00:00,FM-15,C,,SE,0.25,mi,"TEMP, PRECIP, SNOW",,,"MMTS, SRG, SNOWBOARD",,,WFO CHS,,,,,,,,,,,,,,,,,,,,,,,,,,,30.22,67,82,0,,,,60,30.22,,,9.94,,170,,13,,,,,,,,,,,,,,,,,,,,,,,,,,,,,,,,,,,,,MET086KCHS 111856Z 17011KT 10SM SCT037 BKN047 BKN055 28/19 A3022 RMK AO2 SLP233 T02780194 /;,,,,,,,,,,,,,,,,,,,,,,,,,,,,
72208013880,2004-05-11T15:00:00,FM-15,C,,SE,0.25,mi,"TEMP, PRECIP, SNOW",,,"MMTS, SRG, SNOWBOARD",,,WFO CHS,,,,,,,,,,,,,,,,,,,,,,,,,,,30.21,65,79,0,,,,62,30.21,,,9.94,,170,,10,,,,,,,,,,,,,,,,,,,,,,,,,,,,,,,,,,,,,MET079KCHS 111956Z 17009KT 10SM SCT041 BKN075 26/18 A3021 RMK AO2 SLP229 T02610183 /;,,,,,,,,,,,,,,,,,,,,,,,,,,,,
72208013880,2004-05-12T11:00:00,FM-15,C,,SE,0.25,mi,"TEMP, PRECIP, SNOW",,,"MMTS, SRG, SNOWBOARD",,,WFO CHS,,,,,,,,,,,,,,,,,,,,,,,,,,,30.27,67,80,0,,,,64,30.26,32,,7.95,,150,,14,,,,,,,,,,,,,,,,,,,,,,,,,,,,,,,,,,,,,MET088KCHS 121556Z 15012KT 8SM SCT032TCU BKN090 27/19 A3027 RMK AO2 SLP248 TCU E-SW T02670194;,,,,,,,,,,,,,,,,,,,,,,,,,,,,
72208013880,2004-05-12T12:56:00,FM-15,4,,SE,0.25,mi,"TEMP, PRECIP, SNOW",,,"MMTS, SRG, SNOWBOARD",,,WFO CHS,,,,,,,,,,,,,,,,,,,,,,,,,,,30.24,66,82,,,0.02,8,58,30.24,,,9,,160,,14,,,,,,,,,,,,,,,,,,,,,,,,,,,,,,,,,,,,,MET094KCHS 121756Z 16012KT 9SM BKN033 BKN070 28/19 A3024 RMK AO2 SLP241 T02780189 10283 20228 58007;,,,,,,,,,,,,,,,,,,,,,,,,,,,,
72208013880,2004-05-12T13:00:00,SY-MT,C,,SE,0.25,mi,"TEMP, PRECIP, SNOW",,,"MMTS, SRG, SNOWBOARD",,,WFO CHS,,,,,,,,,,,,,,,,,,,,,,,,,,,30.24,66,82,0,,0.02,8,58,30.24,,30.19,8.95,71,160,,14,,,,,,,,,,,,,,,,,,,,,,,,,,,,,,,,,,,,,SYN092AAXX  12184 72208 32564 61612 10278 20189 30224 40241 58007 91756 333 10283 20228 555 91218;,,,,,,,,,,,,,,,,,,,,,,,,,,,,
72208013880,2004-05-12T14:00:00,FM-15,C,,SE,0.25,mi,"TEMP, PRECIP, SNOW",,,"MMTS, SRG, SNOWBOARD",,,WFO CHS,,,,,,,,,,,,,,,,,,,,,,,,,,,30.23,68,81,0,,,,65,30.22,,,7.95,,170,,15,,,,,,,,,,,,,,,,,,,,,,,,,,,,,,,,,,,,,MET076KCHS 121856Z 17013KT 8SM BKN033 BKN085 27/20 A3023 RMK AO2 SLP235 T02720200;,,,,,,,,,,,,,,,,,,,,,,,,,,,,
72208013880,2004-05-12T15:00:00,FM-15,C,,SE,0.25,mi,"TEMP, PRECIP, SNOW",,,"MMTS, SRG, SNOWBOARD",,,WFO CHS,,,,,,,,,,,,,,,,,,,,,,,,,,,30.22,68,80,0,,,,67,30.22,,,7.95,,160,,15,,,,,,,,,,,,,,,,,,,,,,,,,,,,,,,,,,,,,MET076KCHS 121956Z 16013KT 8SM SCT035 BKN085 27/20 A3022 RMK AO2 SLP233 T02670200;,,,,,,,,,,,,,,,,,,,,,,,,,,,,
72208013880,2004-05-12T15:56:00,FM-15,4,,SE,0.25,mi,"TEMP, PRECIP, SNOW",,,"MMTS, SRG, SNOWBOARD",,,WFO CHS,,,,,,,,,,,,,,,,,,,,,,,,,,,30.2,68,81,,,0.04,7,66,30.2,,,8,,170,,11,,,,,,,,,,,,,,,,,,,,,,,,,,,,,,,,,,,,,MET075KCHS 122056Z 17010KT 8SM SCT034 27/20 A3020 RMK AO2 SLP227 T02670200 57013;,,,,,,,,,,,,,,,,,,,,,,,,,,,,
72208013880,2004-05-12T16:00:00,SY-MT,C,,SE,0.25,mi,"TEMP, PRECIP, SNOW",,,"MMTS, SRG, SNOWBOARD",,,WFO CHS,,,,,,,,,,,,,,,,,,,,,,,,,,,30.2,68,80,0,,0.04,7,67,30.2,,30.15,7.95,72,170,,12,,,,,,,,,,,,,,,,,,,,,,,,,,,,,,,,,,,,,SYN076AAXX  12214 72208 35662 41710 10267 20200 30211 40227 57013 92056 555 91221;,,,,,,,,,,,,,,,,,,,,,,,,,,,,
72208013880,2004-05-12T17:00:00,FM-15,C,,SE,0.25,mi,"TEMP, PRECIP, SNOW",,,"MMTS, SRG, SNOWBOARD",,,WFO CHS,,,,,,,,,,,,,,,,,,,,,,,,,,,30.21,68,78,0,,,,71,30.2,,,6.96,,160,,10,,,,,,,,,,,,,,,,,,,,,,,,,,,,,,,,,,,,,MET069KCHS 122156Z 16009KT 7SM FEW031 26/20 A3021 RMK AO2 SLP228 T02560200;,,,,,,,,,,,,,,,,,,,,,,,,,,,,
72208013880,2004-05-13T14:00:00,FM-15,C,,SE,0.25,mi,"TEMP, PRECIP, SNOW",,,"MMTS, SRG, SNOWBOARD",,,WFO CHS,,,,,,,,,,,,,,,,,,,,,,,,,,,30.25,67,83,0,,,,59,30.25,,,9.94,,160,,10,,,,,,,,,,,,,,,,,,,,,,,,,,,,,,,,,,,,,MET070KCHS 131856Z 16009KT 10SM SCT037 28/19 A3025 RMK AO2 SLP244 T02830194;,,,,,,,,,,,,,,,,,,,,,,,,,,,,
72208013880,2004-05-13T17:00:00,FM-15,C,,SE,0.25,mi,"TEMP, PRECIP, SNOW",,,"MMTS, SRG, SNOWBOARD",,,WFO CHS,,,,,,,,,,,,,,,,,,,,,,,,,,,30.22,67,79,0,,,,67,30.22,,,9.94,,170,,12,,,,,,,,,,,,,,,,,,,,,,,,,,,,,,,,,,,,,MET070KCHS 132156Z 17010KT 10SM FEW040 26/19 A3022 RMK AO2 SLP232 T02610194;,,,,,,,,,,,,,,,,,,,,,,,,,,,,
72208013880,2004-05-14T12:56:00,FM-15,4,,SE,0.25,mi,"TEMP, PRECIP, SNOW",,,"MMTS, SRG, SNOWBOARD",,,WFO CHS,,,,,,,,,,,,,,,,,,,,,,,,,,,30.27,64,82,,,0.02,8,55,30.27,,,10,,150,,9,,,,,,,,,,,,,,,,,,,,,,,,,,,,,,,,,,,,,MET095KCHS 141756Z 15008KT 10SM SCT045 BKN055 28/18 A3027 RMK AO2 SLP249 T02780178 10289 20222 58007;,,,,,,,,,,,,,,,,,,,,,,,,,,,,
72208013880,2004-05-14T13:00:00,SY-MT,C,,SE,0.25,mi,"TEMP, PRECIP, SNOW",,,"MMTS, SRG, SNOWBOARD",,,WFO CHS,,,,,,,,,,,,,,,,,,,,,,,,,,,30.27,64,82,0,,0.02,8,55,30.27,,30.22,9.94,70,150,,9,,,,,,,,,,,,,,,,,,,,,,,,,,,,,,,,,,,,,SYN092AAXX  14184 72208 32666 61508 10278 20178 30234 40249 58007 91756 333 10289 20222 555 91418;,,,,,,,,,,,,,,,,,,,,,,,,,,,,
72208013880,2004-05-15T12:00:00,FM-15,C,,SE,0.25,mi,"TEMP, PRECIP, SNOW",,,"MMTS, SRG, SNOWBOARD",,,WFO CHS,,,,,,,,,,,,,,,,,,,,,,,,,,,30.25,63,80,0,,,,56,30.25,,,9.94,,150,,10,,,,,,,,,,,,,,,,,,,,,,,,,,,,,,,,,,,,,MET077KCHS 151656Z 15009KT 10SM FEW040 SCT050 27/17 A3025 RMK AO2 SLP244 T02670172;,,,,,,,,,,,,,,,,,,,,,,,,,,,,
72208013880,2004-05-15T12:56:00,FM-15,4,,SE,0.25,mi,"TEMP, PRECIP, SNOW",,,"MMTS, SRG, SNOWBOARD",,,WFO CHS,,,,,,,,,,,,,,,,,,,,,,,,,,,30.25,64,81,,,0.02,8,58,30.24,,,10,,160,,14,,,,,,,,,,,,,,,,,,,,,,,,,,,,,,,,,,,,,MET085KCHS 151756Z 16012KT 10SM CLR 27/18 A3025 RMK AO2 SLP241 T02720178 10283 20217 58008;,,,,,,,,,,,,,,,,,,,,,,,,,,,,
72208013880,2004-05-15T13:00:00,SY-MT,C,,SE,0.25,mi,"TEMP, PRECIP, SNOW",,,"MMTS, SRG, SNOWBOARD",,,WFO CHS,,,,,,,,,,,,,,,,,,,,,,,,,,,30.25,64,81,0,,0.02,8,57,30.24,,30.2,9.94,70,160,,14,,,,,,,,,,,,,,,,,,,,,,,,,,,,,,,,,,,,,SYN092AAXX  15184 72208 32666 21612 10272 20178 30228 40241 58008 91756 333 10283 20217 555 91518;,,,,,,,,,,,,,,,,,,,,,,,,,,,,
72208013880,2004-05-15T14:00:00,FM-15,C,,SE,0.25,mi,"TEMP, PRECIP, SNOW",,,"MMTS, SRG, SNOWBOARD",,,WFO CHS,,,,,,,,,,,,,,,,,,,,,,,,,,,30.23,64,82,0,,,,55,30.23,,,9.94,,160,,12,,,,,,,,,,,,,,,,,,,,,,,,,,,,,,,,,,,,,MET070KCHS 151856Z 16010KT 10SM FEW045 28/18 A3023 RMK AO2 SLP237 T02780178;,,,,,,,,,,,,,,,,,,,,,,,,,,,,
72208013880,2004-05-15T15:00:00,FM-15,C,,SE,0.25,mi,"TEMP, PRECIP, SNOW",,,"MMTS, SRG, SNOWBOARD",,,WFO CHS,,,,,,,,,,,,,,,,,,,,,,,,,,,30.22,65,82,0,,,,56,30.22,,,9.94,,150,,12,,,,,,,,,,,,,,,,,,,,,,,,,,,,,,,,,,,,,MET070KCHS 151956Z 15010KT 10SM FEW044 28/18 A3022 RMK AO2 SLP233 T02780183;,,,,,,,,,,,,,,,,,,,,,,,,,,,,
72208013880,2004-05-15T15:56:00,FM-15,4,,SE,0.25,mi,"TEMP, PRECIP, SNOW",,,"MMTS, SRG, SNOWBOARD",,,WFO CHS,,,,,,,,,,,,,,,,,,,,,,,,,,,30.21,64,82,,,0.04,6,55,30.21,,,10,,160,,11,,,,,,,,,,,,,,,,,,,,,,,,,,,,,,,,,,,,,MET076KCHS 152056Z 16010KT 10SM SCT080 28/18 A3021 RMK AO2 SLP229 T02780183 56012;,,,,,,,,,,,,,,,,,,,,,,,,,,,,
72208013880,2004-05-15T16:00:00,SY-MT,C,,SE,0.25,mi,"TEMP, PRECIP, SNOW",,,"MMTS, SRG, SNOWBOARD",,,WFO CHS,,,,,,,,,,,,,,,,,,,,,,,,,,,30.21,65,82,0,,0.04,6,56,30.21,,30.16,9.94,71,160,,12,,,,,,,,,,,,,,,,,,,,,,,,,,,,,,,,,,,,,SYN076AAXX  15214 72208 35866 41610 10278 20183 30214 40229 56012 92056 555 91521;,,,,,,,,,,,,,,,,,,,,,,,,,,,,
72208013880,2004-05-16T11:00:00,FM-15,C,,SE,0.25,mi,"TEMP, PRECIP, SNOW",,,"MMTS, SRG, SNOWBOARD",,,WFO CHS,,,,,,,,,,,,,,,,,,,,,,,,,,,30.31,67,79,0,,,,67,30.3,34,,8.95,,170,,12,,,,,,,,,,,,,,,,,,,,,,,,,,,,,,,,,,,,,MET091KCHS 161556Z 17010KT 9SM FEW035TCU BKN070 26/19 A3031 RMK AO2 SLP261 TCU S NE NW T02610194;,,,,,,,,,,,,,,,,,,,,,,,,,,,,
72208013880,2004-05-16T12:00:00,FM-15,C,,SE,0.25,mi,"TEMP, PRECIP, SNOW",,,"MMTS, SRG, SNOWBOARD",,,WFO CHS,,,,,,,,,,,,,,,,,,,,,,,,,,,30.29,68,80,0,,,,67,30.29,34,,8.95,,170,,10,,,,,,,,,,,,,,,,,,,,,,,,,,,,,,,,,,,,,MET090KCHS 161656Z 17009KT 9SM FEW035TCU SCT070 27/20 A3029 RMK AO2 SLP257 TCU E-NE-W T02670200;,,,,,,,,,,,,,,,,,,,,,,,,,,,,
72208013880,2004-05-16T14:00:00,FM-15,C,,SE,0.25,mi,"TEMP, PRECIP, SNOW",,,"MMTS, SRG, SNOWBOARD",,,WFO CHS,,,,,,,,,,,,,,,,,,,,,,,,,,,30.26,67,80,0,,,,64,30.26,36,,8.95,,150,,13,,,,,,,,,,,,,,,,,,,,,,,,,,,,,,,,,,,,,MET098KCHS 161856Z 15011KT 9SM SCT037TCU BKN060 27/19 A3026 RMK AO2 WSHFT 1821 SLP247 TCU S-N T02670194;,,,,,,,,,,,,,,,,,,,,,,,,,,,,
72208013880,2004-05-16T15:00:00,FM-15,C,,SE,0.25,mi,"TEMP, PRECIP, SNOW",,,"MMTS, SRG, SNOWBOARD",,,WFO CHS,,,,,,,,,,,,,,,,,,,,,,,,,,,30.25,66,79,0,,,,65,30.24,39,,8.95,,150,,13,,,,,,,,,,,,,,,,,,,,,,,,,,,,,,,,,,,,,MET089KCHS 161956Z 15011KT 9SM FEW040TCU SCT055 26/19 A3025 RMK AO2 SLP242 TCU SW-NE T02610189;,,,,,,,,,,,,,,,,,,,,,,,,,,,,
72208013880,2004-05-16T17:00:00,FM-15,C,,SE,0.25,mi,"TEMP, PRECIP, SNOW",,,"MMTS, SRG, SNOWBOARD",,,WFO CHS,,,,,,,,,,,,,,,,,,,,,,,,,,,30.24,65,79,0,,,,62,30.23,,,9.94,,160,,10,,,,,,,,,,,,,,,,,,,,,,,,,,,,,,,,,,,,,MET077KCHS 162156Z 16009KT 10SM SCT045 BKN080 26/18 A3024 RMK AO2 SLP238 T02610183;,,,,,,,,,,,,,,,,,,,,,,,,,,,,
72208013880,2004-05-17T12:00:00,FM-15,C,,SE,0.25,mi,"TEMP, PRECIP, SNOW",,,"MMTS, SRG, SNOWBOARD",,,WFO CHS,,,,,,,,,,,,,,,,,,,,,,,,,,,30.34,67,82,0,,,,60,30.33,,,9.94,,150,,9,,,,,,,,,,,,,,,,,,,,,,,,,,,,,,,,,,,,,MET077KCHS 171656Z 15008KT 10SM SCT043 SCT080 28/19 A3034 RMK AO2 SLP272 T02780194;,,,,,,,,,,,,,,,,,,,,,,,,,,,,
72208013880,2004-05-17T12:56:00,FM-15,4,,SE,0.25,mi,"TEMP, PRECIP, SNOW",,,"MMTS, SRG, SNOWBOARD",,,WFO CHS,,,,,,,,,,,,,,,,,,,,,,,,,,,30.32,66,82,,,0.03,8,58,30.32,,,10,,170,,17,,,,,,,,,,,,,,,,,,,,,,,,,,,,,,,,,,,,,MET095KCHS 171756Z 17015KT 10SM BKN039 BKN080 28/19 A3032 RMK AO2 SLP267 T02830189 10283 20217 58011;,,,,,,,,,,,,,,,,,,,,,,,,,,,,
72208013880,2004-05-17T13:00:00,SY-MT,C,,SE,0.25,mi,"TEMP, PRECIP, SNOW",,,"MMTS, SRG, SNOWBOARD",,,WFO CHS,,,,,,,,,,,,,,,,,,,,,,,,,,,30.32,66,83,0,,0.03,8,57,30.32,,30.27,9.94,72,170,,17,,,,,,,,,,,,,,,,,,,,,,,,,,,,,,,,,,,,,SYN092AAXX  17184 72208 32666 61715 10283 20189 30251 40267 58011 91756 333 10283 20217 555 91718;,,,,,,,,,,,,,,,,,,,,,,,,,,,,
72208013880,2004-05-17T14:00:00,FM-15,C,,SE,0.25,mi,"TEMP, PRECIP, SNOW",,,"MMTS, SRG, SNOWBOARD",,,WFO CHS,,,,,,,,,,,,,,,,,,,,,,,,,,,30.31,66,81,0,,,,61,30.31,,,9.94,,160,,16,,,,,,,,,,,,,,,,,,,,,,,,,,,,,,,,,,,,,MET077KCHS 171856Z 16014KT 10SM BKN034 BKN045 27/19 A3031 RMK AO2 SLP264 T02720189;,,,,,,,,,,,,,,,,,,,,,,,,,,,,
72208013880,2004-05-17T15:56:00,FM-15,4,,SE,0.25,mi,"TEMP, PRECIP, SNOW",,,"MMTS, SRG, SNOWBOARD",,,WFO CHS,,,,,,,,,,,,,,,,,,,,,,,,,,,30.28,66,81,,,0.04,8,62,30.28,33,,10,,150,,13,,,,,,,,,,,,,,,,,,,,,,,,,,,,,,,,,,,,,MET086KCHS 172056Z 15011KT 10SM SCT034TCU 27/19 A3028 RMK AO2 SLP254 TCU NW T02670194 58013;,,,,,,,,,,,,,,,,,,,,,,,,,,,,
72208013880,2004-05-17T16:00:00,SY-MT,C,,SE,0.25,mi,"TEMP, PRECIP, SNOW",,,"MMTS, SRG, SNOWBOARD",,,WFO CHS,,,,,,,,,,,,,,,,,,,,,,,,,,,30.28,67,80,0,,0.04,8,64,30.28,,30.23,9.94,71,150,,13,,,,,,,,,,,,,,,,,,,,,,,,,,,,,,,,,,,,,SYN076AAXX  17214 72208 35666 41511 10267 20194 30238 40254 58013 92056 555 91721;,,,,,,,,,,,,,,,,,,,,,,,,,,,,
72208013880,2004-05-17T17:00:00,FM-15,C,,SE,0.25,mi,"TEMP, PRECIP, SNOW",,,"MMTS, SRG, SNOWBOARD",,,WFO CHS,,,,,,,,,,,,,,,,,,,,,,,,,,,30.28,66,77,0,,,,69,30.28,,,9.94,,150,,13,,,,,,,,,,,,,,,,,,,,,,,,,,,,,,,,,,,,,MET077KCHS 172156Z 15011KT 10SM FEW030 BKN095 25/19 A3028 RMK AO2 SLP253 T02500189;,,,,,,,,,,,,,,,,,,,,,,,,,,,,
72208013880,2004-05-18T11:00:00,FM-15,C,,SE,0.25,mi,"TEMP, PRECIP, SNOW",,,"MMTS, SRG, SNOWBOARD",,,WFO CHS,,,,,,,,,,,,,,,,,,,,,,,,,,,30.32,64,79,0,,,,60,30.32,,,8.95,,150,,8,,,,,,,,,,,,,,,,,,,,,,,,,,,,,,,,,,,,,MET078KCHS 181556Z 15007KT 9SM SCT036 BKN120 26/18 A3032 RMK AO2 SLP266 T02610178 /;,,,,,,,,,,,,,,,,,,,,,,,,,,,,
72208013880,2004-05-18T17:00:00,FM-15,C,,SE,0.25,mi,"TEMP, PRECIP, SNOW",,,"MMTS, SRG, SNOWBOARD",,,WFO CHS,,,,,,,,,,,,,,,,,,,,,,,,,,,30.22,66,80,0,,,,62,30.21,,,7.95,,170,,12,,,,,,,,,,,,,,,,,,,,,,,,,,,,,,,,,,,,,MET069KCHS 182156Z 17010KT 8SM SCT037 27/19 A3022 RMK AO2 SLP231 T02670189;,,,,,,,,,,,,,,,,,,,,,,,,,,,,
72208013880,2004-05-20T17:00:00,FM-15,C,,SE,0.25,mi,"TEMP, PRECIP, SNOW",,,"MMTS, SRG, SNOWBOARD",,,WFO CHS,,,,,,,,,,,,,,,,,,,,,,,,,,,30.18,70,84,T,,,,63,30.18,39,,9.94,,170,,14,,,,,,,,,,,,,,,,,,,,,,,,,,,,,,,,,,,,,MET104KCHS 202156Z 17012KT 10SM FEW040CB 29/21 A3018 RMK AO2 RAB01E18 SLP219 CB DSNT NE STNRY P0000 T02890211;,,,,,,,,,,,,,,,,,,,,,,,,,,,,
72208013880,2004-05-29T17:00:00,FM-15,C,,SE,0.25,mi,"TEMP, PRECIP, SNOW",,,"MMTS, SRG, SNOWBOARD",,,WFO CHS,,,,,,,,,,,,,,,,,,,,,,,,,,,29.95,71,83,0,,,,67,29.95,,,8.95,,170,,13,,,,,,,,,,,,,,,,,,,,,,,,,,,,,,,,,,,,,MET078KCHS 292156Z 17011KT 9SM FEW040 SCT070 28/22 A2995 RMK AO2 SLP141 T02830217 /;,,,,,,,,,,,,,,,,,,,,,,,,,,,,
72208013880,2004-06-02T15:00:00,FM-15,E,,SE,0.25,mi,"TEMP, PRECIP, SNOW",,,"MMTS, SRG, SNOWBOARD",,,WFO CHS,,,,,,,,,,,,,,,,,,,,,,,,,,,29.98,70,86,0,,,,59,29.98,,,9.94,,160,,13,,,,,,,,,,,,,,,,,,,,,,,,,,,,,,,,,,,,,,,,,,,,,,,,,,,,,,,,,,,,,,,,,
72208013880,2004-06-05T17:00:00,FM-15,C,,SE,0.25,mi,"TEMP, PRECIP, SNOW",,,"MMTS, SRG, SNOWBOARD",,,WFO CHS,,,,,,,,,,,,,,,,,,,,,,,,,,,29.96,73,84,0,,,,70,29.96,,,6.96,,150,,13,,,,,,,,,,,,,,,,,,,,,,,,,,,,,,,,,,,,,MET085KCHS 052156Z 15011KT 7SM FEW026 SCT070 BKN080 29/23 A2996 RMK AO2 SLP144 T02890228 /;,,,,,,,,,,,,,,,,,,,,,,,,,,,,
72208013880,2004-06-06T15:56:00,FM-15,4,,SE,0.25,mi,"TEMP, PRECIP, SNOW",,,"MMTS, SRG, SNOWBOARD",,,WFO CHS,,,,,,,,,,,,,,,,,,,,,,,,,,,30,70,81,T,,-0.01,1,70,30,37,,8,,160,,7,,,,,,,,,,,,,,,,,,,,,,,,,,,,,,,,,,,,,MET126KCHS 062056Z 16006KT 8SM FEW038CB SCT065 BKN090 27/21 A3000 RMK AO2 RAB43E55 SLP158 CB NE MOV E P0000 60003 T02670211 51002 /;,,,,,,,,,,,,,,,,,,,,,,,,,,,,
72208013880,2004-06-06T16:00:00,SY-MT,C,,SE,0.25,mi,"TEMP, PRECIP, SNOW",,,"MMTS, SRG, SNOWBOARD",,,WFO CHS,,,,,,,,,,,,,,,,,,,,,,,,,,,30,70,80,0.01,,-0.01,1,71,30,,29.95,7.95,73,160,,7,,,,,,,,,,,,,,,,,,,,,,,,,,,,,,,,,,,,,SYN082AAXX  06214 72208 15662 61606 10267 20211 30143 40158 51002 69987 92056 555 90621;,,,,,,,,,,,,,,,,,,,,,,,,,,,,
72208013880,2004-06-07T11:00:00,FM-15,C,,SE,0.25,mi,"TEMP, PRECIP, SNOW",,,"MMTS, SRG, SNOWBOARD",,,WFO CHS,,,,,,,,,,,,,,,,,,,,,,,,,,,30.11,74,86,0,||HZ,,,67,30.11,,,5.97,,160,,10,,,,,,,,,,,,,,,,,,,,,,,,,,,,,,,,,,,,,MET074KCHS 071556Z 16009KT 6SM HZ SCT030 30/23 A3011 RMK AO2 SLP195 T03000233 /;,,,,,,,,,,,,,,,,,,,,,,,,,,,,
72208013880,2004-06-07T14:00:00,FM-15,C,,SE,0.25,mi,"TEMP, PRECIP, SNOW",,,"MMTS, SRG, SNOWBOARD",,,WFO CHS,,,,,,,,,,,,,,,,,,,,,,,,,,,30.09,73,85,0,,,,68,30.09,30,,6.96,,170,,14,,,,,,,,,,,,,,,,,,,,,,,,,,,,,,,,,,,,,MET096KCHS 071856Z COR 17012KT 7SM SCT030CB 29/23 A3009 RMK AO2 SLP188 CB NW MOV N DSNT W T02940228 /;,,,,,,,,,,,,,,,,,,,,,,,,,,,,
72208013880,2004-06-07T15:00:00,FM-15,C,,SE,0.25,mi,"TEMP, PRECIP, SNOW",,,"MMTS, SRG, SNOWBOARD",,,WFO CHS,,,,,,,,,,,,,,,,,,,,,,,,,,,30.06,73,86,0,,,,65,30.06,,,6.96,,170,,13,,,,,,,,,,,,,,,,,,,,,,,,,,,,,,,,,,,,,MET071KCHS 071956Z 17011KT 7SM FEW030 30/23 A3006 RMK AO2 SLP180 T03000228 /;,,,,,,,,,,,,,,,,,,,,,,,,,,,,
72208013880,2004-06-07T15:56:00,FM-15,4,,SE,0.25,mi,"TEMP, PRECIP, SNOW",,,"MMTS, SRG, SNOWBOARD",,,WFO CHS,,,,,,,,,,,,,,,,,,,,,,,,,,,30.08,72,86,,,0.01,5,62,30.08,,,9,,170,,10,,,,,,,,,,,,,,,,,,,,,,,,,,,,,,,,,,,,,MET077KCHS 072056Z 17009KT 9SM FEW031 30/22 A3008 RMK AO2 SLP185 T03000217 55004 /;,,,,,,,,,,,,,,,,,,,,,,,,,,,,
72208013880,2004-06-07T16:00:00,SY-MT,C,,SE,0.25,mi,"TEMP, PRECIP, SNOW",,,"MMTS, SRG, SNOWBOARD",,,WFO CHS,,,,,,,,,,,,,,,,,,,,,,,,,,,30.08,71,86,0,,0.01,5,61,30.08,,30.03,8.95,76,170,,10,,,,,,,,,,,,,,,,,,,,,,,,,,,,,,,,,,,,,SYN076AAXX  07214 72208 35564 21709 10300 20217 30170 40185 55004 92056 555 90721;,,,,,,,,,,,,,,,,,,,,,,,,,,,,
72208013880,2004-06-08T14:00:00,FM-15,C,,SE,0.25,mi,"TEMP, PRECIP, SNOW",,,"MMTS, SRG, SNOWBOARD",,,WFO CHS,,,,,,,,,,,,,,,,,,,,,,,,,,,30.18,72,84,0,,,,67,30.18,32,,9.94,,150,,12,,,,,,,,,,,,,,,,,,,,,,,,,,,,,,,,,,,,,MET113KCHS 081856Z 15010KT 10SM BKN032TCU 29/22 A3018 RMK AO2 SLP220 TCU ALQDS OCNL LTGIC DSNT W CB DSNT W T02890222 /;,,,,,,,,,,,,,,,,,,,,,,,,,,,,
72208013880,2004-06-08T17:00:00,FM-15,C,,SE,0.25,mi,"TEMP, PRECIP, SNOW",,,"MMTS, SRG, SNOWBOARD",,,WFO CHS,,,,,,,,,,,,,,,,,,,,,,,,,,,30.15,72,84,0,,,,67,30.14,,,9.94,,160,,16,,,,,,,,,,,,,,,,,,,,,,,,,,,,,,,,,,,,,MET070KCHS 082156Z 16014KT 10SM SCT029 29/22 A3015 RMK AO2 SLP207 T02890222;,,,,,,,,,,,,,,,,,,,,,,,,,,,,
72208013880,2004-06-09T12:56:00,FM-15,4,,SE,0.25,mi,"TEMP, PRECIP, SNOW",,,"MMTS, SRG, SNOWBOARD",,,WFO CHS,,,,,,,,,,,,,,,,,,,,,,,,,,,30.18,70,84,,,0.03,8,62,30.17,33,,10,,160,,13,,,,,,,,,,,,,,,,,,,,,,,,,,,,,,,,,,,,,MET112KCHS 091756Z 16011KT 10SM BKN034TCU BKN090 29/21 A3018 RMK AO2 SLP218 TCU OHD CB DSNT N 60000 T02890206 58010 /;,,,,,,,,,,,,,,,,,,,,,,,,,,,,
72208013880,2004-06-09T13:00:00,SY-MT,C,,SE,0.25,mi,"TEMP, PRECIP, SNOW",,,"MMTS, SRG, SNOWBOARD",,,WFO CHS,,,,,,,,,,,,,,,,,,,,,,,,,,,30.18,69,84,0,,0.03,8,61,30.17,,30.13,9.94,74,160,,13,,,,,,,,,,,,,,,,,,,,,,,,,,,,,,,,,,,,,SYN082AAXX  09184 72208 12666 61611 10289 20206 30204 40218 58010 69901 91756 555 90918;,,,,,,,,,,,,,,,,,,,,,,,,,,,,
72208013880,2004-06-09T17:00:00,FM-15,C,,SE,0.25,mi,"TEMP, PRECIP, SNOW",,,"MMTS, SRG, SNOWBOARD",,,WFO CHS,,,,,,,,,,,,,,,,,,,,,,,,,,,30.11,69,83,0,,,,63,30.11,,,9.94,,170,,15,,,,,,,,,,,,,,,,,,,,,,,,,,,,,,,,,,,,,MET079KCHS 092156Z 17013KT 10SM FEW033 SCT080 28/21 A3011 RMK AO2 SLP195 T02830206 /;,,,,,,,,,,,,,,,,,,,,,,,,,,,,
72208013880,2004-06-11T17:23:00,FM-16,4,,SE,0.25,mi,"TEMP, PRECIP, SNOW",,,"MMTS, SRG, SNOWBOARD",,,WFO CHS,,,,,,,,,,,,,,,,,,,,,,,,,,,29.9,75,88,,||HZ,,,66,,39,,6,,160,,11,,,,,,,,,,,,,,,,,,,,,,,,,,,,,,,,,,,,,MET084KCHS 112223Z 16010KT 6SM HZ FEW040TCU 31/24 A2990 RMK AO2 TSE18 TS DSPTD TCU NE-S /;,,,,,,,,,,,,,,,,,,,,,,,,,,,,
72208013880,2004-06-14T12:56:00,FM-15,4,,SE,0.25,mi,"TEMP, PRECIP, SNOW",,,"MMTS, SRG, SNOWBOARD",,,WFO CHS,,,,,,,,,,,,,,,,,,,,,,,,,,,30.1,72,82,,,0.03,8,70,30.1,,,10,,170,,15,,,,,,,,,,,,,,,,,,,,,,,,,,,,,,,,,,,,,MET095KCHS 141756Z 17013KT 10SM BKN029 BKN075 28/22 A3010 RMK AO2 SLP193 T02780222 10294 20256 58010;,,,,,,,,,,,,,,,,,,,,,,,,,,,,
72208013880,2004-06-14T13:00:00,SY-MT,C,,SE,0.25,mi,"TEMP, PRECIP, SNOW",,,"MMTS, SRG, SNOWBOARD",,,WFO CHS,,,,,,,,,,,,,,,,,,,,,,,,,,,30.1,72,82,0,,0.03,8,72,30.1,,30.05,9.94,75,170,,15,,,,,,,,,,,,,,,,,,,,,,,,,,,,,,,,,,,,,SYN092AAXX  14184 72208 32566 61713 10278 20222 30177 40193 58010 91756 333 10294 20244 555 91418;,,,,,,,,,,,,,,,,,,,,,,,,,,,,
72208013880,2004-06-14T13:49:00,FM-16,4,,SE,0.25,mi,"TEMP, PRECIP, SNOW",,,"MMTS, SRG, SNOWBOARD",,,WFO CHS,,,,,,,,,,,,,,,,,,,,,,,,,,,30.09,72,82,,,,,70,,,,10,,160,,15,,,,,,,,,,,,,,,,,,,,,,,,,,,,,,,,,,,,,MET060KCHS 141849Z 16013KT 10SM BKN031 OVC065 28/22 A3009 RMK AO2;,,,,,,,,,,,,,,,,,,,,,,,,,,,,
72208013880,2004-06-14T15:56:00,FM-15,4,,SE,0.25,mi,"TEMP, PRECIP, SNOW",,,"MMTS, SRG, SNOWBOARD",,,WFO CHS,,,,,,,,,,,,,,,,,,,,,,,,,,,30.08,72,81,,,0.03,6,74,30.07,,,10,,150,,14,,,,,,,,,,,,,,,,,,,,,,,,,,,,,,,,,,,,,MET083KCHS 142056Z 15012KT 10SM FEW027 BKN035 27/22 A3008 RMK AO2 SLP184 T02720222 56009;,,,,,,,,,,,,,,,,,,,,,,,,,,,,
72208013880,2004-06-14T16:00:00,SY-MT,C,,SE,0.25,mi,"TEMP, PRECIP, SNOW",,,"MMTS, SRG, SNOWBOARD",,,WFO CHS,,,,,,,,,,,,,,,,,,,,,,,,,,,30.08,72,81,0,,0.03,6,74,30.07,,30.03,9.94,75,150,,14,,,,,,,,,,,,,,,,,,,,,,,,,,,,,,,,,,,,,SYN076AAXX  14214 72208 35566 61512 10272 20222 30170 40184 56009 92056 555 91421;,,,,,,,,,,,,,,,,,,,,,,,,,,,,
72208013880,2004-06-14T17:00:00,FM-15,C,,SE,0.25,mi,"TEMP, PRECIP, SNOW",,,"MMTS, SRG, SNOWBOARD",,,WFO CHS,,,,,,,,,,,,,,,,,,,,,,,,,,,30.06,72,81,0,,,,74,30.06,,,9.94,,150,,10,,,,,,,,,,,,,,,,,,,,,,,,,,,,,,,,,,,,,MET077KCHS 142156Z 15009KT 10SM FEW023 SCT038 27/22 A3006 RMK AO2 SLP179 T02720222;,,,,,,,,,,,,,,,,,,,,,,,,,,,,
72208013880,2004-06-15T11:00:00,FM-15,C,,SE,0.25,mi,"TEMP, PRECIP, SNOW",,,"MMTS, SRG, SNOWBOARD",,,WFO CHS,,,,,,,,,,,,,,,,,,,,,,,,,,,30.15,77,78,0.05,||FG RA,,,97,30.14,,,4.97,,150,,12,,,,,,,,,,,,,,,,,,,,,,,,,,,,,,,,,,,,,MET096KCHS 151556Z 15010KT 5SM -RA BR SCT006 BKN018 BKN055 26/25 A3015 RMK AO2 SLP207 P0005 T02560250;,,,,,,,,,,,,,,,,,,,,,,,,,,,,
72208013880,2004-06-15T11:41:00,FM-16,4,,SE,0.25,mi,"TEMP, PRECIP, SNOW",,,"MMTS, SRG, SNOWBOARD",,,WFO CHS,,,,,,,,,,,,,,,,,,,,,,,,,,,30.14,79,79,0.01,||RA,,,100,,,,4,,160,,13,,,,,,,,,,,,,,,,,,,,,,,,,,,,,,,,,,,,,MET072KCHS 151641Z 16011KT 4SM -RA BR SCT006 OVC060 26/26 A3014 RMK AO2 P0001;,,,,,,,,,,,,,,,,,,,,,,,,,,,,
72208013880,2004-06-15T12:00:00,FM-15,C,,SE,0.25,mi,"TEMP, PRECIP, SNOW",,,"MMTS, SRG, SNOWBOARD",,,WFO CHS,,,,,,,,,,,,,,,,,,,,,,,,,,,30.14,77,79,0.01,||FG,,,94,30.14,,,5.97,,160,,13,,,,,,,,,,,,,,,,,,,,,,,,,,,,,,,,,,,,,MET096KCHS 151656Z 16011KT 6SM BR BKN012 OVC060 26/25 A3014 RMK AO2 RAE51 SLP205 VCSH P0001 T02610250;,,,,,,,,,,,,,,,,,,,,,,,,,,,,
72208013880,2004-06-15T13:14:00,FM-16,4,,SE,0.25,mi,"TEMP, PRECIP, SNOW",,,"MMTS, SRG, SNOWBOARD",,,WFO CHS,,,,,,,,,,,,,,,,,,,,,,,,,,,30.13,75,81,,,,,84,,17,,10,,170,,15,,,,,,,,,,,,,,,,,,,,,,,,,,,,,,,,,,,,,MET069KCHS 151814Z 17013KT 10SM SCT017TCU BKN065 27/24 A3013 RMK AO2 TCU E;,,,,,,,,,,,,,,,,,,,,,,,,,,,,
72208013880,2004-06-15T14:34:00,FM-16,4,,SE,0.25,mi,"TEMP, PRECIP, SNOW",,,"MMTS, SRG, SNOWBOARD",,,WFO CHS,,,,,,,,,,,,,,,,,,,,,,,,,,,30.11,75,82,T,,,,79,,,,10,,170,,11,,,,,,,,,,,,,,,,,,,,,,,,,,,,,,,,,,,,,MET072KCHS 151934Z 17010KT 10SM SCT018 BKN070 28/24 A3011 RMK AO2 RAE19 P0000;,,,,,,,,,,,,,,,,,,,,,,,,,,,,
72208013880,2004-06-15T15:00:00,FM-15,C,,SE,0.25,mi,"TEMP, PRECIP, SNOW",,,"MMTS, SRG, SNOWBOARD",,,WFO CHS,,,,,,,,,,,,,,,,,,,,,,,,,,,30.1,75,82,T,,,,79,30.1,,,9.94,,160,,13,,,,,,,,,,,,,,,,,,,,,,,,,,,,,,,,,,,,,MET089KCHS 151956Z 16011KT 10SM SCT018 BKN070 28/24 A3010 RMK AO2 RAE19 SLP192 P0000 T02780239;,,,,,,,,,,,,,,,,,,,,,,,,,,,,
72208013880,2004-06-15T15:56:00,FM-15,4,,SE,0.25,mi,"TEMP, PRECIP, SNOW",,,"MMTS, SRG, SNOWBOARD",,,WFO CHS,,,,,,,,,,,,,,,,,,,,,,,,,,,30.1,75,82,,,0.04,6,79,30.09,,,10,,170,,10,,,,,,,,,,,,,,,,,,,,,,,,,,,,,,,,,,,,,MET089KCHS 152056Z 17009KT 10SM SCT018 SCT027 28/24 A3010 RMK AO2 SLP191 60000 T02780239 56012;,,,,,,,,,,,,,,,,,,,,,,,,,,,,
72208013880,2004-06-15T16:00:00,SY-MT,C,,SE,0.25,mi,"TEMP, PRECIP, SNOW",,,"MMTS, SRG, SNOWBOARD",,,WFO CHS,,,,,,,,,,,,,,,,,,,,,,,,,,,30.1,75,82,0,,0.04,6,79,30.09,,30.05,9.94,77,170,,10,,,,,,,,,,,,,,,,,,,,,,,,,,,,,,,,,,,,,SYN082AAXX  15214 72208 15466 41709 10278 20239 30177 40191 56012 69907 92056 555 91521;,,,,,,,,,,,,,,,,,,,,,,,,,,,,
72208013880,2004-06-15T17:00:00,FM-15,C,,SE,0.25,mi,"TEMP, PRECIP, SNOW",,,"MMTS, SRG, SNOWBOARD",,,WFO CHS,,,,,,,,,,,,,,,,,,,,,,,,,,,30.09,74,81,0,,,,79,30.08,,,9.94,,160,,13,,,,,,,,,,,,,,,,,,,,,,,,,,,,,,,,,,,,,MET070KCHS 152156Z 16011KT 10SM FEW018 27/23 A3009 RMK AO2 SLP187 T02720233;,,,,,,,,,,,,,,,,,,,,,,,,,,,,
72208013880,2004-06-16T12:00:00,FM-15,C,,SE,0.25,mi,"TEMP, PRECIP, SNOW",,,"MMTS, SRG, SNOWBOARD",,,WFO CHS,,,,,,,,,,,,,,,,,,,,,,,,,,,30.2,76,82,0,||TS,,,82,30.2,29,,9.94,,160,,9,,,,,,,,,,,,,,,,,,,,,,,,,,,,,,,,,,,,,MET125KCHS 161656Z 16008KT 10SM VCTS SCT029CB OVC055 28/24 A3020 RMK AO2 TSB20 SLP227 OCNL LTGCG VC W-NW TS NW MOV STNRY T02780244;,,,,,,,,,,,,,,,,,,,,,,,,,,,,
72208013880,2004-06-17T14:00:00,FM-15,C,,SE,0.25,mi,"TEMP, PRECIP, SNOW",,,"MMTS, SRG, SNOWBOARD",,,WFO CHS,,,,,,,,,,,,,,,,,,,,,,,,,,,30.14,77,85,T,,,,77,30.14,,,9.94,,160,,12,,,,,,,,,,,,,,,,,,,,,,,,,,,,,,,,,,,,,MET107KCHS 171856Z 16010KT 10SM FEW018 SCT030 BKN085 29/25 A3014 RMK AO2 RAE01 SLP206 TCU DSNT N P0000 T02940250;,,,,,,,,,,,,,,,,,,,,,,,,,,,,
72208013880,2004-06-17T15:00:00,FM-15,C,,SE,0.25,mi,"TEMP, PRECIP, SNOW",,,"MMTS, SRG, SNOWBOARD",,,WFO CHS,,,,,,,,,,,,,,,,,,,,,,,,,,,30.13,76,84,0,,,,77,30.12,,,9.94,,150,,13,,,,,,,,,,,,,,,,,,,,,,,,,,,,,,,,,,,,,MET077KCHS 171956Z 15011KT 10SM FEW030 SCT090 29/24 A3013 RMK AO2 SLP201 T02890244;,,,,,,,,,,,,,,,,,,,,,,,,,,,,
72208013880,2004-06-17T15:56:00,FM-15,4,,SE,0.25,mi,"TEMP, PRECIP, SNOW",,,"MMTS, SRG, SNOWBOARD",,,WFO CHS,,,,,,,,,,,,,,,,,,,,,,,,,,,30.1,77,88,,,0.06,8,70,30.1,,,10,,170,,14,,,,,,,,,,,,,,,,,,,,,,,,,,,,,,,,,,,,,MET089KCHS 172056Z 17012KT 10SM FEW023 SCT049 31/25 A3010 RMK AO2 SLP192 60000 T03060250 58020;,,,,,,,,,,,,,,,,,,,,,,,,,,,,
72208013880,2004-06-17T16:00:00,SY-MT,C,,SE,0.25,mi,"TEMP, PRECIP, SNOW",,,"MMTS, SRG, SNOWBOARD",,,WFO CHS,,,,,,,,,,,,,,,,,,,,,,,,,,,30.1,77,87,0,,0.06,8,72,30.1,,30.05,9.94,80,170,,14,,,,,,,,,,,,,,,,,,,,,,,,,,,,,,,,,,,,,SYN082AAXX  17214 72208 15566 41712 10306 20250 30177 40192 58020 69907 92056 555 91721;,,,,,,,,,,,,,,,,,,,,,,,,,,,,
72208013880,2004-06-21T17:00:00,FM-15,C,,SE,0.25,mi,"TEMP, PRECIP, SNOW",,,"MMTS, SRG, SNOWBOARD",,,WFO CHS,,,,,,,,,,,,,,,,,,,,,,,,,,,29.96,74,78,T,||FG,,,87,29.96,,,5.97,,160,,10,,,,,,,,,,,,,,,,,,,,,,,,,,,,,,,,,,,,,MET094KCHS 212156Z 16009KT 6SM BR SCT020 BKN025 26/23 A2996 RMK AO2 RAB06E43 SLP145 P0000 T02560233;,,,,,,,,,,,,,,,,,,,,,,,,,,,,
72208013880,2004-06-21T17:06:00,FM-16,4,,SE,0.25,mi,"TEMP, PRECIP, SNOW",,,"MMTS, SRG, SNOWBOARD",,,WFO CHS,,,,,,,,,,,,,,,,,,,,,,,,,,,29.97,73,79,,||HZ,,,84,,,,6,,150,,7,,,,,,,,,,,,,,,,,,,,,,,,,,,,,,,,,,,,,MET064KCHS 212206Z 15006KT 6SM HZ SCT020 SCT042 26/23 A2997 RMK AO2 /;,,,,,,,,,,,,,,,,,,,,,,,,,,,,
72208013880,2004-07-01T17:00:00,FM-15,C,,SE,0.25,mi,"TEMP, PRECIP, SNOW",,,"MMTS, SRG, SNOWBOARD",,,WFO CHS,,,,,,,,,,,,,,,,,,,,,,,,,,,30.08,74,83,0,,,,74,30.07,26,,9.94,,160,,12,,,,,,,,,,,,,,,,,,,,,,,,,,,,,,,,,,,,,MET102KCHS 012156Z 16010KT 10SM FEW026TCU SCT070 BKN095 28/23 A3008 RMK AO2 SLP184 TCU ALQDS VCSH T02830233;,,,,,,,,,,,,,,,,,,,,,,,,,,,,
72208013880,2004-07-12T11:18:00,FM-16,4,,SE,0.25,mi,"TEMP, PRECIP, SNOW",,,"MMTS, SRG, SNOWBOARD",,,WFO CHS,,,,,,,,,,,,,,,,,,,,,,,,,,,30.06,73,81,T,||SHRA TS,,,79,,28,,3,,150,,13,,,,,,,,,,,,,,,,,,,,,,,,,,,,,,,,,,,,,MET104KCHS 121618Z 15011KT 3SM -TSRA BKN028CB 27/23 A3006 RMK AO2 TSB13RAB17 FRQ LTGCG OHD TS OHD MOV E P0000;,,,,,,,,,,,,,,,,,,,,,,,,,,,,
72208013880,2004-07-16T15:00:00,FM-15,C,,SE,0.25,mi,"TEMP, PRECIP, SNOW",,,"MMTS, SRG, SNOWBOARD",,,WFO CHS,,,,,,,,,,,,,,,,,,,,,,,,,,,29.87,70,86,0,||HZ,,,59,29.86,,,5.97,,150,,9,,,,,,,,,,,,,,,,,,,,,,,,,,,,,,,,,,,,,MET079KCHS 161956Z 15008KT 6SM HZ SCT039 SCT060 30/21 A2987 RMK AO2 SLP113 T03000211;,,,,,,,,,,,,,,,,,,,,,,,,,,,,
72208013880,2004-07-16T15:56:00,FM-15,4,,SE,0.25,mi,"TEMP, PRECIP, SNOW",,,"MMTS, SRG, SNOWBOARD",,,WFO CHS,,,,,,,,,,,,,,,,,,,,,,,,,,,29.84,70,88,,||HZ,0.03,8,55,29.84,,,6,,150,,10,,,,,,,,,,,,,,,,,,,,,,,,,,,,,,,,,,,,,MET085KCHS 162056Z 15009KT 6SM HZ SCT038 SCT060 31/21 A2984 RMK AO2 SLP104 T03060211 58009;,,,,,,,,,,,,,,,,,,,,,,,,,,,,
72208013880,2004-07-16T16:00:00,SY-MT,C,,SE,0.25,mi,"TEMP, PRECIP, SNOW",,,"MMTS, SRG, SNOWBOARD",,,WFO CHS,,,,,,,,,,,,,,,,,,,,,,,,,,,29.84,70,87,0,|HZ |HZ,0.03,8,57,29.84,,29.79,5.97,75,150,,10,,,,,,,,,,,,,,,,,,,,,,,,,,,,,,,,,,,,,SYN082AAXX  16214 72208 37659 41509 10306 20211 30089 40104 58009 704// 92056 555 91621;,,,,,,,,,,,,,,,,,,,,,,,,,,,,
72208013880,2004-07-16T17:00:00,FM-15,C,,SE,0.25,mi,"TEMP, PRECIP, SNOW",,,"MMTS, SRG, SNOWBOARD",,,WFO CHS,,,,,,,,,,,,,,,,,,,,,,,,,,,29.84,70,86,0,,,,59,29.84,,,6.96,,170,,9,,,,,,,,,,,,,,,,,,,,,,,,,,,,,,,,,,,,,MET076KCHS 162156Z 17008KT 7SM SCT035 SCT048 30/21 A2984 RMK AO2 SLP104 T03000211;,,,,,,,,,,,,,,,,,,,,,,,,,,,,
72208013880,2004-07-17T15:00:00,FM-15,C,,SE,0.25,mi,"TEMP, PRECIP, SNOW",,,"MMTS, SRG, SNOWBOARD",,,WFO CHS,,,,,,,,,,,,,,,,,,,,,,,,,,,29.82,72,87,0,,,,61,29.81,,,9.94,,170,,9,,,,,,,,,,,,,,,,,,,,,,,,,,,,,,,,,,,,,MET070KCHS 171956Z 17008KT 10SM SCT037 31/22 A2982 RMK AO2 SLP096 T03060222;,,,,,,,,,,,,,,,,,,,,,,,,,,,,
72208013880,2004-07-17T17:00:00,FM-15,C,,SE,0.25,mi,"TEMP, PRECIP, SNOW",,,"MMTS, SRG, SNOWBOARD",,,WFO CHS,,,,,,,,,,,,,,,,,,,,,,,,,,,29.78,74,85,0,,,,70,29.78,,,9.94,,170,,14,,,,,,,,,,,,,,,,,,,,,,,,,,,,,,,,,,,,,MET077KCHS 172156Z 17012KT 10SM FEW029 SCT050 29/23 A2978 RMK AO2 SLP085 T02940233;,,,,,,,,,,,,,,,,,,,,,,,,,,,,
72208013880,2004-07-18T15:00:00,FM-15,C,,SE,0.25,mi,"TEMP, PRECIP, SNOW",,,"MMTS, SRG, SNOWBOARD",,,WFO CHS,,,,,,,,,,,,,,,,,,,,,,,,,,,29.77,74,79,0,||TS TS,,,85,29.76,24,,6.96,,150,,12,,,,,,,,,,,,,,,,,,,,,,,,,,,,,,,,,,,,,MET125KCHS 181956Z 15010KT 7SM TS SCT024CB BKN036 OVC055 26/23 A2977 RMK AO2 TSB04 SLP079 OCNL LTGICCC TS S MOV NE P0001 T02610233;,,,,,,,,,,,,,,,,,,,,,,,,,,,,
72208013880,2004-07-18T15:06:00,FM-16,4,,SE,0.25,mi,"TEMP, PRECIP, SNOW",,,"MMTS, SRG, SNOWBOARD",,,WFO CHS,,,,,,,,,,,,,,,,,,,,,,,,,,,29.77,73,79,,||TS,,,84,,24,,7,,170,,9,,,,,,,,,,,,,,,,,,,,,,,,,,,,,,,,,,,,,MET071KCHS 182006Z 17008KT 7SM TS SCT024CB BKN028 OVC034 26/23 A2977 RMK AO2;,,,,,,,,,,,,,,,,,,,,,,,,,,,,
72208013880,2004-07-19T15:56:00,FM-15,4,,SE,0.25,mi,"TEMP, PRECIP, SNOW",,,"MMTS, SRG, SNOWBOARD",,,WFO CHS,,,,,,,,,,,,,,,,,,,,,,,,,,,29.81,75,88,,,0.01,5,66,29.81,32,,8,,170,,13,,,,,,,,,,,,,,,,,,,,,,,,,,,,,,,,,,,,,MET102KCHS 192056Z 17011KT 8SM FEW032TCU 31/24 A2981 RMK AO2 SLP095 TCU NW AND SW CB DSNT N T03060239 55005;,,,,,,,,,,,,,,,,,,,,,,,,,,,,
72208013880,2004-07-19T16:00:00,SY-MT,C,,SE,0.25,mi,"TEMP, PRECIP, SNOW",,,"MMTS, SRG, SNOWBOARD",,,WFO CHS,,,,,,,,,,,,,,,,,,,,,,,,,,,29.81,75,87,0,,0.01,5,67,29.81,,29.76,7.95,78,170,,13,,,,,,,,,,,,,,,,,,,,,,,,,,,,,,,,,,,,,SYN076AAXX  19214 72208 35562 21711 10306 20239 30079 40095 55005 92056 555 91921;,,,,,,,,,,,,,,,,,,,,,,,,,,,,
72208013880,2004-07-19T17:48:00,FM-16,4,,SE,0.25,mi,"TEMP, PRECIP, SNOW",,,"MMTS, SRG, SNOWBOARD",,,WFO CHS,,,,,,,,,,,,,,,,,,,,,,,,,,,29.84,70,77,,,,,79,,37,,9,,170,,9,,,,,,,,,,,,,,,,,,,,,,,,,,,,,,,,,,,,,MET077KCHS 192248Z 17008KT 9SM FEW038CB 25/21 A2984 RMK AO2 TSE43RAE14 TS MOV SE /;,,,,,,,,,,,,,,,,,,,,,,,,,,,,
72208013880,2004-07-20T15:56:00,FM-15,4,,SE,0.25,mi,"TEMP, PRECIP, SNOW",,,"MMTS, SRG, SNOWBOARD",,,WFO CHS,,,,,,,,,,,,,,,,,,,,,,,,,,,29.92,75,86,,||HZ,0.01,5,70,29.92,46,,5,,150,,13,,,,,,,,,,,,,,,,,,,,,,,,,,,,,,,,,,,,,MET116KCHS 202056Z 15011KT 5SM HZ FEW047TCU SCT070 30/24 A2992 RMK AO2 SLP132 TCU S-SW VCSH S-SW AND NE T03000239 55003 /;,,,,,,,,,,,,,,,,,,,,,,,,,,,,
72208013880,2004-07-20T16:00:00,SY-MT,C,,SE,0.25,mi,"TEMP, PRECIP, SNOW",,,"MMTS, SRG, SNOWBOARD",,,WFO CHS,,,,,,,,,,,,,,,,,,,,,,,,,,,29.92,75,86,0,|HZ |HZ,0.01,5,70,29.92,,29.87,4.97,78,150,,13,,,,,,,,,,,,,,,,,,,,,,,,,,,,,,,,,,,,,SYN082AAXX  20214 72208 37658 41511 10300 20239 30116 40132 55003 704// 92056 555 92021;,,,,,,,,,,,,,,,,,,,,,,,,,,,,
72208013880,2004-07-21T15:00:00,FM-15,C,,SE,0.25,mi,"TEMP, PRECIP, SNOW",,,"MMTS, SRG, SNOWBOARD",,,WFO CHS,,,,,,,,,,,,,,,,,,,,,,,,,,,29.97,73,88,0,||HZ,,,61,29.96,59,,3.98,,160,,10,,,,,,,,,,,,,,,,,,,,,,,,,,,,,,,,,,,,,MET085KCHS 211956Z 16009KT 4SM HZ SCT060TCU 31/23 A2997 RMK AO2 SLP147 TCU S-N T03110228 /;,,,,,,,,,,,,,,,,,,,,,,,,,,,,
72208013880,2004-07-21T15:56:00,FM-15,4,,SE,0.25,mi,"TEMP, PRECIP, SNOW",,,"MMTS, SRG, SNOWBOARD",,,WFO CHS,,,,,,,,,,,,,,,,,,,,,,,,,,,29.97,73,86,,||HZ,0.01,5,66,29.97,36,,4,,160,,13,,,,,,,,,,,,,,,,,,,,,,,,,,,,,,,,,,,,,MET104KCHS 212056Z 16011KT 4SM HZ SCT037TCU 30/23 A2997 RMK AO2 SLP148 TCU N-E VCSH N AND E T03000228 55005 /;,,,,,,,,,,,,,,,,,,,,,,,,,,,,
72208013880,2004-07-21T16:00:00,SY-MT,C,,SE,0.25,mi,"TEMP, PRECIP, SNOW",,,"MMTS, SRG, SNOWBOARD",,,WFO CHS,,,,,,,,,,,,,,,,,,,,,,,,,,,29.97,73,86,0,|HZ |HZ,0.01,5,65,29.97,,29.92,3.98,77,160,,13,,,,,,,,,,,,,,,,,,,,,,,,,,,,,,,,,,,,,SYN082AAXX  21214 72208 37656 41611 10300 20228 30133 40148 55005 704// 92056 555 92121;,,,,,,,,,,,,,,,,,,,,,,,,,,,,
72208013880,2004-07-22T15:00:00,FM-15,C,,SE,0.25,mi,"TEMP, PRECIP, SNOW",,,"MMTS, SRG, SNOWBOARD",,,WFO CHS,,,,,,,,,,,,,,,,,,,,,,,,,,,29.94,72,89,0,||HZ,,,57,29.93,,,3.98,,170,,9,,,,,,,,,,,,,,,,,,,,,,,,,,,,,,,,,,,,,MET072KCHS 221956Z 17008KT 4SM HZ FEW045 32/22 A2994 RMK AO2 SLP136 T03170222;,,,,,,,,,,,,,,,,,,,,,,,,,,,,
72208013880,2004-07-23T16:00:00,SY-MT,C,,SE,0.25,mi,"TEMP, PRECIP, SNOW",,,"MMTS, SRG, SNOWBOARD",,,WFO CHS,,,,,,,,,,,,,,,,,,,,,,,,,,,29.86,75,89,0,|HZ |HZ,0.03,8,63,29.85,,29.81,3.98,79,170,,10,,,,,,,,,,,,,,,,,,,,,,,,,,,,,,,,,,,,,SYN082AAXX  23214 72208 37656 21709 10317 20239 30096 40110 58011 704// 92056 555 92321;MET078KCHS 232056Z 17009KT 4SM HZ FEW034 32/24 A2986 RMK AO2 SLP110 T03170239 58011;,,,,,,,,,,,,,,,,,,,,,,,,,,,,
72208013880,2004-07-26T15:00:00,FM-15,C,,SE,0.25,mi,"TEMP, PRECIP, SNOW",,,"MMTS, SRG, SNOWBOARD",,,WFO CHS,,,,,,,,,,,,,,,,,,,,,,,,,,,30.02,74,87,0,||HZ,,,65,30.01,,,3.98,,160,,7,,,,,,,,,,,,,,,,,,,,,,,,,,,,,,,,,,,,,MET079KCHS 261956Z 16006KT 4SM HZ SCT040 SCT060 31/23 A3002 RMK AO2 SLP163 T03060233;,,,,,,,,,,,,,,,,,,,,,,,,,,,,
72208013880,2004-07-26T17:00:00,FM-15,C,,SE,0.25,mi,"TEMP, PRECIP, SNOW",,,"MMTS, SRG, SNOWBOARD",,,WFO CHS,,,,,,,,,,,,,,,,,,,,,,,,,,,30,73,85,0,||HZ,,,68,29.99,,,4.97,,160,,14,,,,,,,,,,,,,,,,,,,,,,,,,,,,,,,,,,,,,MET072KCHS 262156Z 16012KT 5SM HZ SCT030 29/23 A3000 RMK AO2 SLP157 T02940228;,,,,,,,,,,,,,,,,,,,,,,,,,,,,
72208013880,2004-07-27T11:00:00,FM-15,C,,SE,0.25,mi,"TEMP, PRECIP, SNOW",,,"MMTS, SRG, SNOWBOARD",,,WFO CHS,,,,,,,,,,,,,,,,,,,,,,,,,,,30.01,70,89,0,,,,53,30.01,,,9.94,,170,,7,,,,,,,,,,,,,,,,,,,,,,,,,,,,,,,,,,,,,MET077KCHS 271556Z 17006KT 10SM SCT045 SCT100 32/21 A3001 RMK AO2 SLP162 T03170211;,,,,,,,,,,,,,,,,,,,,,,,,,,,,
72208013880,2004-07-27T12:00:00,FM-15,C,,SE,0.25,mi,"TEMP, PRECIP, SNOW",,,"MMTS, SRG, SNOWBOARD",,,WFO CHS,,,,,,,,,,,,,,,,,,,,,,,,,,,30,70,88,0,,,,55,30,,,9.94,,170,,9,,,,,,,,,,,,,,,,,,,,,,,,,,,,,,,,,,,,,MET070KCHS 271656Z 17008KT 10SM SCT044 31/21 A3000 RMK AO2 SLP158 T03110211;,,,,,,,,,,,,,,,,,,,,,,,,,,,,
72208013880,2004-07-27T14:00:00,SY-MT,C,,SE,0.25,mi,"TEMP, PRECIP, SNOW",,,"MMTS, SRG, SNOWBOARD",,,WFO CHS,,,,,,,,,,,,,,,,,,,,,,,,,,,29.97,72,91,0,,,,54,29.96,,,9.94,,170,,16,,,,,,,,,,,,,,,,,,,,,,,,,,,,,,,,,,,,,SYN088AAXX  27194 72208 32666 41411 10311 202-3 1032 20256 3136 40153 58014 9175333 555 92718;MET082KCHS 271856Z 17014KT 10SM SCT042 33/22 A2997 RMK AO2 SLP146 TCU DSNT NE T03280222;,,,,,,,,,,,,,,,,,,,,,,,,,,,,
72208013880,2004-07-27T15:00:00,FM-15,C,,SE,0.25,mi,"TEMP, PRECIP, SNOW",,,"MMTS, SRG, SNOWBOARD",,,WFO CHS,,,,,,,,,,,,,,,,,,,,,,,,,,,29.95,71,90,0,,,,54,29.95,,,9.94,,160,,15,,,,,,,,,,,,,,,,,,,,,,,,,,,,,,,,,,,,,MET070KCHS 271956Z 16013KT 10SM FEW040 32/22 A2995 RMK AO2 SLP141 T03220217;,,,,,,,,,,,,,,,,,,,,,,,,,,,,
72208013880,2004-07-27T15:56:00,FM-15,4,,SE,0.25,mi,"TEMP, PRECIP, SNOW",,,"MMTS, SRG, SNOWBOARD",,,WFO CHS,,,,,,,,,,,,,,,,,,,,,,,,,,,29.94,72,90,,,0.04,6,55,29.94,,,10,,160,,14,,,,,,,,,,,,,,,,,,,,,,,,,,,,,,,,,,,,,MET076KCHS 272056Z 16012KT 10SM FEW040 32/22 A2994 RMK AO2 SLP139 T03170217 56014;,,,,,,,,,,,,,,,,,,,,,,,,,,,,
72208013880,2004-07-27T16:00:00,SY-MT,C,,SE,0.25,mi,"TEMP, PRECIP, SNOW",,,"MMTS, SRG, SNOWBOARD",,,WFO CHS,,,,,,,,,,,,,,,,,,,,,,,,,,,29.94,71,89,0,,0.04,6,55,29.94,,29.89,9.94,76,160,,14,,,,,,,,,,,,,,,,,,,,,,,,,,,,,,,,,,,,,SYN076AAXX  27214 72208 35666 21612 10317 20217 30123 40139 56014 92056 555 92721;,,,,,,,,,,,,,,,,,,,,,,,,,,,,
72208013880,2004-07-28T12:00:00,FM-15,C,,SE,0.25,mi,"TEMP, PRECIP, SNOW",,,"MMTS, SRG, SNOWBOARD",,,WFO CHS,,,,,,,,,,,,,,,,,,,,,,,,,,,29.97,74,90,0,,,,59,29.97,,,9.94,,160,,9,,,,,,,,,,,,,,,,,,,,,,,,,,,,,,,,,,,,,MET070KCHS 281656Z 16008KT 10SM SCT037 32/23 A2997 RMK AO2 SLP148 T03220233;,,,,,,,,,,,,,,,,,,,,,,,,,,,,
72208013880,2004-07-28T15:00:00,FM-15,C,,SE,0.25,mi,"TEMP, PRECIP, SNOW",,,"MMTS, SRG, SNOWBOARD",,,WFO CHS,,,,,,,,,,,,,,,,,,,,,,,,,,,29.95,75,89,0,,,,63,29.95,,,9.94,,160,,13,,,,,,,,,,,,,,,,,,,,,,,,,,,,,,,,,,,,,MET077KCHS 281956Z 16011KT 10SM FEW029 SCT036 32/24 A2995 RMK AO2 SLP141 T03170239;,,,,,,,,,,,,,,,,,,,,,,,,,,,,
72208013880,2004-07-28T15:56:00,FM-15,4,,SE,0.25,mi,"TEMP, PRECIP, SNOW",,,"MMTS, SRG, SNOWBOARD",,,WFO CHS,,,,,,,,,,,,,,,,,,,,,,,,,,,29.96,73,84,,,0.01,5,70,29.96,,,10,,160,,14,,,,,,,,,,,,,,,,,,,,,,,,,,,,,,,,,,,,,MET076KCHS 282056Z 16012KT 10SM SCT030 29/23 A2996 RMK AO2 SLP144 T02940228 55005;,,,,,,,,,,,,,,,,,,,,,,,,,,,,
72208013880,2004-07-28T16:00:00,SY-MT,C,,SE,0.25,mi,"TEMP, PRECIP, SNOW",,,"MMTS, SRG, SNOWBOARD",,,WFO CHS,,,,,,,,,,,,,,,,,,,,,,,,,,,29.96,73,85,0,,0.01,5,68,29.96,,29.91,9.94,77,160,,14,,,,,,,,,,,,,,,,,,,,,,,,,,,,,,,,,,,,,SYN076AAXX  28214 72208 35566 41612 10294 20228 30129 40144 55005 92056 555 92821;,,,,,,,,,,,,,,,,,,,,,,,,,,,,
72208013880,2004-07-29T11:00:00,FM-15,C,,SE,0.25,mi,"TEMP, PRECIP, SNOW",,,"MMTS, SRG, SNOWBOARD",,,WFO CHS,,,,,,,,,,,,,,,,,,,,,,,,,,,30.05,72,79,0.01,,,,79,30.05,,,9.94,,150,,12,,,,,,,,,,,,,,,,,,,,,,,,,,,,,,,,,,,,,MET109KCHS 291556Z 15010KT 10SM FEW012 SCT037 BKN060 26/22 A3005 RMK AO2 RAB11E31 SLP175 CB DSNT W P0001 T02610222;,,,,,,,,,,,,,,,,,,,,,,,,,,,,
72208013880,2004-07-29T12:00:00,FM-15,C,,SE,0.25,mi,"TEMP, PRECIP, SNOW",,,"MMTS, SRG, SNOWBOARD",,,WFO CHS,,,,,,,,,,,,,,,,,,,,,,,,,,,30.05,72,84,0,,,,67,30.05,,,9.94,,150,22,17,,,,,,,,,,,,,,,,,,,,,,,,,,,,,,,,,,,,,MET080KCHS 291656Z 15015G19KT 10SM FEW029 BKN120 29/22 A3005 RMK AO2 SLP176 T02890222;,,,,,,,,,,,,,,,,,,,,,,,,,,,,
72208013880,2004-07-29T13:00:00,SY-MT,C,,SE,0.25,mi,"TEMP, PRECIP, SNOW",,,"MMTS, SRG, SNOWBOARD",,,WFO CHS,,,,,,,,,,,,,,,,,,,,,,,,,,,30.04,73,86,0,,0.03,6,65,30.03,,29.99,9.94,77,170,,15,,,,,,,,,,,,,,,,,,,,,,,,,,,,,,,,,,,,,SYN104AAXX  29184 72208 12566 61713 10300 20228 30157 40171 56010 69931 91756 333 10300 20250 91019 555 92918;MET104KCHS 291756Z 17013G19KT 10SM FEW030 BKN120 30/23 A3004 RMK AO2 SLP171 60001 T03000228 10300 20250 56010;,,,,,,,,,,,,,,,,,,,,,,,,,,,,
72208013880,2004-07-29T14:00:00,FM-15,C,,SE,0.25,mi,"TEMP, PRECIP, SNOW",,,"MMTS, SRG, SNOWBOARD",,,WFO CHS,,,,,,,,,,,,,,,,,,,,,,,,,,,30.02,72,84,0,,,,67,30.02,,,9.94,,160,21,14,,,,,,,,,,,,,,,,,,,,,,,,,,,,,,,,,,,,,MET080KCHS 291856Z 16012G18KT 10SM SCT028 BKN110 29/22 A3002 RMK AO2 SLP166 T02890222;,,,,,,,,,,,,,,,,,,,,,,,,,,,,
72208013880,2004-07-29T16:00:00,SY-MT,C,,SE,0.25,mi,"TEMP, PRECIP, SNOW",,,"MMTS, SRG, SNOWBOARD",,,WFO CHS,,,,,,,,,,,,,,,,,,,,,,,,,,,30,74,84,0,,0.04,6,72,30,,29.95,9.94,77,150,,12,,,,,,,,,,,,,,,,,,,,,,,,,,,,,,,,,,,,,SYN076AAXX  29214 72208 35566 61510 10289 20233 30143 40159 56012 92056 555 92921;MET083KCHS 292056Z 15010KT 10SM SCT030 BKN034 29/23 A3000 RMK AO2 SLP159 T02890233 56012;,,,,,,,,,,,,,,,,,,,,,,,,,,,,
72208013880,2004-07-29T17:00:00,FM-15,C,,SE,0.25,mi,"TEMP, PRECIP, SNOW",,,"MMTS, SRG, SNOWBOARD",,,WFO CHS,,,,,,,,,,,,,,,,,,,,,,,,,,,29.99,74,86,0,,,,67,29.99,,,9.94,,150,,8,,,,,,,,,,,,,,,,,,,,,,,,,,,,,,,,,,,,,MET070KCHS 292156Z 15007KT 10SM FEW038 30/23 A2999 RMK AO2 SLP155 T03000233;,,,,,,,,,,,,,,,,,,,,,,,,,,,,
72208013880,2004-08-04T15:00:00,FM-15,C,,SE,0.25,mi,"TEMP, PRECIP, SNOW",,,"MMTS, SRG, SNOWBOARD",,,WFO CHS,,,,,,,,,,,,,,,,,,,,,,,,,,,29.84,73,91,0,||HZ,,,56,29.84,49,,5.97,,160,,8,,,,,,,,,,,,,,,,,,,,,,,,,,,,,,,,,,,,,MET081KCHS 041956Z 16007KT 6SM HZ SCT050TCU 33/23 A2984 RMK AO2 SLP105 TCU W T03280228;,,,,,,,,,,,,,,,,,,,,,,,,,,,,
72208013880,2004-08-04T17:00:00,FM-15,C,,SE,0.25,mi,"TEMP, PRECIP, SNOW",,,"MMTS, SRG, SNOWBOARD",,,WFO CHS,,,,,,,,,,,,,,,,,,,,,,,,,,,29.83,76,89,0,||HZ,,,65,29.83,,,4.97,,160,,12,,,,,,,,,,,,,,,,,,,,,,,,,,,,,,,,,,,,,MET071KCHS 042156Z 16010KT 5SM HZ FEW045 32/24 A2983 RMK AO2 SLP102 T3170244;,,,,,,,,,,,,,,,,,,,,,,,,,,,,
72208013880,2004-08-10T15:56:00,FM-16,4,,SE,0.25,mi,"TEMP, PRECIP, SNOW",,,"MMTS, SRG, SNOWBOARD",,,WFO CHS,,,,,,,,,,,,,,,,,,,,,,,,,,,30.03,64,82,,,0.04,6,55,30.03,,,10,,160,,9,,,,,,,,,,,,,,,,,,,,,,,,,,,,,,,,,,,,,MET076KCHS 102056Z 16008KT 10SM SCT047 28/18 A3003 RMK AO2 SLP169 T02830183 56013;,,,,,,,,,,,,,,,,,,,,,,,,,,,,
72208013880,2004-08-10T16:00:00,SY-MT,C,,SE,0.25,mi,"TEMP, PRECIP, SNOW",,,"MMTS, SRG, SNOWBOARD",,,WFO CHS,,,,,,,,,,,,,,,,,,,,,,,,,,,30.03,65,83,0,,0.04,6,55,30.03,,29.98,9.94,71,160,,9,,,,,,,,,,,,,,,,,,,,,,,,,,,,,,,,,,,,,SYN076AAXX  10214 72208 35666 41608 10283 20183 30153 40169 56013 92056 555 91021;,,,,,,,,,,,,,,,,,,,,,,,,,,,,
72208013880,2004-08-13T15:00:00,FM-15,C,,SE,0.25,mi,"TEMP, PRECIP, SNOW",,,"MMTS, SRG, SNOWBOARD",,,WFO CHS,,,,,,,,,,,,,,,,,,,,,,,,,,,30.03,74,76,0.03,||FG RA,,,94,30.03,,,2.98,,160,,8,,,,,,,,,,,,,,,,,,,,,,,,,,,,,,,,,,,,,MET089KCHS 131956Z 16007KT 3SM -RA BR BKN010 OVC043 24/23 A3003 RMK AO2 SLP168 P0003 T02440233;,,,,,,,,,,,,,,,,,,,,,,,,,,,,
72208013880,2004-08-13T15:37:00,FM-16,4,,SE,0.25,mi,"TEMP, PRECIP, SNOW",,,"MMTS, SRG, SNOWBOARD",,,WFO CHS,,,,,,,,,,,,,,,,,,,,,,,,,,,30.01,73,75,0.05,,,,94,,,,8,,160,,9,,,,,,,,,,,,,,,,,,,,,,,,,,,,,,,,,,,,,MET078KCHS 132037Z 16008KT 8SM BKN007 BKN018 OVC050 24/23 A3001 RMK AO2 RAE27 P0005;,,,,,,,,,,,,,,,,,,,,,,,,,,,,
72208013880,2004-08-13T15:56:00,FM-15,4,,SE,0.25,mi,"TEMP, PRECIP, SNOW",,,"MMTS, SRG, SNOWBOARD",,,WFO CHS,,,,,,,,,,,,,,,,,,,,,,,,,,,30,73,75,0.05,,0.02,8,94,29.99,,,9,,160,,8,,,,,,,,,,,,,,,,,,,,,,,,,,,,,,,,,,,,,MET107KCHS 132056Z 16007KT 9SM FEW007 SCT018 BKN040 24/23 A3000 RMK AO2 RAE27 SLP157 P0005 60018 T02440233 58008;,,,,,,,,,,,,,,,,,,,,,,,,,,,,
72208013880,2004-08-13T16:00:00,SY-MT,C,,SE,0.25,mi,"TEMP, PRECIP, SNOW",,,"MMTS, SRG, SNOWBOARD",,,WFO CHS,,,,,,,,,,,,,,,,,,,,,,,,,,,30,74,76,0.05,,0.02,8,94,29.99,,29.95,8.95,75,160,,8,,,,,,,,,,,,,,,,,,,,,,,,,,,,,,,,,,,,,SYN082AAXX  13214 72208 15364 61607 10244 20233 30143 40157 58008 60057 92056 555 91321;,,,,,,,,,,,,,,,,,,,,,,,,,,,,
72208013880,2004-08-13T17:00:00,FM-15,C,,SE,0.25,mi,"TEMP, PRECIP, SNOW",,,"MMTS, SRG, SNOWBOARD",,,WFO CHS,,,,,,,,,,,,,,,,,,,,,,,,,,,30,73,76,0,,,,91,30,,,9.94,,170,,9,,,,,,,,,,,,,,,,,,,,,,,,,,,,,,,,,,,,,MET077KCHS 132156Z 17008KT 10SM FEW030 SCT110 24/23 A3000 RMK AO2 SLP158 T02440228;,,,,,,,,,,,,,,,,,,,,,,,,,,,,
72208013880,2004-08-14T16:56:00,FM-15,C,,SE,0.25,mi,"TEMP, PRECIP, SNOW",,,"MMTS, SRG, SNOWBOARD",,,WFO CHS,,,,,,,,,,,,,,,,,,,,,,,,,,,30.06,73,82,0,,,,74,30.05,,,8.95,,150,,8,,,,,,,,,,,,,,,,,,,,,,,,,,,,,,,,,,,,,MET076KCHS 142156Z 15007KT 9SM SCT036 SCT095 28/23 A3006 RMK AO2 SLP177 T02780228;,,,,,,,,,,,,,,,,,,,,,,,,,,,,
72208013880,2004-08-15T13:37:00,FM-16,4,,SE,0.25,mi,"TEMP, PRECIP, SNOW",,,"MMTS, SRG, SNOWBOARD",,,WFO CHS,,,,,,,,,,,,,,,,,,,,,,,,,,,30.13,70,72,0.8,||SHRA TS,,,94,,14,,0.75,,160,,7,,,,,,,,,,,,,,,,,,,,,,,,,,,,,,,,,,,,,MET115KCHS 151837Z 16006KT 3/4SM TSRA BR BKN008 OVC014CB 22/21 A3013 RMK AO2 WSHFT 1818 OCNL LTGICCG E TS E MOV NE P0080;,,,,,,,,,,,,,,,,,,,,,,,,,,,,
72208013880,2004-08-15T14:00:00,FM-15,C,,SE,0.25,mi,"TEMP, PRECIP, SNOW",,,"MMTS, SRG, SNOWBOARD",,,WFO CHS,,,,,,,,,,,,,,,,,,,,,,,,,,,30.13,69,74,0.8,||TS TS,,,85,30.12,29,,9.94,,160,,9,,,,,,,,,,,,,,,,,,,,,,,,,,,,,,,,,,,,,MET146KCHS 151856Z 16008KT 10SM TS SCT010 BKN029CB 23/21 A3013 RMK AO2 WSHFT 1818 RAE49 SLP201 OCNL LTGICCC SE AND W TS SE AND W MOV NE P0080 T02330206;,,,,,,,,,,,,,,,,,,,,,,,,,,,,
72208013880,2004-08-15T14:19:00,FM-16,4,,SE,0.25,mi,"TEMP, PRECIP, SNOW",,,"MMTS, SRG, SNOWBOARD",,,WFO CHS,,,,,,,,,,,,,,,,,,,,,,,,,,,30.12,70,75,T,,,,83,,,,10,,160,,8,,,,,,,,,,,,,,,,,,,,,,,,,,,,,,,,,,,,,MET090KCHS 151919Z 16007KT 10SM FEW008 SCT030 24/21 A3012 RMK AO2 TSE14RAB03E17 TS MOV SE P0000;,,,,,,,,,,,,,,,,,,,,,,,,,,,,
72208013880,2004-08-17T13:19:00,FM-16,4,,SE,0.25,mi,"TEMP, PRECIP, SNOW",,,"MMTS, SRG, SNOWBOARD",,,WFO CHS,,,,,,,,,,,,,,,,,,,,,,,,,,,30.11,73,75,0.08,||SHRA TS,,,94,,17,,2.5,,150,,8,,,,,,,,,,,,,,,,,,,,,,,,,,,,,,,,,,,,,MET113KCHS 171819Z 15007KT 2 1/2SM +TSRA BR BKN017CB OVC043 24/23 A3011 RMK AO2 TSB17 OCNL LTGCG S TS OHD MOV NE P0008;,,,,,,,,,,,,,,,,,,,,,,,,,,,,
72208013880,2004-08-18T12:56:00,FM-15,4,,SE,0.25,mi,"TEMP, PRECIP, SNOW",,,"MMTS, SRG, SNOWBOARD",,,WFO CHS,,,,,,,,,,,,,,,,,,,,,,,,,,,30.05,72,88,,,0.03,8,59,30.04,,,10,,160,,8,,,,,,,,,,,,,,,,,,,,,,,,,,,,,,,,,,,,,MET095KCHS 181756Z 16007KT 10SM SCT038 SCT110 31/22 A3005 RMK AO2 SLP174 T03110217 10311 20239 58010;,,,,,,,,,,,,,,,,,,,,,,,,,,,,
72208013880,2004-08-18T13:00:00,SY-MT,C,,SE,0.25,mi,"TEMP, PRECIP, SNOW",,,"MMTS, SRG, SNOWBOARD",,,WFO CHS,,,,,,,,,,,,,,,,,,,,,,,,,,,30.05,71,88,0,,0.03,8,57,30.04,,30,9.94,76,160,,8,,,,,,,,,,,,,,,,,,,,,,,,,,,,,,,,,,,,,SYN092AAXX  18184 72208 32666 41607 10311 20217 30160 40174 58010 91756 333 10311 20222 555 91818;,,,,,,,,,,,,,,,,,,,,,,,,,,,,
72208013880,2004-08-18T14:56:00,FM-15,C,,SE,0.25,mi,"TEMP, PRECIP, SNOW",,,"MMTS, SRG, SNOWBOARD",,,WFO CHS,,,,,,,,,,,,,,,,,,,,,,,,,,,30.01,74,86,0,,,,67,30.01,,,9.94,,150,,7,,,,,,,,,,,,,,,,,,,,,,,,,,,,,,,,,,,,,MET079KCHS 181956Z 15006KT 10SM SCT030 30/23 A3001 RMK AO2 SLP162 TCU N-NE T03000233;,,,,,,,,,,,,,,,,,,,,,,,,,,,,
72208013880,2004-08-18T17:00:00,FM-15,C,,SE,0.25,mi,"TEMP, PRECIP, SNOW",,,"MMTS, SRG, SNOWBOARD",,,WFO CHS,,,,,,,,,,,,,,,,,,,,,,,,,,,30.02,73,86,0,,,,65,30.02,,,9.94,,150,,10,,,,,,,,,,,,,,,,,,,,,,,,,,,,,,,,,,,,,MET080KCHS 182156Z 15009KT 10SM FEW030 30/23 A3002 RMK AO2 SLP165 CB DSNT N T03000228;,,,,,,,,,,,,,,,,,,,,,,,,,,,,
72208013880,2004-09-10T13:20:00,FM-15,4,,SE,0.25,mi,"TEMP, PRECIP, SNOW",,,"MMTS, SRG, SNOWBOARD",,,WFO CHS,,,,,,,,,,,,,,,,,,,,,,,,,,,30.11,73,81,,||HZ,,,79,,,,6,,170,,7,,,,,,,,,,,,,,,,,,,,,,,,,,,,,,,,,,,,,MET062KCHS 101820Z 17006KT 6SM HZ SCT023 OVC110 27/23 A3011 RMK AO2;,,,,,,,,,,,,,,,,,,,,,,,,,,,,
72208013880,2004-09-10T15:56:00,FM-15,4,,SE,0.25,mi,"TEMP, PRECIP, SNOW",,,"MMTS, SRG, SNOWBOARD",,,WFO CHS,,,,,,,,,,,,,,,,,,,,,,,,,,,30.06,73,82,,||HZ,0.05,6,74,30.06,,,5,,150,,7,,,,,,,,,,,,,,,,,,,,,,,,,,,,,,,,,,,,,MET089KCHS 102056Z 15006KT 5SM HZ SCT024 28/23 A3006 RMK AO2 SLP179 TCU DSNT N T02830233 56017;,,,,,,,,,,,,,,,,,,,,,,,,,,,,
72208013880,2004-09-10T16:00:00,SY-MT,C,,SE,0.25,mi,"TEMP, PRECIP, SNOW",,,"MMTS, SRG, SNOWBOARD",,,WFO CHS,,,,,,,,,,,,,,,,,,,,,,,,,,,30.06,74,83,0,|HZ |HZ,0.05,6,74,30.06,,30.01,4.97,77,150,,7,,,,,,,,,,,,,,,,,,,,,,,,,,,,,,,,,,,,,SYN082AAXX  10214 72208 37558 41506 10283 20233 30163 40179 56017 704// 92056 555 91021;,,,,,,,,,,,,,,,,,,,,,,,,,,,,
72208013880,2004-09-10T17:00:00,FM-15,C,,SE,0.25,mi,"TEMP, PRECIP, SNOW",,,"MMTS, SRG, SNOWBOARD",,,WFO CHS,,,,,,,,,,,,,,,,,,,,,,,,,,,30.07,73,82,0,||HZ,,,74,30.07,,,5.97,,170,,8,,,,,,,,,,,,,,,,,,,,,,,,,,,,,,,,,,,,,MET083KCHS 102156Z 17007KT 6SM HZ FEW025 28/23 A3007 RMK AO2 SLP183 TCU DSNT N T02780228;,,,,,,,,,,,,,,,,,,,,,,,,,,,,
72208013880,2004-09-16T14:00:00,FM-15,C,,SE,0.25,mi,"TEMP, PRECIP, SNOW",,,"MMTS, SRG, SNOWBOARD",,,WFO CHS,,,,,,,,,,,,,,,,,,,,,,,,,,,29.98,77,84,0,,,,80,29.98,25,,9.94,,150,,16,,,,,,,,,,,,,,,,,,,,,,,,,,,,,,,,,,,,,MET082KCHS 161856Z 15014KT 10SM BKN025TCU 29/25 A2998 RMK AO2 SLP153 TCU S-NE T02890250;,,,,,,,,,,,,,,,,,,,,,,,,,,,,
72208013880,2004-09-16T15:00:00,FM-15,C,,SE,0.25,mi,"TEMP, PRECIP, SNOW",,,"MMTS, SRG, SNOWBOARD",,,WFO CHS,,,,,,,,,,,,,,,,,,,,,,,,,,,29.96,77,84,0,,,,80,29.96,,,9.94,,150,,15,,,,,,,,,,,,,,,,,,,,,,,,,,,,,,,,,,,,,MET084KCHS 161956Z 15013KT 10SM SCT021 BKN031 BKN055 29/25 A2996 RMK AO2 SLP145 T02890250;,,,,,,,,,,,,,,,,,,,,,,,,,,,,
72208013880,2004-09-16T15:02:00,FM-16,4,,SE,0.25,mi,"TEMP, PRECIP, SNOW",,,"MMTS, SRG, SNOWBOARD",,,WFO CHS,,,,,,,,,,,,,,,,,,,,,,,,,,,29.96,77,84,,,,,79,,,,10,,150,,13,,,,,,,,,,,,,,,,,,,,,,,,,,,,,,,,,,,,,MET060KCHS 162002Z 15011KT 10SM SCT021 BKN027 29/25 A2996 RMK AO2;,,,,,,,,,,,,,,,,,,,,,,,,,,,,
72208013880,2004-09-16T15:56:00,FM-15,4,,SE,0.25,mi,"TEMP, PRECIP, SNOW",,,"MMTS, SRG, SNOWBOARD",,,WFO CHS,,,,,,,,,,,,,,,,,,,,,,,,,,,29.95,77,82,,,0.06,6,84,29.94,,,10,,150,22,15,,,,,,,,,,,,,,,,,,,,,,,,,,,,,,,,,,,,,MET093KCHS 162056Z 15013G19KT 10SM FEW019 SCT026 BKN035 28/25 A2995 RMK AO2 SLP140 T02830250 56020;,,,,,,,,,,,,,,,,,,,,,,,,,,,,
72208013880,2004-09-16T16:00:00,SY-MT,C,,SE,0.25,mi,"TEMP, PRECIP, SNOW",,,"MMTS, SRG, SNOWBOARD",,,WFO CHS,,,,,,,,,,,,,,,,,,,,,,,,,,,29.95,77,83,0,,0.06,6,82,29.94,,29.9,9.94,79,150,,15,,,,,,,,,,,,,,,,,,,,,,,,,,,,,,,,,,,,,SYN076AAXX  16214 72208 35466 61513 10283 20250 30126 40140 56020 92056 555 91621;,,,,,,,,,,,,,,,,,,,,,,,,,,,,
72208013880,2004-09-16T16:56:00,FM-16,4,,SE,0.25,mi,"TEMP, PRECIP, SNOW",,,"MMTS, SRG, SNOWBOARD",,,WFO CHS,,,,,,,,,,,,,,,,,,,,,,,,,,,29.94,77,82,,,,,84,29.94,,,10,,150,,14,,,,,,,,,,,,,,,,,,,,,,,,,,,,,,,,,,,,,MET077KCHS 162156Z 15012KT 10SM SCT021 BKN031 28/25 A2994 RMK AO2 SLP139 T02780250;,,,,,,,,,,,,,,,,,,,,,,,,,,,,
72208013880,2004-09-16T17:00:00,FM-15,E,,SE,0.25,mi,"TEMP, PRECIP, SNOW",,,"MMTS, SRG, SNOWBOARD",,,WFO CHS,,,,,,,,,,,,,,,,,,,,,,,,,,,29.94,77,82,0,,,,85,29.94,,,9.94,,150,,14,,,,,,,,,,,,,,,,,,,,,,,,,,,,,,,,,,,,,,,,,,,,,,,,,,,,,,,,,,,,,,,,,
72208013880,2004-10-01T15:56:00,FM-15,4,,SE,0.25,mi,"TEMP, PRECIP, SNOW",,,"MMTS, SRG, SNOWBOARD",,,WFO CHS,,,,,,,,,,,,,,,,,,,,,,,,,,,30.09,72,81,,||HZ,0.01,5,74,30.09,,,5,,160,,9,,,,,,,,,,,,,,,,,,,,,,,,,,,,,,,,,,,,,MET090KCHS 012056Z 16008KT 5SM HZ FEW070 SCT090 27/22 A3009 RMK AO2 SLP190 VCSH T02720222 55003;,,,,,,,,,,,,,,,,,,,,,,,,,,,,
72208013880,2004-10-01T16:00:00,SY-MT,C,,SE,0.25,mi,"TEMP, PRECIP, SNOW",,,"MMTS, SRG, SNOWBOARD",,,WFO CHS,,,,,,,,,,,,,,,,,,,,,,,,,,,30.09,72,81,0,|HZ |HZ,0.01,5,74,30.09,,30.04,4.97,75,160,,9,,,,,,,,,,,,,,,,,,,,,,,,,,,,,,,,,,,,,SYN082AAXX  01214 72208 37858 41608 10272 20222 30173 40190 55003 704// 92056 555 90121;,,,,,,,,,,,,,,,,,,,,,,,,,,,,
72208013880,2004-10-03T15:00:00,FM-15,C,,SE,0.25,mi,"TEMP, PRECIP, SNOW",,,"MMTS, SRG, SNOWBOARD",,,WFO CHS,,,,,,,,,,,,,,,,,,,,,,,,,,,30.06,73,80,0,||HZ,,,79,30.06,,,2.98,,150,,9,,,,,,,,,,,,,,,,,,,,,,,,,,,,,,,,,,,,,MET072KCHS 031956Z 15008KT 3SM HZ FEW025 27/23 A3006 RMK AO2 SLP178 T02670228;,,,,,,,,,,,,,,,,,,,,,,,,,,,,
72208013880,2004-10-03T15:16:00,FM-16,4,,SE,0.25,mi,"TEMP, PRECIP, SNOW",,,"MMTS, SRG, SNOWBOARD",,,WFO CHS,,,,,,,,,,,,,,,,,,,,,,,,,,,30.06,73,81,,||HZ,,,79,,,,2.5,,160,,10,,,,,,,,,,,,,,,,,,,,,,,,,,,,,,,,,,,,,MET059KCHS 032016Z 16009KT 2 1/2SM HZ FEW095 27/23 A3006 RMK AO2;,,,,,,,,,,,,,,,,,,,,,,,,,,,,
72208013880,2004-10-03T15:56:00,FM-16,4,,SE,0.25,mi,"TEMP, PRECIP, SNOW",,,"MMTS, SRG, SNOWBOARD",,,WFO CHS,,,,,,,,,,,,,,,,,,,,,,,,,,,30.05,72,81,,||HZ,0.05,6,74,30.05,,,3,,160,,8,,,,,,,,,,,,,,,,,,,,,,,,,,,,,,,,,,,,,MET075KCHS 032056Z 16007KT 3SM HZ CLR 27/22 A3005 RMK AO2 SLP176 T02720222 56017;,,,,,,,,,,,,,,,,,,,,,,,,,,,,
72208013880,2004-10-03T16:00:00,SY-MT,C,,SE,0.25,mi,"TEMP, PRECIP, SNOW",,,"MMTS, SRG, SNOWBOARD",,,WFO CHS,,,,,,,,,,,,,,,,,,,,,,,,,,,30.05,72,81,0,|HZ |HZ,0.05,6,74,30.05,CLR:00,30,2.98,75,160,,8,,,,,,,,,,,,,,,,,,,,,,,,,,,,,,,,,,,,,SYN082AAXX  03214 72208 37948 01607 10272 20222 30160 40176 56017 704// 92056 555 90321;,,,,,,,,,,,,,,,,,,,,,,,,,,,,
72208013880,2004-10-05T15:56:00,FM-15,4,,SE,0.25,mi,"TEMP, PRECIP, SNOW",,,"MMTS, SRG, SNOWBOARD",,,WFO CHS,,,,,,,,,,,,,,,,,,,,,,,,,,,30.17,63,79,,||HZ,0.01,8,58,30.17,,,6,,150,,8,,,,,,,,,,,,,,,,,,,,,,,,,,,,,,,,,,,,,MET078KCHS 052056Z 15007KT 6SM HZ SCT055 26/17 A3017 RMK AO2 SLP217 T02610167 58003;,,,,,,,,,,,,,,,,,,,,,,,,,,,,
72208013880,2004-10-05T16:00:00,SY-MT,C,,SE,0.25,mi,"TEMP, PRECIP, SNOW",,,"MMTS, SRG, SNOWBOARD",,,WFO CHS,,,,,,,,,,,,,,,,,,,,,,,,,,,30.17,62,79,0,|HZ |HZ,0.01,8,56,30.17,,30.12,5.97,68,150,,8,,,,,,,,,,,,,,,,,,,,,,,,,,,,,,,,,,,,,SYN082AAXX  05214 72208 37759 41507 10261 20167 30201 40217 58003 704// 92056 555 90521;,,,,,,,,,,,,,,,,,,,,,,,,,,,,
72208013880,2004-10-12T11:40:00,FM-16,4,,SE,0.25,mi,"TEMP, PRECIP, SNOW",,,"MMTS, SRG, SNOWBOARD",,,WFO CHS,,,,,,,,,,,,,,,,,,,,,,,,,,,29.91,66,81,,,,,62,,,,10,,160,,9,,,,,,,,,,,,,,,,,,,,,,,,,,,,,,,,,,,,,MET053KCHS 121640Z 16008KT 10SM BKN033 27/19 A2991 RMK AO2;,,,,,,,,,,,,,,,,,,,,,,,,,,,,
72208013880,2004-10-12T14:00:00,FM-15,C,,SE,0.25,mi,"TEMP, PRECIP, SNOW",,,"MMTS, SRG, SNOWBOARD",,,WFO CHS,,,,,,,,,,,,,,,,,,,,,,,,,,,29.85,66,78,0,,,,67,29.85,,,9.94,,160,,10,,,,,,,,,,,,,,,,,,,,,,,,,,,,,,,,,,,,,MET077KCHS 121856Z 16009KT 10SM SCT040 BKN075 26/19 A2985 RMK AO2 SLP108 T02560189;,,,,,,,,,,,,,,,,,,,,,,,,,,,,
72208013880,2004-10-12T15:56:00,FM-15,4,,SE,0.25,mi,"TEMP, PRECIP, SNOW",,,"MMTS, SRG, SNOWBOARD",,,WFO CHS,,,,,,,,,,,,,,,,,,,,,,,,,,,29.84,68,79,,,0.04,6,70,29.83,,,10,,150,,9,,,,,,,,,,,,,,,,,,,,,,,,,,,,,,,,,,,,,MET083KCHS 122056Z 15008KT 10SM FEW030 BKN070 26/20 A2984 RMK AO2 SLP103 T02560200 56013;,,,,,,,,,,,,,,,,,,,,,,,,,,,,
72208013880,2004-10-12T16:00:00,SY-MT,C,,SE,0.25,mi,"TEMP, PRECIP, SNOW",,,"MMTS, SRG, SNOWBOARD",,,WFO CHS,,,,,,,,,,,,,,,,,,,,,,,,,,,29.84,68,78,0,,0.04,6,71,29.83,,29.79,9.94,71,150,,9,,,,,,,,,,,,,,,,,,,,,,,,,,,,,,,,,,,,,SYN076AAXX  12214 72208 35566 61508 10256 20200 30089 40103 56013 92056 555 91221;,,,,,,,,,,,,,,,,,,,,,,,,,,,,
72208013880,2004-10-12T17:00:00,FM-15,C,,SE,0.25,mi,"TEMP, PRECIP, SNOW",,,"MMTS, SRG, SNOWBOARD",,,WFO CHS,,,,,,,,,,,,,,,,,,,,,,,,,,,29.83,68,76,0,,,,77,29.83,,,8.95,,160,,7,,,,,,,,,,,,,,,,,,,,,,,,,,,,,,,,,,,,,MET069KCHS 122156Z 16006KT 9SM BKN100 24/20 A2983 RMK AO2 SLP101 T02440200;,,,,,,,,,,,,,,,,,,,,,,,,,,,,
72208013880,2004-10-18T17:00:00,FM-15,C,,SE,0.25,mi,"TEMP, PRECIP, SNOW",,,"MMTS, SRG, SNOWBOARD",,,WFO CHS,,,,,,,,,,,,,,,,,,,,,,,,,,,30.06,69,75,0,,,,82,30.05,,,9.94,,150,,7,,,,,,,,,,,,,,,,,,,,,,,,,,,,,,,,,,,,,MET077KCHS 182156Z 15006KT 10SM FEW028 SCT037 24/21 A3006 RMK AO2 SLP177 T02390206;,,,,,,,,,,,,,,,,,,,,,,,,,,,,
72208013880,2004-11-12T11:17:00,FM-16,4,,SE,0.25,mi,"TEMP, PRECIP, SNOW",,,"MMTS, SRG, SNOWBOARD",,,WFO CHS,,,,,,,,,,,,,,,,,,,,,,,,,,,30.05,66,72,,,,,83,,,,10,,160,,8,,,,,,,,,,,,,,,,,,,,,,,,,,,,,,,,,,,,,MET067KCHS 121617Z 16007KT 10SM BKN018 BKN049 OVC060 22/19 A3005 RMK AO2;,,,,,,,,,,,,,,,,,,,,,,,,,,,,
72208013880,2004-11-12T15:42:00,FM-16,4,,SE,0.25,mi,"TEMP, PRECIP, SNOW",,,"MMTS, SRG, SNOWBOARD",,,WFO CHS,,,,,,,,,,,,,,,,,,,,,,,,,,,29.99,66,70,,,,,88,,,,10,,170,,9,,,,,,,,,,,,,,,,,,,,,,,,,,,,,,,,,,,,,MET065KCHS 122042Z 17008KT 10SM SCT020 BKN065 21/19 A2999 RMK AO2 VCSH;,,,,,,,,,,,,,,,,,,,,,,,,,,,,
72208013880,2004-11-12T15:56:00,FM-15,4,,SE,0.25,mi,"TEMP, PRECIP, SNOW",,,"MMTS, SRG, SNOWBOARD",,,WFO CHS,,,,,,,,,,,,,,,,,,,,,,,,,,,29.98,66,70,T,,0.03,6,88,29.97,,,10,,150,,7,,,,,,,,,,,,,,,,,,,,,,,,,,,,,,,,,,,,,MET104KCHS 122056Z 15006KT 10SM FEW020 BKN090 21/19 A2998 RMK AO2 RAB43E53 SLP150 P0000 60000 T02110189 56010;,,,,,,,,,,,,,,,,,,,,,,,,,,,,
72208013880,2004-11-12T16:00:00,SY-MT,C,,SE,0.25,mi,"TEMP, PRECIP, SNOW",,,"MMTS, SRG, SNOWBOARD",,,WFO CHS,,,,,,,,,,,,,,,,,,,,,,,,,,,29.98,66,70,T,,0.03,6,87,29.97,,29.93,9.94,67,150,,7,,,,,,,,,,,,,,,,,,,,,,,,,,,,,,,,,,,,,SYN082AAXX  12214 72208 15566 61506 10211 20189 30136 40150 56010 69907 92056 555 91221;,,,,,,,,,,,,,,,,,,,,,,,,,,,,
72208013880,2004-11-18T15:56:00,FM-15,4,,SE,0.25,mi,"TEMP, PRECIP, SNOW",,,"MMTS, SRG, SNOWBOARD",,,WFO CHS,,,,,,,,,,,,,,,,,,,,,,,,,,,30.22,48,66,,,0.02,5,52,30.22,,,10,,150,,8,,,,,,,,,,,,,,,,,,,,,,,,,,,,,,,,,,,,,MET076KCHS 182056Z 15007KT 10SM OVC060 19/09 A3022 RMK AO2 SLP233 T01940089 55006;,,,,,,,,,,,,,,,,,,,,,,,,,,,,
72208013880,2004-11-18T16:00:00,SY-MT,C,,SE,0.25,mi,"TEMP, PRECIP, SNOW",,,"MMTS, SRG, SNOWBOARD",,,WFO CHS,,,,,,,,,,,,,,,,,,,,,,,,,,,30.22,48,67,0,,0.02,5,51,30.22,,30.17,9.94,57,150,,8,,,,,,,,,,,,,,,,,,,,,,,,,,,,,,,,,,,,,SYN076AAXX  18214 72208 35766 81507 10194 20089 30217 40233 55006 92056 555 91821;,,,,,,,,,,,,,,,,,,,,,,,,,,,,
72208013880,2004-11-22T17:00:00,FM-15,C,,SE,0.25,mi,"TEMP, PRECIP, SNOW",,,"MMTS, SRG, SNOWBOARD",,,WFO CHS,,,,,,,,,,,,,,,,,,,,,,,,,,,30.07,68,70,0,||FG,,,95,30.07,,,4.97,,150,,7,,,,,,,,,,,,,,,,,,,,,,,,,,,,,,,,,,,,,MET074KCHS 222156Z 15006KT 5SM BR OVC029 21/20 A3007 RMK AO2 SLP182 T02090201 /;,,,,,,,,,,,,,,,,,,,,,,,,,,,,
72208013880,2004-12-05T15:56:00,FM-15,4,,SE,0.25,mi,"TEMP, PRECIP, SNOW",,,"MMTS, SRG, SNOWBOARD",,,WFO CHS,,,,,,,,,,,,,,,,,,,,,,,,,,,30.19,39,61,,,0.02,6,45,30.19,,,10,,160,,9,,,,,,,,,,,,,,,,,,,,,,,,,,,,,,,,,,,,,MET073KCHS 052056Z 16008KT 10SM CLR 16/04 A3019 RMK AO2 SLP223 T01610044 56007;,,,,,,,,,,,,,,,,,,,,,,,,,,,,
72208013880,2004-12-05T16:00:00,SY-MT,C,,SE,0.25,mi,"TEMP, PRECIP, SNOW",,,"MMTS, SRG, SNOWBOARD",,,WFO CHS,,,,,,,,,,,,,,,,,,,,,,,,,,,30.19,40,61,0,,0.02,6,46,30.19,CLR:00,30.14,9.94,51,160,,9,,,,,,,,,,,,,,,,,,,,,,,,,,,,,,,,,,,,,SYN076AAXX  05214 72208 35966 01608 10161 20044 30207 40223 56007 92056 555 90521;,,,,,,,,,,,,,,,,,,,,,,,,,,,,
72208013880,2004-12-06T14:00:00,FM-15,C,,SE,0.25,mi,"TEMP, PRECIP, SNOW",,,"MMTS, SRG, SNOWBOARD",,,WFO CHS,,,,,,,,,,,,,,,,,,,,,,,,,,,30.15,63,72,0,,,,73,30.14,,,9.94,,170,,13,,,,,,,,,,,,,,,,,,,,,,,,,,,,,,,,,,,,,MET084KCHS 061856Z 17011KT 10SM FEW030 SCT075 BKN100 22/17 A3015 RMK AO2 SLP208 T02220172;,,,,,,,,,,,,,,,,,,,,,,,,,,,,
72208013880,2004-12-22T12:56:00,FM-15,4,,SE,0.25,mi,"TEMP, PRECIP, SNOW",,,"MMTS, SRG, SNOWBOARD",,,WFO CHS,,,,,,,,,,,,,,,,,,,,,,,,,,,30.16,55,68,,,0.09,8,64,30.16,,,10,,150,,15,,,,,,,,,,,,,,,,,,,,,,,,,,,,,,,,,,,,,MET102KCHS 221756Z 15013KT 10SM FEW030 BKN055 20/13 A3016 RMK AO2 SLP213 PRESFR T02000133 10206 20039 58032;,,,,,,,,,,,,,,,,,,,,,,,,,,,,
72208013880,2004-12-22T13:00:00,SY-MT,C,,SE,0.25,mi,"TEMP, PRECIP, SNOW",,,"MMTS, SRG, SNOWBOARD",,,WFO CHS,,,,,,,,,,,,,,,,,,,,,,,,,,,30.16,56,68,0,,0.09,8,65,30.16,,30.11,9.94,61,150,,15,,,,,,,,,,,,,,,,,,,,,,,,,,,,,,,,,,,,,SYN092AAXX  22184 72208 32566 61513 10200 20133 30197 40213 58032 91756 333 10206 20039 555 92218;,,,,,,,,,,,,,,,,,,,,,,,,,,,,
72208013880,2004-12-22T15:56:00,FM-15,4,,SE,0.25,mi,"TEMP, PRECIP, SNOW",,,"MMTS, SRG, SNOWBOARD",,,WFO CHS,,,,,,,,,,,,,,,,,,,,,,,,,,,30.13,55,66,,,0.03,5,68,30.13,,,10,,150,,9,,,,,,,,,,,,,,,,,,,,,,,,,,,,,,,,,,,,,MET090KCHS 222056Z 15008KT 10SM FEW050 BKN075 19/13 A3013 RMK AO2 SLP204 VCSH S T01940133 55009;,,,,,,,,,,,,,,,,,,,,,,,,,,,,
72208013880,2004-12-22T16:00:00,SY-MT,C,,SE,0.25,mi,"TEMP, PRECIP, SNOW",,,"MMTS, SRG, SNOWBOARD",,,WFO CHS,,,,,,,,,,,,,,,,,,,,,,,,,,,30.13,56,67,0,,0.03,5,68,30.13,,30.08,9.94,61,150,,9,,,,,,,,,,,,,,,,,,,,,,,,,,,,,,,,,,,,,SYN076AAXX  22214 72208 35766 61508 10194 20133 30187 40204 55009 92056 555 92221;,,,,,,,,,,,,,,,,,,,,,,,,,,,,
72208013880,2004-12-22T17:00:00,FM-15,C,,SE,0.25,mi,"TEMP, PRECIP, SNOW",,,"MMTS, SRG, SNOWBOARD",,,WFO CHS,,,,,,,,,,,,,,,,,,,,,,,,,,,30.12,57,65,0,,,,76,30.12,,,9.94,,150,,9,,,,,,,,,,,,,,,,,,,,,,,,,,,,,,,,,,,,,MET085KCHS 222156Z 15008KT 10SM FEW050 SCT075 18/14 A3012 RMK AO2 SLP200 VCSH NE T01830139;,,,,,,,,,,,,,,,,,,,,,,,,,,,,
72208013880,2004-12-30T17:00:00,FM-15,C,,SE,0.25,mi,"TEMP, PRECIP, SNOW",,,"MMTS, SRG, SNOWBOARD",,,WFO CHS,,,,,,,,,,,,,,,,,,,,,,,,,,,30.4,47,59,0,,,,64,30.4,,,9.94,,150,,8,,,,,,,,,,,,,,,,,,,,,,,,,,,,,,,,,,,,,MET067KCHS 302156Z 15007KT 10SM CLR 15/08 A3040 RMK AO2 SLP294 T01500083;,,,,,,,,,,,,,,,,,,,,,,,,,,,,
72208013880,2005-01-01T13:56:00,FM-15,7,,SE,0.25,mi,"TEMP, PRECIP, SNOW",,,"MMTS, SRG, SNOWBOARD",,,WFO CHS,,,,,,,,,,,,,,,,,,,,,,,,,,,30.41,54,70,0,,,,57,30.41,FEW:02 37 SCT:04 120,30.36,10,61,170,,9,,,,,,,,,,,,,,,,,,,,,,,,,,,,,,,,,,,,,MET10601/01/05 13:56:50 METAR KCHS 011856Z 17008KT 10SM FEW037 SCT120 21/12 A3041 RMK AO2 SLP298 T02110122 (WRB),,,,,,,,,,,,,,,,,,,,,,,,,,,,
72208013880,2005-01-01T14:56:00,FM-15,7,,SE,0.25,mi,"TEMP, PRECIP, SNOW",,,"MMTS, SRG, SNOWBOARD",,,WFO CHS,,,,,,,,,,,,,,,,,,,,,,,,,,,30.41,54,67,0,,,,63,30.41,FEW:02 29 BKN:07 70,30.36,10,60,160,,8,,,,,,,,,,,,,,,,,,,,,,,,,,,,,,,,,,,,,MET10001/01/05 14:56:00 METAR KCHS 011956Z 16007KT 10SM FEW029 BKN070 19/12 A3041 RMK AO2 SLP298 T01940122,,,,,,,,,,,,,,,,,,,,,,,,,,,,
72208013880,2005-01-01T15:56:00,FM-15,7,,SE,0.25,mi,"TEMP, PRECIP, SNOW",,,"MMTS, SRG, SNOWBOARD",,,WFO CHS,,,,,,,,,,,,,,,,,,,,,,,,,,,30.42,53,66,0,,0,5,63,30.42,FEW:02 32 BKN:07 70,30.37,10,59,170,,7,,,,,,,,,,,,,,,,,,,,,,,,,,,,,,,,,,,,,MET10601/01/05 15:56:00 METAR KCHS 012056Z 17006KT 10SM FEW032 BKN070 19/12 A3042 RMK AO2 SLP300 T01890117 55001,,,,,,,,,,,,,,,,,,,,,,,,,,,,
72208013880,2005-01-01T16:00:00,FM-12,4,,SE,0.25,mi,"TEMP, PRECIP, SNOW",,,"MMTS, SRG, SNOWBOARD",,,WFO CHS,,,,,,,,,,,,,,,,,,,,,,,,,,,,53,66,,,0,5,63,30.42,,30.37,9.94,59,170,,7,,,,,,,,,,,,,,,,,,,,,,,,,,,,,,,,,,,,,SYN076AAXX  01214 72208 35566 61706 10189 20117 30285 40300 55001 92056 555 90121;,,,,,,,,,,,,,,,,,,,,,,,,,,,,
72208013880,2005-01-03T14:56:00,FM-15,7,,SE,0.25,mi,"TEMP, PRECIP, SNOW",,,"MMTS, SRG, SNOWBOARD",,,WFO CHS,,,,,,,,,,,,,,,,,,,,,,,,,,,30.36,54,74,0,,,,50,30.36,FEW:02 80,30.31,10,62,150,,10,,,,,,,,,,,,,,,,,,,,,,,,,,,,,,,,,,,,,MET09301/03/05 14:56:00 METAR KCHS 031956Z 15009KT 10SM FEW080 23/12 A3036 RMK AO2 SLP280 T02330122,,,,,,,,,,,,,,,,,,,,,,,,,,,,
72208013880,2005-01-03T15:56:00,FM-15,7,,SE,0.25,mi,"TEMP, PRECIP, SNOW",,,"MMTS, SRG, SNOWBOARD",,,WFO CHS,,,,,,,,,,,,,,,,,,,,,,,,,,,30.37,52,70,0,,0.04,5,53,30.36,FEW:02 100,30.32,10,60,160,,10,,,,,,,,,,,,,,,,,,,,,,,,,,,,,,,,,,,,,MET09901/03/05 15:56:00 METAR KCHS 032056Z 16009KT 10SM FEW100 21/11 A3037 RMK AO2 SLP282 T02110111 55014,,,,,,,,,,,,,,,,,,,,,,,,,,,,
72208013880,2005-01-03T16:00:00,FM-12,4,,SE,0.25,mi,"TEMP, PRECIP, SNOW",,,"MMTS, SRG, SNOWBOARD",,,WFO CHS,,,,,,,,,,,,,,,,,,,,,,,,,,,,52,70,,,0.04,5,53,30.36,,30.32,9.94,60,160,,10,,,,,,,,,,,,,,,,,,,,,,,,,,,,,,,,,,,,,SYN076AAXX  03214 72208 35966 21609 10211 20111 30268 40282 55014 92056 555 90321;,,,,,,,,,,,,,,,,,,,,,,,,,,,,
72208013880,2005-01-03T16:56:00,FM-15,7,,SE,0.25,mi,"TEMP, PRECIP, SNOW",,,"MMTS, SRG, SNOWBOARD",,,WFO CHS,,,,,,,,,,,,,,,,,,,,,,,,,,,30.37,52,67,0,,,,59,30.37,FEW:02 100,30.32,10,59,160,,8,,,,,,,,,,,,,,,,,,,,,,,,,,,,,,,,,,,,,MET09301/03/05 16:56:00 METAR KCHS 032156Z 16007KT 10SM FEW100 19/11 A3037 RMK AO2 SLP284 T01940111,,,,,,,,,,,,,,,,,,,,,,,,,,,,
72208013880,2005-01-07T15:56:00,FM-15,7,,SE,0.25,mi,"TEMP, PRECIP, SNOW",,,"MMTS, SRG, SNOWBOARD",,,WFO CHS,,,,,,,,,,,,,,,,,,,,,,,,,,,30.19,63,73,0,,0.02,5,71,30.19,SCT:04 33,30.14,9,67,150,,9,,,,,,,,,,,,,,,,,,,,,,,,,,,,,,,,,,,,,MET09801/07/05 15:56:00 METAR KCHS 072056Z 15008KT 9SM SCT033 23/17 A3019 RMK AO2 SLP222 T02280172 55006,,,,,,,,,,,,,,,,,,,,,,,,,,,,
72208013880,2005-01-07T16:00:00,FM-12,4,,SE,0.25,mi,"TEMP, PRECIP, SNOW",,,"MMTS, SRG, SNOWBOARD",,,WFO CHS,,,,,,,,,,,,,,,,,,,,,,,,,,,,63,73,,,0.02,5,71,30.19,,30.14,8.7,67,150,,9,,,,,,,,,,,,,,,,,,,,,,,,,,,,,,,,,,,,,SYN076AAXX  07214 72208 35564 41508 10228 20172 30207 40222 55006 92056 555 90721;,,,,,,,,,,,,,,,,,,,,,,,,,,,,
72208013880,2005-01-07T16:56:00,FM-15,7,,SE,0.25,mi,"TEMP, PRECIP, SNOW",,,"MMTS, SRG, SNOWBOARD",,,WFO CHS,,,,,,,,,,,,,,,,,,,,,,,,,,,30.21,63,69,0,,,,81,30.21,,30.16,9,65,160,,9,,,,,,,,,,,,,,,,,,,,,,,,,,,,,,,,,,,,,MET08901/07/05 16:56:00 METAR KCHS 072156Z 16008KT 9SM CLR 21/17 A3021 RMK AO2 SLP229 T02060172,,,,,,,,,,,,,,,,,,,,,,,,,,,,
72208013880,2005-01-07T17:56:00,FM-15,7,,SE,0.25,mi,"TEMP, PRECIP, SNOW",,,"MMTS, SRG, SNOWBOARD",,,WFO CHS,,,,,,,,,,,,,,,,,,,,,,,,,,,30.22,62,64,0,,,,93,30.22,,30.17,10,63,160,,7,,,,,,,,,,,,,,,,,,,,,,,,,,,,,,,,,,,,,MET09001/07/05 17:56:00 METAR KCHS 072256Z 16006KT 10SM CLR 18/17 A3022 RMK AO2 SLP232 T01780167,,,,,,,,,,,,,,,,,,,,,,,,,,,,
72208013880,2005-01-12T10:56:00,FM-15,7,,SE,0.25,mi,"TEMP, PRECIP, SNOW",,,"MMTS, SRG, SNOWBOARD",,,WFO CHS,,,,,,,,,,,,,,,,,,,,,,,,,,,30.24,63,64,0,BR:1 ||,,,96,30.24,FEW:02 6 SCT:04 43 BKN:07 75,30.19,2.5,63,170,,7,,,,,,,,,,,,,,,,,,,,,,,,,,,,,,,,,,,,,MET11301/12/05 10:56:00 METAR KCHS 121556Z 17006KT 2 1/2SM BR FEW006 SCT043 BKN075 18/17 A3024 RMK AO2 SLP239 T01780172,,,,,,,,,,,,,,,,,,,,,,,,,,,,
72208013880,2005-01-13T12:26:00,FM-16,7,,SE,0.25,mi,"TEMP, PRECIP, SNOW",,,"MMTS, SRG, SNOWBOARD",,,WFO CHS,,,,,,,,,,,,,,,,,,,,,,,,,,,30.1,68,70,T,-RA:02 BR:1 |RA |RA,,,94,,BKN:07 14 BKN:07 28 OVC:08 44,30.05,4,69,170,,17,,,,,,,,,,,,,,,,,,,,,,,,,,,,,,,,,,,,,MET10201/13/05 12:26:00 SPECI KCHS 131726Z 17015KT 4SM -RA BR BKN014 BKN028 OVC044 21/20 A3010 RMK AO2 P0000,,,,,,,,,,,,,,,,,,,,,,,,,,,,
72208013880,2005-01-13T12:41:00,FM-16,7,,SE,0.25,mi,"TEMP, PRECIP, SNOW",,,"MMTS, SRG, SNOWBOARD",,,WFO CHS,,,,,,,,,,,,,,,,,,,,,,,,,,,30.08,70,70,0.03,RA:02 BR:1 |RA |RA,,,100,,SCT:04 9 BKN:07 17 OVC:08 44,30.03,1.75,70,160,,16,,,,,,,,,,,,,,,,,,,,,,,,,,,,,,,,,,,,,MET11501/13/05 12:41:00 SPECI KCHS 131741Z 16014KT 1 3/4SM RA BR SCT009 BKN017 OVC044 21/21 A3008 RMK AO2 TWR VIS 2 P0003,,,,,,,,,,,,,,,,,,,,,,,,,,,,
72208013880,2005-01-13T12:56:00,FM-15,7,,SE,0.25,mi,"TEMP, PRECIP, SNOW",,,"MMTS, SRG, SNOWBOARD",,,WFO CHS,,,,,,,,,,,,,,,,,,,,,,,,,,,30.07,69,69,0.06s,RA:02 BR:1 |RA |RA,0.1,8,100,30.07,SCT:04 9 BKN:07 19 OVC:08 45,30.02,2,69,150,,11,,,,,,,,,,,,,,,,,,,,,,,,,,,,,,,,,,,,,MET14201/13/05 12:56:00 METAR KCHS 131756Z 15010KT 2SM RA BR SCT009 BKN019 OVC045 21/21 A3007 RMK AO2 SLP182 P0005 60005 T02060206 10239 20172 58033,,,,,,,,,,,,,,,,,,,,,,,,,,,,
72208013880,2005-01-13T13:00:00,FM-12,4,,SE,0.25,mi,"TEMP, PRECIP, SNOW",,,"MMTS, SRG, SNOWBOARD",,,WFO CHS,,,,,,,,,,,,,,,,,,,,,,,,,,,,69,69,,||RA,0.1,8,100,30.07,,30.02,1.99,69,150,,11,,,,,,,,,,,,,,,,,,,,,,,,,,,,,,,,,,,,,SYN110AAXX  13184 72208 11332 81510 10206 20206 30167 40182 58033 60011 763// 91756 333 10239 20172 96010 555 91318;,,,,,,,,,,,,,,,,,,,,,,,,,,,,
72208013880,2005-01-13T13:08:00,FM-16,7,,SE,0.25,mi,"TEMP, PRECIP, SNOW",,,"MMTS, SRG, SNOWBOARD",,,WFO CHS,,,,,,,,,,,,,,,,,,,,,,,,,,,30.07,70,70,0.1,+RA:02 BR:1 |RA |RA,,,100,,FEW:02 5 BKN:07 10 OVC:08 28,30.02,2,70,150,,13,,,,,,,,,,,,,,,,,,,,,,,,,,,,,,,,,,,,,MET10201/13/05 13:08:00 SPECI KCHS 131808Z 15011KT 2SM +RA BR FEW005 BKN010 OVC028 21/21 A3007 RMK AO2 P0010,,,,,,,,,,,,,,,,,,,,,,,,,,,,
72208013880,2005-01-13T13:36:00,FM-16,7,,SE,0.25,mi,"TEMP, PRECIP, SNOW",,,"MMTS, SRG, SNOWBOARD",,,WFO CHS,,,,,,,,,,,,,,,,,,,,,,,,,,,30.05,70,70,0.17,-RA:02 BR:1 |RA |RA,,,100,,BKN:07 9 BKN:07 24 OVC:08 40,30,2,70,160,,11,,,,,,,,,,,,,,,,,,,,,,,,,,,,,,,,,,,,,MET11201/13/05 13:36:00 SPECI KCHS 131836Z 16010KT 2SM -RA BR BKN009 BKN024 OVC040 21/21 A3005 RMK AO2 SFC VIS 4 P0017,,,,,,,,,,,,,,,,,,,,,,,,,,,,
72208013880,2005-01-13T13:56:00,FM-15,7,,SE,0.25,mi,"TEMP, PRECIP, SNOW",,,"MMTS, SRG, SNOWBOARD",,,WFO CHS,,,,,,,,,,,,,,,,,,,,,,,,,,,30.04,69,70,0.16,-RA:02 BR:1 |RA |RA,,,97,30.04,SCT:04 10 BKN:07 20 OVC:08 45,29.99,2,69,170,,11,,,,,,,,,,,,,,,,,,,,,,,,,,,,,,,,,,,,,MET12901/13/05 13:56:00 METAR KCHS 131856Z 17010KT 2SM -RA BR SCT010 BKN020 OVC045 21/21 A3004 RMK AO2 SFC VIS 3 SLP172 P0017 T02110206,,,,,,,,,,,,,,,,,,,,,,,,,,,,
72208013880,2005-01-13T14:09:00,FM-16,7,,SE,0.25,mi,"TEMP, PRECIP, SNOW",,,"MMTS, SRG, SNOWBOARD",,,WFO CHS,,,,,,,,,,,,,,,,,,,,,,,,,,,30.03,70,72,T,,,,94,,FEW:02 13 SCT:04 25 OVC:08 43,29.98,2,71,150,22,15,,,,,,,,,,,,,,,,,,,,,,,,,,,,,,,,,,,,,MET11401/13/05 14:09:00 SPECI KCHS 131909Z 15013G19KT 2SM FEW013 SCT025 OVC043 22/21 A3003 RMK AO2 SFC VIS 8 RAE04 P0000,,,,,,,,,,,,,,,,,,,,,,,,,,,,
72208013880,2005-01-13T15:56:00,FM-15,7,,SE,0.25,mi,"TEMP, PRECIP, SNOW",,,"MMTS, SRG, SNOWBOARD",,,WFO CHS,,,,,,,,,,,,,,,,,,,,,,,,,,,30.02,69,69,0.31,,0.05,6,100,30.02,SCT:04 7 BKN:07 12 OVC:08 24,29.97,7,69,170,,15,,,,,,,,,,,,,,,,,,,,,,,,,,,,,,,,,,,,,MET13001/13/05 15:56:00 METAR KCHS 132056Z 17013KT 7SM SCT007 BKN012 OVC024 21/21 A3002 RMK AO2 RAE46 SLP165 P0038 60062 T02060206 56017,,,,,,,,,,,,,,,,,,,,,,,,,,,,
72208013880,2005-01-13T16:00:00,FM-12,4,,SE,0.25,mi,"TEMP, PRECIP, SNOW",,,"MMTS, SRG, SNOWBOARD",,,WFO CHS,,,,,,,,,,,,,,,,,,,,,,,,,,,,69,69,,,0.05,6,100,30.02,,29.97,6.84,69,170,,15,,,,,,,,,,,,,,,,,,,,,,,,,,,,,,,,,,,,,SYN082AAXX  13214 72208 15361 81713 10206 20206 30150 40165 56017 60167 92056 555 91321;,,,,,,,,,,,,,,,,,,,,,,,,,,,,
72208013880,2005-01-13T17:56:00,FM-15,7,,SE,0.25,mi,"TEMP, PRECIP, SNOW",,,"MMTS, SRG, SNOWBOARD",,,WFO CHS,,,,,,,,,,,,,,,,,,,,,,,,,,,30.01,67,69,0,,,,93,30.01,FEW:02 50,29.96,7,68,170,,17,,,,,,,,,,,,,,,,,,,,,,,,,,,,,,,,,,,,,MET09201/13/05 17:56:00 METAR KCHS 132256Z 17015KT 7SM FEW050 21/19 A3001 RMK AO2 SLP162 T02060194,,,,,,,,,,,,,,,,,,,,,,,,,,,,
72208013880,2005-01-25T12:56:00,FM-15,7,,SE,0.25,mi,"TEMP, PRECIP, SNOW",,,"MMTS, SRG, SNOWBOARD",,,WFO CHS,,,,,,,,,,,,,,,,,,,,,,,,,,,30.01,20,55,0,,0.08,8,25,30.01,,29.96,10,41,160,,8,,,,,,,,,,,,,,,,,,,,,,,,,,,,,,,,,,,,,MET11601/25/05 12:56:00 METAR KCHS 251756Z 16007KT 10SM CLR 13/M07 A3001 RMK AO2 SLP162 PRESFR T01281067 10128 20011 58027,,,,,,,,,,,,,,,,,,,,,,,,,,,,
72208013880,2005-01-25T13:00:00,FM-12,4,,SE,0.25,mi,"TEMP, PRECIP, SNOW",,,"MMTS, SRG, SNOWBOARD",,,WFO CHS,,,,,,,,,,,,,,,,,,,,,,,,,,,,20,55,,,0.08,8,25,30.01,CLR:00,29.96,9.94,41,160,,8,,,,,,,,,,,,,,,,,,,,,,,,,,,,,,,,,,,,,SYN092AAXX  25184 72208 32966 01607 10128 21067 30146 40162 58027 91756 333 10128 20011 555 92518;,,,,,,,,,,,,,,,,,,,,,,,,,,,,
72208013880,2005-01-25T13:56:00,FM-15,7,,SE,0.25,mi,"TEMP, PRECIP, SNOW",,,"MMTS, SRG, SNOWBOARD",,,WFO CHS,,,,,,,,,,,,,,,,,,,,,,,,,,,29.98,22,55,0,,,,28,29.98,,29.93,10,42,150,,9,,,,,,,,,,,,,,,,,,,,,,,,,,,,,,,,,,,,,MET09101/25/05 13:56:00 METAR KCHS 251856Z 15008KT 10SM CLR 13/M06 A2998 RMK AO2 SLP152 T01281056,,,,,,,,,,,,,,,,,,,,,,,,,,,,
72208013880,2005-01-25T14:56:00,FM-15,7,,SE,0.25,mi,"TEMP, PRECIP, SNOW",,,"MMTS, SRG, SNOWBOARD",,,WFO CHS,,,,,,,,,,,,,,,,,,,,,,,,,,,29.97,25,54,0,,,,33,29.97,,29.92,10,42,150,,10,,,,,,,,,,,,,,,,,,,,,,,,,,,,,,,,,,,,,MET09101/25/05 14:56:00 METAR KCHS 251956Z 15009KT 10SM CLR 12/M04 A2997 RMK AO2 SLP148 T01221039,,,,,,,,,,,,,,,,,,,,,,,,,,,,
72208013880,2005-01-25T15:56:00,FM-15,7,,SE,0.25,mi,"TEMP, PRECIP, SNOW",,,"MMTS, SRG, SNOWBOARD",,,WFO CHS,,,,,,,,,,,,,,,,,,,,,,,,,,,29.96,27,53,0,,0.05,6,37,29.96,,29.91,10,42,170,,13,,,,,,,,,,,,,,,,,,,,,,,,,,,,,,,,,,,,,MET09701/25/05 15:56:00 METAR KCHS 252056Z 17011KT 10SM CLR 12/M03 A2996 RMK AO2 SLP144 T01171028 56018,,,,,,,,,,,,,,,,,,,,,,,,,,,,
72208013880,2005-01-25T16:00:00,FM-12,4,,SE,0.25,mi,"TEMP, PRECIP, SNOW",,,"MMTS, SRG, SNOWBOARD",,,WFO CHS,,,,,,,,,,,,,,,,,,,,,,,,,,,,27,53,,,0.05,6,37,29.96,CLR:00,29.91,9.94,42,170,,13,,,,,,,,,,,,,,,,,,,,,,,,,,,,,,,,,,,,,SYN076AAXX  25214 72208 35966 01711 10117 21028 30129 40144 56018 92056 555 92521;,,,,,,,,,,,,,,,,,,,,,,,,,,,,
72208013880,2005-02-08T15:56:00,FM-15,7,,SE,0.25,mi,"TEMP, PRECIP, SNOW",,,"MMTS, SRG, SNOWBOARD",,,WFO CHS,,,,,,,,,,,,,,,,,,,,,,,,,,,30.1,43,70,0,,0.05,6,38,30.09,,30.05,10,56,170,,9,,,,,,,,,,,,,,,,,,,,,,,,,,,,,,,,,,,,,MET09602/08/05 15:56:00 METAR KCHS 082056Z 17008KT 10SM CLR 21/06 A3010 RMK AO2 SLP191 T02110061 56017,,,,,,,,,,,,,,,,,,,,,,,,,,,,
72208013880,2005-02-08T16:00:00,FM-12,4,,SE,0.25,mi,"TEMP, PRECIP, SNOW",,,"MMTS, SRG, SNOWBOARD",,,WFO CHS,,,,,,,,,,,,,,,,,,,,,,,,,,,,43,70,,,0.05,6,38,30.09,CLR:00,30.05,9.94,56,170,,9,,,,,,,,,,,,,,,,,,,,,,,,,,,,,,,,,,,,,SYN076AAXX  08214 72208 35966 01708 10211 20061 30177 40191 56017 92056 555 90821;,,,,,,,,,,,,,,,,,,,,,,,,,,,,
72208013880,2005-02-08T16:56:00,FM-15,7,,SE,0.25,mi,"TEMP, PRECIP, SNOW",,,"MMTS, SRG, SNOWBOARD",,,WFO CHS,,,,,,,,,,,,,,,,,,,,,,,,,,,30.09,40,67,0,,,,37,30.09,,30.04,10,53,170,,9,,,,,,,,,,,,,,,,,,,,,,,,,,,,,,,,,,,,,MET09002/08/05 16:56:00 METAR KCHS 082156Z 17008KT 10SM CLR 19/04 A3009 RMK AO2 SLP190 T01940044,,,,,,,,,,,,,,,,,,,,,,,,,,,,
72208013880,2005-02-13T12:56:00,FM-15,7,,SE,0.25,mi,"TEMP, PRECIP, SNOW",,,"MMTS, SRG, SNOWBOARD",,,WFO CHS,,,,,,,,,,,,,,,,,,,,,,,,,,,30.16,39,65,0,,0.03,8,39,30.15,,30.11,10,52,150,,7,,,,,,,,,,,,,,,,,,,,,,,,,,,,,,,,,,,,,MET10802/13/05 12:56:00 METAR KCHS 131756Z 15006KT 10SM CLR 18/04 A3016 RMK AO2 SLP211 T01830039 10189 20028 58009,,,,,,,,,,,,,,,,,,,,,,,,,,,,
72208013880,2005-02-13T13:00:00,FM-12,4,,SE,0.25,mi,"TEMP, PRECIP, SNOW",,,"MMTS, SRG, SNOWBOARD",,,WFO CHS,,,,,,,,,,,,,,,,,,,,,,,,,,,,39,65,,,0.03,8,39,30.15,CLR:00,30.11,9.94,52,150,,7,,,,,,,,,,,,,,,,,,,,,,,,,,,,,,,,,,,,,SYN092AAXX  13184 72208 32966 01506 10183 20039 30197 40211 58009 91756 333 10189 20028 555 91318;,,,,,,,,,,,,,,,,,,,,,,,,,,,,
72208013880,2005-02-13T13:56:00,FM-15,7,,SE,0.25,mi,"TEMP, PRECIP, SNOW",,,"MMTS, SRG, SNOWBOARD",,,WFO CHS,,,,,,,,,,,,,,,,,,,,,,,,,,,30.16,42,64,0,,,,45,30.15,BKN:07 110,30.11,10,53,160,,8,,,,,,,,,,,,,,,,,,,,,,,,,,,,,,,,,,,,,MET09302/13/05 13:56:00 METAR KCHS 131856Z 16007KT 10SM BKN110 18/06 A3016 RMK AO2 SLP211 T01780056,,,,,,,,,,,,,,,,,,,,,,,,,,,,
72208013880,2005-02-13T14:56:00,FM-15,7,,SE,0.25,mi,"TEMP, PRECIP, SNOW",,,"MMTS, SRG, SNOWBOARD",,,WFO CHS,,,,,,,,,,,,,,,,,,,,,,,,,,,30.16,42,63,0,,,,47,30.16,SCT:04 100,30.11,10,52,160,,8,,,,,,,,,,,,,,,,,,,,,,,,,,,,,,,,,,,,,MET09302/13/05 14:56:00 METAR KCHS 131956Z 16007KT 10SM SCT100 17/06 A3016 RMK AO2 SLP212 T01720056,,,,,,,,,,,,,,,,,,,,,,,,,,,,
72208013880,2005-02-20T16:56:00,FM-15,7,,SE,0.25,mi,"TEMP, PRECIP, SNOW",,,"MMTS, SRG, SNOWBOARD",,,WFO CHS,,,,,,,,,,,,,,,,,,,,,,,,,,,30.25,43,62,0,,,,50,30.25,SCT:04 45 OVC:08 80,30.2,10,52,150,,13,,,,,,,,,,,,,,,,,,,,,,,,,,,,,,,,,,,,,MET10002/20/05 16:56:00 METAR KCHS 202156Z 15011KT 10SM SCT045 OVC080 17/06 A3025 RMK AO2 SLP244 T01670061,,,,,,,,,,,,,,,,,,,,,,,,,,,,
72208013880,2005-03-21T14:56:00,FM-15,7,,SE,0.25,mi,"TEMP, PRECIP, SNOW",,,"MMTS, SRG, SNOWBOARD",,,WFO CHS,,,,,,,,,,,,,,,,,,,,,,,,,,,29.98,51,65,0,,,,61,29.98,FEW:02 32 BKN:07 80,29.93,9,57,150,,11,,,,,,,,,,,,,,,,,,,,,,,,,,,,,,,,,,,,,MET10503/21/05 14:56:50 METAR KCHS 211956Z 15010KT 9SM FEW032 BKN080 18/11 A2998 RMK AO2 SLP151 T01830106 (WRB),,,,,,,,,,,,,,,,,,,,,,,,,,,,
72208013880,2005-03-25T14:48:00,FM-16,7,,SE,0.25,mi,"TEMP, PRECIP, SNOW",,,"MMTS, SRG, SNOWBOARD",,,WFO CHS,,,,,,,,,,,,,,,,,,,,,,,,,,,29.88,63,64,T,,,,94,,FEW:02 20 SCT:04 25 BKN:07 31,29.83,7,63,160,,7,,,,,,,,,,,,,,,,,,,,,,,,,,,,,,,,,,,,,MET11003/25/05 14:48:50 SPECI KCHS 251948Z 16006KT 7SM FEW020 SCT025 BKN031 18/17 A2988 RMK AO2 RAB00E31 P0000 (AWS),,,,,,,,,,,,,,,,,,,,,,,,,,,,
72208013880,2005-03-25T14:56:00,FM-15,7,,SE,0.25,mi,"TEMP, PRECIP, SNOW",,,"MMTS, SRG, SNOWBOARD",,,WFO CHS,,,,,,,,,,,,,,,,,,,,,,,,,,,29.88,64,65,T,,,,97,29.87,SCT:04 18 BKN:07 25 OVC:08 42,29.83,7,64,170,,7,,,,,,,,,,,,,,,,,,,,,,,,,,,,,,,,,,,,,MET12703/25/05 14:56:50 METAR KCHS 251956Z 17006KT 7SM SCT018 BKN025 OVC042 18/18 A2988 RMK AO2 RAB00E31 SLP116 P0000 T01830178 (AWS),,,,,,,,,,,,,,,,,,,,,,,,,,,,
72208013880,2005-03-25T15:56:00,FM-15,7,,SE,0.25,mi,"TEMP, PRECIP, SNOW",,,"MMTS, SRG, SNOWBOARD",,,WFO CHS,,,,,,,,,,,,,,,,,,,,,,,,,,,29.86,64,68,0,,0.05,6,87,29.86,OVC:08 14,29.81,9,66,160,,7,,,,,,,,,,,,,,,,,,,,,,,,,,,,,,,,,,,,,MET10903/25/05 15:56:50 METAR KCHS 252056Z 16006KT 9SM OVC014 20/18 A2986 RMK AO2 SLP111 60000 T02000178 56018 (WD),,,,,,,,,,,,,,,,,,,,,,,,,,,,
72208013880,2005-03-25T16:00:00,FM-12,4,,SE,0.25,mi,"TEMP, PRECIP, SNOW",,,"MMTS, SRG, SNOWBOARD",,,WFO CHS,,,,,,,,,,,,,,,,,,,,,,,,,,,,64,68,,,0.05,6,87,29.86,,29.81,8.7,66,160,,7,,,,,,,,,,,,,,,,,,,,,,,,,,,,,,,,,,,,,SYN082AAXX  25214 72208 15464 81606 10200 20178 30096 40111 56018 69907 92056 555 92521;,,,,,,,,,,,,,,,,,,,,,,,,,,,,
72208013880,2005-03-27T15:56:00,FM-15,7,,SE,0.25,mi,"TEMP, PRECIP, SNOW",,,"MMTS, SRG, SNOWBOARD",,,WFO CHS,,,,,,,,,,,,,,,,,,,,,,,,,,,29.82,62,64,T,BR:1 ||,0.11,5,93,29.82,BKN:07 11,29.77,6,63,150,,11,,,,,,,,,,,,,,,,,,,,,,,,,,,,,,,,,,,,,MET14303/27/05 15:56:50 METAR KCHS 272056Z 15010KT 6SM BR BKN011 18/17 A2982 RMK AO2 PK WND 13026/2013 RAE07 SLP098 P0000 60000 T01780167 55036 (KDT),,,,,,,,,,,,,,,,,,,,,,,,,,,,
72208013880,2005-03-27T16:00:00,FM-12,4,,SE,0.25,mi,"TEMP, PRECIP, SNOW",,,"MMTS, SRG, SNOWBOARD",,,WFO CHS,,,,,,,,,,,,,,,,,,,,,,,,,,,,62,64,,,0.11,5,93,29.82,,29.77,5.59,63,150,,11,,,,,,,,,,,,,,,,,,,,,,,,,,,,,,,,,,,,,SYN088AAXX  27214 72208 17459 61510 10178 20167 30082 40098 55036 69907 710// 92056 555 92721;,,,,,,,,,,,,,,,,,,,,,,,,,,,,
72208013880,2005-03-30T13:56:00,FM-15,7,,SE,0.25,mi,"TEMP, PRECIP, SNOW",,,"MMTS, SRG, SNOWBOARD",,,WFO CHS,,,,,,,,,,,,,,,,,,,,,,,,,,,29.97,50,82,0,,,,33,29.96,,29.92,10,63,150,,9,,,,,,,,,,,,,,,,,,,,,,,,,,,,,,,,,,,,,MET09603/30/05 13:56:50 METAR KCHS 301856Z 15008KT 10SM CLR 28/10 A2997 RMK AO2 SLP147 T02780100 (WRB),,,,,,,,,,,,,,,,,,,,,,,,,,,,
72208013880,2005-03-30T15:56:00,FM-15,7,,SE,0.25,mi,"TEMP, PRECIP, SNOW",,,"MMTS, SRG, SNOWBOARD",,,WFO CHS,,,,,,,,,,,,,,,,,,,,,,,,,,,29.95,47,81,0,,0.04,5,30,29.95,,29.9,10,62,160,,13,,,,,,,,,,,,,,,,,,,,,,,,,,,,,,,,,,,,,MET10103/30/05 15:56:50 METAR KCHS 302056Z 16011KT 10SM CLR 27/08 A2995 RMK AO2 SLP143 T02720083 55013 (WD),,,,,,,,,,,,,,,,,,,,,,,,,,,,
72208013880,2005-03-30T16:00:00,FM-12,4,,SE,0.25,mi,"TEMP, PRECIP, SNOW",,,"MMTS, SRG, SNOWBOARD",,,WFO CHS,,,,,,,,,,,,,,,,,,,,,,,,,,,,47,81,,,0.04,5,30,29.95,CLR:00,29.9,9.94,62,160,,13,,,,,,,,,,,,,,,,,,,,,,,,,,,,,,,,,,,,,SYN076AAXX  30214 72208 35966 01611 10272 20083 30126 40143 55013 92056 555 93021;,,,,,,,,,,,,,,,,,,,,,,,,,,,,
72208013880,2005-03-30T16:56:00,FM-15,7,,SE,0.25,mi,"TEMP, PRECIP, SNOW",,,"MMTS, SRG, SNOWBOARD",,,WFO CHS,,,,,,,,,,,,,,,,,,,,,,,,,,,29.96,46,78,0,,,,32,29.96,,29.91,10,60,170,,14,,,,,,,,,,,,,,,,,,,,,,,,,,,,,,,,,,,,,MET09503/30/05 16:56:50 METAR KCHS 302156Z 17012KT 10SM CLR 26/08 A2996 RMK AO2 SLP144 T02560078 (WD),,,,,,,,,,,,,,,,,,,,,,,,,,,,
72208013880,2005-03-30T17:56:00,FM-15,7,,SE,0.25,mi,"TEMP, PRECIP, SNOW",,,"MMTS, SRG, SNOWBOARD",,,WFO CHS,,,,,,,,,,,,,,,,,,,,,,,,,,,29.97,47,74,0,,,,38,29.97,,29.92,10,59,170,,11,,,,,,,,,,,,,,,,,,,,,,,,,,,,,,,,,,,,,MET09503/30/05 17:56:50 METAR KCHS 302256Z 17010KT 10SM CLR 23/08 A2997 RMK AO2 SLP148 T02330083 (WD),,,,,,,,,,,,,,,,,,,,,,,,,,,,
72208013880,2005-03-31T11:56:00,FM-15,7,,SE,0.25,mi,"TEMP, PRECIP, SNOW",,,"MMTS, SRG, SNOWBOARD",,,WFO CHS,,,,,,,,,,,,,,,,,,,,,,,,,,,30.02,59,74,0,,,,60,30.02,BKN:07 100,29.97,9,65,170,,13,,,,,,,,,,,,,,,,,,,,,,,,,,,,,,,,,,,,,MET09803/31/05 11:56:50 METAR KCHS 311656Z 17011KT 9SM BKN100 23/15 A3002 RMK AO2 SLP165 T02330150 (WRB),,,,,,,,,,,,,,,,,,,,,,,,,,,,
72208013880,2005-04-01T12:56:00,FM-15,7,,SE,0.25,mi,"TEMP, PRECIP, SNOW",,,"MMTS, SRG, SNOWBOARD",,,WFO CHS,,,,,,,,,,,,,,,,,,,,,,,,,,,29.97,62,73,0,,0.01,6,69,29.97,SCT:04 33 SCT:04 70 OVC:08 110,29.92,9,66,170,,8,,,,,,,,,,,,,,,,,,,,,,,,,,,,,,,,,,,,,MET13004/01/05 12:56:50 METAR KCHS 011756Z 17007KT 9SM SCT033 SCT070 OVC110 23/17 A2997 RMK AO2 SLP149 T02280167 10261 20167 56004 (WRB),,,,,,,,,,,,,,,,,,,,,,,,,,,,
72208013880,2005-04-01T13:00:00,FM-12,4,,SE,0.25,mi,"TEMP, PRECIP, SNOW",,,"MMTS, SRG, SNOWBOARD",,,WFO CHS,,,,,,,,,,,,,,,,,,,,,,,,,,,,62,73,,,0.01,6,69,29.97,,29.92,8.7,66,170,,8,,,,,,,,,,,,,,,,,,,,,,,,,,,,,,,,,,,,,SYN092AAXX  01184 72208 32564 81707 10228 20167 30133 40149 56004 91756 333 10261 20167 555 90118;,,,,,,,,,,,,,,,,,,,,,,,,,,,,
72208013880,2005-04-04T13:56:00,FM-15,7,,SE,0.25,mi,"TEMP, PRECIP, SNOW",,,"MMTS, SRG, SNOWBOARD",,,WFO CHS,,,,,,,,,,,,,,,,,,,,,,,,,,,30.06,47,78,0,,,,33,30.06,,30.01,10,61,170,,16,,,,,,,,,,,,,,,,,,,,,,,,,,,,,,,,,,,,,MET10704/04/05 13:56:50 METAR KCHS 041856Z 17014KT 10SM CLR 26/08 A3006 RMK AO2 WSHFT 1830 SLP180 T02560083 (WRB),,,,,,,,,,,,,,,,,,,,,,,,,,,,
72208013880,2005-04-05T12:56:00,FM-15,7,,SE,0.25,mi,"TEMP, PRECIP, SNOW",,,"MMTS, SRG, SNOWBOARD",,,WFO CHS,,,,,,,,,,,,,,,,,,,,,,,,,,,30.19,45,84,0,,0.02,8,25,30.18,FEW:02 80 SCT:04 100,30.14,10,62,170,,9,,,,,,,,,,,,,,,,,,,,,,,,,,,,,,,,,,,,,MET12404/05/05 12:56:50 METAR KCHS 051756Z 17008KT 10SM FEW080 SCT100 29/07 A3019 RMK AO2 SLP221 T02890072 10289 20139 58006 (WRB),,,,,,,,,,,,,,,,,,,,,,,,,,,,
72208013880,2005-04-05T13:00:00,FM-12,4,,SE,0.25,mi,"TEMP, PRECIP, SNOW",,,"MMTS, SRG, SNOWBOARD",,,WFO CHS,,,,,,,,,,,,,,,,,,,,,,,,,,,,45,84,,,0.02,8,25,30.18,,30.14,9.94,62,170,,9,,,,,,,,,,,,,,,,,,,,,,,,,,,,,,,,,,,,,SYN092AAXX  05184 72208 32866 41708 10289 20072 30207 40221 58006 91756 333 10289 20139 555 90518;,,,,,,,,,,,,,,,,,,,,,,,,,,,,
72208013880,2005-04-05T14:56:00,FM-15,7,,SE,0.25,mi,"TEMP, PRECIP, SNOW",,,"MMTS, SRG, SNOWBOARD",,,WFO CHS,,,,,,,,,,,,,,,,,,,,,,,,,,,30.17,45,83,0,,,,26,30.17,FEW:02 80 SCT:04 110,30.12,10,62,170,,16,,,,,,,,,,,,,,,,,,,,,,,,,,,,,,,,,,,,,MET10604/05/05 14:56:50 METAR KCHS 051956Z 17014KT 10SM FEW080 SCT110 28/07 A3017 RMK AO2 SLP216 T02830072 (WRB),,,,,,,,,,,,,,,,,,,,,,,,,,,,
72208013880,2005-04-05T15:56:00,FM-15,7,,SE,0.25,mi,"TEMP, PRECIP, SNOW",,,"MMTS, SRG, SNOWBOARD",,,WFO CHS,,,,,,,,,,,,,,,,,,,,,,,,,,,30.17,48,80,0,,0.02,6,33,30.16,FEW:02 120,30.12,10,62,160,,17,,,,,,,,,,,,,,,,,,,,,,,,,,,,,,,,,,,,,MET10404/05/05 15:56:50 METAR KCHS 052056Z 16015KT 10SM FEW120 27/09 A3017 RMK AO2 SLP215 T02670089 56006 (WD),,,,,,,,,,,,,,,,,,,,,,,,,,,,
72208013880,2005-04-05T16:00:00,FM-12,4,,SE,0.25,mi,"TEMP, PRECIP, SNOW",,,"MMTS, SRG, SNOWBOARD",,,WFO CHS,,,,,,,,,,,,,,,,,,,,,,,,,,,,48,80,,,0.02,6,33,30.16,,30.12,9.94,62,160,,17,,,,,,,,,,,,,,,,,,,,,,,,,,,,,,,,,,,,,SYN076AAXX  05214 72208 35966 21615 10267 20089 30201 40215 56006 92056 555 90521;,,,,,,,,,,,,,,,,,,,,,,,,,,,,
72208013880,2005-04-05T16:56:00,FM-15,7,,SE,0.25,mi,"TEMP, PRECIP, SNOW",,,"MMTS, SRG, SNOWBOARD",,,WFO CHS,,,,,,,,,,,,,,,,,,,,,,,,,,,30.18,48,76,0,,,,37,30.17,,30.13,10,60,170,,11,,,,,,,,,,,,,,,,,,,,,,,,,,,,,,,,,,,,,MET09504/05/05 16:56:50 METAR KCHS 052156Z 17010KT 10SM CLR 24/09 A3018 RMK AO2 SLP217 T02440089 (WD),,,,,,,,,,,,,,,,,,,,,,,,,,,,
72208013880,2005-04-06T11:56:00,FM-15,7,,SE,0.25,mi,"TEMP, PRECIP, SNOW",,,"MMTS, SRG, SNOWBOARD",,,WFO CHS,,,,,,,,,,,,,,,,,,,,,,,,,,,30.25,55,78,0,,,,45,30.25,FEW:02 55,30.2,10,64,160,23,17,,,,,,,,,,,,,,,,,,,,,,,,,,,,,,,,,,,,,MET10204/06/05 11:58:50 METAR KCHS 061656Z 16015G20KT 10SM FEW055 26/13 A3025 RMK AO2 SLP243 T02560128 (WRB),,,,,,,,,,,,,,,,,,,,,,,,,,,,
72208013880,2005-04-06T14:56:00,FM-15,7,,SE,0.25,mi,"TEMP, PRECIP, SNOW",,,"MMTS, SRG, SNOWBOARD",,,WFO CHS,,,,,,,,,,,,,,,,,,,,,,,,,,,30.19,55,78,0,,,,45,30.19,FEW:02 60,30.14,10,64,170,23,16,,,,,,,,,,,,,,,,,,,,,,,,,,,,,,,,,,,,,MET10104/06/05 14:56:50 METAR KCHS 061956Z 17014G20KT 10SM FEW060 26/13 A3019 RMK AO2 SLP223 T02560128 (WD),,,,,,,,,,,,,,,,,,,,,,,,,,,,
72208013880,2005-04-06T15:56:00,FM-15,7,,SE,0.25,mi,"TEMP, PRECIP, SNOW",,,"MMTS, SRG, SNOWBOARD",,,WFO CHS,,,,,,,,,,,,,,,,,,,,,,,,,,,30.17,55,76,0,,0.06,8,48,30.17,FEW:02 65,30.12,10,64,160,22,16,,,,,,,,,,,,,,,,,,,,,,,,,,,,,,,,,,,,,MET10704/06/05 15:56:50 METAR KCHS 062056Z 16014G19KT 10SM FEW065 24/13 A3017 RMK AO2 SLP216 T02440128 58022 (WD),,,,,,,,,,,,,,,,,,,,,,,,,,,,
72208013880,2005-04-06T16:00:00,FM-12,4,,SE,0.25,mi,"TEMP, PRECIP, SNOW",,,"MMTS, SRG, SNOWBOARD",,,WFO CHS,,,,,,,,,,,,,,,,,,,,,,,,,,,,55,76,,,0.06,8,48,30.17,,30.12,9.94,64,160,,16,,,,,,,,,,,,,,,,,,,,,,,,,,,,,,,,,,,,,SYN076AAXX  06214 72208 35766 21614 10244 20128 30201 40216 58022 92056 555 90621;,,,,,,,,,,,,,,,,,,,,,,,,,,,,
72208013880,2005-04-06T16:56:00,FM-15,7,,SE,0.25,mi,"TEMP, PRECIP, SNOW",,,"MMTS, SRG, SNOWBOARD",,,WFO CHS,,,,,,,,,,,,,,,,,,,,,,,,,,,30.17,57,73,0,,,,57,30.17,FEW:02 43,30.12,10,63,160,,17,,,,,,,,,,,,,,,,,,,,,,,,,,,,,,,,,,,,,MET09804/06/05 16:56:50 METAR KCHS 062156Z 16015KT 10SM FEW043 23/14 A3017 RMK AO2 SLP216 T02280139 (WD),,,,,,,,,,,,,,,,,,,,,,,,,,,,
72208013880,2005-04-06T17:56:00,FM-15,7,,SE,0.25,mi,"TEMP, PRECIP, SNOW",,,"MMTS, SRG, SNOWBOARD",,,WFO CHS,,,,,,,,,,,,,,,,,,,,,,,,,,,30.16,57,71,0,,,,61,30.16,FEW:02 90,30.11,10,63,160,,15,,,,,,,,,,,,,,,,,,,,,,,,,,,,,,,,,,,,,MET09804/06/05 17:56:50 METAR KCHS 062256Z 16013KT 10SM FEW090 22/14 A3016 RMK AO2 SLP212 T02170139 (WD),,,,,,,,,,,,,,,,,,,,,,,,,,,,
72208013880,2005-04-08T10:56:00,FM-15,7,,SE,0.25,mi,"TEMP, PRECIP, SNOW",,,"MMTS, SRG, SNOWBOARD",,,WFO CHS,,,,,,,,,,,,,,,,,,,,,,,,,,,29.74,57,73,0,,,,57,29.74,SCT:04 31,29.69,10,63,170,,14,,,,,,,,,,,,,,,,,,,,,,,,,,,,,,,,,,,,,MET09904/08/05 10:56:50 METAR KCHS 081556Z 17012KT 10SM SCT031 23/14 A2974 RMK AO2 SLP071 T02280139 (KDT),,,,,,,,,,,,,,,,,,,,,,,,,,,,
72208013880,2005-04-10T17:56:00,FM-15,7,,SE,0.25,mi,"TEMP, PRECIP, SNOW",,,"MMTS, SRG, SNOWBOARD",,,WFO CHS,,,,,,,,,,,,,,,,,,,,,,,,,,,30.03,44,70,0,,,,39,30.03,,29.98,10,56,170,,8,,,,,,,,,,,,,,,,,,,,,,,,,,,,,,,,,,,,,MET09604/10/05 17:56:50 METAR KCHS 102256Z 17007KT 10SM CLR 21/07 A3003 RMK AO2 SLP168 T02110067 (AWS),,,,,,,,,,,,,,,,,,,,,,,,,,,,
72208013880,2005-04-11T13:56:00,FM-15,7,,SE,0.25,mi,"TEMP, PRECIP, SNOW",,,"MMTS, SRG, SNOWBOARD",,,WFO CHS,,,,,,,,,,,,,,,,,,,,,,,,,,,30.02,42,76,0,,,,30,30.02,,29.97,10,58,160,,9,,,,,,,,,,,,,,,,,,,,,,,,,,,,,,,,,,,,,MET09504/11/05 13:56:50 METAR KCHS 111856Z 16008KT 10SM CLR 24/06 A3002 RMK AO2 SLP166 T02440056 (WD),,,,,,,,,,,,,,,,,,,,,,,,,,,,
72208013880,2005-04-11T14:56:00,FM-15,7,,SE,0.25,mi,"TEMP, PRECIP, SNOW",,,"MMTS, SRG, SNOWBOARD",,,WFO CHS,,,,,,,,,,,,,,,,,,,,,,,,,,,30.01,43,76,0,,,,31,30.01,,29.96,10,58,150,,10,,,,,,,,,,,,,,,,,,,,,,,,,,,,,,,,,,,,,MET09504/11/05 14:56:50 METAR KCHS 111956Z 15009KT 10SM CLR 24/06 A3001 RMK AO2 SLP162 T02440061 (WD),,,,,,,,,,,,,,,,,,,,,,,,,,,,
72208013880,2005-04-12T11:56:00,FM-15,7,,SE,0.25,mi,"TEMP, PRECIP, SNOW",,,"MMTS, SRG, SNOWBOARD",,,WFO CHS,,,,,,,,,,,,,,,,,,,,,,,,,,,29.89,58,71,0,,,,63,29.89,SCT:04 30 BKN:07 60 OVC:08 120,29.84,10,63,170,,11,,,,,,,,,,,,,,,,,,,,,,,,,,,,,,,,,,,,,MET11504/12/05 11:56:50 METAR KCHS 121656Z 17010KT 10SM SCT030 BKN060 OVC120 22/14 A2989 RMK AO2 SLP122 T02170144 $ (WRB),,,,,,,,,,,,,,,,,,,,,,,,,,,,
72208013880,2005-04-12T12:56:00,FM-15,7,,SE,0.25,mi,"TEMP, PRECIP, SNOW",,,"MMTS, SRG, SNOWBOARD",,,WFO CHS,,,,,,,,,,,,,,,,,,,,,,,,,,,29.88,57,72,0,,0.01,8,59,29.88,BKN:07 33,29.83,10,63,170,,15,,,,,,,,,,,,,,,,,,,,,,,,,,,,,,,,,,,,,MET11904/12/05 12:56:50 METAR KCHS 121756Z 17013KT 10SM BKN033 22/14 A2988 RMK AO2 SLP117 T02220139 10228 20150 58002 $ (WRB),,,,,,,,,,,,,,,,,,,,,,,,,,,,
72208013880,2005-04-12T13:00:00,FM-12,4,,SE,0.25,mi,"TEMP, PRECIP, SNOW",,,"MMTS, SRG, SNOWBOARD",,,WFO CHS,,,,,,,,,,,,,,,,,,,,,,,,,,,,57,72,,,0.01,8,59,29.88,,29.83,9.94,63,170,,15,,,,,,,,,,,,,,,,,,,,,,,,,,,,,,,,,,,,,SYN092AAXX  12184 72208 32566 61713 10222 20139 30102 40117 58002 91756 333 10228 20150 555 91218;,,,,,,,,,,,,,,,,,,,,,,,,,,,,
72208013880,2005-04-22T11:56:00,FM-15,7,,SE,0.25,mi,"TEMP, PRECIP, SNOW",,,"MMTS, SRG, SNOWBOARD",,,WFO CHS,,,,,,,,,,,,,,,,,,,,,,,,,,,29.87,61,80,0,,,,52,29.87,FEW:02 44,29.82,8,68,160,,10,,,,,,,,,,,,,,,,,,,,,,,,,,,,,,,,,,,,,MET09804/22/05 11:56:50 METAR KCHS 221656Z 16009KT 8SM FEW044 27/16 A2987 RMK AO2 SLP115 T02670161 (AWS),,,,,,,,,,,,,,,,,,,,,,,,,,,,
72208013880,2005-04-26T11:56:00,FM-15,7,,SE,0.25,mi,"TEMP, PRECIP, SNOW",,,"MMTS, SRG, SNOWBOARD",,,WFO CHS,,,,,,,,,,,,,,,,,,,,,,,,,,,29.92,55,69,0,,,,61,29.92,OVC:08 95,29.87,10,61,160,,11,,,,,,,,,,,,,,,,,,,,,,,,,,,,,,,,,,,,,MET10604/26/05 11:56:50 METAR KCHS 261656Z 16010KT 10SM OVC095 21/13 A2992 RMK AO2 SLP132 PRESFR T02060128 (WRB),,,,,,,,,,,,,,,,,,,,,,,,,,,,
72208013880,2005-04-26T13:56:00,FM-15,7,,SE,0.25,mi,"TEMP, PRECIP, SNOW",,,"MMTS, SRG, SNOWBOARD",,,WFO CHS,,,,,,,,,,,,,,,,,,,,,,,,,,,29.88,56,68,0,,,,65,29.87,SCT:04 36 OVC:08 120,29.83,10,61,150,,11,,,,,,,,,,,,,,,,,,,,,,,,,,,,,,,,,,,,,MET11004/26/05 14:00:10 METAR KCHS 261856Z 15010KT 10SM SCT036 OVC120 20/13 A2988 RMK AO2 SLP116 T02000133 RTX (WRB),,,,,,,,,,,,,,,,,,,,,,,,,,,,
72208013880,2005-04-28T13:56:00,FM-15,7,,SE,0.25,mi,"TEMP, PRECIP, SNOW",,,"MMTS, SRG, SNOWBOARD",,,WFO CHS,,,,,,,,,,,,,,,,,,,,,,,,,,,30.1,42,72,0,,,,34,30.1,,30.05,10,56,170,,10,,,,,,,,,,,,,,,,,,,,,,,,,,,,,,,,,,,,,MET09604/28/05 13:56:50 METAR KCHS 281856Z 17009KT 10SM CLR 22/06 A3010 RMK AO2 SLP193 T02220056 (WRB),,,,,,,,,,,,,,,,,,,,,,,,,,,,
72208013880,2005-04-28T14:56:00,FM-15,7,,SE,0.25,mi,"TEMP, PRECIP, SNOW",,,"MMTS, SRG, SNOWBOARD",,,WFO CHS,,,,,,,,,,,,,,,,,,,,,,,,,,,30.08,43,70,0,,,,38,30.08,,30.03,10,56,170,21,17,,,,,,,,,,,,,,,,,,,,,,,,,,,,,,,,,,,,,MET09904/28/05 14:56:50 METAR KCHS 281956Z 17015G18KT 10SM CLR 21/06 A3008 RMK AO2 SLP187 T02110061 (WRB),,,,,,,,,,,,,,,,,,,,,,,,,,,,
72208013880,2005-04-28T15:56:00,FM-15,7,,SE,0.25,mi,"TEMP, PRECIP, SNOW",,,"MMTS, SRG, SNOWBOARD",,,WFO CHS,,,,,,,,,,,,,,,,,,,,,,,,,,,30.07,44,70,0,,0.04,8,39,30.07,,30.02,10,56,170,,11,,,,,,,,,,,,,,,,,,,,,,,,,,,,,,,,,,,,,MET10104/28/05 15:56:50 METAR KCHS 282056Z 17010KT 10SM CLR 21/07 A3007 RMK AO2 SLP183 T02110067 58013 (WD),,,,,,,,,,,,,,,,,,,,,,,,,,,,
72208013880,2005-04-28T16:00:00,FM-12,4,,SE,0.25,mi,"TEMP, PRECIP, SNOW",,,"MMTS, SRG, SNOWBOARD",,,WFO CHS,,,,,,,,,,,,,,,,,,,,,,,,,,,,44,70,,,0.04,8,39,30.07,CLR:00,30.02,9.94,56,170,,11,,,,,,,,,,,,,,,,,,,,,,,,,,,,,,,,,,,,,SYN076AAXX  28214 72208 35966 01710 10211 20067 30167 40183 58013 92056 555 92821;,,,,,,,,,,,,,,,,,,,,,,,,,,,,
72208013880,2005-04-30T16:24:00,FM-16,7,,SE,0.25,mi,"TEMP, PRECIP, SNOW",,,"MMTS, SRG, SNOWBOARD",,,WFO CHS,,,,,,,,,,,,,,,,,,,,,,,,,,,29.92,64,66,T,,,,94,,FEW:02 7 SCT:04 70,29.87,10,65,170,,9,,,,,,,,,,,,,,,,,,,,,,,,,,,,,,,,,,,,,MET10004/30/05 16:24:50 SPECI KCHS 302124Z 17008KT 10SM FEW007 SCT070 19/18 A2992 RMK AO2 RAE08 P0000 (WD),,,,,,,,,,,,,,,,,,,,,,,,,,,,
72208013880,2005-04-30T16:56:00,FM-15,7,,SE,0.25,mi,"TEMP, PRECIP, SNOW",,,"MMTS, SRG, SNOWBOARD",,,WFO CHS,,,,,,,,,,,,,,,,,,,,,,,,,,,29.9,65,67,T,,,,93,29.9,SCT:04 110,29.85,9,66,160,,14,,,,,,,,,,,,,,,,,,,,,,,,,,,,,,,,,,,,,MET10904/30/05 16:56:50 METAR KCHS 302156Z 16012KT 9SM SCT110 19/18 A2990 RMK AO2 RAE08 SLP125 P0000 T01940183 (WD),,,,,,,,,,,,,,,,,,,,,,,,,,,,
72208013880,2005-04-30T17:56:00,FM-15,7,,SE,0.25,mi,"TEMP, PRECIP, SNOW",,,"MMTS, SRG, SNOWBOARD",,,WFO CHS,,,,,,,,,,,,,,,,,,,,,,,,,,,29.88,65,69,0,,,,87,29.88,BKN:07 110,29.83,8,66,170,,15,,,,,,,,,,,,,,,,,,,,,,,,,,,,,,,,,,,,,MET09704/30/05 17:57:13 METAR KCHS 302256Z 17013KT 8SM BKN110 21/18 A2988 RMK AO2 SLP117 T02060183 (WD),,,,,,,,,,,,,,,,,,,,,,,,,,,,
72208013880,2005-05-02T16:56:00,FM-15,7,,SE,0.25,mi,"TEMP, PRECIP, SNOW",,,"MMTS, SRG, SNOWBOARD",,,WFO CHS,,,,,,,,,,,,,,,,,,,,,,,,,,,29.94,55,73,0,,,,53,29.94,SCT:04 60 BKN:07 80,29.89,10,62,150,,11,,,,,,,,,,,,,,,,,,,,,,,,,,,,,,,,,,,,,MET10505/02/05 16:56:50 METAR KCHS 022156Z 15010KT 10SM SCT060 BKN080 23/13 A2994 RMK AO2 SLP138 T02280128 (WD),,,,,,,,,,,,,,,,,,,,,,,,,,,,
72208013880,2005-05-11T13:56:00,FM-15,7,,SE,0.25,mi,"TEMP, PRECIP, SNOW",,,"MMTS, SRG, SNOWBOARD",,,WFO CHS,,,,,,,,,,,,,,,,,,,,,,,,,,,30.03,63,78,0,VCTS:7 ||TS,,,60,30.02,SCT:04 40,29.98,8,68,150,,11,,,,,,,,,,,,,,,,,,,,,,,,,,,,,,,,,,,,,MET14105/11/05 13:56:50 METAR KCHS 111856Z 15010KT 8SM VCTS SCT040CB 26/17 A3003 RMK AO2 TSB56 SLP167 OCNL LTG VC NW TS NW MOV UNKN T02560172 (WRB),,,,,,,,,,,,,,,,,,,,,,,,,,,,
72208013880,2005-05-12T14:56:00,FM-15,7,,SE,0.25,mi,"TEMP, PRECIP, SNOW",,,"MMTS, SRG, SNOWBOARD",,,WFO CHS,,,,,,,,,,,,,,,,,,,,,,,,,,,30.12,61,84,0,,,,46,30.11,FEW:02 55,30.07,8,69,150,,8,,,,,,,,,,,,,,,,,,,,,,,,,,,,,,,,,,,,,MET09805/12/05 14:56:50 METAR KCHS 121956Z 15007KT 8SM FEW055 29/16 A3012 RMK AO2 SLP197 T02890161 (WRB),,,,,,,,,,,,,,,,,,,,,,,,,,,,
72208013880,2005-05-12T15:56:00,FM-15,7,,SE,0.25,mi,"TEMP, PRECIP, SNOW",,,"MMTS, SRG, SNOWBOARD",,,WFO CHS,,,,,,,,,,,,,,,,,,,,,,,,,,,30.11,61,84,0,,0.03,6,46,30.11,,30.06,8,69,150,,10,,,,,,,,,,,,,,,,,,,,,,,,,,,,,,,,,,,,,MET10005/12/05 15:56:50 METAR KCHS 122056Z 15009KT 8SM CLR 29/16 A3011 RMK AO2 SLP195 T02890161 56009 (WD),,,,,,,,,,,,,,,,,,,,,,,,,,,,
72208013880,2005-05-12T16:00:00,FM-12,4,,SE,0.25,mi,"TEMP, PRECIP, SNOW",,,"MMTS, SRG, SNOWBOARD",,,WFO CHS,,,,,,,,,,,,,,,,,,,,,,,,,,,,61,84,,,0.03,6,46,30.11,CLR:00,30.06,7.46,69,150,,10,,,,,,,,,,,,,,,,,,,,,,,,,,,,,,,,,,,,,SYN076AAXX  12214 72208 35962 01509 10289 20161 30180 40195 56009 92056 555 91221;,,,,,,,,,,,,,,,,,,,,,,,,,,,,
72208013880,2005-05-12T16:56:00,FM-15,7,,SE,0.25,mi,"TEMP, PRECIP, SNOW",,,"MMTS, SRG, SNOWBOARD",,,WFO CHS,,,,,,,,,,,,,,,,,,,,,,,,,,,30.1,61,82,0,,,,49,30.1,,30.05,8,69,160,,9,,,,,,,,,,,,,,,,,,,,,,,,,,,,,,,,,,,,,MET09405/12/05 16:56:50 METAR KCHS 122156Z 16008KT 8SM CLR 28/16 A3010 RMK AO2 SLP193 T02780161 (WD),,,,,,,,,,,,,,,,,,,,,,,,,,,,
72208013880,2005-05-13T12:56:00,FM-15,7,,SE,0.25,mi,"TEMP, PRECIP, SNOW",,,"MMTS, SRG, SNOWBOARD",,,WFO CHS,,,,,,,,,,,,,,,,,,,,,,,,,,,30.17,70,83,0,,0.03,8,65,30.17,BKN:07 30,30.12,7,74,150,,11,,,,,,,,,,,,,,,,,,,,,,,,,,,,,,,,,,,,,MET12705/13/05 12:56:50 METAR KCHS 131756Z 15010KT 7SM BKN030TCU 28/21 A3017 RMK AO2 SLP217 TCU OHD T02830211 10294 20189 58011 (WRB),,,,,,,,,,,,,,,,,,,,,,,,,,,,
72208013880,2005-05-13T13:00:00,FM-12,4,,SE,0.25,mi,"TEMP, PRECIP, SNOW",,,"MMTS, SRG, SNOWBOARD",,,WFO CHS,,,,,,,,,,,,,,,,,,,,,,,,,,,,70,83,,,0.03,8,65,30.17,,30.12,6.84,74,150,,11,,,,,,,,,,,,,,,,,,,,,,,,,,,,,,,,,,,,,SYN092AAXX  13184 72208 32561 61510 10283 20211 30201 40217 58011 91756 333 10294 20189 555 91318;,,,,,,,,,,,,,,,,,,,,,,,,,,,,
72208013880,2005-05-15T15:56:00,FM-15,7,,SE,0.25,mi,"TEMP, PRECIP, SNOW",,,"MMTS, SRG, SNOWBOARD",,,WFO CHS,,,,,,,,,,,,,,,,,,,,,,,,,,,29.85,66,81,0,,0.05,6,61,29.85,FEW:02 38,29.8,10,71,170,,15,,,,,,,,,,,,,,,,,,,,,,,,,,,,,,,,,,,,,MET11405/15/05 15:56:50 METAR KCHS 152056Z 17013KT 10SM FEW038TCU 27/19 A2985 RMK AO2 SLP108 TCU N T02720189 56018 (AWS),,,,,,,,,,,,,,,,,,,,,,,,,,,,
72208013880,2005-05-15T16:00:00,FM-12,4,,SE,0.25,mi,"TEMP, PRECIP, SNOW",,,"MMTS, SRG, SNOWBOARD",,,WFO CHS,,,,,,,,,,,,,,,,,,,,,,,,,,,,66,81,,,0.05,6,61,29.85,,29.8,9.94,71,170,,15,,,,,,,,,,,,,,,,,,,,,,,,,,,,,,,,,,,,,SYN076AAXX  15214 72208 35666 21713 10272 20189 30092 40108 56018 92056 555 91521;,,,,,,,,,,,,,,,,,,,,,,,,,,,,
72208013880,2005-05-16T13:56:00,FM-15,7,,SE,0.25,mi,"TEMP, PRECIP, SNOW",,,"MMTS, SRG, SNOWBOARD",,,WFO CHS,,,,,,,,,,,,,,,,,,,,,,,,,,,29.9,63,76,0,VCTS:7 ||TS,,,64,29.89,BKN:07 30,29.85,10,68,150,,14,,,,,,,,,,,,,,,,,,,,,,,,,,,,,,,,,,,,,MET15605/16/05 13:56:50 METAR KCHS 161856Z 15012KT 10SM VCTS BKN030CB 24/17 A2990 RMK AO2 TSB44 SLP123 OCNL LTGCG VC SE TS E-SE MOV NE TCU ALQDS T02440172 $ (WRB),,,,,,,,,,,,,,,,,,,,,,,,,,,,
72208013880,2005-05-16T14:56:00,FM-15,7,,SE,0.25,mi,"TEMP, PRECIP, SNOW",,,"MMTS, SRG, SNOWBOARD",,,WFO CHS,,,,,,,,,,,,,,,,,,,,,,,,,,,29.89,66,78,0,,,,67,29.88,SCT:04 30 BKN:07 55,29.84,9,70,150,,8,,,,,,,,,,,,,,,,,,,,,,,,,,,,,,,,,,,,,MET13605/16/05 14:56:50 METAR KCHS 161956Z 15007KT 9SM SCT030CB BKN055 26/19 A2989 RMK AO2 TSE23 SLP119 CB E-SW MOV NE TCU N T02560189 $ (WRB),,,,,,,,,,,,,,,,,,,,,,,,,,,,
72208013880,2005-05-16T17:56:00,FM-15,7,,SE,0.25,mi,"TEMP, PRECIP, SNOW",,,"MMTS, SRG, SNOWBOARD",,,WFO CHS,,,,,,,,,,,,,,,,,,,,,,,,,,,29.91,64,72,0,,,,76,29.91,BKN:07 70 BKN:07 100,29.86,8,67,160,,7,,,,,,,,,,,,,,,,,,,,,,,,,,,,,,,,,,,,,MET11605/16/05 17:56:50 METAR KCHS 162256Z 16006KT 8SM BKN070TCU BKN100 22/18 A2991 RMK AO2 SLP128 TCU OHD T02220178 (AWS),,,,,,,,,,,,,,,,,,,,,,,,,,,,
72208013880,2005-05-17T13:40:00,FM-16,7,,SE,0.25,mi,"TEMP, PRECIP, SNOW",,,"MMTS, SRG, SNOWBOARD",,,WFO CHS,,,,,,,,,,,,,,,,,,,,,,,,,,,29.99,66,68,0.15,TS:7 RA:02 BR:1 |RA TS |SHRA TS,,,94,,FEW:02 15 OVC:08 36,29.94,2,67,160,,9,,,,,,,,,,,,,,,,,,,,,,,,,,,,,,,,,,,,,MET13905/17/05 13:40:50 SPECI KCHS 171840Z 16008KT 2SM TSRA BR FEW015 OVC036CB 20/19 A2999 RMK AO2 RAB00 FRQ LTGCGIC OHD TS OHD MOV E P0015 (WRB),,,,,,,,,,,,,,,,,,,,,,,,,,,,
72208013880,2005-05-17T13:56:00,FM-15,7,,SE,0.25,mi,"TEMP, PRECIP, SNOW",,,"MMTS, SRG, SNOWBOARD",,,WFO CHS,,,,,,,,,,,,,,,,,,,,,,,,,,,30,65,66,0.50s,TS:7 +RA:02 BR:1 |RA TS |SHRA TS,,,96,30,BKN:07 12 OVC:08 34,29.95,1.25,65,150,,11,,,,,,,,,,,,,,,,,,,,,,,,,,,,,,,,,,,,,MET16105/17/05 13:56:50 METAR KCHS 171856Z 15010KT 1 1/4SM +TSRA BR BKN012CB OVC034 19/18 A3000 RMK AO2 RAB00 SLP158 FRQ LTGCGIC OHD TS OHD MOV E P0047 T01890183 (WRB),,,,,,,,,,,,,,,,,,,,,,,,,,,,
72208013880,2005-05-19T12:56:00,FM-15,7,,SE,0.25,mi,"TEMP, PRECIP, SNOW",,,"MMTS, SRG, SNOWBOARD",,,WFO CHS,,,,,,,,,,,,,,,,,,,,,,,,,,,30.01,63,82,0,,0.04,8,53,30.01,SCT:04 42,29.96,9,70,150,,13,,,,,,,,,,,,,,,,,,,,,,,,,,,,,,,,,,,,,MET12905/19/05 13:00:12 METAR KCHS 191756Z 15011KT 9SM SCT042TCU 28/17 A3001 RMK AO2 SLP162 TCU W T02780172 10283 20189 58013 RTX (WRB),,,,,,,,,,,,,,,,,,,,,,,,,,,,
72208013880,2005-05-19T13:00:00,FM-12,4,,SE,0.25,mi,"TEMP, PRECIP, SNOW",,,"MMTS, SRG, SNOWBOARD",,,WFO CHS,,,,,,,,,,,,,,,,,,,,,,,,,,,,63,82,,,0.04,8,53,30.01,,29.96,8.7,70,150,,13,,,,,,,,,,,,,,,,,,,,,,,,,,,,,,,,,,,,,SYN092AAXX  19184 72208 32664 41511 10278 20172 30146 40162 58013 91756 333 10283 20189 555 91918;,,,,,,,,,,,,,,,,,,,,,,,,,,,,
72208013880,2005-05-19T13:56:00,FM-15,7,,SE,0.25,mi,"TEMP, PRECIP, SNOW",,,"MMTS, SRG, SNOWBOARD",,,WFO CHS,,,,,,,,,,,,,,,,,,,,,,,,,,,30.01,57,82,0,,,,42,30,SCT:04 60,29.96,10,67,170,,11,,,,,,,,,,,,,,,,,,,,,,,,,,,,,,,,,,,,,MET11105/19/05 13:56:50 METAR KCHS 191856Z 17010KT 10SM SCT060TCU 28/14 A3001 RMK AO2 SLP160 TCU W-NW T02780139 (WRB),,,,,,,,,,,,,,,,,,,,,,,,,,,,
72208013880,2005-06-02T17:56:00,FM-15,7,,SE,0.25,mi,"TEMP, PRECIP, SNOW",,,"MMTS, SRG, SNOWBOARD",,,WFO CHS,,,,,,,,,,,,,,,,,,,,,,,,,,,29.89,74,79,0.02,,,,85,29.88,FEW:02 95,29.84,8,76,170,,9,,,,,,,,,,,,,,,,,,,,,,,,,,,,,,,,,,,,,MET11206/02/05 17:56:50 METAR KCHS 022256Z 17008KT 8SM FEW095 26/23 A2989 RMK AO2 RAB11E29 SLP119 P0002 T02610233 (WD),,,,,,,,,,,,,,,,,,,,,,,,,,,,
72208013880,2005-06-03T14:56:00,FM-15,7,,SE,0.25,mi,"TEMP, PRECIP, SNOW",,,"MMTS, SRG, SNOWBOARD",,,WFO CHS,,,,,,,,,,,,,,,,,,,,,,,,,,,29.94,72,81,0,,,,74,29.93,BKN:07 24,29.89,10,75,170,,13,,,,,,,,,,,,,,,,,,,,,,,,,,,,,,,,,,,,,MET09806/03/05 14:56:50 METAR KCHS 031956Z 17011KT 10SM BKN024 27/22 A2994 RMK AO2 SLP137 T02720222 (WD),,,,,,,,,,,,,,,,,,,,,,,,,,,,
72208013880,2005-06-05T14:04:00,FM-16,7,,SE,0.25,mi,"TEMP, PRECIP, SNOW",,,"MMTS, SRG, SNOWBOARD",,,WFO CHS,,,,,,,,,,,,,,,,,,,,,,,,,,,30,75,82,,,,,79,,SCT:04 28 BKN:07 35,29.95,9,77,150,,10,,,,,,,,,,,,,,,,,,,,,,,,,,,,,,,,,,,,,MET11306/05/05 14:04:50 SPECI KCHS 051904Z 15009KT 9SM SCT028CB BKN035 28/24 A3000 RMK AO2 WSHFT 1845 CB E MOV E $ (WD),,,,,,,,,,,,,,,,,,,,,,,,,,,,
72208013880,2005-06-05T14:56:00,FM-15,7,,SE,0.25,mi,"TEMP, PRECIP, SNOW",,,"MMTS, SRG, SNOWBOARD",,,WFO CHS,,,,,,,,,,,,,,,,,,,,,,,,,,,30.01,74,79,0,,,,85,30.01,SCT:04 31 BKN:07 80,29.96,9,76,160,,8,,,,,,,,,,,,,,,,,,,,,,,,,,,,,,,,,,,,,MET13506/05/05 14:56:50 METAR KCHS 051956Z 16007KT 9SM SCT031 BKN080 26/23 A3001 RMK AO2 WSHFT 1845 SLP161 CB DSNT SW MOV SE T02610233 $ (WD),,,,,,,,,,,,,,,,,,,,,,,,,,,,
72208013880,2005-06-06T13:56:00,FM-15,7,,SE,0.25,mi,"TEMP, PRECIP, SNOW",,,"MMTS, SRG, SNOWBOARD",,,WFO CHS,,,,,,,,,,,,,,,,,,,,,,,,,,,29.99,75,86,0,,,,70,29.99,SCT:04 31,29.94,8,78,150,,13,,,,,,,,,,,,,,,,,,,,,,,,,,,,,,,,,,,,,MET11306/06/05 13:56:50 METAR KCHS 061856Z 15011KT 8SM SCT031 30/24 A2999 RMK AO2 SLP155 TCU DSNT W-N T03000239 $ (WRB),,,,,,,,,,,,,,,,,,,,,,,,,,,,
72208013880,2005-06-06T14:56:00,FM-15,7,,SE,0.25,mi,"TEMP, PRECIP, SNOW",,,"MMTS, SRG, SNOWBOARD",,,WFO CHS,,,,,,,,,,,,,,,,,,,,,,,,,,,29.97,73,85,0,,,,68,29.97,SCT:04 28,29.92,10,77,160,,13,,,,,,,,,,,,,,,,,,,,,,,,,,,,,,,,,,,,,MET11206/06/05 14:56:50 METAR KCHS 061956Z 16011KT 10SM SCT028 29/23 A2997 RMK AO2 SLP149 TCU DSNT N T02940228 $ (WRB),,,,,,,,,,,,,,,,,,,,,,,,,,,,
72208013880,2005-06-06T16:56:00,FM-15,7,,SE,0.25,mi,"TEMP, PRECIP, SNOW",,,"MMTS, SRG, SNOWBOARD",,,WFO CHS,,,,,,,,,,,,,,,,,,,,,,,,,,,29.96,73,82,0,,,,74,29.95,FEW:02 23 SCT:04 100,29.91,10,76,160,,10,,,,,,,,,,,,,,,,,,,,,,,,,,,,,,,,,,,,,MET10706/06/05 16:56:49 METAR KCHS 062156Z 16009KT 10SM FEW023 SCT100 28/23 A2996 RMK AO2 SLP143 T02780228 $ (WD),,,,,,,,,,,,,,,,,,,,,,,,,,,,
72208013880,2005-06-07T11:56:00,FM-15,7,,SE,0.25,mi,"TEMP, PRECIP, SNOW",,,"MMTS, SRG, SNOWBOARD",,,WFO CHS,,,,,,,,,,,,,,,,,,,,,,,,,,,29.97,73,84,0,,,,70,29.97,SCT:04 29,29.92,10,76,150,,10,,,,,,,,,,,,,,,,,,,,,,,,,,,,,,,,,,,,,MET11106/07/05 11:56:50 METAR KCHS 071656Z 15009KT 10SM SCT029TCU 29/23 A2997 RMK AO2 SLP149 TCU NW-S T02890228 (WRB),,,,,,,,,,,,,,,,,,,,,,,,,,,,
72208013880,2005-06-07T12:56:00,FM-15,7,,SE,0.25,mi,"TEMP, PRECIP, SNOW",,,"MMTS, SRG, SNOWBOARD",,,WFO CHS,,,,,,,,,,,,,,,,,,,,,,,,,,,29.97,74,86,0,,0.02,6,67,29.96,SCT:04 29,29.92,10,78,160,,11,,,,,,,,,,,,,,,,,,,,,,,,,,,,,,,,,,,,,MET12606/07/05 12:56:50 METAR KCHS 071756Z 16010KT 10SM SCT029TCU 30/23 A2997 RMK AO2 SLP147 TCU N T03000233 10306 20244 56007 (WRB),,,,,,,,,,,,,,,,,,,,,,,,,,,,
72208013880,2005-06-07T13:00:00,FM-12,4,,SE,0.25,mi,"TEMP, PRECIP, SNOW",,,"MMTS, SRG, SNOWBOARD",,,WFO CHS,,,,,,,,,,,,,,,,,,,,,,,,,,,,74,86,,,0.02,6,67,29.96,,29.92,9.94,78,160,,11,,,,,,,,,,,,,,,,,,,,,,,,,,,,,,,,,,,,,SYN092AAXX  07184 72208 32566 41610 10300 20233 30133 40147 56007 91756 333 10306 20244 555 90718;,,,,,,,,,,,,,,,,,,,,,,,,,,,,
72208013880,2005-06-07T14:56:00,FM-15,7,,SE,0.25,mi,"TEMP, PRECIP, SNOW",,,"MMTS, SRG, SNOWBOARD",,,WFO CHS,,,,,,,,,,,,,,,,,,,,,,,,,,,29.93,72,86,0,,,,63,29.93,SCT:04 36,29.88,10,76,160,,9,,,,,,,,,,,,,,,,,,,,,,,,,,,,,,,,,,,,,MET10306/07/05 15:00:13 METAR KCHS 071956Z 16008KT 10SM SCT036 30/22 A2993 RMK AO2 SLP134 T03000222 RTX (WRB),,,,,,,,,,,,,,,,,,,,,,,,,,,,
72208013880,2005-06-07T15:56:00,FM-15,7,,SE,0.25,mi,"TEMP, PRECIP, SNOW",,,"MMTS, SRG, SNOWBOARD",,,WFO CHS,,,,,,,,,,,,,,,,,,,,,,,,,,,29.92,72,86,0,,0.05,6,63,29.92,FEW:02 33 SCT:04 100,29.87,10,76,170,,13,,,,,,,,,,,,,,,,,,,,,,,,,,,,,,,,,,,,,MET11106/07/05 15:56:50 METAR KCHS 072056Z 17011KT 10SM FEW033 SCT100 30/22 A2992 RMK AO2 SLP132 T03000222 56016 (WD),,,,,,,,,,,,,,,,,,,,,,,,,,,,
72208013880,2005-06-07T16:00:00,FM-12,4,,SE,0.25,mi,"TEMP, PRECIP, SNOW",,,"MMTS, SRG, SNOWBOARD",,,WFO CHS,,,,,,,,,,,,,,,,,,,,,,,,,,,,72,86,,,0.05,6,63,29.92,,29.87,9.94,76,170,,13,,,,,,,,,,,,,,,,,,,,,,,,,,,,,,,,,,,,,SYN076AAXX  07214 72208 35566 41711 10300 20222 30116 40132 56016 92056 555 90721;,,,,,,,,,,,,,,,,,,,,,,,,,,,,
72208013880,2005-06-08T14:56:00,FM-15,7,,SE,0.25,mi,"TEMP, PRECIP, SNOW",,,"MMTS, SRG, SNOWBOARD",,,WFO CHS,,,,,,,,,,,,,,,,,,,,,,,,,,,29.96,74,85,0,,,,70,29.95,SCT:04 24 SCT:04 60,29.91,10,77,150,,17,,,,,,,,,,,,,,,,,,,,,,,,,,,,,,,,,,,,,MET11906/08/05 14:56:50 METAR KCHS 081956Z 15015KT 10SM SCT024 SCT060 29/23 A2996 RMK AO2 SLP143 CB DSNT W-NW T02940233 (WRB),,,,,,,,,,,,,,,,,,,,,,,,,,,,
72208013880,2005-06-08T15:56:00,FM-15,7,,SE,0.25,mi,"TEMP, PRECIP, SNOW",,,"MMTS, SRG, SNOWBOARD",,,WFO CHS,,,,,,,,,,,,,,,,,,,,,,,,,,,29.95,74,82,0,,0.02,7,77,29.95,BKN:07 22 BKN:07 65,29.9,10,76,150,,11,,,,,,,,,,,,,,,,,,,,,,,,,,,,,,,,,,,,,MET13106/08/05 15:56:50 METAR KCHS 082056Z 15010KT 10SM BKN022 BKN065 28/23 A2995 RMK AO2 SLP142 CB DSNT W-NW 60000 T02780233 57006 (WRB),,,,,,,,,,,,,,,,,,,,,,,,,,,,
72208013880,2005-06-08T16:00:00,FM-12,4,,SE,0.25,mi,"TEMP, PRECIP, SNOW",,,"MMTS, SRG, SNOWBOARD",,,WFO CHS,,,,,,,,,,,,,,,,,,,,,,,,,,,,74,82,,,0.02,7,77,29.95,,29.9,9.94,76,150,,11,,,,,,,,,,,,,,,,,,,,,,,,,,,,,,,,,,,,,SYN082AAXX  08214 72208 15566 61510 10278 20233 30126 40142 57006 69907 92056 555 90821;,,,,,,,,,,,,,,,,,,,,,,,,,,,,
72208013880,2005-06-08T16:56:00,FM-15,7,,SE,0.25,mi,"TEMP, PRECIP, SNOW",,,"MMTS, SRG, SNOWBOARD",,,WFO CHS,,,,,,,,,,,,,,,,,,,,,,,,,,,29.93,73,83,0,,,,72,29.93,BKN:07 27 BKN:07 65,29.88,10,76,160,,11,,,,,,,,,,,,,,,,,,,,,,,,,,,,,,,,,,,,,MET11806/08/05 16:56:50 METAR KCHS 082156Z 16010KT 10SM BKN027 BKN065 28/23 A2993 RMK AO2 SLP136 CB DSNT W-N T02830228 (WRB),,,,,,,,,,,,,,,,,,,,,,,,,,,,
72208013880,2005-06-08T17:27:00,FM-16,7,,SE,0.25,mi,"TEMP, PRECIP, SNOW",,,"MMTS, SRG, SNOWBOARD",,,WFO CHS,,,,,,,,,,,,,,,,,,,,,,,,,,,29.93,73,82,,,,,74,,SCT:04 37 SCT:04 75,29.88,10,76,160,,16,,,,,,,,,,,,,,,,,,,,,,,,,,,,,,,,,,,,,MET08906/08/05 17:27:50 SPECI KCHS 082227Z 16014KT 10SM SCT037 SCT075 28/23 A2993 RMK AO2 (WRB),,,,,,,,,,,,,,,,,,,,,,,,,,,,
72208013880,2005-06-08T17:56:00,FM-15,7,,SE,0.25,mi,"TEMP, PRECIP, SNOW",,,"MMTS, SRG, SNOWBOARD",,,WFO CHS,,,,,,,,,,,,,,,,,,,,,,,,,,,29.94,73,81,0,,,,77,29.93,SCT:04 37 SCT:04 75,29.89,10,75,160,,13,,,,,,,,,,,,,,,,,,,,,,,,,,,,,,,,,,,,,MET10606/08/05 17:56:50 METAR KCHS 082256Z 16011KT 10SM SCT037 SCT075 27/23 A2994 RMK AO2 SLP137 T02720228 (WRB),,,,,,,,,,,,,,,,,,,,,,,,,,,,
72208013880,2005-06-09T10:56:00,FM-15,7,,SE,0.25,mi,"TEMP, PRECIP, SNOW",,,"MMTS, SRG, SNOWBOARD",,,WFO CHS,,,,,,,,,,,,,,,,,,,,,,,,,,,30.07,74,86,0,,,,67,30.06,SCT:04 28,30.02,10,78,150,,15,,,,,,,,,,,,,,,,,,,,,,,,,,,,,,,,,,,,,MET12806/09/05 10:56:55 METAR KCHS 091556Z 15013KT 10SM SCT028TCU 30/23 A3007 RMK AO2 RAE00 SLP181 TCU N DSNT NE P0000 T03000233 (WRB),,,,,,,,,,,,,,,,,,,,,,,,,,,,
72208013880,2005-06-09T11:56:00,FM-15,7,,SE,0.25,mi,"TEMP, PRECIP, SNOW",,,"MMTS, SRG, SNOWBOARD",,,WFO CHS,,,,,,,,,,,,,,,,,,,,,,,,,,,30.07,73,85,0,,,,68,30.07,BKN:07 30,30.02,10,77,170,,14,,,,,,,,,,,,,,,,,,,,,,,,,,,,,,,,,,,,,MET10406/09/05 11:56:50 METAR KCHS 091656Z 17012KT 10SM BKN030 29/23 A3007 RMK AO2 SLP182 VCSH T02940228 (WRB),,,,,,,,,,,,,,,,,,,,,,,,,,,,
72208013880,2005-06-09T13:56:00,FM-15,7,,SE,0.25,mi,"TEMP, PRECIP, SNOW",,,"MMTS, SRG, SNOWBOARD",,,WFO CHS,,,,,,,,,,,,,,,,,,,,,,,,,,,30.06,73,85,T,,,,68,30.06,BKN:07 30,30.01,10,77,150,,14,,,,,,,,,,,,,,,,,,,,,,,,,,,,,,,,,,,,,MET12906/09/05 13:56:50 METAR KCHS 091856Z 15012KT 10SM BKN030 29/23 A3006 RMK AO2 RAB43E54 SLP178 CB DSNT E VCSH P0000 T02940228 (WRB),,,,,,,,,,,,,,,,,,,,,,,,,,,,
72208013880,2005-06-09T14:56:00,FM-15,7,,SE,0.25,mi,"TEMP, PRECIP, SNOW",,,"MMTS, SRG, SNOWBOARD",,,WFO CHS,,,,,,,,,,,,,,,,,,,,,,,,,,,30.04,72,84,0,,,,67,30.04,SCT:04 30,29.99,10,76,160,,11,,,,,,,,,,,,,,,,,,,,,,,,,,,,,,,,,,,,,MET09906/09/05 14:56:50 METAR KCHS 091956Z 16010KT 10SM SCT030 29/22 A3004 RMK AO2 SLP173 T02890222 (WRB),,,,,,,,,,,,,,,,,,,,,,,,,,,,
72208013880,2005-06-12T10:56:00,FM-15,7,,SE,0.25,mi,"TEMP, PRECIP, SNOW",,,"MMTS, SRG, SNOWBOARD",,,WFO CHS,,,,,,,,,,,,,,,,,,,,,,,,,,,30.04,74,84,0,,,,72,30.04,SCT:04 23 BKN:07 35,29.99,10,77,150,,16,,,,,,,,,,,,,,,,,,,,,,,,,,,,,,,,,,,,,MET10506/12/05 10:57:10 METAR KCHS 121556Z 15014KT 10SM SCT023 BKN035 29/23 A3004 RMK AO2 SLP172 T02890233 (WD),,,,,,,,,,,,,,,,,,,,,,,,,,,,
72208013880,2005-06-12T11:56:00,FM-15,7,,SE,0.25,mi,"TEMP, PRECIP, SNOW",,,"MMTS, SRG, SNOWBOARD",,,WFO CHS,,,,,,,,,,,,,,,,,,,,,,,,,,,30.04,73,83,0,,,,72,30.03,FEW:02 25 SCT:04 30 BKN:07 39,29.99,10,76,150,,13,,,,,,,,,,,,,,,,,,,,,,,,,,,,,,,,,,,,,MET11206/12/05 11:56:50 METAR KCHS 121656Z 15011KT 10SM FEW025 SCT030 BKN039 28/23 A3004 RMK AO2 SLP171 T02830228 (WD),,,,,,,,,,,,,,,,,,,,,,,,,,,,
72208013880,2005-06-12T12:56:00,FM-15,7,,SE,0.25,mi,"TEMP, PRECIP, SNOW",,,"MMTS, SRG, SNOWBOARD",,,WFO CHS,,,,,,,,,,,,,,,,,,,,,,,,,,,30.02,73,83,0,,0.02,8,72,30.02,BKN:07 29,29.97,10,76,160,,14,,,,,,,,,,,,,,,,,,,,,,,,,,,,,,,,,,,,,MET11606/12/05 12:56:50 METAR KCHS 121756Z 16012KT 10SM BKN029 28/23 A3002 RMK AO2 SLP166 T02830228 10294 20267 58006 (WD),,,,,,,,,,,,,,,,,,,,,,,,,,,,
72208013880,2005-06-12T13:00:00,FM-12,4,,SE,0.25,mi,"TEMP, PRECIP, SNOW",,,"MMTS, SRG, SNOWBOARD",,,WFO CHS,,,,,,,,,,,,,,,,,,,,,,,,,,,,73,83,,,0.02,8,72,30.02,,29.97,9.94,76,160,,14,,,,,,,,,,,,,,,,,,,,,,,,,,,,,,,,,,,,,SYN086AAXX  12184 72208 32566 61612 10283 20228 30150 40166 58006 91756 333 20261 555 91218;,,,,,,,,,,,,,,,,,,,,,,,,,,,,
72208013880,2005-06-12T13:05:00,FM-16,7,,SE,0.25,mi,"TEMP, PRECIP, SNOW",,,"MMTS, SRG, SNOWBOARD",,,WFO CHS,,,,,,,,,,,,,,,,,,,,,,,,,,,30.02,73,84,,,,,70,,FEW:02 27 SCT:04 32,29.97,10,76,160,,16,,,,,,,,,,,,,,,,,,,,,,,,,,,,,,,,,,,,,MET08806/12/05 13:05:50 SPECI KCHS 121805Z 16014KT 10SM FEW027 SCT032 29/23 A3002 RMK AO2 (WD),,,,,,,,,,,,,,,,,,,,,,,,,,,,
72208013880,2005-06-12T13:56:00,FM-15,7,,SE,0.25,mi,"TEMP, PRECIP, SNOW",,,"MMTS, SRG, SNOWBOARD",,,WFO CHS,,,,,,,,,,,,,,,,,,,,,,,,,,,30.01,74,85,0,,,,70,30.01,FEW:02 27 SCT:04 32 BKN:07 43,29.96,10,77,150,,13,,,,,,,,,,,,,,,,,,,,,,,,,,,,,,,,,,,,,MET11206/12/05 13:56:58 METAR KCHS 121856Z 15011KT 10SM FEW027 SCT032 BKN043 29/23 A3001 RMK AO2 SLP162 T02940233 (WD),,,,,,,,,,,,,,,,,,,,,,,,,,,,
72208013880,2005-06-12T14:10:00,FM-16,7,,SE,0.25,mi,"TEMP, PRECIP, SNOW",,,"MMTS, SRG, SNOWBOARD",,,WFO CHS,,,,,,,,,,,,,,,,,,,,,,,,,,,30.01,73,86,,,,,66,,BKN:07 27,29.96,10,77,160,,13,,,,,,,,,,,,,,,,,,,,,,,,,,,,,,,,,,,,,MET08106/12/05 14:11:12 SPECI KCHS 121910Z 16011KT 10SM BKN027 30/23 A3001 RMK AO2 (WD),,,,,,,,,,,,,,,,,,,,,,,,,,,,
72208013880,2005-06-12T14:29:00,FM-16,7,,SE,0.25,mi,"TEMP, PRECIP, SNOW",,,"MMTS, SRG, SNOWBOARD",,,WFO CHS,,,,,,,,,,,,,,,,,,,,,,,,,,,30.01,73,84,,,,,70,,FEW:02 29 SCT:04 47,29.96,10,76,160,,15,,,,,,,,,,,,,,,,,,,,,,,,,,,,,,,,,,,,,MET08806/12/05 14:29:55 SPECI KCHS 121929Z 16013KT 10SM FEW029 SCT047 29/23 A3001 RMK AO2 (WD),,,,,,,,,,,,,,,,,,,,,,,,,,,,
72208013880,2005-06-12T14:56:00,FM-15,7,,SE,0.25,mi,"TEMP, PRECIP, SNOW",,,"MMTS, SRG, SNOWBOARD",,,WFO CHS,,,,,,,,,,,,,,,,,,,,,,,,,,,30.01,72,84,0,,,,67,30,SCT:04 29,29.96,10,76,160,,14,,,,,,,,,,,,,,,,,,,,,,,,,,,,,,,,,,,,,MET09806/12/05 14:57:06 METAR KCHS 121956Z 16012KT 10SM SCT029 29/22 A3001 RMK AO2 SLP160 T02890222 (WD),,,,,,,,,,,,,,,,,,,,,,,,,,,,
72208013880,2005-06-12T15:56:00,FM-15,7,,SE,0.25,mi,"TEMP, PRECIP, SNOW",,,"MMTS, SRG, SNOWBOARD",,,WFO CHS,,,,,,,,,,,,,,,,,,,,,,,,,,,30,72,83,0,,0.02,6,70,30,FEW:02 28 SCT:04 45,29.95,10,75,150,,14,,,,,,,,,,,,,,,,,,,,,,,,,,,,,,,,,,,,,MET11106/12/05 15:56:50 METAR KCHS 122056Z 15012KT 10SM FEW028 SCT045 28/22 A3000 RMK AO2 SLP159 T02830222 56007 (WD),,,,,,,,,,,,,,,,,,,,,,,,,,,,
72208013880,2005-06-12T16:00:00,FM-12,4,,SE,0.25,mi,"TEMP, PRECIP, SNOW",,,"MMTS, SRG, SNOWBOARD",,,WFO CHS,,,,,,,,,,,,,,,,,,,,,,,,,,,,72,83,,,0.02,6,70,30,,29.95,9.94,75,150,,14,,,,,,,,,,,,,,,,,,,,,,,,,,,,,,,,,,,,,SYN076AAXX  12214 72208 35566 41512 10283 20222 30143 40159 56007 92056 555 91221;,,,,,,,,,,,,,,,,,,,,,,,,,,,,
72208013880,2005-06-12T16:56:00,FM-15,7,,SE,0.25,mi,"TEMP, PRECIP, SNOW",,,"MMTS, SRG, SNOWBOARD",,,WFO CHS,,,,,,,,,,,,,,,,,,,,,,,,,,,29.99,72,84,0,,,,67,29.99,FEW:02 27 SCT:04 52,29.94,10,76,170,,15,,,,,,,,,,,,,,,,,,,,,,,,,,,,,,,,,,,,,MET10506/12/05 16:56:50 METAR KCHS 122156Z 17013KT 10SM FEW027 SCT052 29/22 A2999 RMK AO2 SLP156 T02890222 (WD),,,,,,,,,,,,,,,,,,,,,,,,,,,,
72208013880,2005-06-12T17:56:00,FM-15,7,,SE,0.25,mi,"TEMP, PRECIP, SNOW",,,"MMTS, SRG, SNOWBOARD",,,WFO CHS,,,,,,,,,,,,,,,,,,,,,,,,,,,29.99,70,83,0,,,,65,29.98,FEW:02 31,29.94,10,74,170,,14,,,,,,,,,,,,,,,,,,,,,,,,,,,,,,,,,,,,,MET09806/12/05 17:56:50 METAR KCHS 122256Z 17012KT 10SM FEW031 28/21 A2999 RMK AO2 SLP154 T02830211 (WD),,,,,,,,,,,,,,,,,,,,,,,,,,,,
72208013880,2005-06-13T15:56:00,FM-15,7,,SE,0.25,mi,"TEMP, PRECIP, SNOW",,,"MMTS, SRG, SNOWBOARD",,,WFO CHS,,,,,,,,,,,,,,,,,,,,,,,,,,,29.92,71,87,0,,0.04,6,59,29.91,FEW:02 35,29.87,10,76,170,,14,,,,,,,,,,,,,,,,,,,,,,,,,,,,,,,,,,,,,MET10506/13/05 15:56:50 METAR KCHS 132056Z 17012KT 10SM FEW035 31/22 A2992 RMK AO2 SLP129 T03060217 56013 (AWS),,,,,,,,,,,,,,,,,,,,,,,,,,,,
72208013880,2005-06-13T16:00:00,FM-12,4,,SE,0.25,mi,"TEMP, PRECIP, SNOW",,,"MMTS, SRG, SNOWBOARD",,,WFO CHS,,,,,,,,,,,,,,,,,,,,,,,,,,,,71,87,,,0.04,6,59,29.91,,29.87,9.94,76,170,,14,,,,,,,,,,,,,,,,,,,,,,,,,,,,,,,,,,,,,SYN076AAXX  13214 72208 35666 21712 10306 20217 30116 40129 56013 92056 555 91321;,,,,,,,,,,,,,,,,,,,,,,,,,,,,
72208013880,2005-06-21T15:56:00,FM-15,7,,SE,0.25,mi,"TEMP, PRECIP, SNOW",,,"MMTS, SRG, SNOWBOARD",,,WFO CHS,,,,,,,,,,,,,,,,,,,,,,,,,,,30.1,66,81,0,,0.05,8,61,30.09,SCT:04 60,30.05,8,71,150,,11,,,,,,,,,,,,,,,,,,,,,,,,,,,,,,,,,,,,,MET10306/21/05 15:56:50 METAR KCHS 212056Z 15010KT 8SM SCT060 27/19 A3010 RMK AO2 SLP190 T02720189 58016 (WD),,,,,,,,,,,,,,,,,,,,,,,,,,,,
72208013880,2005-06-21T16:00:00,FM-12,4,,SE,0.25,mi,"TEMP, PRECIP, SNOW",,,"MMTS, SRG, SNOWBOARD",,,WFO CHS,,,,,,,,,,,,,,,,,,,,,,,,,,,,66,81,,,0.05,8,61,30.09,,30.05,7.46,71,150,,11,,,,,,,,,,,,,,,,,,,,,,,,,,,,,,,,,,,,,SYN076AAXX  21214 72208 35762 41510 10272 20189 30177 40190 58016 92056 555 92121;,,,,,,,,,,,,,,,,,,,,,,,,,,,,
72208013880,2005-06-23T15:56:00,FM-15,7,,SE,0.25,mi,"TEMP, PRECIP, SNOW",,,"MMTS, SRG, SNOWBOARD",,,WFO CHS,,,,,,,,,,,,,,,,,,,,,,,,,,,30.04,68,86,0,HZ:7 ||HZ,0.02,5,55,30.03,FEW:02 65,29.99,5,74,160,,8,,,,,,,,,,,,,,,,,,,,,,,,,,,,,,,,,,,,,MET12206/23/05 15:57:08 METAR KCHS 232056Z 16007KT 5SM HZ FEW065 30/20 A3004 RMK AO2 TSE35 SLP171 TS MOV SW T03000200 55007 (WD),,,,,,,,,,,,,,,,,,,,,,,,,,,,
72208013880,2005-06-23T16:00:00,FM-12,4,,SE,0.25,mi,"TEMP, PRECIP, SNOW",,,"MMTS, SRG, SNOWBOARD",,,WFO CHS,,,,,,,,,,,,,,,,,,,,,,,,,,,,68,86,,|HZ |,0.02,5,55,30.03,,29.99,4.97,74,160,,8,,,,,,,,,,,,,,,,,,,,,,,,,,,,,,,,,,,,,SYN082AAXX  23214 72208 37758 21607 10300 20200 30157 40171 55007 704// 92056 555 92321;,,,,,,,,,,,,,,,,,,,,,,,,,,,,
72208013880,2005-06-26T11:56:00,FM-15,7,,SE,0.25,mi,"TEMP, PRECIP, SNOW",,,"MMTS, SRG, SNOWBOARD",,,WFO CHS,,,,,,,,,,,,,,,,,,,,,,,,,,,30.04,75,85,0,,,,72,30.03,FEW:02 26 SCT:04 31 BKN:07 40,29.99,10,78,150,,10,,,,,,,,,,,,,,,,,,,,,,,,,,,,,,,,,,,,,MET11406/26/05 11:56:55 METAR KCHS 261656Z 15009KT 10SM FEW026 SCT031 BKN040 29/24 A3004 RMK AO2 SLP170 T02940239 $ (JL),,,,,,,,,,,,,,,,,,,,,,,,,,,,
72208013880,2005-06-26T12:56:00,FM-15,7,,SE,0.25,mi,"TEMP, PRECIP, SNOW",,,"MMTS, SRG, SNOWBOARD",,,WFO CHS,,,,,,,,,,,,,,,,,,,,,,,,,,,30.03,76,85,0,,0.01,8,75,30.02,SCT:04 49 BKN:07 80,29.98,10,79,160,,9,,,,,,,,,,,,,,,,,,,,,,,,,,,,,,,,,,,,,MET12506/26/05 12:56:50 METAR KCHS 261756Z 16008KT 10SM SCT049 BKN080 29/24 A3003 RMK AO2 SLP167 T02940244 10300 20244 58004 $ (JL),,,,,,,,,,,,,,,,,,,,,,,,,,,,
72208013880,2005-06-26T13:00:00,FM-12,4,,SE,0.25,mi,"TEMP, PRECIP, SNOW",,,"MMTS, SRG, SNOWBOARD",,,WFO CHS,,,,,,,,,,,,,,,,,,,,,,,,,,,,76,85,,,0.01,8,75,30.02,,29.98,9.94,79,160,,9,,,,,,,,,,,,,,,,,,,,,,,,,,,,,,,,,,,,,SYN092AAXX  26184 72208 32666 61608 10294 20244 30153 40167 58004 91756 333 10300 20228 555 92618;,,,,,,,,,,,,,,,,,,,,,,,,,,,,
72208013880,2005-06-26T14:00:00,FM-12,4,,SE,0.25,mi,"TEMP, PRECIP, SNOW",,,"MMTS, SRG, SNOWBOARD",,,WFO CHS,,,,,,,,,,,,,,,,,,,,,,,,,,,,76,85,,,0.01,7,75,30.02,,29.98,9.94,79,160,,9,,,,,,,,,,,,,,,,,,,,,,,,,,,,,,,,,,,,,SYN092AAXX  26194 72208 32666 61608 10294 20244 30153 40167 51756 58004 333 10300 20228 550 92618;,,,,,,,,,,,,,,,,,,,,,,,,,,,,
72208013880,2005-06-26T15:56:00,FM-15,7,,SE,0.25,mi,"TEMP, PRECIP, SNOW",,,"MMTS, SRG, SNOWBOARD",,,WFO CHS,,,,,,,,,,,,,,,,,,,,,,,,,,,30.02,74,87,0,,0.01,8,65,30.01,FEW:02 29,29.97,10,78,160,,14,,,,,,,,,,,,,,,,,,,,,,,,,,,,,,,,,,,,,MET10606/26/05 15:56:50 METAR KCHS 262056Z 16012KT 10SM FEW029 31/23 A3002 RMK AO2 SLP164 T03060233 58002 $ (WD),,,,,,,,,,,,,,,,,,,,,,,,,,,,
72208013880,2005-06-26T16:00:00,FM-12,4,,SE,0.25,mi,"TEMP, PRECIP, SNOW",,,"MMTS, SRG, SNOWBOARD",,,WFO CHS,,,,,,,,,,,,,,,,,,,,,,,,,,,,74,87,,,0.01,8,65,30.01,,29.97,9.94,78,160,,14,,,,,,,,,,,,,,,,,,,,,,,,,,,,,,,,,,,,,SYN076AAXX  26214 72208 35566 21612 10306 20233 30150 40164 58002 92056 555 92621;,,,,,,,,,,,,,,,,,,,,,,,,,,,,
72208013880,2005-06-26T16:23:00,FM-16,7,,SE,0.25,mi,"TEMP, PRECIP, SNOW",,,"MMTS, SRG, SNOWBOARD",,,WFO CHS,,,,,,,,,,,,,,,,,,,,,,,,,,,30.02,75,88,,,,,66,,BKN:07 29,29.97,10,79,150,,13,,,,,,,,,,,,,,,,,,,,,,,,,,,,,,,,,,,,,MET08306/26/05 16:23:50 SPECI KCHS 262123Z 15011KT 10SM BKN029 31/24 A3002 RMK AO2 $ (WD),,,,,,,,,,,,,,,,,,,,,,,,,,,,
72208013880,2005-06-26T16:39:00,FM-16,7,,SE,0.25,mi,"TEMP, PRECIP, SNOW",,,"MMTS, SRG, SNOWBOARD",,,WFO CHS,,,,,,,,,,,,,,,,,,,,,,,,,,,30.01,75,84,,,,,74,,SCT:04 27 BKN:07 35,29.96,10,78,150,,11,,,,,,,,,,,,,,,,,,,,,,,,,,,,,,,,,,,,,MET09006/26/05 16:39:50 SPECI KCHS 262139Z 15010KT 10SM SCT027 BKN035 29/24 A3001 RMK AO2 $ (WD),,,,,,,,,,,,,,,,,,,,,,,,,,,,
72208013880,2005-06-26T16:56:00,FM-15,7,,SE,0.25,mi,"TEMP, PRECIP, SNOW",,,"MMTS, SRG, SNOWBOARD",,,WFO CHS,,,,,,,,,,,,,,,,,,,,,,,,,,,30.01,75,85,0,,,,72,30.01,FEW:02 27,29.96,10,78,160,,14,,,,,,,,,,,,,,,,,,,,,,,,,,,,,,,,,,,,,MET10006/26/05 16:57:08 METAR KCHS 262156Z 16012KT 10SM FEW027 29/24 A3001 RMK AO2 SLP162 T02940239 $ (WD),,,,,,,,,,,,,,,,,,,,,,,,,,,,
72208013880,2005-06-26T17:56:00,FM-15,7,,SE,0.25,mi,"TEMP, PRECIP, SNOW",,,"MMTS, SRG, SNOWBOARD",,,WFO CHS,,,,,,,,,,,,,,,,,,,,,,,,,,,30.03,74,83,0,,,,74,30.02,SCT:04 24,29.98,10,77,150,,9,,,,,,,,,,,,,,,,,,,,,,,,,,,,,,,,,,,,,MET10006/26/05 17:56:50 METAR KCHS 262256Z 15008KT 10SM SCT024 28/23 A3003 RMK AO2 SLP166 T02830233 $ (WD),,,,,,,,,,,,,,,,,,,,,,,,,,,,
72208013880,2005-06-27T13:26:00,FM-16,7,,SE,0.25,mi,"TEMP, PRECIP, SNOW",,,"MMTS, SRG, SNOWBOARD",,,WFO CHS,,,,,,,,,,,,,,,,,,,,,,,,,,,30.14,79,82,,,,,89,,FEW:02 17 BKN:07 100,30.09,9,80,150,,8,,,,,,,,,,,,,,,,,,,,,,,,,,,,,,,,,,,,,MET10306/27/05 13:26:50 SPECI KCHS 271826Z 15007KT 9SM FEW017 BKN100 28/26 A3014 RMK AO2 TSE21 TS MOV N (WRB),,,,,,,,,,,,,,,,,,,,,,,,,,,,
72208013880,2005-06-27T15:56:00,FM-15,7,,SE,0.25,mi,"TEMP, PRECIP, SNOW",,,"MMTS, SRG, SNOWBOARD",,,WFO CHS,,,,,,,,,,,,,,,,,,,,,,,,,,,30.12,77,83,0,,0.02,8,82,30.12,BKN:07 19 BKN:07 100,30.07,9,79,150,,9,,,,,,,,,,,,,,,,,,,,,,,,,,,,,,,,,,,,,MET11006/27/05 15:56:50 METAR KCHS 272056Z 15008KT 9SM BKN019 BKN100 28/25 A3012 RMK AO2 SLP199 T02830250 58008 (JL),,,,,,,,,,,,,,,,,,,,,,,,,,,,
72208013880,2005-06-27T16:00:00,FM-12,4,,SE,0.25,mi,"TEMP, PRECIP, SNOW",,,"MMTS, SRG, SNOWBOARD",,,WFO CHS,,,,,,,,,,,,,,,,,,,,,,,,,,,,77,83,,,0.02,8,82,30.12,,30.07,8.7,79,150,,9,,,,,,,,,,,,,,,,,,,,,,,,,,,,,,,,,,,,,SYN076AAXX  27214 72208 35464 61508 10283 20250 30184 40199 58008 92056 555 92721;,,,,,,,,,,,,,,,,,,,,,,,,,,,,
72208013880,2005-06-29T14:56:00,FM-15,7,,SE,0.25,mi,"TEMP, PRECIP, SNOW",,,"MMTS, SRG, SNOWBOARD",,,WFO CHS,,,,,,,,,,,,,,,,,,,,,,,,,,,30.01,76,81,T,,,,85,30,SCT:04 21 BKN:07 32 BKN:07 100,29.96,10,77,150,,11,,,,,,,,,,,,,,,,,,,,,,,,,,,,,,,,,,,,,MET12806/29/05 14:56:50 METAR KCHS 291956Z 15010KT 10SM SCT021 BKN032 BKN100 27/24 A3001 RMK AO2 RAB37E47 SLP160 P0000 T02720244 (WRB),,,,,,,,,,,,,,,,,,,,,,,,,,,,
72208013880,2005-06-30T15:56:00,FM-15,7,,SE,0.25,mi,"TEMP, PRECIP, SNOW",,,"MMTS, SRG, SNOWBOARD",,,WFO CHS,,,,,,,,,,,,,,,,,,,,,,,,,,,29.89,75,86,0,,0.04,6,70,29.89,FEW:02 44 SCT:04 85,29.84,9,78,170,,14,,,,,,,,,,,,,,,,,,,,,,,,,,,,,,,,,,,,,MET13106/30/05 15:56:50 METAR KCHS 302056Z 17012KT 9SM FEW044CB SCT085 30/24 A2989 RMK AO2 SLP122 CB S MOV S TCU E T03000239 56015 $ (WD),,,,,,,,,,,,,,,,,,,,,,,,,,,,
72208013880,2005-06-30T16:00:00,FM-12,4,,SE,0.25,mi,"TEMP, PRECIP, SNOW",,,"MMTS, SRG, SNOWBOARD",,,WFO CHS,,,,,,,,,,,,,,,,,,,,,,,,,,,,75,86,,,0.04,6,70,29.89,,29.84,8.7,78,170,,14,,,,,,,,,,,,,,,,,,,,,,,,,,,,,,,,,,,,,SYN076AAXX  30214 72208 35664 41712 10300 20239 30106 40122 56015 92056 555 93021;,,,,,,,,,,,,,,,,,,,,,,,,,,,,
72208013880,2005-06-30T16:56:00,FM-15,7,,SE,0.25,mi,"TEMP, PRECIP, SNOW",,,"MMTS, SRG, SNOWBOARD",,,WFO CHS,,,,,,,,,,,,,,,,,,,,,,,,,,,29.9,77,84,0,,,,80,29.89,FEW:02 50,29.85,9,79,170,,14,,,,,,,,,,,,,,,,,,,,,,,,,,,,,,,,,,,,,MET12006/30/05 16:56:50 METAR KCHS 302156Z 17012KT 9SM FEW050CB 29/25 A2990 RMK AO2 SLP123 CB SW AND NE MOV S T02890250 $ (WD),,,,,,,,,,,,,,,,,,,,,,,,,,,,
72208013880,2005-07-02T15:56:00,FM-15,7,,SE,0.25,mi,"TEMP, PRECIP, SNOW",,,"MMTS, SRG, SNOWBOARD",,,WFO CHS,,,,,,,,,,,,,,,,,,,,,,,,,,,29.82,79,87,0,HZ:7 ||HZ,0.04,6,77,29.81,FEW:02 42,29.77,4,81,150,,10,,,,,,,,,,,,,,,,,,,,,,,,,,,,,,,,,,,,,MET10807/02/05 15:56:50 METAR KCHS 022056Z 15009KT 4SM HZ FEW042 31/26 A2982 RMK AO2 SLP095 T03060261 56014 $ (WD),,,,,,,,,,,,,,,,,,,,,,,,,,,,
72208013880,2005-07-02T16:00:00,FM-12,4,,SE,0.25,mi,"TEMP, PRECIP, SNOW",,,"MMTS, SRG, SNOWBOARD",,,WFO CHS,,,,,,,,,,,,,,,,,,,,,,,,,,,,79,87,,|HZ |,0.04,6,77,29.81,,29.77,3.73,81,150,,10,,,,,,,,,,,,,,,,,,,,,,,,,,,,,,,,,,,,,SYN082AAXX  02214 72208 37656 21509 10306 20261 30082 40095 56014 704// 92056 555 90221;,,,,,,,,,,,,,,,,,,,,,,,,,,,,
72208013880,2005-07-03T12:56:00,FM-15,7,,SE,0.25,mi,"TEMP, PRECIP, SNOW",,,"MMTS, SRG, SNOWBOARD",,,WFO CHS,,,,,,,,,,,,,,,,,,,,,,,,,,,29.95,78,89,0,HZ:7 ||HZ,0.01,8,70,29.95,SCT:04 27,29.9,5,81,160,,9,,,,,,,,,,,,,,,,,,,,,,,,,,,,,,,,,,,,,MET13207/03/05 12:56:50 METAR KCHS 031756Z 16008KT 5SM HZ SCT027TCU 32/26 A2995 RMK AO2 SLP143 TCU OHD T03170256 10328 20261 58004 $ (WRB),,,,,,,,,,,,,,,,,,,,,,,,,,,,
72208013880,2005-07-03T13:00:00,FM-12,4,,SE,0.25,mi,"TEMP, PRECIP, SNOW",,,"MMTS, SRG, SNOWBOARD",,,WFO CHS,,,,,,,,,,,,,,,,,,,,,,,,,,,,78,89,,||HZ,0.01,8,70,29.95,,29.9,4.97,81,160,,9,,,,,,,,,,,,,,,,,,,,,,,,,,,,,,,,,,,,,SYN098AAXX  03184 72208 31558 41608 10317 20256 30126 40143 58004 705// 91756 333 10328 20261 555 90318;,,,,,,,,,,,,,,,,,,,,,,,,,,,,
72208013880,2005-07-11T12:56:00,FM-15,7,,SE,0.25,mi,"TEMP, PRECIP, SNOW",,,"MMTS, SRG, SNOWBOARD",,,WFO CHS,,,,,,,,,,,,,,,,,,,,,,,,,,,30.11,76,87,0,,0.01,8,70,30.11,BKN:07 30 BKN:07 90,30.06,8,79,170,,10,,,,,,,,,,,,,,,,,,,,,,,,,,,,,,,,,,,,,MET13107/11/05 12:56:50 METAR KCHS 111756Z 17009KT 8SM BKN030 BKN090 31/24 A3011 RMK AO2 SLP195 60000 T03060244 10311 20272 58002 $ (WRB),,,,,,,,,,,,,,,,,,,,,,,,,,,,
72208013880,2005-07-11T13:00:00,FM-12,4,,SE,0.25,mi,"TEMP, PRECIP, SNOW",,,"MMTS, SRG, SNOWBOARD",,,WFO CHS,,,,,,,,,,,,,,,,,,,,,,,,,,,,76,87,,,0.01,8,70,30.11,,30.06,7.46,79,170,,10,,,,,,,,,,,,,,,,,,,,,,,,,,,,,,,,,,,,,SYN098AAXX  11184 72208 12562 61709 10306 20244 30180 40195 58002 69901 91756 333 10311 20256 555 91118;,,,,,,,,,,,,,,,,,,,,,,,,,,,,
72208013880,2005-07-11T14:40:00,FM-16,7,,SE,0.25,mi,"TEMP, PRECIP, SNOW",,,"MMTS, SRG, SNOWBOARD",,,WFO CHS,,,,,,,,,,,,,,,,,,,,,,,,,,,30.1,77,88,,,,,70,,BKN:07 30,30.05,9,80,160,,13,,,,,,,,,,,,,,,,,,,,,,,,,,,,,,,,,,,,,MET08307/11/05 14:40:50 SPECI KCHS 111940Z 16011KT 9SM BKN030 31/25 A3010 RMK AO2 $ (WRB),,,,,,,,,,,,,,,,,,,,,,,,,,,,
72208013880,2005-07-11T14:56:00,FM-15,7,,SE,0.25,mi,"TEMP, PRECIP, SNOW",,,"MMTS, SRG, SNOWBOARD",,,WFO CHS,,,,,,,,,,,,,,,,,,,,,,,,,,,30.09,76,87,0,,,,70,30.09,BKN:07 30,30.04,9,79,160,,11,,,,,,,,,,,,,,,,,,,,,,,,,,,,,,,,,,,,,MET10007/11/05 14:56:50 METAR KCHS 111956Z 16010KT 9SM BKN030 31/24 A3009 RMK AO2 SLP189 T03060244 $ (WRB),,,,,,,,,,,,,,,,,,,,,,,,,,,,
72208013880,2005-07-11T15:56:00,FM-15,7,,SE,0.25,mi,"TEMP, PRECIP, SNOW",,,"MMTS, SRG, SNOWBOARD",,,WFO CHS,,,,,,,,,,,,,,,,,,,,,,,,,,,30.07,77,87,0,,0.04,8,72,30.07,BKN:07 26,30.02,9,80,170,,11,,,,,,,,,,,,,,,,,,,,,,,,,,,,,,,,,,,,,MET10507/11/05 15:56:50 METAR KCHS 112056Z 17010KT 9SM BKN026 31/25 A3007 RMK AO2 SLP183 T03060250 58012 $ (JL),,,,,,,,,,,,,,,,,,,,,,,,,,,,
72208013880,2005-07-11T16:00:00,FM-12,4,,SE,0.25,mi,"TEMP, PRECIP, SNOW",,,"MMTS, SRG, SNOWBOARD",,,WFO CHS,,,,,,,,,,,,,,,,,,,,,,,,,,,,77,87,,,0.04,8,72,30.07,,30.02,8.7,80,170,,11,,,,,,,,,,,,,,,,,,,,,,,,,,,,,,,,,,,,,SYN076AAXX  11214 72208 35564 61710 10306 20250 30167 40183 58012 92056 555 91121;,,,,,,,,,,,,,,,,,,,,,,,,,,,,
72208013880,2005-07-11T17:56:00,FM-15,7,,SE,0.25,mi,"TEMP, PRECIP, SNOW",,,"MMTS, SRG, SNOWBOARD",,,WFO CHS,,,,,,,,,,,,,,,,,,,,,,,,,,,30.09,76,85,0,,,,75,30.08,SCT:04 25 BKN:07 47,30.04,8,79,170,,14,,,,,,,,,,,,,,,,,,,,,,,,,,,,,,,,,,,,,MET10607/11/05 17:56:50 METAR KCHS 112256Z 17012KT 8SM SCT025 BKN047 29/24 A3009 RMK AO2 SLP187 T02940244 $ (JL),,,,,,,,,,,,,,,,,,,,,,,,,,,,
72208013880,2005-07-14T13:56:00,FM-15,7,,SE,0.25,mi,"TEMP, PRECIP, SNOW",,,"MMTS, SRG, SNOWBOARD",,,WFO CHS,,,,,,,,,,,,,,,,,,,,,,,,,,,29.94,76,85,0,VCTS:7 ||TS,,,75,29.94,SCT:04 36,29.89,8,79,160,,14,,,,,,,,,,,,,,,,,,,,,,,,,,,,,,,,,,,,,MET14207/14/05 13:56:56 METAR KCHS 141856Z 16012KT 8SM VCTS SCT036CB 29/24 A2994 RMK AO2 TSB38 SLP139 FRQ LTGCG VC NW TS NW MOV NE T02940244 $ (WRB),,,,,,,,,,,,,,,,,,,,,,,,,,,,
72208013880,2005-07-14T15:56:00,FM-15,7,,SE,0.25,mi,"TEMP, PRECIP, SNOW",,,"MMTS, SRG, SNOWBOARD",,,WFO CHS,,,,,,,,,,,,,,,,,,,,,,,,,,,29.94,72,78,T,,0.04,7,82,29.93,,29.89,10,74,160,,7,,,,,,,,,,,,,,,,,,,,,,,,,,,,,,,,,,,,,MET13607/14/05 15:56:50 METAR KCHS 142056Z 16006KT 10SM CLR 26/22 A2994 RMK AO2 TSE21RAE24 SLP136 TS MOV NE P0000 60045 T02560222 57012 $ (WD),,,,,,,,,,,,,,,,,,,,,,,,,,,,
72208013880,2005-07-14T16:00:00,FM-12,4,,SE,0.25,mi,"TEMP, PRECIP, SNOW",,,"MMTS, SRG, SNOWBOARD",,,WFO CHS,,,,,,,,,,,,,,,,,,,,,,,,,,,,72,78,,,0.04,7,82,29.93,CLR:00,29.89,9.94,74,160,,7,,,,,,,,,,,,,,,,,,,,,,,,,,,,,,,,,,,,,SYN082AAXX  14214 72208 15966 01606 10256 20222 30123 40136 57012 60117 92056 555 91421;,,,,,,,,,,,,,,,,,,,,,,,,,,,,
72208013880,2005-07-15T11:56:00,FM-15,7,,SE,0.25,mi,"TEMP, PRECIP, SNOW",,,"MMTS, SRG, SNOWBOARD",,,WFO CHS,,,,,,,,,,,,,,,,,,,,,,,,,,,30.06,77,88,0,,,,70,30.06,SCT:04 29,30.01,9,80,170,,8,,,,,,,,,,,,,,,,,,,,,,,,,,,,,,,,,,,,,MET11207/15/05 11:56:50 METAR KCHS 151656Z 17007KT 9SM SCT029 31/25 A3006 RMK AO2 SLP178 CB DSNT E-SE T03110250 $ (JL),,,,,,,,,,,,,,,,,,,,,,,,,,,,
72208013880,2005-07-15T13:12:00,FM-16,7,,SE,0.25,mi,"TEMP, PRECIP, SNOW",,,"MMTS, SRG, SNOWBOARD",,,WFO CHS,,,,,,,,,,,,,,,,,,,,,,,,,,,30.05,75,84,,VCTS:7 ||TS,,,74,,BKN:07 35,30,8,78,150,,14,,,,,,,,,,,,,,,,,,,,,,,,,,,,,,,,,,,,,MET14107/15/05 13:17:50 SPECI KCHS 151812Z 15012KT 8SM VCTS BKN035CB 29/24 A3005 RMK AO2 TSB07 OCNL LTGICCG VC S-SE TS S-SE MOV NE VCSH S-SE $ (JL),,,,,,,,,,,,,,,,,,,,,,,,,,,,
72208013880,2005-07-15T13:23:00,FM-16,7,,SE,0.25,mi,"TEMP, PRECIP, SNOW",,,"MMTS, SRG, SNOWBOARD",,,WFO CHS,,,,,,,,,,,,,,,,,,,,,,,,,,,30.04,72,82,,VCTS:7 ||TS,,,70,,BKN:07 32,29.99,10,75,150,,11,,,,,,,,,,,,,,,,,,,,,,,,,,,,,,,,,,,,,MET15607/15/05 13:23:53 SPECI KCHS 151823Z 15010KT 10SM VCTS BKN032CB 28/22 A3004 RMK AO2 WSHFT 1804 TSB07 OCNL LTGICCG VC NE-SE TS NE-SE MOV NE VCSH NE-SE $ (JL),,,,,,,,,,,,,,,,,,,,,,,,,,,,
72208013880,2005-07-16T16:56:00,FM-15,7,,SE,0.25,mi,"TEMP, PRECIP, SNOW",,,"MMTS, SRG, SNOWBOARD",,,WFO CHS,,,,,,,,,,,,,,,,,,,,,,,,,,,30.08,77,89,0,,,,68,30.07,FEW:02 30 SCT:04 45 SCT:04 54,30.03,9,80,150,,9,,,,,,,,,,,,,,,,,,,,,,,,,,,,,,,,,,,,,MET11707/16/05 17:00:04 METAR KCHS 162156Z 15008KT 9SM FEW030 SCT045 32/25 A3008 RMK AO2 SLP184 TCU DSNT S T03170250 $ (WD),,,,,,,,,,,,,,,,,,,,,,,,,,,,
72208013880,2005-07-17T17:56:00,FM-15,7,,SE,0.25,mi,"TEMP, PRECIP, SNOW",,,"MMTS, SRG, SNOWBOARD",,,WFO CHS,,,,,,,,,,,,,,,,,,,,,,,,,,,30.08,77,87,0,,,,72,30.07,FEW:02 50,30.03,10,80,170,,11,,,,,,,,,,,,,,,,,,,,,,,,,,,,,,,,,,,,,MET11007/17/05 17:56:50 METAR KCHS 172256Z 17010KT 10SM FEW050TCU 31/25 A3008 RMK AO2 SLP184 TCU NE T03060250 $ (WD),,,,,,,,,,,,,,,,,,,,,,,,,,,,
72208013880,2005-07-29T13:56:00,FM-15,7,,SE,0.25,mi,"TEMP, PRECIP, SNOW",,,"MMTS, SRG, SNOWBOARD",,,WFO CHS,,,,,,,,,,,,,,,,,,,,,,,,,,,30.06,74,91,0,,,,57,30.06,SCT:04 39,30.01,8,79,150,,15,,,,,,,,,,,,,,,,,,,,,,,,,,,,,,,,,,,,,MET09807/29/05 13:56:50 METAR KCHS 291856Z 15013KT 8SM SCT039 33/23 A3006 RMK AO2 SLP178 T03280233 (WRB),,,,,,,,,,,,,,,,,,,,,,,,,,,,
72208013880,2005-07-29T14:56:00,FM-15,7,,SE,0.25,mi,"TEMP, PRECIP, SNOW",,,"MMTS, SRG, SNOWBOARD",,,WFO CHS,,,,,,,,,,,,,,,,,,,,,,,,,,,30.05,74,91,0,,,,57,30.05,SCT:04 40,30,8,79,150,,13,,,,,,,,,,,,,,,,,,,,,,,,,,,,,,,,,,,,,MET09807/29/05 14:56:50 METAR KCHS 291956Z 15011KT 8SM SCT040 33/23 A3005 RMK AO2 SLP175 T03280233 (WRB),,,,,,,,,,,,,,,,,,,,,,,,,,,,
72208013880,2005-07-29T16:56:00,FM-15,7,,SE,0.25,mi,"TEMP, PRECIP, SNOW",,,"MMTS, SRG, SNOWBOARD",,,WFO CHS,,,,,,,,,,,,,,,,,,,,,,,,,,,30.07,76,89,0,,,,65,30.07,FEW:02 30 SCT:04 50,30.02,7,80,170,,13,,,,,,,,,,,,,,,,,,,,,,,,,,,,,,,,,,,,,MET10407/29/05 16:56:50 METAR KCHS 292156Z 17011KT 7SM FEW030 SCT050 32/24 A3007 RMK AO2 SLP183 T03170244 (WD),,,,,,,,,,,,,,,,,,,,,,,,,,,,
72208013880,2005-07-30T11:56:00,FM-15,7,,SE,0.25,mi,"TEMP, PRECIP, SNOW",,,"MMTS, SRG, SNOWBOARD",,,WFO CHS,,,,,,,,,,,,,,,,,,,,,,,,,,,30.13,76,85,0,TS:7 HZ:7 |TS |HZ TS,,,75,30.13,FEW:02 19 BKN:07 50,30.08,6,79,150,,7,,,,,,,,,,,,,,,,,,,,,,,,,,,,,,,,,,,,,MET14407/30/05 11:56:50 METAR KCHS 301656Z 15006KT 6SM TS HZ FEW019CB BKN050 29/24 A3013 RMK AO2 TSB33 SLP202 OCNL LGTIC SW TS SW MOV N T02940244 (WD),,,,,,,,,,,,,,,,,,,,,,,,,,,,
72208013880,2005-08-04T14:56:00,FM-15,7,,SE,0.25,mi,"TEMP, PRECIP, SNOW",,,"MMTS, SRG, SNOWBOARD",,,WFO CHS,,,,,,,,,,,,,,,,,,,,,,,,,,,30.06,71,91,0,,,,52,30.06,SCT:04 46,30.01,7,77,160,,11,,,,,,,,,,,,,,,,,,,,,,,,,,,,,,,,,,,,,MET09808/04/05 14:56:50 METAR KCHS 041956Z 16010KT 7SM SCT046 33/22 A3006 RMK AO2 SLP178 T03280217 (WRB),,,,,,,,,,,,,,,,,,,,,,,,,,,,
72208013880,2005-08-04T15:56:00,FM-15,7,,SE,0.25,mi,"TEMP, PRECIP, SNOW",,,"MMTS, SRG, SNOWBOARD",,,WFO CHS,,,,,,,,,,,,,,,,,,,,,,,,,,,30.04,73,89,0,,0.04,8,59,30.04,SCT:04 50,29.99,7,78,160,,13,,,,,,,,,,,,,,,,,,,,,,,,,,,,,,,,,,,,,MET11308/04/05 15:56:50 METAR KCHS 042056Z 16011KT 7SM SCT050 32/23 A3004 RMK AO2 SLP173 CB DSNT N T03170228 58012 (WD),,,,,,,,,,,,,,,,,,,,,,,,,,,,
72208013880,2005-08-04T16:00:00,FM-12,4,,SE,0.25,mi,"TEMP, PRECIP, SNOW",,,"MMTS, SRG, SNOWBOARD",,,WFO CHS,,,,,,,,,,,,,,,,,,,,,,,,,,,,73,89,,,0.04,8,59,30.04,,29.99,6.84,78,160,,13,,,,,,,,,,,,,,,,,,,,,,,,,,,,,,,,,,,,,SYN076AAXX  04214 72208 35761 41611 10317 20228 30157 40173 58012 92056 555 90421;,,,,,,,,,,,,,,,,,,,,,,,,,,,,
72208013880,2005-08-06T11:26:00,FM-16,7,,SE,0.25,mi,"TEMP, PRECIP, SNOW",,,"MMTS, SRG, SNOWBOARD",,,WFO CHS,,,,,,,,,,,,,,,,,,,,,,,,,,,30.14,72,72,0.18,RA:02 BR:1 |RA |RA,,,100,,FEW:02 5 BKN:07 10 OVC:08 30,30.09,2,72,160,,11,,,,,,,,,,,,,,,,,,,,,,,,,,,,,,,,,,,,,MET12308/06/05 11:26:50 SPECI KCHS 061626Z 16010KT 2SM RA BR FEW005 BKN010 OVC030CB 22/22 A3014 RMK AO2 CB S-SW MOV W P0018 (JRS),,,,,,,,,,,,,,,,,,,,,,,,,,,,
72208013880,2005-08-06T11:36:00,FM-16,7,,SE,0.25,mi,"TEMP, PRECIP, SNOW",,,"MMTS, SRG, SNOWBOARD",,,WFO CHS,,,,,,,,,,,,,,,,,,,,,,,,,,,30.14,72,72,0.19,RA:02 BR:1 |RA |RA,,,100,,FEW:02 5 BKN:07 14 OVC:08 30,30.09,4,72,150,,7,,,,,,,,,,,,,,,,,,,,,,,,,,,,,,,,,,,,,MET12308/06/05 11:37:06 SPECI KCHS 061636Z 15006KT 4SM RA BR FEW005 BKN014 OVC030CB 22/22 A3014 RMK AO2 CB S-SW MOV W P0019 (JRS),,,,,,,,,,,,,,,,,,,,,,,,,,,,
72208013880,2005-08-06T13:30:00,FM-16,6,,SE,0.25,mi,"TEMP, PRECIP, SNOW",,,"MMTS, SRG, SNOWBOARD",,,WFO CHS,,,,,,,,,,,,,,,,,,,,,,,,,,,30.1,75,81,,,,,84,,FEW:02 15 SCT:04 25,30.05,9,77,150,21,16,,,,,,,,,,,,,,,,,,,,,,,,,,,,,,,,,,,,,MET11808/06/05 13:30:50 SPECI KCHS 061830Z 15014G18KT 9SM FEW015 SCT025TCU 27/24 A3010 RMK AO2 RAB09E28 TCU W-NW P0000 (JRS),,,,,,,,,,,,,,,,,,,,,,,,,,,,
72208013880,2005-08-09T11:56:00,FM-15,7,,SE,0.25,mi,"TEMP, PRECIP, SNOW",,,"MMTS, SRG, SNOWBOARD",,,WFO CHS,,,,,,,,,,,,,,,,,,,,,,,,,,,30.07,75,82,0,,,,79,30.06,SCT:04 19 BKN:07 100,30.02,9,77,150,,9,,,,,,,,,,,,,,,,,,,,,,,,,,,,,,,,,,,,,MET10508/09/05 11:56:50 METAR KCHS 091656Z 15008KT 9SM SCT019 BKN100 28/24 A3007 RMK AO2 SLP181 T02780239 (WRB),,,,,,,,,,,,,,,,,,,,,,,,,,,,
72208013880,2005-08-09T12:56:00,FM-15,7,,SE,0.25,mi,"TEMP, PRECIP, SNOW",,,"MMTS, SRG, SNOWBOARD",,,WFO CHS,,,,,,,,,,,,,,,,,,,,,,,,,,,30.03,75,83,0,,0.05,8,77,30.03,FEW:02 28 BKN:07 90,29.98,10,77,150,,7,,,,,,,,,,,,,,,,,,,,,,,,,,,,,,,,,,,,,MET13708/09/05 12:56:50 METAR KCHS 091756Z 15006KT 10SM FEW028 BKN090 28/24 A3003 RMK AO2 SLP168 PRESFR 60000 T02830239 10294 20239 58018 (WRB),,,,,,,,,,,,,,,,,,,,,,,,,,,,
72208013880,2005-08-09T13:00:00,FM-12,4,,SE,0.25,mi,"TEMP, PRECIP, SNOW",,,"MMTS, SRG, SNOWBOARD",,,WFO CHS,,,,,,,,,,,,,,,,,,,,,,,,,,,,75,83,,,0.05,8,77,30.03,,29.98,9.94,77,150,,7,,,,,,,,,,,,,,,,,,,,,,,,,,,,,,,,,,,,,SYN098AAXX  09184 72208 12566 61506 10283 20239 30153 40168 58018 69901 91756 333 10294 20239 555 90918;,,,,,,,,,,,,,,,,,,,,,,,,,,,,
72208013880,2005-08-09T14:56:00,FM-15,7,,SE,0.25,mi,"TEMP, PRECIP, SNOW",,,"MMTS, SRG, SNOWBOARD",,,WFO CHS,,,,,,,,,,,,,,,,,,,,,,,,,,,30.01,74,85,0,,,,70,30.01,BKN:07 34 BKN:07 110,29.96,10,77,160,,13,,,,,,,,,,,,,,,,,,,,,,,,,,,,,,,,,,,,,MET10608/09/05 14:56:50 METAR KCHS 091956Z 16011KT 10SM BKN034 BKN110 29/23 A3001 RMK AO2 SLP161 T02940233 (WRB),,,,,,,,,,,,,,,,,,,,,,,,,,,,
72208013880,2005-08-09T17:56:00,FM-15,7,,SE,0.25,mi,"TEMP, PRECIP, SNOW",,,"MMTS, SRG, SNOWBOARD",,,WFO CHS,,,,,,,,,,,,,,,,,,,,,,,,,,,30,75,83,0,,,,77,30,FEW:02 22,29.95,10,77,160,,8,,,,,,,,,,,,,,,,,,,,,,,,,,,,,,,,,,,,,MET09808/09/05 17:56:50 METAR KCHS 092256Z 16007KT 10SM FEW022 28/24 A3000 RMK AO2 SLP158 T02830239 (WD),,,,,,,,,,,,,,,,,,,,,,,,,,,,
72208013880,2005-08-10T12:56:00,FM-15,7,,SE,0.25,mi,"TEMP, PRECIP, SNOW",,,"MMTS, SRG, SNOWBOARD",,,WFO CHS,,,,,,,,,,,,,,,,,,,,,,,,,,,30.01,74,89,0,,0.02,8,61,30.01,SCT:04 34,29.96,10,78,160,,10,,,,,,,,,,,,,,,,,,,,,,,,,,,,,,,,,,,,,MET12808/10/05 12:56:50 METAR KCHS 101756Z 16009KT 10SM SCT034TCU 32/23 A3001 RMK AO2 SLP161 TCU OHD T03170233 10322 20250 58008 (WRB),,,,,,,,,,,,,,,,,,,,,,,,,,,,
72208013880,2005-08-10T13:00:00,FM-12,4,,SE,0.25,mi,"TEMP, PRECIP, SNOW",,,"MMTS, SRG, SNOWBOARD",,,WFO CHS,,,,,,,,,,,,,,,,,,,,,,,,,,,,74,89,,,0.02,8,61,30.01,,29.96,9.94,78,160,21,10,,,,,,,,,,,,,,,,,,,,,,,,,,,,,,,,,,,,,SYN092AAXX  10184 72208 32666 41609 10317 20233 30146 40161 58008 91756 333 10322 20250 555 91018;,,,,,,,,,,,,,,,,,,,,,,,,,,,,
72208013880,2005-08-10T13:56:00,FM-15,7,,SE,0.25,mi,"TEMP, PRECIP, SNOW",,,"MMTS, SRG, SNOWBOARD",,,WFO CHS,,,,,,,,,,,,,,,,,,,,,,,,,,,30,75,86,0,,,,70,29.99,SCT:04 31,29.95,10,78,150,,9,,,,,,,,,,,,,,,,,,,,,,,,,,,,,,,,,,,,,MET11708/10/05 13:56:50 METAR KCHS 101856Z 15008KT 10SM SCT031CB 30/24 A3000 RMK AO2 SLP156 CB NW MOV STNRY T03000239 (WRB),,,,,,,,,,,,,,,,,,,,,,,,,,,,
72208013880,2005-08-10T15:56:00,FM-15,7,,SE,0.25,mi,"TEMP, PRECIP, SNOW",,,"MMTS, SRG, SNOWBOARD",,,WFO CHS,,,,,,,,,,,,,,,,,,,,,,,,,,,29.98,74,88,0,TS:7 |TS |TS,0.03,6,63,29.97,SCT:04 27,29.93,10,78,150,,8,,,,,,,,,,,,,,,,,,,,,,,,,,,,,,,,,,,,,MET14008/10/05 15:57:08 METAR KCHS 102056Z 15007KT 10SM TS SCT027CB 31/23 A2998 RMK AO2 TSB24 SLP150 OCNL LTGIC N TS N MOV NE T03110233 56010 (WD),,,,,,,,,,,,,,,,,,,,,,,,,,,,
72208013880,2005-08-10T16:00:00,FM-12,4,,SE,0.25,mi,"TEMP, PRECIP, SNOW",,,"MMTS, SRG, SNOWBOARD",,,WFO CHS,,,,,,,,,,,,,,,,,,,,,,,,,,,,74,88,,|TS |,0.03,6,63,29.97,,29.93,9.94,78,150,,8,,,,,,,,,,,,,,,,,,,,,,,,,,,,,,,,,,,,,SYN082AAXX  10214 72208 37566 41507 10311 20233 30136 40150 56010 790// 92056 555 91021;,,,,,,,,,,,,,,,,,,,,,,,,,,,,
72208013880,2005-08-10T16:56:00,FM-15,7,,SE,0.25,mi,"TEMP, PRECIP, SNOW",,,"MMTS, SRG, SNOWBOARD",,,WFO CHS,,,,,,,,,,,,,,,,,,,,,,,,,,,29.98,75,86,0,,,,70,29.98,FEW:02 32 SCT:04 50,29.93,10,78,150,,7,,,,,,,,,,,,,,,,,,,,,,,,,,,,,,,,,,,,,MET13808/10/05 16:56:50 METAR KCHS 102156Z 15006KT 10SM FEW032TCU SCT050 30/24 A2998 RMK AO2 TSE25 SLP152 TS MOV NE TCU NW AND NE T03000239 (WD),,,,,,,,,,,,,,,,,,,,,,,,,,,,
72208013880,2005-08-12T12:56:00,FM-15,7,,SE,0.25,mi,"TEMP, PRECIP, SNOW",,,"MMTS, SRG, SNOWBOARD",,,WFO CHS,,,,,,,,,,,,,,,,,,,,,,,,,,,30.04,78,84,0,HZ:7 ||HZ,0.03,8,82,30.04,BKN:07 34,29.99,4,80,150,,11,,,,,,,,,,,,,,,,,,,,,,,,,,,,,,,,,,,,,MET13608/12/05 12:56:50 METAR KCHS 121756Z 15010KT 4SM HZ BKN034CB 29/26 A3004 RMK AO2 SLP172 CB ALQDS MOV E T02890256 10311 20256 58010 (WRB),,,,,,,,,,,,,,,,,,,,,,,,,,,,
72208013880,2005-08-12T13:00:00,FM-12,4,,SE,0.25,mi,"TEMP, PRECIP, SNOW",,,"MMTS, SRG, SNOWBOARD",,,WFO CHS,,,,,,,,,,,,,,,,,,,,,,,,,,,,78,84,,||HZ,0.03,8,82,30.04,,29.99,3.73,80,150,,11,,,,,,,,,,,,,,,,,,,,,,,,,,,,,,,,,,,,,SYN098AAXX  12184 72208 31656 61510 10289 20256 30157 40172 58010 705// 91756 333 10311 20250 555 91218;,,,,,,,,,,,,,,,,,,,,,,,,,,,,
72208013880,2005-08-13T16:56:00,FM-15,7,,SE,0.25,mi,"TEMP, PRECIP, SNOW",,,"MMTS, SRG, SNOWBOARD",,,WFO CHS,,,,,,,,,,,,,,,,,,,,,,,,,,,29.95,79,86,0,VCTS:7 HZ:7 ||HZ TS,,,80,29.94,FEW:02 23 SCT:04 30,29.9,4,81,150,,10,,,,,,,,,,,,,,,,,,,,,,,,,,,,,,,,,,,,,MET14208/13/05 16:56:50 METAR KCHS 132156Z 15009KT 4SM VCTS HZ FEW023 SCT030CB 30/26 A2995 RMK AO2 SLP139 OCNL LTGIC E VC TS E MOV SE T03000261 (WD),,,,,,,,,,,,,,,,,,,,,,,,,,,,
72208013880,2005-08-15T15:56:00,FM-15,7,,SE,0.25,mi,"TEMP, PRECIP, SNOW",,,"MMTS, SRG, SNOWBOARD",,,WFO CHS,,,,,,,,,,,,,,,,,,,,,,,,,,,30.04,76,91,0,HZ:7 ||HZ,0.04,6,61,30.04,SCT:04 34 SCT:04 80,29.99,4,80,160,,9,,,,,,,,,,,,,,,,,,,,,,,,,,,,,,,,,,,,,MET11308/15/05 15:56:50 METAR KCHS 152056Z 16008KT 4SM HZ SCT034 SCT080 33/24 A3004 RMK AO2 SLP172 T03280244 56012 (JL),,,,,,,,,,,,,,,,,,,,,,,,,,,,
72208013880,2005-08-15T16:00:00,FM-12,4,,SE,0.25,mi,"TEMP, PRECIP, SNOW",,,"MMTS, SRG, SNOWBOARD",,,WFO CHS,,,,,,,,,,,,,,,,,,,,,,,,,,,,76,91,,|HZ |,0.04,6,61,30.04,,29.99,3.73,80,160,,9,,,,,,,,,,,,,,,,,,,,,,,,,,,,,,,,,,,,,SYN082AAXX  15214 72208 37656 41608 10328 20244 30157 40172 56012 704// 92056 555 91521;,,,,,,,,,,,,,,,,,,,,,,,,,,,,
72208013880,2005-08-15T17:56:00,FM-15,7,,SE,0.25,mi,"TEMP, PRECIP, SNOW",,,"MMTS, SRG, SNOWBOARD",,,WFO CHS,,,,,,,,,,,,,,,,,,,,,,,,,,,30.03,78,88,0,HZ:7 ||HZ,,,73,30.03,FEW:02 25 SCT:04 100,29.98,4,81,150,,9,,,,,,,,,,,,,,,,,,,,,,,,,,,,,,,,,,,,,MET10708/15/05 17:56:50 METAR KCHS 152256Z 15008KT 4SM HZ FEW025 SCT100 31/26 A3003 RMK AO2 SLP168 T03110256 (JL),,,,,,,,,,,,,,,,,,,,,,,,,,,,
72208013880,2005-08-22T11:56:00,FM-15,7,,SE,0.25,mi,"TEMP, PRECIP, SNOW",,,"MMTS, SRG, SNOWBOARD",,,WFO CHS,,,,,,,,,,,,,,,,,,,,,,,,,,,29.93,69,75,1.36,TS:7 s -RA:02 s |RA s TS s |SHRA TS,,,82,29.92,SCT:04 11 BKN:07 18,29.88,0.50s,71,150,,10,,,,,,,,,,,,,,,,,,,,,,,,,,,,,,,,,,,,,MET19908/22/05 11:56:51 METAR KCHS 221656Z 15009KT 1/2SM -TSRA SCT011 BKN018CB 24/21 A2993 RMK AO2 PK WND 06047/1606 WSHFT 1612 SFC VIS 3 PRESFR SLP133 FRQ LTGCGIC S-SW TS SW MOV SW P0142 T02390206 $ (WRB),,,,,,,,,,,,,,,,,,,,,,,,,,,,
72208013880,2005-08-22T15:56:00,FM-15,7,,SE,0.25,mi,"TEMP, PRECIP, SNOW",,,"MMTS, SRG, SNOWBOARD",,,WFO CHS,,,,,,,,,,,,,,,,,,,,,,,,,,,29.89,76,84,0,HZ:7 ||HZ,0.01,8,77,29.89,FEW:02 38,29.84,6,78,150,,8,,,,,,,,,,,,,,,,,,,,,,,,,,,,,,,,,,,,,MET10808/22/05 15:56:50 METAR KCHS 222056Z 15007KT 6SM HZ FEW038 29/24 A2989 RMK AO2 SLP121 T02890244 58005 $ (WD),,,,,,,,,,,,,,,,,,,,,,,,,,,,
72208013880,2005-08-22T16:00:00,FM-12,4,,SE,0.25,mi,"TEMP, PRECIP, SNOW",,,"MMTS, SRG, SNOWBOARD",,,WFO CHS,,,,,,,,,,,,,,,,,,,,,,,,,,,,76,84,,|HZ |,0.01,8,77,29.89,,29.84,5.59,78,150,,8,,,,,,,,,,,,,,,,,,,,,,,,,,,,,,,,,,,,,SYN082AAXX  22214 72208 37659 21507 10289 20244 30106 40121 58005 704// 92056 555 92221;,,,,,,,,,,,,,,,,,,,,,,,,,,,,
72208013880,2005-08-23T15:56:00,FM-15,7,,SE,0.25,mi,"TEMP, PRECIP, SNOW",,,"MMTS, SRG, SNOWBOARD",,,WFO CHS,,,,,,,,,,,,,,,,,,,,,,,,,,,29.9,80,87,0,HZ:7 ||HZ,0.03,8,80,29.89,FEW:02 15 SCT:04 95,29.85,6,82,150,,8,,,,,,,,,,,,,,,,,,,,,,,,,,,,,,,,,,,,,MET11908/23/05 15:56:50 METAR KCHS 232056Z 15007KT 6SM HZ FEW015 SCT095 31/27 A2990 RMK AO2 SLP123 60004 T03060267 58011 (WD),,,,,,,,,,,,,,,,,,,,,,,,,,,,
72208013880,2005-08-23T16:00:00,FM-12,4,,SE,0.25,mi,"TEMP, PRECIP, SNOW",,,"MMTS, SRG, SNOWBOARD",,,WFO CHS,,,,,,,,,,,,,,,,,,,,,,,,,,,,80,87,,|HZ |,0.03,8,80,29.89,,29.85,5.59,82,150,,8,,,,,,,,,,,,,,,,,,,,,,,,,,,,,,,,,,,,,SYN088AAXX  23214 72208 17459 41507 10306 20267 30109 40123 58011 60017 704// 92056 555 92321;,,,,,,,,,,,,,,,,,,,,,,,,,,,,
72208013880,2005-08-23T17:10:00,FM-16,7,,SE,0.25,mi,"TEMP, PRECIP, SNOW",,,"MMTS, SRG, SNOWBOARD",,,WFO CHS,,,,,,,,,,,,,,,,,,,,,,,,,,,29.9,77,84,T,TS:7 -RA:02 |RA TS |SHRA TS,,,79,,SCT:04 21 BKN:07 26,29.85,6,79,150,,8,,,,,,,,,,,,,,,,,,,,,,,,,,,,,,,,,,,,,MET13908/23/05 17:10:50 SPECI KCHS 232210Z 15007KT 6SM -TSRA SCT021CB BKN026 29/25 A2990 RMK AO2 TSB05RAB06 OCNL LTGIC SW TS SW MOV NE P0000 (WD),,,,,,,,,,,,,,,,,,,,,,,,,,,,
72208013880,2005-08-28T17:56:00,FM-15,7,,SE,0.25,mi,"TEMP, PRECIP, SNOW",,,"MMTS, SRG, SNOWBOARD",,,WFO CHS,,,,,,,,,,,,,,,,,,,,,,,,,,,29.87,75,85,0,,,,72,29.87,FEW:02 50,29.82,10,78,150,,7,,,,,,,,,,,,,,,,,,,,,,,,,,,,,,,,,,,,,MET09808/28/05 17:56:50 METAR KCHS 282256Z 15006KT 10SM FEW050 29/24 A2987 RMK AO2 SLP115 T02940239 (WD),,,,,,,,,,,,,,,,,,,,,,,,,,,,
72208013880,2005-08-29T13:56:00,FM-15,7,,SE,0.25,mi,"TEMP, PRECIP, SNOW",,,"MMTS, SRG, SNOWBOARD",,,WFO CHS,,,,,,,,,,,,,,,,,,,,,,,,,,,29.9,76,88,0,,,,68,29.89,SCT:04 37,29.85,10,79,150,,8,,,,,,,,,,,,,,,,,,,,,,,,,,,,,,,,,,,,,MET09908/29/05 13:56:50 METAR KCHS 291856Z 15007KT 10SM SCT037 31/24 A2990 RMK AO2 SLP123 T03110244 (WRB),,,,,,,,,,,,,,,,,,,,,,,,,,,,
72208013880,2005-08-29T14:56:00,FM-15,7,,SE,0.25,mi,"TEMP, PRECIP, SNOW",,,"MMTS, SRG, SNOWBOARD",,,WFO CHS,,,,,,,,,,,,,,,,,,,,,,,,,,,29.88,76,89,0,,,,65,29.88,FEW:02 37,29.83,10,80,150,,11,,,,,,,,,,,,,,,,,,,,,,,,,,,,,,,,,,,,,MET11308/29/05 14:56:50 METAR KCHS 291956Z 15010KT 10SM FEW037 32/24 A2988 RMK AO2 SLP118 TCU DSNT N-NE T03170244 (JRS),,,,,,,,,,,,,,,,,,,,,,,,,,,,
72208013880,2005-08-29T15:56:00,FM-15,7,,SE,0.25,mi,"TEMP, PRECIP, SNOW",,,"MMTS, SRG, SNOWBOARD",,,WFO CHS,,,,,,,,,,,,,,,,,,,,,,,,,,,29.88,75,87,0,,0.03,6,67,29.88,FEW:02 37 SCT:04 120,29.83,10,78,170,,10,,,,,,,,,,,,,,,,,,,,,,,,,,,,,,,,,,,,,MET12708/29/05 15:56:50 METAR KCHS 292056Z 17009KT 10SM FEW037 SCT120 31/24 A2988 RMK AO2 SLP117 TCU DSNT NW-NE T03060239 56009 (JRS),,,,,,,,,,,,,,,,,,,,,,,,,,,,
72208013880,2005-08-29T16:00:00,FM-12,4,,SE,0.25,mi,"TEMP, PRECIP, SNOW",,,"MMTS, SRG, SNOWBOARD",,,WFO CHS,,,,,,,,,,,,,,,,,,,,,,,,,,,,75,87,,,0.03,6,67,29.88,,29.83,9.94,78,170,,10,,,,,,,,,,,,,,,,,,,,,,,,,,,,,,,,,,,,,SYN076AAXX  29214 72208 35666 41709 10306 20239 30102 40117 56009 92056 555 92921;,,,,,,,,,,,,,,,,,,,,,,,,,,,,
72208013880,2005-08-29T17:56:00,FM-15,7,,SE,0.25,mi,"TEMP, PRECIP, SNOW",,,"MMTS, SRG, SNOWBOARD",,,WFO CHS,,,,,,,,,,,,,,,,,,,,,,,,,,,29.87,76,83,0,,,,79,29.86,,29.82,10,78,150,,8,,,,,,,,,,,,,,,,,,,,,,,,,,,,,,,,,,,,,MET09608/29/05 17:56:50 METAR KCHS 292256Z 15007KT 10SM CLR 28/24 A2987 RMK AO2 SLP112 T02830244 (JRS),,,,,,,,,,,,,,,,,,,,,,,,,,,,
72208013880,2005-09-17T16:56:00,FM-15,7,,SE,0.25,mi,"TEMP, PRECIP, SNOW",,,"MMTS, SRG, SNOWBOARD",,,WFO CHS,,,,,,,,,,,,,,,,,,,,,,,,,,,29.95,72,88,0,,,,59,29.94,FEW:02 60,29.9,7,77,170,,14,,,,,,,,,,,,,,,,,,,,,,,,,,,,,,,,,,,,,MET09809/17/05 16:56:50 METAR KCHS 172156Z 17012KT 7SM FEW060 31/22 A2995 RMK AO2 SLP140 T03110222 (JRS),,,,,,,,,,,,,,,,,,,,,,,,,,,,
72208013880,2005-09-18T14:42:00,FM-16,7,,SE,0.25,mi,"TEMP, PRECIP, SNOW",,,"MMTS, SRG, SNOWBOARD",,,WFO CHS,,,,,,,,,,,,,,,,,,,,,,,,,,,30,77,82,0.19,HZ:7 ||HZ,,,84,,FEW:02 17 SCT:04 34 BKN:07 60,29.95,5,78,160,,9,,,,,,,,,,,,,,,,,,,,,,,,,,,,,,,,,,,,,MET15109/18/05 14:42:57 SPECI KCHS 181942Z 16008KT 5SM HZ FEW017 SCT034 BKN060 28/25 A3000 RMK AO2 TSE37RAE35 OCNL LTGIC DSNT E TS MOV E CB DSNT E P0019 (JL),,,,,,,,,,,,,,,,,,,,,,,,,,,,
72208013880,2005-09-18T15:56:00,FM-15,7,,SE,0.25,mi,"TEMP, PRECIP, SNOW",,,"MMTS, SRG, SNOWBOARD",,,WFO CHS,,,,,,,,,,,,,,,,,,,,,,,,,,,30.01,76,84,0,HZ:7 ||HZ,0.01,5,77,30.01,FEW:02 50 SCT:04 110,29.96,4,78,170,,11,,,,,,,,,,,,,,,,,,,,,,,,,,,,,,,,,,,,,MET12009/18/05 15:56:50 METAR KCHS 182056Z 17010KT 4SM HZ FEW050 SCT110 29/24 A3001 RMK AO2 SLP161 60019 T02890244 55003 (JRS),,,,,,,,,,,,,,,,,,,,,,,,,,,,
72208013880,2005-09-18T16:00:00,FM-12,4,,SE,0.25,mi,"TEMP, PRECIP, SNOW",,,"MMTS, SRG, SNOWBOARD",,,WFO CHS,,,,,,,,,,,,,,,,,,,,,,,,,,,,76,84,,|HZ |,0.01,5,77,30.01,,29.96,3.73,78,170,,11,,,,,,,,,,,,,,,,,,,,,,,,,,,,,,,,,,,,,SYN088AAXX  18214 72208 17756 41710 10289 20244 30146 40161 55003 60057 704// 92056 555 91821;,,,,,,,,,,,,,,,,,,,,,,,,,,,,
72208013880,2005-09-19T12:56:00,FM-15,7,,SE,0.25,mi,"TEMP, PRECIP, SNOW",,,"MMTS, SRG, SNOWBOARD",,,WFO CHS,,,,,,,,,,,,,,,,,,,,,,,,,,,30.17,76,88,0,,0.03,8,67,30.17,FEW:02 27 SCT:04 34 SCT:04 50,30.12,9,79,150,,9,,,,,,,,,,,,,,,,,,,,,,,,,,,,,,,,,,,,,MET11909/19/05 12:56:50 METAR KCHS 191756Z 15008KT 9SM FEW027 SCT034 SCT050 31/24 A3017 RMK AO2 SLP216 T03120243 58009 $ (JL),,,,,,,,,,,,,,,,,,,,,,,,,,,,
72208013880,2005-09-19T13:00:00,FM-12,4,,SE,0.25,mi,"TEMP, PRECIP, SNOW",,,"MMTS, SRG, SNOWBOARD",,,WFO CHS,,,,,,,,,,,,,,,,,,,,,,,,,,,,76,88,,,0.03,8,67,30.17,,30.12,8.7,79,150,,9,,,,,,,,,,,,,,,,,,,,,,,,,,,,,,,,,,,,,SYN076AAXX  19184 72208 32564 41508 10312 20243 30201 40216 58009 91756 555 91918;,,,,,,,,,,,,,,,,,,,,,,,,,,,,
72208013880,2005-09-19T15:56:00,FM-15,7,,SE,0.25,mi,"TEMP, PRECIP, SNOW",,,"MMTS, SRG, SNOWBOARD",,,WFO CHS,,,,,,,,,,,,,,,,,,,,,,,,,,,30.14,75,85,0,,0.04,6,71,30.13,FEW:02 35,30.09,10,78,160,,10,,,,,,,,,,,,,,,,,,,,,,,,,,,,,,,,,,,,,MET10609/19/05 15:56:50 METAR KCHS 192056Z 16009KT 10SM FEW035 30/24 A3014 RMK AO2 SLP204 T02960238 56012 $ (WD),,,,,,,,,,,,,,,,,,,,,,,,,,,,
72208013880,2005-09-19T16:00:00,FM-12,4,,SE,0.25,mi,"TEMP, PRECIP, SNOW",,,"MMTS, SRG, SNOWBOARD",,,WFO CHS,,,,,,,,,,,,,,,,,,,,,,,,,,,,75,85,,,0.04,6,71,30.13,,30.09,9.94,78,160,,10,,,,,,,,,,,,,,,,,,,,,,,,,,,,,,,,,,,,,SYN076AAXX  19214 72208 35666 21609 10296 20238 30190 40204 56012 92056 555 91921;,,,,,,,,,,,,,,,,,,,,,,,,,,,,
72208013880,2005-09-19T16:56:00,FM-15,7,,SE,0.25,mi,"TEMP, PRECIP, SNOW",,,"MMTS, SRG, SNOWBOARD",,,WFO CHS,,,,,,,,,,,,,,,,,,,,,,,,,,,30.15,76,83,0,,,,77,30.14,FEW:02 45,30.1,10,78,150,,10,,,,,,,,,,,,,,,,,,,,,,,,,,,,,,,,,,,,,MET10009/19/05 16:56:50 METAR KCHS 192156Z 15009KT 10SM FEW045 29/24 A3015 RMK AO2 SLP207 T02860242 $ (WD),,,,,,,,,,,,,,,,,,,,,,,,,,,,
72208013880,2005-09-19T17:56:00,FM-15,7,,SE,0.25,mi,"TEMP, PRECIP, SNOW",,,"MMTS, SRG, SNOWBOARD",,,WFO CHS,,,,,,,,,,,,,,,,,,,,,,,,,,,30.14,74,82,0,,,,77,30.14,FEW:02 18,30.09,10,76,150,,9,,,,,,,,,,,,,,,,,,,,,,,,,,,,,,,,,,,,,MET10009/19/05 17:56:50 METAR KCHS 192256Z 15008KT 10SM FEW018 28/24 A3014 RMK AO2 SLP207 T02790235 $ (WD),,,,,,,,,,,,,,,,,,,,,,,,,,,,
72208013880,2005-09-22T15:56:00,FM-15,7,,SE,0.25,mi,"TEMP, PRECIP, SNOW",,,"MMTS, SRG, SNOWBOARD",,,WFO CHS,,,,,,,,,,,,,,,,,,,,,,,,,,,30.03,70,85,0,,0.02,6,61,30.03,SCT:04 37,29.98,10,75,150,,11,,,,,,,,,,,,,,,,,,,,,,,,,,,,,,,,,,,,,MET11709/22/05 15:56:50 METAR KCHS 222056Z 15010KT 10SM SCT037 29/21 A3003 RMK AO2 SLP170 CB DSNT NE-N T02940211 56008 (WD),,,,,,,,,,,,,,,,,,,,,,,,,,,,
72208013880,2005-09-22T16:00:00,FM-12,4,,SE,0.25,mi,"TEMP, PRECIP, SNOW",,,"MMTS, SRG, SNOWBOARD",,,WFO CHS,,,,,,,,,,,,,,,,,,,,,,,,,,,,70,85,,,0.02,6,61,30.03,,29.98,9.94,75,150,,11,,,,,,,,,,,,,,,,,,,,,,,,,,,,,,,,,,,,,SYN076AAXX  22214 72208 35666 41510 10294 20211 30153 40170 56008 92056 555 92221;,,,,,,,,,,,,,,,,,,,,,,,,,,,,
72208013880,2005-09-23T14:56:00,FM-15,7,,SE,0.25,mi,"TEMP, PRECIP, SNOW",,,"MMTS, SRG, SNOWBOARD",,,WFO CHS,,,,,,,,,,,,,,,,,,,,,,,,,,,30.04,72,86,0,,,,63,30.03,SCT:04 33 BKN:07 45,29.99,10,76,160,,9,,,,,,,,,,,,,,,,,,,,,,,,,,,,,,,,,,,,,MET12209/23/05 14:56:50 METAR KCHS 231956Z 16008KT 10SM SCT033TCU BKN045 30/22 A3004 RMK AO2 SLP170 TCU SW AND SE T03000222 (WD),,,,,,,,,,,,,,,,,,,,,,,,,,,,
72208013880,2005-09-23T16:56:00,FM-15,7,,SE,0.25,mi,"TEMP, PRECIP, SNOW",,,"MMTS, SRG, SNOWBOARD",,,WFO CHS,,,,,,,,,,,,,,,,,,,,,,,,,,,30.03,71,84,T,,,,65,30.03,FEW:02 29,29.98,10,75,150,,10,,,,,,,,,,,,,,,,,,,,,,,,,,,,,,,,,,,,,MET11109/23/05 16:56:50 METAR KCHS 232156Z 15009KT 10SM FEW029 29/22 A3003 RMK AO2 RAE06 SLP170 P0000 T02890217 (WRB),,,,,,,,,,,,,,,,,,,,,,,,,,,,
72208013880,2005-09-23T17:56:00,FM-15,7,,SE,0.25,mi,"TEMP, PRECIP, SNOW",,,"MMTS, SRG, SNOWBOARD",,,WFO CHS,,,,,,,,,,,,,,,,,,,,,,,,,,,30.04,72,80,0,,,,76,30.04,FEW:02 20,29.99,10,75,150,,7,,,,,,,,,,,,,,,,,,,,,,,,,,,,,,,,,,,,,MET09909/23/05 17:56:50 METAR KCHS 232256Z 15006KT 10SM FEW020 27/22 A3004 RMK AO2 SLP173 T02670222 (WRB),,,,,,,,,,,,,,,,,,,,,,,,,,,,
72208013880,2005-09-25T13:56:00,FM-15,7,,SE,0.25,mi,"TEMP, PRECIP, SNOW",,,"MMTS, SRG, SNOWBOARD",,,WFO CHS,,,,,,,,,,,,,,,,,,,,,,,,,,,30.13,72,85,0,,,,65,30.12,SCT:04 32 BKN:07 110,30.08,8,76,160,,11,,,,,,,,,,,,,,,,,,,,,,,,,,,,,,,,,,,,,MET11609/25/05 13:56:50 METAR KCHS 251856Z 16010KT 8SM SCT032 BKN110 29/22 A3013 RMK AO2 SLP201 TCU DSNT N T02940222 (WRB),,,,,,,,,,,,,,,,,,,,,,,,,,,,
72208013880,2005-10-06T12:56:00,FM-15,7,,SE,0.25,mi,"TEMP, PRECIP, SNOW",,,"MMTS, SRG, SNOWBOARD",,,WFO CHS,,,,,,,,,,,,,,,,,,,,,,,,,,,29.82,77,83,T,,0.05,8,82,29.82,BKN:07 15 BKN:07 50,29.77,10,79,150,,7,,,,,,,,,,,,,,,,,,,,,,,,,,,,,,,,,,,,,MET16210/06/05 12:56:51 METAR KCHS 061756Z 15006KT 10SM BKN015TCU BKN050 28/25 A2982 RMK AO2 RAB18E28 SLP099 TCU N-SE VCSH P0000 60090 T02830250 10289 20239 58016 (WRB),,,,,,,,,,,,,,,,,,,,,,,,,,,,
72208013880,2005-10-06T13:00:00,SY-MT,4,,SE,0.25,mi,"TEMP, PRECIP, SNOW",,,"MMTS, SRG, SNOWBOARD",,,WFO CHS,,,,,,,,,,,,,,,,,,,,,,,,,,,29.82,77,83,T,,0.05,8,82,29.82,BKN:07 15 BKN:07 49,29.77,9.94,79,150,,7,,,,,,,,,,,,,,,,,,,,,,,,,,,,,,,,,,,,,SYN098AAXX  06184 72208 12466 61506 10283 20250 30082 40099 58016 60231 91756 333 10289 20228 555 90618;MET133KCHS 061756Z 15006KT 10SM BKN015TCU BKN050 28/25 A2982 RMK AO2 RAB18E28 SLP099 TCU N-SE VCSH P0000 60090 T02830250 10289 20239 58016;,,,,,,,,,,,,,,,,,,,,,,,,,,,,
72208013880,2005-10-06T13:56:00,FM-15,7,,SE,0.25,mi,"TEMP, PRECIP, SNOW",,,"MMTS, SRG, SNOWBOARD",,,WFO CHS,,,,,,,,,,,,,,,,,,,,,,,,,,,29.81,77,81,0.01,-RA:02 |RA |RA,,,88,29.8,BKN:07 17,29.76,10,78,150,,15,,,,,,,,,,,,,,,,,,,,,,,,,,,,,,,,,,,,,MET13410/06/05 13:56:50 METAR KCHS 061856Z 15013KT 10SM -RA BKN017TCU 27/25 A2981 RMK AO2 RAB32 SLP093 TCU OHD AND S-N P0001 T02720250 (WRB),,,,,,,,,,,,,,,,,,,,,,,,,,,,
72208013880,2005-10-06T14:40:00,FM-16,7,,SE,0.25,mi,"TEMP, PRECIP, SNOW",,,"MMTS, SRG, SNOWBOARD",,,WFO CHS,,,,,,,,,,,,,,,,,,,,,,,,,,,29.81,77,84,T,,,,79,,SCT:04 17 BKN:07 65,29.76,10,79,160,,14,,,,,,,,,,,,,,,,,,,,,,,,,,,,,,,,,,,,,MET12310/06/05 14:40:50 SPECI KCHS 061940Z 16012KT 10SM SCT017CB BKN065 29/25 A2981 RMK AO2 RAE09 CB N MOV N TCU E-NW P0000 (WRB),,,,,,,,,,,,,,,,,,,,,,,,,,,,
72208013880,2005-10-06T14:56:00,FM-15,7,,SE,0.25,mi,"TEMP, PRECIP, SNOW",,,"MMTS, SRG, SNOWBOARD",,,WFO CHS,,,,,,,,,,,,,,,,,,,,,,,,,,,29.8,77,83,T,,,,82,29.8,BKN:07 17 BKN:07 65,29.75,10,79,170,,14,,,,,,,,,,,,,,,,,,,,,,,,,,,,,,,,,,,,,MET13110/06/05 14:56:50 METAR KCHS 061956Z 17012KT 10SM BKN017TCU BKN065 28/25 A2980 RMK AO2 RAE09 SLP091 TCU ALQDS P0000 T02830250 (WRB),,,,,,,,,,,,,,,,,,,,,,,,,,,,
72208013880,2005-10-06T15:18:00,FM-16,7,,SE,0.25,mi,"TEMP, PRECIP, SNOW",,,"MMTS, SRG, SNOWBOARD",,,WFO CHS,,,,,,,,,,,,,,,,,,,,,,,,,,,29.8,77,84,0.01,,,,79,,FEW:02 17 SCT:04 29 BKN:07 65,29.75,10,79,150,,13,,,,,,,,,,,,,,,,,,,,,,,,,,,,,,,,,,,,,MET12610/06/05 15:18:50 SPECI KCHS 062018Z 15011KT 10SM FEW017 SCT029TCU BKN065 29/25 A2980 RMK AO2 RAB1959E12 TCU NE-N-W P0001 (WD),,,,,,,,,,,,,,,,,,,,,,,,,,,,
72208013880,2005-10-06T15:56:00,FM-15,7,,SE,0.25,mi,"TEMP, PRECIP, SNOW",,,"MMTS, SRG, SNOWBOARD",,,WFO CHS,,,,,,,,,,,,,,,,,,,,,,,,,,,29.8,77,82,0.01,,0.03,6,85,29.8,FEW:02 14 SCT:04 35,29.75,10,78,150,,15,,,,,,,,,,,,,,,,,,,,,,,,,,,,,,,,,,,,,MET14710/06/05 15:56:50 METAR KCHS 062056Z 15013KT 10SM FEW014 SCT035TCU 28/25 A2980 RMK AO2 RAB1959E12 SLP090 TCU NW-NE P0001 60002 T02780250 56009 (WD),,,,,,,,,,,,,,,,,,,,,,,,,,,,
72208013880,2005-10-06T16:00:00,SY-MT,4,,SE,0.25,mi,"TEMP, PRECIP, SNOW",,,"MMTS, SRG, SNOWBOARD",,,WFO CHS,,,,,,,,,,,,,,,,,,,,,,,,,,,29.8,77,82,0.01,,0.03,6,85,29.8,FEW:02 14 SCT:04 34,29.75,9.94,78,150,,15,,,,,,,,,,,,,,,,,,,,,,,,,,,,,,,,,,,,,SYN082AAXX  06214 72208 15466 41513 10278 20250 30075 40090 56009 69957 92056 555 90621;MET119KCHS 062056Z 15013KT 10SM FEW014 SCT035TCU 28/25 A2980 RMK AO2 RAB1959E12 SLP090 TCU NW-NE P0001 60002 T02780250 56009;,,,,,,,,,,,,,,,,,,,,,,,,,,,,
72208013880,2005-10-07T15:56:00,FM-15,7,,SE,0.25,mi,"TEMP, PRECIP, SNOW",,,"MMTS, SRG, SNOWBOARD",,,WFO CHS,,,,,,,,,,,,,,,,,,,,,,,,,,,29.67,76,80,0,,0.05,5,87,29.67,SCT:04 12 BKN:07 18 OVC:08 41,29.62,10,77,150,,10,,,,,,,,,,,,,,,,,,,,,,,,,,,,,,,,,,,,,MET12410/07/05 15:56:50 METAR KCHS 072056Z 15009KT 10SM SCT012 BKN018 OVC041 27/24 A2967 RMK AO2 SLP047 60003 T02670244 55016 (WD),,,,,,,,,,,,,,,,,,,,,,,,,,,,
72208013880,2005-10-07T16:00:00,FM-12,4,,SE,0.25,mi,"TEMP, PRECIP, SNOW",,,"MMTS, SRG, SNOWBOARD",,,WFO CHS,,,,,,,,,,,,,,,,,,,,,,,,,,,29.67,76,80,,,0.05,5,87,29.67,,29.62,9.94,77,150,,10,,,,,,,,,,,,,,,,,,,,,,,,,,,,,,,,,,,,,SYN082AAXX  07214 72208 15466 81509 10267 20244 30031 40047 55016 69987 92056 555 90721;,,,,,,,,,,,,,,,,,,,,,,,,,,,,
72208013880,2005-10-07T16:24:00,FM-16,7,,SE,0.25,mi,"TEMP, PRECIP, SNOW",,,"MMTS, SRG, SNOWBOARD",,,WFO CHS,,,,,,,,,,,,,,,,,,,,,,,,,,,29.67,77,79,T,-RA:02 |RA |RA,,,94,,BKN:07 14 BKN:07 20 OVC:08 39,29.62,10,78,150,,10,,,,,,,,,,,,,,,,,,,,,,,,,,,,,,,,,,,,,MET11110/07/05 16:24:50 SPECI KCHS 072124Z 15009KT 10SM -RA BKN014 BKN020 OVC039 26/25 A2967 RMK AO2 RAB00 P0000 (WD),,,,,,,,,,,,,,,,,,,,,,,,,,,,
72208013880,2005-10-07T16:56:00,FM-15,7,,SE,0.25,mi,"TEMP, PRECIP, SNOW",,,"MMTS, SRG, SNOWBOARD",,,WFO CHS,,,,,,,,,,,,,,,,,,,,,,,,,,,29.66,76,79,T,,,,90,29.66,BKN:07 11 BKN:07 23 OVC:08 55,29.61,10,77,150,,13,,,,,,,,,,,,,,,,,,,,,,,,,,,,,,,,,,,,,MET12710/07/05 16:56:50 METAR KCHS 072156Z 15011KT 10SM BKN011 BKN023 OVC055 26/24 A2966 RMK AO2 RAB00E50 SLP044 P0000 T02610244 (WD),,,,,,,,,,,,,,,,,,,,,,,,,,,,
72208013880,2005-10-07T17:45:00,FM-16,7,,SE,0.25,mi,"TEMP, PRECIP, SNOW",,,"MMTS, SRG, SNOWBOARD",,,WFO CHS,,,,,,,,,,,,,,,,,,,,,,,,,,,29.67,77,79,0.04,,,,94,,SCT:04 9 BKN:07 13 OVC:08 47,29.62,10,78,160,,10,,,,,,,,,,,,,,,,,,,,,,,,,,,,,,,,,,,,,MET11010/07/05 17:45:50 SPECI KCHS 072245Z 16009KT 10SM SCT009 BKN013 OVC047 26/25 A2967 RMK AO2 RAB08E43 P0004 (WD),,,,,,,,,,,,,,,,,,,,,,,,,,,,
72208013880,2005-10-09T15:56:00,FM-15,7,,SE,0.25,mi,"TEMP, PRECIP, SNOW",,,"MMTS, SRG, SNOWBOARD",,,WFO CHS,,,,,,,,,,,,,,,,,,,,,,,,,,,29.78,74,83,0,,0,5,74,29.78,SCT:04 37 BKN:07 60,29.73,10,77,150,,10,,,,,,,,,,,,,,,,,,,,,,,,,,,,,,,,,,,,,MET11310/09/05 15:56:50 METAR KCHS 092056Z 15009KT 10SM SCT037 BKN060 28/23 A2978 RMK AO2 SLP083 T02840233 55001 $ (WD),,,,,,,,,,,,,,,,,,,,,,,,,,,,
72208013880,2005-10-09T16:00:00,FM-12,4,,SE,0.25,mi,"TEMP, PRECIP, SNOW",,,"MMTS, SRG, SNOWBOARD",,,WFO CHS,,,,,,,,,,,,,,,,,,,,,,,,,,,29.78,74,83,,,0,5,74,29.78,,29.73,9.94,77,150,,10,,,,,,,,,,,,,,,,,,,,,,,,,,,,,,,,,,,,,SYN076AAXX  09214 72208 35666 61509 10284 20233 30069 40083 55001 92056 555 90921;,,,,,,,,,,,,,,,,,,,,,,,,,,,,
72208013880,2005-10-21T13:56:00,FM-15,7,,SE,0.25,mi,"TEMP, PRECIP, SNOW",,,"MMTS, SRG, SNOWBOARD",,,WFO CHS,,,,,,,,,,,,,,,,,,,,,,,,,,,29.87,72,81,T,,,,74,29.87,SCT:04 38 BKN:07 90,29.82,10,75,150,,14,,,,,,,,,,,,,,,,,,,,,,,,,,,,,,,,,,,,,MET12410/21/05 13:56:50 METAR KCHS 211856Z 15012KT 10SM SCT038TCU BKN090 27/22 A2987 RMK AO2 SLP115 TCU ALQDS VCSH T02720222 (WRB),,,,,,,,,,,,,,,,,,,,,,,,,,,,
72208013880,2005-10-21T15:22:00,FM-16,6,,SE,0.25,mi,"TEMP, PRECIP, SNOW",,,"MMTS, SRG, SNOWBOARD",,,WFO CHS,,,,,,,,,,,,,,,,,,,,,,,,,,,29.86,72,81,,,,,74,,SCT:04 30 BKN:07 70,29.81,10,75,170,,13,,,,,,,,,,,,,,,,,,,,,,,,,,,,,,,,,,,,,MET12410/21/05 15:22:54 SPECI KCHS 212022Z 17011KT 10SM SCT030 BKN070 27/22 A2986 RMK AO2 TSE17 TS MOV NE CB DSNT N-NE AND S (WRB),,,,,,,,,,,,,,,,,,,,,,,,,,,,
72208013880,2005-10-21T15:56:00,FM-15,7,,SE,0.25,mi,"TEMP, PRECIP, SNOW",,,"MMTS, SRG, SNOWBOARD",,,WFO CHS,,,,,,,,,,,,,,,,,,,,,,,,,,,29.86,72,80,0,,0.03,5,76,29.86,FEW:02 25 SCT:04 80,29.81,10,75,170,,10,,,,,,,,,,,,,,,,,,,,,,,,,,,,,,,,,,,,,MET13310/21/05 15:57:08 METAR KCHS 212056Z 17009KT 10SM FEW025 SCT080 27/22 A2986 RMK AO2 TSE17 SLP112 TS MOV NE 60004 T02670222 55011 (WD),,,,,,,,,,,,,,,,,,,,,,,,,,,,
72208013880,2005-10-21T16:00:00,FM-12,4,,SE,0.25,mi,"TEMP, PRECIP, SNOW",,,"MMTS, SRG, SNOWBOARD",,,WFO CHS,,,,,,,,,,,,,,,,,,,,,,,,,,,,72,80,,,0.03,5,76,29.86,,29.81,9.94,75,170,,10,,,,,,,,,,,,,,,,,,,,,,,,,,,,,,,,,,,,,SYN082AAXX  21214 72208 15566 41709 10267 20222 30096 40112 55011 60017 92056 555 92121;,,,,,,,,,,,,,,,,,,,,,,,,,,,,
72208013880,2005-10-21T16:56:00,FM-15,7,,SE,0.25,mi,"TEMP, PRECIP, SNOW",,,"MMTS, SRG, SNOWBOARD",,,WFO CHS,,,,,,,,,,,,,,,,,,,,,,,,,,,29.86,73,78,0,,,,85,29.86,SCT:04 15 BKN:07 70,29.81,10,75,150,,10,,,,,,,,,,,,,,,,,,,,,,,,,,,,,,,,,,,,,MET11510/21/05 16:56:50 METAR KCHS 212156Z 15009KT 10SM SCT015 BKN070 26/23 A2986 RMK AO2 SLP112 CB DSNT W T02560228 (WD),,,,,,,,,,,,,,,,,,,,,,,,,,,,
72208013880,2005-10-21T17:26:00,FM-16,7,,SE,0.25,mi,"TEMP, PRECIP, SNOW",,,"MMTS, SRG, SNOWBOARD",,,WFO CHS,,,,,,,,,,,,,,,,,,,,,,,,,,,29.87,73,77,,,,,89,,BKN:07 13 OVC:08 70,29.82,10,74,150,,7,,,,,,,,,,,,,,,,,,,,,,,,,,,,,,,,,,,,,MET09910/21/05 17:27:07 SPECI KCHS 212226Z 15006KT 10SM BKN013 OVC070 25/23 A2987 RMK AO2 CB DSNT NW (WD),,,,,,,,,,,,,,,,,,,,,,,,,,,,
72208013880,2005-11-06T17:56:00,FM-15,7,,SE,0.25,mi,"TEMP, PRECIP, SNOW",,,"MMTS, SRG, SNOWBOARD",,,WFO CHS,,,,,,,,,,,,,,,,,,,,,,,,,,,30.11,62,68,0,,,,81,30.11,,30.06,10,64,170,,7,,,,,,,,,,,,,,,,,,,,,,,,,,,,,,,,,,,,,MET09611/06/05 17:56:50 METAR KCHS 062256Z 17006KT 10SM CLR 20/17 A3011 RMK AO2 SLP196 T02000167 (JRS),,,,,,,,,,,,,,,,,,,,,,,,,,,,
72208013880,2005-11-13T14:56:00,FM-15,7,,SE,0.25,mi,"TEMP, PRECIP, SNOW",,,"MMTS, SRG, SNOWBOARD",,,WFO CHS,,,,,,,,,,,,,,,,,,,,,,,,,,,30.29,56,77,0,,,,48,30.28,FEW:02 49 BKN:07 70,30.24,10,64,160,,7,,,,,,,,,,,,,,,,,,,,,,,,,,,,,,,,,,,,,MET10611/13/05 14:56:50 METAR KCHS 131956Z 16006KT 10SM FEW049 BKN070 25/13 A3029 RMK AO2 SLP255 T02500133 (WRB),,,,,,,,,,,,,,,,,,,,,,,,,,,,
72208013880,2005-11-13T15:56:00,FM-15,7,,SE,0.25,mi,"TEMP, PRECIP, SNOW",,,"MMTS, SRG, SNOWBOARD",,,WFO CHS,,,,,,,,,,,,,,,,,,,,,,,,,,,30.28,55,75,0,,0.03,6,50,30.28,SCT:04 55 BKN:07 80,30.23,10,63,160,,7,,,,,,,,,,,,,,,,,,,,,,,,,,,,,,,,,,,,,MET11111/13/05 15:56:51 METAR KCHS 132056Z 16006KT 10SM SCT055 BKN080 24/13 A3028 RMK AO2 SLP253 T02390128 56009 (JL),,,,,,,,,,,,,,,,,,,,,,,,,,,,
72208013880,2005-11-13T16:00:00,FM-12,4,,SE,0.25,mi,"TEMP, PRECIP, SNOW",,,"MMTS, SRG, SNOWBOARD",,,WFO CHS,,,,,,,,,,,,,,,,,,,,,,,,,,,,55,75,,,0.03,6,50,30.28,,30.23,9.94,63,160,,7,,,,,,,,,,,,,,,,,,,,,,,,,,,,,,,,,,,,,SYN076AAXX  13214 72208 35766 61606 10239 20128 30238 40253 56009 92056 555 91321;,,,,,,,,,,,,,,,,,,,,,,,,,,,,
72208013880,2005-11-14T12:56:00,FM-15,7,,SE,0.25,mi,"TEMP, PRECIP, SNOW",,,"MMTS, SRG, SNOWBOARD",,,WFO CHS,,,,,,,,,,,,,,,,,,,,,,,,,,,30.27,63,76,0,,0.05,8,64,30.27,BKN:07 31 BKN:07 95,30.22,10,68,160,,10,,,,,,,,,,,,,,,,,,,,,,,,,,,,,,,,,,,,,MET12311/14/05 12:56:51 METAR KCHS 141756Z 16009KT 10SM BKN031 BKN095 24/17 A3027 RMK AO2 SLP249 T02440172 10256 20122 58017 (JL),,,,,,,,,,,,,,,,,,,,,,,,,,,,
72208013880,2005-11-14T13:00:00,FM-12,4,,SE,0.25,mi,"TEMP, PRECIP, SNOW",,,"MMTS, SRG, SNOWBOARD",,,WFO CHS,,,,,,,,,,,,,,,,,,,,,,,,,,,,63,76,,,0.05,8,64,30.27,,30.22,9.94,68,160,,10,,,,,,,,,,,,,,,,,,,,,,,,,,,,,,,,,,,,,SYN092AAXX  14184 72208 32566 61609 10244 20172 30234 40249 58017 91756 333 10256 20122 555 91418;,,,,,,,,,,,,,,,,,,,,,,,,,,,,
72208013880,2005-11-14T13:56:00,FM-15,7,,SE,0.25,mi,"TEMP, PRECIP, SNOW",,,"MMTS, SRG, SNOWBOARD",,,WFO CHS,,,,,,,,,,,,,,,,,,,,,,,,,,,30.25,62,76,0,,,,62,30.24,SCT:04 31 SCT:04 45 BKN:07 70,30.2,10,67,170,,9,,,,,,,,,,,,,,,,,,,,,,,,,,,,,,,,,,,,,MET11711/14/05 13:56:51 METAR KCHS 141856Z 17008KT 10SM SCT031 SCT045 BKN070 24/17 A3025 RMK AO2 SLP242 VCSH T02440167 (JL),,,,,,,,,,,,,,,,,,,,,,,,,,,,
72208013880,2005-11-14T14:56:00,FM-15,7,,SE,0.25,mi,"TEMP, PRECIP, SNOW",,,"MMTS, SRG, SNOWBOARD",,,WFO CHS,,,,,,,,,,,,,,,,,,,,,,,,,,,30.24,63,75,0,,,,66,30.23,SCT:04 28 BKN:07 70,30.19,10,67,170,,9,,,,,,,,,,,,,,,,,,,,,,,,,,,,,,,,,,,,,MET10511/14/05 14:56:50 METAR KCHS 141956Z 17008KT 10SM SCT028 BKN070 24/17 A3024 RMK AO2 SLP238 T02390172 (JL),,,,,,,,,,,,,,,,,,,,,,,,,,,,
72208013880,2005-11-14T15:56:00,FM-15,7,,SE,0.25,mi,"TEMP, PRECIP, SNOW",,,"MMTS, SRG, SNOWBOARD",,,WFO CHS,,,,,,,,,,,,,,,,,,,,,,,,,,,30.23,63,74,0,,0.04,6,69,30.23,FEW:02 28 BKN:07 80,30.18,10,67,170,,7,,,,,,,,,,,,,,,,,,,,,,,,,,,,,,,,,,,,,MET11111/14/05 15:56:50 METAR KCHS 142056Z 17006KT 10SM FEW028 BKN080 23/17 A3023 RMK AO2 SLP237 T02330172 56012 (JL),,,,,,,,,,,,,,,,,,,,,,,,,,,,
72208013880,2005-11-14T16:00:00,FM-12,4,,SE,0.25,mi,"TEMP, PRECIP, SNOW",,,"MMTS, SRG, SNOWBOARD",,,WFO CHS,,,,,,,,,,,,,,,,,,,,,,,,,,,,63,74,,,0.04,6,69,30.23,,30.18,9.94,67,170,,7,,,,,,,,,,,,,,,,,,,,,,,,,,,,,,,,,,,,,SYN076AAXX  14214 72208 35566 61706 10233 20172 30221 40237 56012 92056 555 91421;,,,,,,,,,,,,,,,,,,,,,,,,,,,,
72208013880,2005-11-15T10:56:00,FM-15,7,,SE,0.25,mi,"TEMP, PRECIP, SNOW",,,"MMTS, SRG, SNOWBOARD",,,WFO CHS,,,,,,,,,,,,,,,,,,,,,,,,,,,30.26,65,78,0,,,,64,30.26,FEW:02 36 SCT:04 65 BKN:07 95,30.21,10,70,150,,11,,,,,,,,,,,,,,,,,,,,,,,,,,,,,,,,,,,,,MET11211/15/05 10:56:50 METAR KCHS 151556Z 15010KT 10SM FEW036 SCT065 BKN095 26/18 A3026 RMK AO2 SLP247 T02560183 (JL),,,,,,,,,,,,,,,,,,,,,,,,,,,,
72208013880,2005-11-15T11:56:00,FM-15,7,,SE,0.25,mi,"TEMP, PRECIP, SNOW",,,"MMTS, SRG, SNOWBOARD",,,WFO CHS,,,,,,,,,,,,,,,,,,,,,,,,,,,30.24,64,79,0,,,,60,30.24,FEW:02 29 SCT:04 50 SCT:04 95,30.19,10,69,160,,11,,,,,,,,,,,,,,,,,,,,,,,,,,,,,,,,,,,,,MET11211/15/05 11:56:50 METAR KCHS 151656Z 16010KT 10SM FEW029 SCT050 SCT095 26/18 A3024 RMK AO2 SLP239 T02610178 (JL),,,,,,,,,,,,,,,,,,,,,,,,,,,,
72208013880,2005-11-15T12:56:00,FM-15,7,,SE,0.25,mi,"TEMP, PRECIP, SNOW",,,"MMTS, SRG, SNOWBOARD",,,WFO CHS,,,,,,,,,,,,,,,,,,,,,,,,,,,30.21,63,79,0,,0.05,8,58,30.21,SCT:04 33 BKN:07 55 BKN:07 95,30.16,10,69,150,,14,,,,,,,,,,,,,,,,,,,,,,,,,,,,,,,,,,,,,MET14111/15/05 12:56:51 METAR KCHS 151756Z 15012KT 10SM SCT033 BKN055 BKN095 26/17 A3021 RMK AO2 SLP231 VCSH 60000 T02610172 10267 20189 58018 (JL),,,,,,,,,,,,,,,,,,,,,,,,,,,,
72208013880,2005-11-15T13:00:00,FM-12,4,,SE,0.25,mi,"TEMP, PRECIP, SNOW",,,"MMTS, SRG, SNOWBOARD",,,WFO CHS,,,,,,,,,,,,,,,,,,,,,,,,,,,,63,79,,,0.05,8,58,30.21,,30.16,9.94,69,150,,14,,,,,,,,,,,,,,,,,,,,,,,,,,,,,,,,,,,,,SYN098AAXX  15184 72208 12566 61512 10261 20172 30214 40231 58018 69901 91756 333 10267 20189 555 91518;,,,,,,,,,,,,,,,,,,,,,,,,,,,,
72208013880,2005-11-15T14:56:00,FM-15,7,,SE,0.25,mi,"TEMP, PRECIP, SNOW",,,"MMTS, SRG, SNOWBOARD",,,WFO CHS,,,,,,,,,,,,,,,,,,,,,,,,,,,30.18,63,77,0,,,,62,30.18,SCT:04 33,30.13,10,68,160,,11,,,,,,,,,,,,,,,,,,,,,,,,,,,,,,,,,,,,,MET09811/15/05 14:56:50 METAR KCHS 151956Z 16010KT 10SM SCT033 25/17 A3018 RMK AO2 SLP220 T02500172 (JL),,,,,,,,,,,,,,,,,,,,,,,,,,,,
72208013880,2005-11-15T15:56:00,FM-15,7,,SE,0.25,mi,"TEMP, PRECIP, SNOW",,,"MMTS, SRG, SNOWBOARD",,,WFO CHS,,,,,,,,,,,,,,,,,,,,,,,,,,,30.18,64,77,0,,0.04,6,64,30.17,SCT:04 31 SCT:04 95,30.13,10,69,150,,11,,,,,,,,,,,,,,,,,,,,,,,,,,,,,,,,,,,,,MET11111/15/05 15:56:50 METAR KCHS 152056Z 15010KT 10SM SCT031 SCT095 25/18 A3018 RMK AO2 SLP218 T02500178 56012 (JL),,,,,,,,,,,,,,,,,,,,,,,,,,,,
72208013880,2005-11-15T16:00:00,FM-12,4,,SE,0.25,mi,"TEMP, PRECIP, SNOW",,,"MMTS, SRG, SNOWBOARD",,,WFO CHS,,,,,,,,,,,,,,,,,,,,,,,,,,,,64,77,,,0.04,6,64,30.17,,30.13,9.94,69,150,,11,,,,,,,,,,,,,,,,,,,,,,,,,,,,,,,,,,,,,SYN076AAXX  15214 72208 35566 41510 10250 20178 30204 40218 56012 92056 555 91521;,,,,,,,,,,,,,,,,,,,,,,,,,,,,
72208013880,2005-11-15T16:56:00,FM-15,7,,SE,0.25,mi,"TEMP, PRECIP, SNOW",,,"MMTS, SRG, SNOWBOARD",,,WFO CHS,,,,,,,,,,,,,,,,,,,,,,,,,,,30.17,64,74,0,,,,71,30.17,FEW:02 40 SCT:04 90,30.12,10,68,150,,9,,,,,,,,,,,,,,,,,,,,,,,,,,,,,,,,,,,,,MET10511/15/05 16:56:50 METAR KCHS 152156Z 15008KT 10SM FEW040 SCT090 23/18 A3017 RMK AO2 SLP217 T02330178 (WD),,,,,,,,,,,,,,,,,,,,,,,,,,,,
72208013880,2005-11-28T11:56:00,FM-15,7,,SE,0.25,mi,"TEMP, PRECIP, SNOW",,,"MMTS, SRG, SNOWBOARD",,,WFO CHS,,,,,,,,,,,,,,,,,,,,,,,,,,,30.04,66,76,0,,,,72,30.03,FEW:02 29 SCT:04 95,29.99,10,70,150,,17,,,,,,,,,,,,,,,,,,,,,,,,,,,,,,,,,,,,,MET10611/28/05 11:56:50 METAR KCHS 281656Z 15015KT 10SM FEW029 SCT095 24/19 A3004 RMK AO2 SLP171 T02440189 (WRB),,,,,,,,,,,,,,,,,,,,,,,,,,,,
72208013880,2005-11-28T12:56:00,FM-15,6,,SE,0.25,mi,"TEMP, PRECIP, SNOW",,,"MMTS, SRG, SNOWBOARD",,,WFO CHS,,,,,,,,,,,,,,,,,,,,,,,,,,,30.04,66,76,0,,0.04,6,72,30.03,BKN:07 30,29.99,10,70,150,,17,,,,,,,,,,,,,,,,,,,,,,,,,,,,,,,,,,,,,MET12311/28/05 12:56:51 METAR KCHS 281756Z 15015KT 10SM BKN030 24/19 A3004 RMK AO2 SLP170 60001 T02440189 10250 20167 56013 (WRB),,,,,,,,,,,,,,,,,,,,,,,,,,,,
72208013880,2005-11-28T13:56:00,FM-15,7,,SE,0.25,mi,"TEMP, PRECIP, SNOW",,,"MMTS, SRG, SNOWBOARD",,,WFO CHS,,,,,,,,,,,,,,,,,,,,,,,,,,,30.02,66,76,0,,,,72,30.01,BKN:07 28 BKN:07 90,29.97,10,70,150,,15,,,,,,,,,,,,,,,,,,,,,,,,,,,,,,,,,,,,,MET10611/28/05 13:56:51 METAR KCHS 281856Z 15013KT 10SM BKN028 BKN090 24/19 A3002 RMK AO2 SLP164 T02440189 (WRB),,,,,,,,,,,,,,,,,,,,,,,,,,,,
72208013880,2005-11-28T15:56:00,FM-15,7,,SE,0.25,mi,"TEMP, PRECIP, SNOW",,,"MMTS, SRG, SNOWBOARD",,,WFO CHS,,,,,,,,,,,,,,,,,,,,,,,,,,,30.01,65,72,0,,0.02,5,79,30.01,FEW:02 29 SCT:04 60 BKN:07 95,29.96,10,68,150,,11,,,,,,,,,,,,,,,,,,,,,,,,,,,,,,,,,,,,,MET11811/28/05 15:56:51 METAR KCHS 282056Z 15010KT 10SM FEW029 SCT060 BKN095 22/18 A3001 RMK AO2 SLP162 T02220183 55008 (JL),,,,,,,,,,,,,,,,,,,,,,,,,,,,
72208013880,2005-11-28T16:00:00,FM-12,4,,SE,0.25,mi,"TEMP, PRECIP, SNOW",,,"MMTS, SRG, SNOWBOARD",,,WFO CHS,,,,,,,,,,,,,,,,,,,,,,,,,,,,65,72,,,0.02,5,79,30.01,,29.96,9.94,68,150,,11,,,,,,,,,,,,,,,,,,,,,,,,,,,,,,,,,,,,,SYN076AAXX  28214 72208 35566 61510 10222 20183 30146 40162 55008 92056 555 92821;,,,,,,,,,,,,,,,,,,,,,,,,,,,,
72208013880,2005-11-28T16:56:00,FM-15,7,,SE,0.25,mi,"TEMP, PRECIP, SNOW",,,"MMTS, SRG, SNOWBOARD",,,WFO CHS,,,,,,,,,,,,,,,,,,,,,,,,,,,30.02,65,71,0,,,,81,30.01,FEW:02 29 SCT:04 60 BKN:07 120,29.97,10,67,150,,9,,,,,,,,,,,,,,,,,,,,,,,,,,,,,,,,,,,,,MET11211/28/05 16:56:51 METAR KCHS 282156Z 15008KT 10SM FEW029 SCT060 BKN120 22/18 A3002 RMK AO2 SLP164 T02170183 (JL),,,,,,,,,,,,,,,,,,,,,,,,,,,,
72208013880,2005-12-03T14:56:00,FM-15,7,,SE,0.25,mi,"TEMP, PRECIP, SNOW",,,"MMTS, SRG, SNOWBOARD",,,WFO CHS,,,,,,,,,,,,,,,,,,,,,,,,,,,30.14,38,62,0,,,,41,30.14,,30.09,10,50,150,,10,,,,,,,,,,,,,,,,,,,,,,,,,,,,,,,,,,,,,MET09512/03/05 14:56:50 METAR KCHS 031956Z 15009KT 10SM CLR 17/03 A3014 RMK AO2 SLP205 T01670033 (JL),,,,,,,,,,,,,,,,,,,,,,,,,,,,
72208013880,2005-12-15T13:14:00,FM-16,7,,SE,0.25,mi,"TEMP, PRECIP, SNOW",,,"MMTS, SRG, SNOWBOARD",,,WFO CHS,,,,,,,,,,,,,,,,,,,,,,,,,,,29.83,59,61,,,,,94,,SCT:04 6 BKN:07 70 OVC:08 110,29.78,10,60,170,,7,,,,,,,,,,,,,,,,,,,,,,,,,,,,,,,,,,,,,MET09612/15/05 13:14:50 SPECI KCHS 151814Z 17006KT 10SM SCT006 BKN070 OVC110 16/15 A2983 RMK AO2 (WRB),,,,,,,,,,,,,,,,,,,,,,,,,,,,
72208013880,2005-12-24T14:56:00,FM-15,7,,SE,0.25,mi,"TEMP, PRECIP, SNOW",,,"MMTS, SRG, SNOWBOARD",,,WFO CHS,,,,,,,,,,,,,,,,,,,,,,,,,,,29.98,35,60,0,,,,39,29.97,FEW:02 44,29.93,10,48,160,,11,,,,,,,,,,,,,,,,,,,,,,,,,,,,,,,,,,,,,MET09912/24/05 14:56:50 METAR KCHS 241956Z 16010KT 10SM FEW044 16/02 A2998 RMK AO2 SLP150 T01560017 (AWS),,,,,,,,,,,,,,,,,,,,,,,,,,,,
72208013880,2005-12-24T15:56:00,FM-15,7,,SE,0.25,mi,"TEMP, PRECIP, SNOW",,,"MMTS, SRG, SNOWBOARD",,,WFO CHS,,,,,,,,,,,,,,,,,,,,,,,,,,,29.97,33,57,0,,0.05,6,41,29.97,FEW:02 44,29.92,10,46,170,,9,,,,,,,,,,,,,,,,,,,,,,,,,,,,,,,,,,,,,MET10512/24/05 15:56:50 METAR KCHS 242056Z 17008KT 10SM FEW044 14/01 A2997 RMK AO2 SLP149 T01390006 56018 (AWS),,,,,,,,,,,,,,,,,,,,,,,,,,,,
72208013880,2005-12-24T16:00:00,FM-12,4,,SE,0.25,mi,"TEMP, PRECIP, SNOW",,,"MMTS, SRG, SNOWBOARD",,,WFO CHS,,,,,,,,,,,,,,,,,,,,,,,,,,,,33,57,,,0.05,6,41,29.97,,29.92,9.94,46,170,,9,,,,,,,,,,,,,,,,,,,,,,,,,,,,,,,,,,,,,SYN076AAXX  24214 72208 35666 21708 10139 20006 30133 40149 56018 92056 555 92421;,,,,,,,,,,,,,,,,,,,,,,,,,,,,
72208013880,2006-01-01T16:56:00,FM-15,7,,SE,0.25,mi,"TEMP, PRECIP, SNOW",,,"MMTS, SRG, SNOWBOARD",,,WFO CHS,,,,,,,,,,,,,,,,,,,,,,,,,,,30.1,42,59,0,,,,54,30.09,FEW:02 65 SCT:04 100,30.05,10,51,150,,9,,,,,,,,,,,,,,,,,,,,,,,,,,,,,,,,,,,,,MET10701/01/06 16:56:50 METAR KCHS 012156Z 15008KT 10SM FEW065 SCT100 15/06 A3010 RMK AO2 SLP191 T01500056 $ (WD),,,,,,,,,,,,,,,,,,,,,,,,,,,,
72208013880,2006-01-02T13:43:00,FM-16,7,,SE,0.25,mi,"TEMP, PRECIP, SNOW",,,"MMTS, SRG, SNOWBOARD",,,WFO CHS,,,,,,,,,,,,,,,,,,,,,,,,,,,29.9,63,64,0.47,RA:02 BR:1 |RA |RA,,,94,,BKN:07 12 OVC:08 43,29.85,2.5,63,170,,13,,,,,,,,,,,,,,,,,,,,,,,,,,,,,,,,,,,,,MET12201/02/06 13:43:56 SPECI KCHS 021843Z 17011KT 2 1/2SM RA BR BKN012 OVC043 18/17 A2990 RMK AO2 TSE38 TS MOV NE P0047 $ (WRB),,,,,,,,,,,,,,,,,,,,,,,,,,,,
72208013880,2006-01-02T13:56:00,FM-15,7,,SE,0.25,mi,"TEMP, PRECIP, SNOW",,,"MMTS, SRG, SNOWBOARD",,,WFO CHS,,,,,,,,,,,,,,,,,,,,,,,,,,,29.9,62,65,0.46,-RA:02 BR:1 |RA |RA,,,90,29.9,BKN:07 14 OVC:08 38,29.85,4,63,170,,13,,,,,,,,,,,,,,,,,,,,,,,,,,,,,,,,,,,,,MET13601/02/06 13:57:02 METAR KCHS 021856Z 17011KT 4SM -RA BR BKN014 OVC038 18/17 A2990 RMK AO2 TSE38 SLP124 TS MOV NE P0048 T01830167 $ (WRB),,,,,,,,,,,,,,,,,,,,,,,,,,,,
72208013880,2006-01-02T16:56:00,FM-15,7,,SE,0.25,mi,"TEMP, PRECIP, SNOW",,,"MMTS, SRG, SNOWBOARD",,,WFO CHS,,,,,,,,,,,,,,,,,,,,,,,,,,,29.88,59,60,0.2,-RA:02 BR:1 |RA |RA,,,96,29.88,BKN:07 26 BKN:07 65 OVC:08 100,29.83,4,59,160,,15,,,,,,,,,,,,,,,,,,,,,,,,,,,,,,,,,,,,,MET12601/02/06 16:57:09 METAR KCHS 022156Z 16013KT 4SM -RA BR BKN026 BKN065 OVC100 16/15 A2988 RMK AO2 SLP117 P0021 T01560150 $ (JL),,,,,,,,,,,,,,,,,,,,,,,,,,,,
72208013880,2006-01-04T13:56:00,FM-15,7,,SE,0.25,mi,"TEMP, PRECIP, SNOW",,,"MMTS, SRG, SNOWBOARD",,,WFO CHS,,,,,,,,,,,,,,,,,,,,,,,,,,,29.99,49,63,0,,,,60,29.98,SCT:04 35,29.94,9,55,150,,7,,,,,,,,,,,,,,,,,,,,,,,,,,,,,,,,,,,,,MET09801/04/06 13:56:50 METAR KCHS 041856Z 15006KT 9SM SCT035 17/09 A2999 RMK AO2 SLP154 T01720094 (WRB),,,,,,,,,,,,,,,,,,,,,,,,,,,,
72208013880,2006-01-04T15:56:00,FM-15,7,,SE,0.25,mi,"TEMP, PRECIP, SNOW",,,"MMTS, SRG, SNOWBOARD",,,WFO CHS,,,,,,,,,,,,,,,,,,,,,,,,,,,29.97,50,62,0,,0.04,6,65,29.97,FEW:02 35,29.92,9,55,150,,9,,,,,,,,,,,,,,,,,,,,,,,,,,,,,,,,,,,,,MET10401/04/06 15:56:50 METAR KCHS 042056Z 15008KT 9SM FEW035 17/10 A2997 RMK AO2 SLP149 T01670100 56014 (WRB),,,,,,,,,,,,,,,,,,,,,,,,,,,,
72208013880,2006-01-04T16:00:00,FM-12,4,,SE,0.25,mi,"TEMP, PRECIP, SNOW",,,"MMTS, SRG, SNOWBOARD",,,WFO CHS,,,,,,,,,,,,,,,,,,,,,,,,,,,,50,62,,,0.04,6,65,29.97,,29.92,8.7,55,150,,9,,,,,,,,,,,,,,,,,,,,,,,,,,,,,,,,,,,,,SYN076AAXX  04214 72208 35664 21508 10167 20100 30133 40149 56014 92056 555 90421;,,,,,,,,,,,,,,,,,,,,,,,,,,,,
72208013880,2006-01-04T16:56:00,FM-15,7,,SE,0.25,mi,"TEMP, PRECIP, SNOW",,,"MMTS, SRG, SNOWBOARD",,,WFO CHS,,,,,,,,,,,,,,,,,,,,,,,,,,,29.97,50,58,0,,,,75,29.96,,29.92,9,54,160,,9,,,,,,,,,,,,,,,,,,,,,,,,,,,,,,,,,,,,,MET09401/04/06 16:56:50 METAR KCHS 042156Z 16008KT 9SM CLR 14/10 A2997 RMK AO2 SLP147 T01440100 (WD),,,,,,,,,,,,,,,,,,,,,,,,,,,,
72208013880,2006-01-04T17:56:00,FM-15,7,,SE,0.25,mi,"TEMP, PRECIP, SNOW",,,"MMTS, SRG, SNOWBOARD",,,WFO CHS,,,,,,,,,,,,,,,,,,,,,,,,,,,29.97,50,54,0,,,,87,29.96,,29.92,8,52,160,,7,,,,,,,,,,,,,,,,,,,,,,,,,,,,,,,,,,,,,MET09401/04/06 17:56:50 METAR KCHS 042256Z 16006KT 8SM CLR 12/10 A2997 RMK AO2 SLP147 T01220100 (WD),,,,,,,,,,,,,,,,,,,,,,,,,,,,
72208013880,2006-01-11T15:56:00,FM-15,7,,SE,0.25,mi,"TEMP, PRECIP, SNOW",,,"MMTS, SRG, SNOWBOARD",,,WFO CHS,,,,,,,,,,,,,,,,,,,,,,,,,,,30.12,57,70,0,,0.02,5,64,30.11,SCT:04 29 BKN:07 120,30.07,10,62,160,,11,,,,,,,,,,,,,,,,,,,,,,,,,,,,,,,,,,,,,MET11201/11/06 15:56:51 METAR KCHS 112056Z 16010KT 10SM SCT029 BKN120 21/14 A3012 RMK AO2 SLP198 T02110139 55006 (WRB),,,,,,,,,,,,,,,,,,,,,,,,,,,,
72208013880,2006-01-11T16:00:00,FM-12,4,,SE,0.25,mi,"TEMP, PRECIP, SNOW",,,"MMTS, SRG, SNOWBOARD",,,WFO CHS,,,,,,,,,,,,,,,,,,,,,,,,,,,,57,70,,,0.02,5,64,30.11,,30.07,9.94,62,160,,11,,,,,,,,,,,,,,,,,,,,,,,,,,,,,,,,,,,,,SYN076AAXX  11214 72208 35566 61610 10211 20139 30184 40198 55006 92056 555 91121;,,,,,,,,,,,,,,,,,,,,,,,,,,,,
72208013880,2006-01-19T16:56:00,FM-15,7,,SE,0.25,mi,"TEMP, PRECIP, SNOW",,,"MMTS, SRG, SNOWBOARD",,,WFO CHS,,,,,,,,,,,,,,,,,,,,,,,,,,,30.39,25,56,0,,,,30,30.38,,30.34,10,43,150,,9,,,,,,,,,,,,,,,,,,,,,,,,,,,,,,,,,,,,,MET09601/19/06 16:56:50 METAR KCHS 192156Z 15008KT 10SM CLR 13/M04 A3039 RMK AO2 SLP289 T01331039 (WD),,,,,,,,,,,,,,,,,,,,,,,,,,,,
72208013880,2006-01-19T17:56:00,FM-15,7,,SE,0.25,mi,"TEMP, PRECIP, SNOW",,,"MMTS, SRG, SNOWBOARD",,,WFO CHS,,,,,,,,,,,,,,,,,,,,,,,,,,,30.39,28,49,0,,,,44,30.39,,30.34,10,40,150,,8,,,,,,,,,,,,,,,,,,,,,,,,,,,,,,,,,,,,,MET09601/19/06 17:56:50 METAR KCHS 192256Z 15007KT 10SM CLR 09/M02 A3039 RMK AO2 SLP291 T00941022 (WD),,,,,,,,,,,,,,,,,,,,,,,,,,,,
72208013880,2006-01-20T16:56:00,FM-15,7,,SE,0.25,mi,"TEMP, PRECIP, SNOW",,,"MMTS, SRG, SNOWBOARD",,,WFO CHS,,,,,,,,,,,,,,,,,,,,,,,,,,,30.31,49,66,0,,,,54,30.31,FEW:02 50,30.26,10,57,150,,10,,,,,,,,,,,,,,,,,,,,,,,,,,,,,,,,,,,,,MET09801/20/06 16:56:50 METAR KCHS 202156Z 15009KT 10SM FEW050 19/09 A3031 RMK AO2 SLP263 T01890094 (WD),,,,,,,,,,,,,,,,,,,,,,,,,,,,
72208013880,2006-01-20T17:56:00,FM-15,7,,SE,0.25,mi,"TEMP, PRECIP, SNOW",,,"MMTS, SRG, SNOWBOARD",,,WFO CHS,,,,,,,,,,,,,,,,,,,,,,,,,,,30.31,48,58,0,,,,70,30.31,FEW:02 70,30.26,10,53,160,,8,,,,,,,,,,,,,,,,,,,,,,,,,,,,,,,,,,,,,MET09801/20/06 17:56:50 METAR KCHS 202256Z 16007KT 10SM FEW070 14/09 A3031 RMK AO2 SLP264 T01440089 (WD),,,,,,,,,,,,,,,,,,,,,,,,,,,,
72208013880,2006-01-28T15:56:00,FM-15,7,,SE,0.25,mi,"TEMP, PRECIP, SNOW",,,"MMTS, SRG, SNOWBOARD",,,WFO CHS,,,,,,,,,,,,,,,,,,,,,,,,,,,30.37,41,63,0,,0.08,6,45,30.37,FEW:02 30 SCT:04 60,30.32,10,52,150,,11,,,,,,,,,,,,,,,,,,,,,,,,,,,,,,,,,,,,,MET11201/28/06 15:56:50 METAR KCHS 282056Z 15010KT 10SM FEW030 SCT060 17/05 A3037 RMK AO2 SLP283 T01720050 56027 (WRB),,,,,,,,,,,,,,,,,,,,,,,,,,,,
72208013880,2006-01-28T16:00:00,FM-12,4,,SE,0.25,mi,"TEMP, PRECIP, SNOW",,,"MMTS, SRG, SNOWBOARD",,,WFO CHS,,,,,,,,,,,,,,,,,,,,,,,,,,,,41,63,,,0.08,6,45,30.37,,30.32,9.94,52,150,,11,,,,,,,,,,,,,,,,,,,,,,,,,,,,,,,,,,,,,SYN076AAXX  28214 72208 35566 41510 10172 20050 30268 40283 56027 92056 555 92821;,,,,,,,,,,,,,,,,,,,,,,,,,,,,
72208013880,2006-01-28T16:56:00,FM-15,7,,SE,0.25,mi,"TEMP, PRECIP, SNOW",,,"MMTS, SRG, SNOWBOARD",,,WFO CHS,,,,,,,,,,,,,,,,,,,,,,,,,,,30.36,41,60,0,,,,50,30.35,,30.31,10,51,150,,10,,,,,,,,,,,,,,,,,,,,,,,,,,,,,,,,,,,,,MET09501/28/06 16:56:50 METAR KCHS 282156Z 15009KT 10SM CLR 16/05 A3036 RMK AO2 SLP279 T01560050 (WD),,,,,,,,,,,,,,,,,,,,,,,,,,,,
72208013880,2006-01-28T17:56:00,FM-15,7,,SE,0.25,mi,"TEMP, PRECIP, SNOW",,,"MMTS, SRG, SNOWBOARD",,,WFO CHS,,,,,,,,,,,,,,,,,,,,,,,,,,,30.36,44,55,0,,,,67,30.36,,30.31,10,50,160,,9,,,,,,,,,,,,,,,,,,,,,,,,,,,,,,,,,,,,,MET09501/28/06 17:56:50 METAR KCHS 282256Z 16008KT 10SM CLR 13/07 A3036 RMK AO2 SLP280 T01280067 (WD),,,,,,,,,,,,,,,,,,,,,,,,,,,,
72208013880,2006-02-01T11:56:00,FM-15,7,,SE,0.25,mi,"TEMP, PRECIP, SNOW",,,"MMTS, SRG, SNOWBOARD",,,WFO CHS,,,,,,,,,,,,,,,,,,,,,,,,,,,30.07,41,59,0,,,,51,30.07,,30.02,10,50,150,,9,,,,,,,,,,,,,,,,,,,,,,,,,,,,,,,,,,,,,MET09502/01/06 11:56:50 METAR KCHS 011656Z 15008KT 10SM CLR 15/05 A3007 RMK AO2 SLP182 T01500050 (JL),,,,,,,,,,,,,,,,,,,,,,,,,,,,
72208013880,2006-02-01T13:56:00,FM-15,7,,SE,0.25,mi,"TEMP, PRECIP, SNOW",,,"MMTS, SRG, SNOWBOARD",,,WFO CHS,,,,,,,,,,,,,,,,,,,,,,,,,,,30.03,41,62,0,,,,46,30.02,,29.98,10,51,150,17,7,,,,,,,,,,,,,,,,,,,,,,,,,,,,,,,,,,,,,MET09802/01/06 13:56:50 METAR KCHS 011856Z 15006G15KT 10SM CLR 17/05 A3003 RMK AO2 SLP167 T01670050 (JL),,,,,,,,,,,,,,,,,,,,,,,,,,,,
72208013880,2006-02-01T15:56:00,FM-15,7,,SE,0.25,mi,"TEMP, PRECIP, SNOW",,,"MMTS, SRG, SNOWBOARD",,,WFO CHS,,,,,,,,,,,,,,,,,,,,,,,,,,,30.01,41,62,0,,0.04,6,46,30,,29.96,10,51,150,,10,,,,,,,,,,,,,,,,,,,,,,,,,,,,,,,,,,,,,MET10102/01/06 15:56:50 METAR KCHS 012056Z 15009KT 10SM CLR 17/05 A3001 RMK AO2 SLP160 T01670050 56014 (WD),,,,,,,,,,,,,,,,,,,,,,,,,,,,
72208013880,2006-02-01T16:00:00,FM-12,4,,SE,0.25,mi,"TEMP, PRECIP, SNOW",,,"MMTS, SRG, SNOWBOARD",,,WFO CHS,,,,,,,,,,,,,,,,,,,,,,,,,,,,41,62,,,0.04,6,46,30,CLR:00,29.96,9.94,51,150,,10,,,,,,,,,,,,,,,,,,,,,,,,,,,,,,,,,,,,,SYN076AAXX  01214 72208 35966 01509 10167 20050 30146 40160 56014 92056 555 90121;,,,,,,,,,,,,,,,,,,,,,,,,,,,,
72208013880,2006-02-02T16:19:00,FM-16,7,,SE,0.25,mi,"TEMP, PRECIP, SNOW",,,"MMTS, SRG, SNOWBOARD",,,WFO CHS,,,,,,,,,,,,,,,,,,,,,,,,,,,29.82,57,64,0.01,-RA:02 |RA |RA,,,78,,BKN:07 26 BKN:07 34 OVC:08 60,29.77,4,60,150,,10,,,,,,,,,,,,,,,,,,,,,,,,,,,,,,,,,,,,,MET11002/02/06 16:20:06 SPECI KCHS 022119Z 15009KT 4SM -RA BKN026 BKN034 OVC060 18/14 A2982 RMK AO2 RAB13 P0001 (WD),,,,,,,,,,,,,,,,,,,,,,,,,,,,
72208013880,2006-02-02T16:41:00,FM-16,7,,SE,0.25,mi,"TEMP, PRECIP, SNOW",,,"MMTS, SRG, SNOWBOARD",,,WFO CHS,,,,,,,,,,,,,,,,,,,,,,,,,,,29.82,59,63,0.12,+RA:02 BR:1 |RA |RA,,,88,,BKN:07 24 OVC:08 29,29.77,1.5,61,150,,8,,,,,,,,,,,,,,,,,,,,,,,,,,,,,,,,,,,,,MET11002/02/06 16:41:51 SPECI KCHS 022141Z 15007KT 1 1/2SM +RA BR BKN024 OVC029 17/15 A2982 RMK AO2 RAB13 P0012 (WD),,,,,,,,,,,,,,,,,,,,,,,,,,,,
72208013880,2006-02-02T16:56:00,FM-15,7,,SE,0.25,mi,"TEMP, PRECIP, SNOW",,,"MMTS, SRG, SNOWBOARD",,,WFO CHS,,,,,,,,,,,,,,,,,,,,,,,,,,,29.81,59,62,0.21,+RA:02 BR:1 |RA |RA,,,90,29.81,BKN:07 24 OVC:08 28,29.76,2,60,150,,8,,,,,,,,,,,,,,,,,,,,,,,,,,,,,,,,,,,,,MET12302/02/06 16:56:51 METAR KCHS 022156Z 15007KT 2SM +RA BR BKN024 OVC028 17/15 A2981 RMK AO2 RAB13 SLP095 P0020 T01670150 (WD),,,,,,,,,,,,,,,,,,,,,,,,,,,,
72208013880,2006-02-02T17:56:00,FM-15,7,,SE,0.25,mi,"TEMP, PRECIP, SNOW",,,"MMTS, SRG, SNOWBOARD",,,WFO CHS,,,,,,,,,,,,,,,,,,,,,,,,,,,29.77,60,63,0.25,RA:02 BR:1 |RA |RA,,,90,29.77,BKN:07 20 OVC:08 30,29.72,3,61,150,,16,,,,,,,,,,,,,,,,,,,,,,,,,,,,,,,,,,,,,MET11602/02/06 17:56:51 METAR KCHS 022256Z 15014KT 3SM RA BR BKN020 OVC030 17/16 A2977 RMK AO2 SLP082 P0024 T01720156 (WD),,,,,,,,,,,,,,,,,,,,,,,,,,,,
72208013880,2006-02-10T17:56:00,FM-15,7,,SE,0.25,mi,"TEMP, PRECIP, SNOW",,,"MMTS, SRG, SNOWBOARD",,,WFO CHS,,,,,,,,,,,,,,,,,,,,,,,,,,,30.15,37,51,0,,,,59,30.15,,30.1,10,45,170,,8,,,,,,,,,,,,,,,,,,,,,,,,,,,,,,,,,,,,,MET09502/10/06 17:56:50 METAR KCHS 102256Z 17007KT 10SM CLR 11/03 A3015 RMK AO2 SLP209 T01060028 (WD),,,,,,,,,,,,,,,,,,,,,,,,,,,,
72208013880,2006-02-16T12:56:00,FM-15,7,,SE,0.25,mi,"TEMP, PRECIP, SNOW",,,"MMTS, SRG, SNOWBOARD",,,WFO CHS,,,,,,,,,,,,,,,,,,,,,,,,,,,30.34,49,70,0,,0.04,8,47,30.33,SCT:04 46 SCT:04 95,30.29,10,58,150,,7,,,,,,,,,,,,,,,,,,,,,,,,,,,,,,,,,,,,,MET12402/16/06 12:56:51 METAR KCHS 161756Z 15006KT 10SM SCT046 SCT095 21/09 A3034 RMK AO2 SLP272 T02110094 10211 20050 58013 (WRB),,,,,,,,,,,,,,,,,,,,,,,,,,,,
72208013880,2006-02-16T13:00:00,FM-12,4,,SE,0.25,mi,"TEMP, PRECIP, SNOW",,,"MMTS, SRG, SNOWBOARD",,,WFO CHS,,,,,,,,,,,,,,,,,,,,,,,,,,,30.34,49,70,,,0.04,8,47,30.33,,30.29,9.94,58,150,,7,,,,,,,,,,,,,,,,,,,,,,,,,,,,,,,,,,,,,SYN092AAXX  16184 72208 32666 41506 10211 20094 30258 40272 58013 91756 333 10211 20050 555 91618;,,,,,,,,,,,,,,,,,,,,,,,,,,,,
72208013880,2006-02-16T14:56:00,FM-15,7,,SE,0.25,mi,"TEMP, PRECIP, SNOW",,,"MMTS, SRG, SNOWBOARD",,,WFO CHS,,,,,,,,,,,,,,,,,,,,,,,,,,,30.3,50,70,0,,,,49,30.29,FEW:02 50,30.25,10,59,150,,14,,,,,,,,,,,,,,,,,,,,,,,,,,,,,,,,,,,,,MET09902/16/06 14:56:50 METAR KCHS 161956Z 15012KT 10SM FEW050 21/10 A3030 RMK AO2 SLP258 T02110100 (WRB),,,,,,,,,,,,,,,,,,,,,,,,,,,,
72208013880,2006-02-16T15:56:00,FM-15,7,,SE,0.25,mi,"TEMP, PRECIP, SNOW",,,"MMTS, SRG, SNOWBOARD",,,WFO CHS,,,,,,,,,,,,,,,,,,,,,,,,,,,30.28,50,67,0,,0.06,6,55,30.28,FEW:02 50,30.23,10,58,150,,14,,,,,,,,,,,,,,,,,,,,,,,,,,,,,,,,,,,,,MET10502/16/06 15:56:50 METAR KCHS 162056Z 15012KT 10SM FEW050 19/10 A3028 RMK AO2 SLP253 T01940100 56020 (WRB),,,,,,,,,,,,,,,,,,,,,,,,,,,,
72208013880,2006-02-16T16:00:00,FM-12,4,,SE,0.25,mi,"TEMP, PRECIP, SNOW",,,"MMTS, SRG, SNOWBOARD",,,WFO CHS,,,,,,,,,,,,,,,,,,,,,,,,,,,30.28,50,67,,,0.06,6,55,30.28,,30.23,9.94,58,150,,14,,,,,,,,,,,,,,,,,,,,,,,,,,,,,,,,,,,,,SYN076AAXX  16214 72208 35766 21512 10194 20100 30238 40253 56020 92056 555 91621;,,,,,,,,,,,,,,,,,,,,,,,,,,,,
72208013880,2006-02-24T17:56:00,FM-15,7,,SE,0.25,mi,"TEMP, PRECIP, SNOW",,,"MMTS, SRG, SNOWBOARD",,,WFO CHS,,,,,,,,,,,,,,,,,,,,,,,,,,,30.31,35,57,0,,,,44,30.31,,30.26,10,47,160,,13,,,,,,,,,,,,,,,,,,,,,,,,,,,,,,,,,,,,,MET10802/24/06 17:56:50 METAR KCHS 242256Z 16011KT 10SM CLR 14/02 A3031 RMK AO2 WSHFT 2235 SLP263 T01390017 $ (WD),,,,,,,,,,,,,,,,,,,,,,,,,,,,
72208013880,2006-03-05T16:56:00,FM-15,7,,SE,0.25,mi,"TEMP, PRECIP, SNOW",,,"MMTS, SRG, SNOWBOARD",,,WFO CHS,,,,,,,,,,,,,,,,,,,,,,,,,,,30.19,34,58,0,,,,41,30.19,,30.14,10,47,160,,10,,,,,,,,,,,,,,,,,,,,,,,,,,,,,,,,,,,,,MET09003/05/06 16:56:00 METAR KCHS 052156Z 16009KT 10SM CLR 14/01 A3019 RMK AO2 SLP223 T01440011,,,,,,,,,,,,,,,,,,,,,,,,,,,,
72208013880,2006-03-05T17:56:00,FM-15,7,,SE,0.25,mi,"TEMP, PRECIP, SNOW",,,"MMTS, SRG, SNOWBOARD",,,WFO CHS,,,,,,,,,,,,,,,,,,,,,,,,,,,30.19,35,53,0,,,,51,30.19,,30.14,10,45,160,,10,,,,,,,,,,,,,,,,,,,,,,,,,,,,,,,,,,,,,MET09003/05/06 17:56:00 METAR KCHS 052256Z 16009KT 10SM CLR 12/02 A3019 RMK AO2 SLP222 T01170017,,,,,,,,,,,,,,,,,,,,,,,,,,,,
72208013880,2006-03-08T11:56:00,FM-15,7,,SE,0.25,mi,"TEMP, PRECIP, SNOW",,,"MMTS, SRG, SNOWBOARD",,,WFO CHS,,,,,,,,,,,,,,,,,,,,,,,,,,,30.23,21,62,0,,,,21,30.22,,30.18,10,45,170,,8,,,,,,,,,,,,,,,,,,,,,,,,,,,,,,,,,,,,,MET09103/08/06 11:56:00 METAR KCHS 081656Z 17007KT 10SM CLR 17/M06 A3023 RMK AO2 SLP235 T01671061,,,,,,,,,,,,,,,,,,,,,,,,,,,,
72208013880,2006-03-08T14:56:00,FM-15,7,,SE,0.25,mi,"TEMP, PRECIP, SNOW",,,"MMTS, SRG, SNOWBOARD",,,WFO CHS,,,,,,,,,,,,,,,,,,,,,,,,,,,30.13,23,64,0,,,,21,30.13,,30.08,10,46,150,,15,,,,,,,,,,,,,,,,,,,,,,,,,,,,,,,,,,,,,MET09103/08/06 14:56:00 METAR KCHS 081956Z 15013KT 10SM CLR 18/M05 A3013 RMK AO2 SLP203 T01781050,,,,,,,,,,,,,,,,,,,,,,,,,,,,
72208013880,2006-03-11T10:56:00,FM-15,7,,SE,0.25,mi,"TEMP, PRECIP, SNOW",,,"MMTS, SRG, SNOWBOARD",,,WFO CHS,,,,,,,,,,,,,,,,,,,,,,,,,,,30.22,59,79,0,,,,50,30.22,FEW:02 70,30.17,10,67,170,,8,,,,,,,,,,,,,,,,,,,,,,,,,,,,,,,,,,,,,MET09303/11/06 10:56:00 METAR KCHS 111556Z 17007KT 10SM FEW070 26/15 A3022 RMK AO2 SLP232 T02610150,,,,,,,,,,,,,,,,,,,,,,,,,,,,
72208013880,2006-03-11T14:56:00,FM-15,7,,SE,0.25,mi,"TEMP, PRECIP, SNOW",,,"MMTS, SRG, SNOWBOARD",,,WFO CHS,,,,,,,,,,,,,,,,,,,,,,,,,,,30.18,60,82,0,,,,47,30.17,FEW:02 38 SCT:04 70,30.13,10,68,160,,16,,,,,,,,,,,,,,,,,,,,,,,,,,,,,,,,,,,,,MET10003/11/06 14:56:00 METAR KCHS 111956Z 16014KT 10SM FEW038 SCT070 28/16 A3018 RMK AO2 SLP218 T02780156,,,,,,,,,,,,,,,,,,,,,,,,,,,,
72208013880,2006-03-19T14:56:00,FM-15,7,,SE,0.25,mi,"TEMP, PRECIP, SNOW",,,"MMTS, SRG, SNOWBOARD",,,WFO CHS,,,,,,,,,,,,,,,,,,,,,,,,,,,30.1,31,60,0,,,,33,30.09,,30.05,10,47,150,,13,,,,,,,,,,,,,,,,,,,,,,,,,,,,,,,,,,,,,MET11003/19/06 14:56:50 METAR KCHS 191956Z 15011KT 10SM CLR 16/M01 A3010 RMK AO2 SLP190 WSHFT 1931 T01561006 $ (WRB),,,,,,,,,,,,,,,,,,,,,,,,,,,,
72208013880,2006-03-19T15:56:00,FM-15,7,,SE,0.25,mi,"TEMP, PRECIP, SNOW",,,"MMTS, SRG, SNOWBOARD",,,WFO CHS,,,,,,,,,,,,,,,,,,,,,,,,,,,30.09,32,58,0,,0.06,6,38,30.09,BKN:07 110,30.04,10,46,150,,9,,,,,,,,,,,,,,,,,,,,,,,,,,,,,,,,,,,,,MET10703/19/06 15:56:50 METAR KCHS 192056Z 15008KT 10SM BKN110 14/00 A3009 RMK AO2 SLP189 T01440000 56022 $ (WRB),,,,,,,,,,,,,,,,,,,,,,,,,,,,
72208013880,2006-03-19T16:00:00,FM-12,4,,SE,0.25,mi,"TEMP, PRECIP, SNOW",,,"MMTS, SRG, SNOWBOARD",,,WFO CHS,,,,,,,,,,,,,,,,,,,,,,,,,,,30.09,32,58,,,0.06,6,38,30.09,,30.04,9.94,46,150,,9,,,,,,,,,,,,,,,,,,,,,,,,,,,,,,,,,,,,,SYN076AAXX  19214 72208 35966 61508 10144 20000 30173 40189 56022 92056 555 91921;,,,,,,,,,,,,,,,,,,,,,,,,,,,,
72208013880,2006-03-19T16:56:00,FM-15,7,,SE,0.25,mi,"TEMP, PRECIP, SNOW",,,"MMTS, SRG, SNOWBOARD",,,WFO CHS,,,,,,,,,,,,,,,,,,,,,,,,,,,30.1,33,56,0,,,,42,30.1,BKN:07 120,30.05,10,46,150,,9,,,,,,,,,,,,,,,,,,,,,,,,,,,,,,,,,,,,,MET10003/19/06 16:56:50 METAR KCHS 192156Z 15008KT 10SM BKN120 13/01 A3010 RMK AO2 SLP193 T01330006 $ (JL),,,,,,,,,,,,,,,,,,,,,,,,,,,,
72208013880,2006-03-27T15:56:00,FM-15,7,,SE,0.25,mi,"TEMP, PRECIP, SNOW",,,"MMTS, SRG, SNOWBOARD",,,WFO CHS,,,,,,,,,,,,,,,,,,,,,,,,,,,30.29,24,62,0,,0.05,5,23,30.29,FEW:02 10,30.24,10,46,150,,8,,,,,,,,,,,,,,,,,,,,,,,,,,,,,,,,,,,,,MET11603/27/06 15:56:51 METAR KCHS 272056Z 15007KT 10SM FEW010 17/M04 A3029 RMK AO2 SLP256 FU FEW010 T01671044 55018 (WRB),,,,,,,,,,,,,,,,,,,,,,,,,,,,
72208013880,2006-03-27T16:00:00,FM-12,4,,SE,0.25,mi,"TEMP, PRECIP, SNOW",,,"MMTS, SRG, SNOWBOARD",,,WFO CHS,,,,,,,,,,,,,,,,,,,,,,,,,,,30.29,25,63,,,0.05,5,24,30.29,,30.24,9.94,47,150,,8,,,,,,,,,,,,,,,,,,,,,,,,,,,,,,,,,,,,,SYN076AAXX  27214 72208 35466 21507 10170 21040 30241 40256 55018 92056 555 92721;,,,,,,,,,,,,,,,,,,,,,,,,,,,,
72208013880,2006-03-29T15:56:00,FM-15,7,,SE,0.25,mi,"TEMP, PRECIP, SNOW",,,"MMTS, SRG, SNOWBOARD",,,WFO CHS,,,,,,,,,,,,,,,,,,,,,,,,,,,30.16,50,71,0,,0.02,5,47,30.16,BKN:07 60 BKN:07 90,30.11,8,59,170,,13,,,,,,,,,,,,,,,,,,,,,,,,,,,,,,,,,,,,,MET11103/29/06 15:56:50 METAR KCHS 292056Z 17011KT 8SM BKN060 BKN090 22/10 A3016 RMK AO2 SLP212 T02170100 55007 (WRB),,,,,,,,,,,,,,,,,,,,,,,,,,,,
72208013880,2006-03-29T16:00:00,FM-12,4,,SE,0.25,mi,"TEMP, PRECIP, SNOW",,,"MMTS, SRG, SNOWBOARD",,,WFO CHS,,,,,,,,,,,,,,,,,,,,,,,,,,,30.16,50,71,,,0.02,5,47,30.16,,30.11,7.46,59,170,,13,,,,,,,,,,,,,,,,,,,,,,,,,,,,,,,,,,,,,SYN076AAXX  29214 72208 35762 61711 10217 20100 30197 40212 55007 92056 555 92921;,,,,,,,,,,,,,,,,,,,,,,,,,,,,
72208013880,2006-03-29T16:56:00,FM-15,7,,SE,0.25,mi,"TEMP, PRECIP, SNOW",,,"MMTS, SRG, SNOWBOARD",,,WFO CHS,,,,,,,,,,,,,,,,,,,,,,,,,,,30.17,50,69,0,,,,51,30.16,FEW:02 75 SCT:04 110,30.12,8,58,150,,10,,,,,,,,,,,,,,,,,,,,,,,,,,,,,,,,,,,,,MET10403/29/06 16:56:50 METAR KCHS 292156Z 15009KT 8SM FEW075 SCT110 21/10 A3017 RMK AO2 SLP214 T02060100 (WD),,,,,,,,,,,,,,,,,,,,,,,,,,,,
72208013880,2006-03-29T17:56:00,FM-15,7,,SE,0.25,mi,"TEMP, PRECIP, SNOW",,,"MMTS, SRG, SNOWBOARD",,,WFO CHS,,,,,,,,,,,,,,,,,,,,,,,,,,,30.18,50,65,0,,,,59,30.17,SCT:04 55,30.13,8,57,150,,8,,,,,,,,,,,,,,,,,,,,,,,,,,,,,,,,,,,,,MET09703/29/06 17:56:50 METAR KCHS 292256Z 15007KT 8SM SCT055 18/10 A3018 RMK AO2 SLP218 T01830100 (WD),,,,,,,,,,,,,,,,,,,,,,,,,,,,
72208013880,2006-03-31T12:56:00,FM-15,7,,SE,0.25,mi,"TEMP, PRECIP, SNOW",,,"MMTS, SRG, SNOWBOARD",,,WFO CHS,,,,,,,,,,,,,,,,,,,,,,,,,,,30.31,54,77,0,,0.04,8,45,30.3,SCT:04 47 SCT:04 110,30.26,9,63,170,,16,,,,,,,,,,,,,,,,,,,,,,,,,,,,,,,,,,,,,MET12303/31/06 12:56:51 METAR KCHS 311756Z 17014KT 9SM SCT047 SCT110 25/12 A3031 RMK AO2 SLP262 T02500122 10256 20117 58014 (WRB),,,,,,,,,,,,,,,,,,,,,,,,,,,,
72208013880,2006-03-31T13:00:00,FM-12,4,,SE,0.25,mi,"TEMP, PRECIP, SNOW",,,"MMTS, SRG, SNOWBOARD",,,WFO CHS,,,,,,,,,,,,,,,,,,,,,,,,,,,30.31,54,77,,,0.04,8,45,30.3,,30.26,8.7,63,170,,16,,,,,,,,,,,,,,,,,,,,,,,,,,,,,,,,,,,,,SYN092AAXX  31184 72208 32664 41714 10250 20122 30248 40262 58014 91756 333 10256 20117 555 93118;,,,,,,,,,,,,,,,,,,,,,,,,,,,,
72208013880,2006-04-06T11:56:00,FM-15,7,,SE,0.25,mi,"TEMP, PRECIP, SNOW",,,"MMTS, SRG, SNOWBOARD",,,WFO CHS,,,,,,,,,,,,,,,,,,,,,,,,,,,30,29,78,0,,,,16,30,,29.95,10,54,160,,10,,,,,,,,,,,,,,,,,,,,,,,,,,,,,,,,,,,,,MET09904/06/06 11:56:50 METAR KCHS 061656Z 16009KT 10SM CLR 26/M02 A3000 RMK AO2 SLP158 T02561017 $ (WRB),,,,,,,,,,,,,,,,,,,,,,,,,,,,
72208013880,2006-04-06T13:56:00,FM-15,7,,SE,0.25,mi,"TEMP, PRECIP, SNOW",,,"MMTS, SRG, SNOWBOARD",,,WFO CHS,,,,,,,,,,,,,,,,,,,,,,,,,,,29.97,34,79,0,,,,20,29.96,,29.92,10,56,160,,11,,,,,,,,,,,,,,,,,,,,,,,,,,,,,,,,,,,,,MET09804/06/06 13:56:50 METAR KCHS 061856Z 16010KT 10SM CLR 26/01 A2997 RMK AO2 SLP147 T02610011 $ (WRB),,,,,,,,,,,,,,,,,,,,,,,,,,,,
72208013880,2006-04-06T14:56:00,FM-15,7,,SE,0.25,mi,"TEMP, PRECIP, SNOW",,,"MMTS, SRG, SNOWBOARD",,,WFO CHS,,,,,,,,,,,,,,,,,,,,,,,,,,,29.94,28,77,0,,,,16,29.94,,29.89,10,54,150,,10,,,,,,,,,,,,,,,,,,,,,,,,,,,,,,,,,,,,,MET09904/06/06 14:56:50 METAR KCHS 061956Z 15009KT 10SM CLR 25/M02 A2994 RMK AO2 SLP139 T02501022 $ (WRB),,,,,,,,,,,,,,,,,,,,,,,,,,,,
72208013880,2006-04-06T16:56:00,FM-15,7,,SE,0.25,mi,"TEMP, PRECIP, SNOW",,,"MMTS, SRG, SNOWBOARD",,,WFO CHS,,,,,,,,,,,,,,,,,,,,,,,,,,,29.94,40,72,0,,,,31,29.93,,29.89,10,55,160,,13,,,,,,,,,,,,,,,,,,,,,,,,,,,,,,,,,,,,,MET09504/06/06 16:56:50 METAR KCHS 062156Z 16011KT 10SM CLR 22/04 A2994 RMK AO2 SLP137 T02220044 (WD),,,,,,,,,,,,,,,,,,,,,,,,,,,,
72208013880,2006-04-08T17:59:00,FM-16,7,,SE,0.25,mi,"TEMP, PRECIP, SNOW",,,"MMTS, SRG, SNOWBOARD",,,WFO CHS,,,,,,,,,,,,,,,,,,,,,,,,,,,29.8,61,63,T,RA:02 BR:1 |RA |RA,,,94,,BKN:07 29 OVC:08 65,29.75,3,62,170,,7,,,,,,,,,,,,,,,,,,,,,,,,,,,,,,,,,,,,,MET10904/08/06 18:00:04 SPECI KCHS 082259Z 17006KT 3SM RA BR BKN029 OVC065 17/16 A2980 RMK AO2 TWR VIS 4 P0000 (WD),,,,,,,,,,,,,,,,,,,,,,,,,,,,
72208013880,2006-04-12T15:56:00,FM-15,7,,SE,0.25,mi,"TEMP, PRECIP, SNOW",,,"MMTS, SRG, SNOWBOARD",,,WFO CHS,,,,,,,,,,,,,,,,,,,,,,,,,,,30.32,52,73,0,,0.04,6,48,30.31,FEW:02 55,30.27,10,61,160,,10,,,,,,,,,,,,,,,,,,,,,,,,,,,,,,,,,,,,,MET10404/12/06 15:56:50 METAR KCHS 122056Z 16009KT 10SM FEW055 23/11 A3032 RMK AO2 SLP265 T02280111 56013 (WD),,,,,,,,,,,,,,,,,,,,,,,,,,,,
72208013880,2006-04-12T16:00:00,FM-12,4,,SE,0.25,mi,"TEMP, PRECIP, SNOW",,,"MMTS, SRG, SNOWBOARD",,,WFO CHS,,,,,,,,,,,,,,,,,,,,,,,,,,,,52,73,,,0.04,6,48,30.31,,30.27,9.94,61,160,,10,,,,,,,,,,,,,,,,,,,,,,,,,,,,,,,,,,,,,SYN076AAXX  12214 72208 35766 21609 10228 20111 30251 40265 56013 92056 555 91221;,,,,,,,,,,,,,,,,,,,,,,,,,,,,
72208013880,2006-04-13T14:40:00,FM-16,7,,SE,0.25,mi,"TEMP, PRECIP, SNOW",,,"MMTS, SRG, SNOWBOARD",,,WFO CHS,,,,,,,,,,,,,,,,,,,,,,,,,,,30.15,57,81,,,,,45,,SCT:04 65,30.1,10,66,160,,16,,,,,,,,,,,,,,,,,,,,,,,,,,,,,,,,,,,,,MET09304/13/06 14:49:50 SPECI KCHS 131940Z 16014KT 10SM SCT065 27/14 A3015 RMK AO2 WSHFT 1921 (WRB),,,,,,,,,,,,,,,,,,,,,,,,,,,,
72208013880,2006-04-13T14:56:00,FM-15,7,,SE,0.25,mi,"TEMP, PRECIP, SNOW",,,"MMTS, SRG, SNOWBOARD",,,WFO CHS,,,,,,,,,,,,,,,,,,,,,,,,,,,30.15,58,79,0,,,,49,30.14,SCT:04 65,30.1,10,66,160,,15,,,,,,,,,,,,,,,,,,,,,,,,,,,,,,,,,,,,,MET11004/13/06 14:56:50 METAR KCHS 131956Z 16013KT 10SM SCT065 26/14 A3015 RMK AO2 WSHFT 1921 SLP208 T02610144 (WRB),,,,,,,,,,,,,,,,,,,,,,,,,,,,
72208013880,2006-04-13T16:56:00,FM-15,7,,SE,0.25,mi,"TEMP, PRECIP, SNOW",,,"MMTS, SRG, SNOWBOARD",,,WFO CHS,,,,,,,,,,,,,,,,,,,,,,,,,,,30.12,56,76,0,,,,50,30.12,FEW:02 70,30.07,10,64,160,,14,,,,,,,,,,,,,,,,,,,,,,,,,,,,,,,,,,,,,MET09804/13/06 16:56:50 METAR KCHS 132156Z 16012KT 10SM FEW070 24/13 A3012 RMK AO2 SLP199 T02440133 (WD),,,,,,,,,,,,,,,,,,,,,,,,,,,,
72208013880,2006-04-13T17:56:00,FM-15,7,,SE,0.25,mi,"TEMP, PRECIP, SNOW",,,"MMTS, SRG, SNOWBOARD",,,WFO CHS,,,,,,,,,,,,,,,,,,,,,,,,,,,30.12,55,73,0,,,,53,30.12,FEW:02 75,30.07,10,62,170,,11,,,,,,,,,,,,,,,,,,,,,,,,,,,,,,,,,,,,,MET09804/13/06 17:56:50 METAR KCHS 132256Z 17010KT 10SM FEW075 23/13 A3012 RMK AO2 SLP199 T02280128 (WD),,,,,,,,,,,,,,,,,,,,,,,,,,,,
72208013880,2006-04-18T15:56:00,FM-15,7,,SE,0.25,mi,"TEMP, PRECIP, SNOW",,,"MMTS, SRG, SNOWBOARD",,,WFO CHS,,,,,,,,,,,,,,,,,,,,,,,,,,,29.93,46,68,0,,0.02,6,45,29.92,SCT:04 75,29.88,10,56,150,,13,,,,,,,,,,,,,,,,,,,,,,,,,,,,,,,,,,,,,MET10504/18/06 15:56:50 METAR KCHS 182056Z 15011KT 10SM SCT075 20/08 A2993 RMK AO2 SLP133 T02000078 56008 (JRS),,,,,,,,,,,,,,,,,,,,,,,,,,,,
72208013880,2006-04-18T16:00:00,FM-12,4,,SE,0.25,mi,"TEMP, PRECIP, SNOW",,,"MMTS, SRG, SNOWBOARD",,,WFO CHS,,,,,,,,,,,,,,,,,,,,,,,,,,,,46,68,,,0.02,6,45,29.92,,29.88,9.94,56,150,,13,,,,,,,,,,,,,,,,,,,,,,,,,,,,,,,,,,,,,SYN076AAXX  18214 72208 35866 41511 10200 20078 30119 40133 56008 92056 555 91821;,,,,,,,,,,,,,,,,,,,,,,,,,,,,
72208013880,2006-04-18T16:56:00,FM-15,7,,SE,0.25,mi,"TEMP, PRECIP, SNOW",,,"MMTS, SRG, SNOWBOARD",,,WFO CHS,,,,,,,,,,,,,,,,,,,,,,,,,,,29.94,45,65,0,,,,49,29.93,SCT:04 60,29.89,10,54,150,,11,,,,,,,,,,,,,,,,,,,,,,,,,,,,,,,,,,,,,MET09904/18/06 16:56:50 METAR KCHS 182156Z 15010KT 10SM SCT060 18/07 A2994 RMK AO2 SLP136 T01830072 (JRS),,,,,,,,,,,,,,,,,,,,,,,,,,,,
72208013880,2006-04-18T17:56:00,FM-15,7,,SE,0.25,mi,"TEMP, PRECIP, SNOW",,,"MMTS, SRG, SNOWBOARD",,,WFO CHS,,,,,,,,,,,,,,,,,,,,,,,,,,,29.94,45,63,0,,,,52,29.93,FEW:02 65,29.89,10,54,160,,9,,,,,,,,,,,,,,,,,,,,,,,,,,,,,,,,,,,,,MET09904/18/06 17:56:50 METAR KCHS 182256Z 16008KT 10SM FEW065 17/07 A2994 RMK AO2 SLP136 T01720072 (JRS),,,,,,,,,,,,,,,,,,,,,,,,,,,,
72208013880,2006-04-19T14:46:00,FM-16,7,,SE,0.25,mi,"TEMP, PRECIP, SNOW",,,"MMTS, SRG, SNOWBOARD",,,WFO CHS,,,,,,,,,,,,,,,,,,,,,,,,,,,29.82,61,63,0.08,-RA:02 BR:1 |RA |RA,,,94,,BKN:07 19 BKN:07 49 OVC:08 90,29.77,5,62,160,,16,,,,,,,,,,,,,,,,,,,,,,,,,,,,,,,,,,,,,MET13504/19/06 14:46:51 SPECI KCHS 191946Z 16014KT 5SM -RA BR BKN019 BKN049 OVC090 17/16 A2982 RMK AO2 WSHFT 1932 TSE17 TS MOV SE P0008 (WRB),,,,,,,,,,,,,,,,,,,,,,,,,,,,
72208013880,2006-04-19T14:56:00,FM-15,7,,SE,0.25,mi,"TEMP, PRECIP, SNOW",,,"MMTS, SRG, SNOWBOARD",,,WFO CHS,,,,,,,,,,,,,,,,,,,,,,,,,,,29.80s,61,64,0.07,,,,90,29.80s,SCT:04 20 BKN:07 49 BKN:07 90,29.75s,10,62,170,,14,,,,,,,,,,,,,,,,,,,,,,,,,,,,,,,,,,,,,MET15004/19/06 14:57:07 METAR KCHS 191956Z 17012KT 10SM SCT020 BKN049 BKN090 18/16 A2980 RMK AO2 WSHFT 1932 TSE17RAE56 SLP090 TS MOV SE P0008 T01780161 (WD),,,,,,,,,,,,,,,,,,,,,,,,,,,,
72208013880,2006-04-20T14:56:00,FM-15,7,,SE,0.25,mi,"TEMP, PRECIP, SNOW",,,"MMTS, SRG, SNOWBOARD",,,WFO CHS,,,,,,,,,,,,,,,,,,,,,,,,,,,29.99,57,77,0,,,,50,29.98,FEW:02 50,29.94,10,65,160,,10,,,,,,,,,,,,,,,,,,,,,,,,,,,,,,,,,,,,,MET09804/20/06 14:56:50 METAR KCHS 201956Z 16009KT 10SM FEW050 25/14 A2999 RMK AO2 SLP154 T02500139 (WD),,,,,,,,,,,,,,,,,,,,,,,,,,,,
72208013880,2006-04-21T10:56:00,FM-15,7,,SE,0.25,mi,"TEMP, PRECIP, SNOW",,,"MMTS, SRG, SNOWBOARD",,,WFO CHS,,,,,,,,,,,,,,,,,,,,,,,,,,,30.11,62,79,0,,,,56,30.11,BKN:07 35,30.06,10,68,150,,16,,,,,,,,,,,,,,,,,,,,,,,,,,,,,,,,,,,,,MET09904/21/06 10:56:50 METAR KCHS 211556Z 15014KT 10SM BKN035 26/17 A3011 RMK AO2 SLP195 T02610167 (WRB),,,,,,,,,,,,,,,,,,,,,,,,,,,,
72208013880,2006-04-21T11:56:00,FM-15,7,,SE,0.25,mi,"TEMP, PRECIP, SNOW",,,"MMTS, SRG, SNOWBOARD",,,WFO CHS,,,,,,,,,,,,,,,,,,,,,,,,,,,30.1,63,81,0,,,,54,30.09,BKN:07 36,30.05,10,69,160,,16,,,,,,,,,,,,,,,,,,,,,,,,,,,,,,,,,,,,,MET09904/21/06 11:56:50 METAR KCHS 211656Z 16014KT 10SM BKN036 27/17 A3010 RMK AO2 SLP191 T02720172 (WRB),,,,,,,,,,,,,,,,,,,,,,,,,,,,
72208013880,2006-04-21T12:56:00,FM-15,7,,SE,0.25,mi,"TEMP, PRECIP, SNOW",,,"MMTS, SRG, SNOWBOARD",,,WFO CHS,,,,,,,,,,,,,,,,,,,,,,,,,,,30.09,64,81,0,,0.02,8,57,30.09,BKN:07 38,30.04,10,70,150,,14,,,,,,,,,,,,,,,,,,,,,,,,,,,,,,,,,,,,,MET11704/21/06 12:56:51 METAR KCHS 211756Z 15012KT 10SM BKN038 27/18 A3009 RMK AO2 SLP189 T02720178 10272 20183 58006 (WRB),,,,,,,,,,,,,,,,,,,,,,,,,,,,
72208013880,2006-04-21T13:00:00,FM-12,4,,SE,0.25,mi,"TEMP, PRECIP, SNOW",,,"MMTS, SRG, SNOWBOARD",,,WFO CHS,,,,,,,,,,,,,,,,,,,,,,,,,,,,64,81,,,0.02,8,57,30.09,,30.04,9.94,70,150,,14,,,,,,,,,,,,,,,,,,,,,,,,,,,,,,,,,,,,,SYN092AAXX  21184 72208 32666 61512 10272 20178 30173 40189 58006 91756 333 10272 20183 555 92118;,,,,,,,,,,,,,,,,,,,,,,,,,,,,
72208013880,2006-04-21T13:56:00,FM-15,7,,SE,0.25,mi,"TEMP, PRECIP, SNOW",,,"MMTS, SRG, SNOWBOARD",,,WFO CHS,,,,,,,,,,,,,,,,,,,,,,,,,,,30.08,64,78,0,,,,62,30.08,BKN:07 32,30.03,10,69,150,,17,,,,,,,,,,,,,,,,,,,,,,,,,,,,,,,,,,,,,MET09904/21/06 13:56:50 METAR KCHS 211856Z 15015KT 10SM BKN032 26/18 A3008 RMK AO2 SLP185 T02560178 (WRB),,,,,,,,,,,,,,,,,,,,,,,,,,,,
72208013880,2006-04-21T14:56:00,FM-15,7,,SE,0.25,mi,"TEMP, PRECIP, SNOW",,,"MMTS, SRG, SNOWBOARD",,,WFO CHS,,,,,,,,,,,,,,,,,,,,,,,,,,,30.07,65,81,0,,,,58,30.06,BKN:07 32,30.02,10,71,150,,15,,,,,,,,,,,,,,,,,,,,,,,,,,,,,,,,,,,,,MET09904/21/06 14:56:50 METAR KCHS 211956Z 15013KT 10SM BKN032 27/18 A3007 RMK AO2 SLP181 T02720183 (WRB),,,,,,,,,,,,,,,,,,,,,,,,,,,,
72208013880,2006-04-21T15:56:00,FM-15,7,,SE,0.25,mi,"TEMP, PRECIP, SNOW",,,"MMTS, SRG, SNOWBOARD",,,WFO CHS,,,,,,,,,,,,,,,,,,,,,,,,,,,30.07,64,79,0,,0.03,6,60,30.06,SCT:04 32,30.02,10,69,160,,15,,,,,,,,,,,,,,,,,,,,,,,,,,,,,,,,,,,,,MET10504/21/06 15:56:50 METAR KCHS 212056Z 16013KT 10SM SCT032 26/18 A3007 RMK AO2 SLP180 T02610178 56009 (WRB),,,,,,,,,,,,,,,,,,,,,,,,,,,,
72208013880,2006-04-21T16:00:00,FM-12,4,,SE,0.25,mi,"TEMP, PRECIP, SNOW",,,"MMTS, SRG, SNOWBOARD",,,WFO CHS,,,,,,,,,,,,,,,,,,,,,,,,,,,,64,79,,,0.03,6,60,30.06,,30.02,9.94,69,160,,15,,,,,,,,,,,,,,,,,,,,,,,,,,,,,,,,,,,,,SYN076AAXX  21214 72208 35566 41613 10261 20178 30167 40180 56009 92056 555 92121;,,,,,,,,,,,,,,,,,,,,,,,,,,,,
72208013880,2006-04-21T16:56:00,FM-15,7,,SE,0.25,mi,"TEMP, PRECIP, SNOW",,,"MMTS, SRG, SNOWBOARD",,,WFO CHS,,,,,,,,,,,,,,,,,,,,,,,,,,,30.06,63,79,0,,,,58,30.06,SCT:04 31,30.01,10,69,160,,15,,,,,,,,,,,,,,,,,,,,,,,,,,,,,,,,,,,,,MET09804/21/06 16:56:50 METAR KCHS 212156Z 16013KT 10SM SCT031 26/17 A3006 RMK AO2 SLP179 T02610172 (WD),,,,,,,,,,,,,,,,,,,,,,,,,,,,
72208013880,2006-04-21T17:56:00,FM-15,7,,SE,0.25,mi,"TEMP, PRECIP, SNOW",,,"MMTS, SRG, SNOWBOARD",,,WFO CHS,,,,,,,,,,,,,,,,,,,,,,,,,,,30.05,63,77,0,,,,62,30.05,FEW:02 28,30,10,68,160,,11,,,,,,,,,,,,,,,,,,,,,,,,,,,,,,,,,,,,,MET09804/21/06 17:56:50 METAR KCHS 212256Z 16010KT 10SM FEW028 25/17 A3005 RMK AO2 SLP175 T02500172 (WD),,,,,,,,,,,,,,,,,,,,,,,,,,,,
72208013880,2006-04-22T14:56:00,FM-15,7,,SE,0.25,mi,"TEMP, PRECIP, SNOW",,,"MMTS, SRG, SNOWBOARD",,,WFO CHS,,,,,,,,,,,,,,,,,,,,,,,,,,,29.96,67,74,T,,,,79,29.96,FEW:02 15 BKN:07 70 BKN:07 95,29.91,10,69,150,,10,,,,,,,,,,,,,,,,,,,,,,,,,,,,,,,,,,,,,MET13204/22/06 14:56:51 METAR KCHS 221956Z 15009KT 10SM FEW015 BKN070 BKN095 23/19 A2996 RMK AO2 RAE25 PRESFR SLP144 P0000 T02330194 (WRB),,,,,,,,,,,,,,,,,,,,,,,,,,,,
72208013880,2006-04-23T14:56:00,FM-15,7,,SE,0.25,mi,"TEMP, PRECIP, SNOW",,,"MMTS, SRG, SNOWBOARD",,,WFO CHS,,,,,,,,,,,,,,,,,,,,,,,,,,,29.97,52,84,0,,,,33,29.97,,29.92,10,65,170,,7,,,,,,,,,,,,,,,,,,,,,,,,,,,,,,,,,,,,,MET09604/23/06 14:56:50 METAR KCHS 231956Z 17006KT 10SM CLR 29/11 A2997 RMK AO2 SLP148 T02890111 (WRB),,,,,,,,,,,,,,,,,,,,,,,,,,,,
72208013880,2006-04-26T14:56:00,FM-15,7,,SE,0.25,mi,"TEMP, PRECIP, SNOW",,,"MMTS, SRG, SNOWBOARD",,,WFO CHS,,,,,,,,,,,,,,,,,,,,,,,,,,,29.81,68,73,T,TS:7 HZ:7 |TS |HZ TS,,,84,29.8,FEW:02 30 BKN:07 47 BKN:07 110,29.76,6,70,160,,9,,,,,,,,,,,,,,,,,,,,,,,,,,,,,,,,,,,,,MET17004/26/06 14:56:51 METAR KCHS 261956Z 16008KT 6SM TS HZ FEW030CB BKN047 BKN110 23/20 A2981 RMK AO2 TSE21B39RAE01 SLP092 FRQ LTGCG SE-S TS SE-S MOV NE P0000 T02280200 (WRB),,,,,,,,,,,,,,,,,,,,,,,,,,,,
72208013880,2006-04-26T16:56:00,FM-15,7,,SE,0.25,mi,"TEMP, PRECIP, SNOW",,,"MMTS, SRG, SNOWBOARD",,,WFO CHS,,,,,,,,,,,,,,,,,,,,,,,,,,,29.77,65,75,0,,,,71,29.77,FEW:02 65,29.72,10,69,170,,16,,,,,,,,,,,,,,,,,,,,,,,,,,,,,,,,,,,,,MET09804/26/06 16:56:50 METAR KCHS 262156Z 17014KT 10SM FEW065 24/18 A2977 RMK AO2 SLP080 T02390183 (WD),,,,,,,,,,,,,,,,,,,,,,,,,,,,
72208013880,2006-04-28T17:56:00,FM-15,7,,SE,0.25,mi,"TEMP, PRECIP, SNOW",,,"MMTS, SRG, SNOWBOARD",,,WFO CHS,,,,,,,,,,,,,,,,,,,,,,,,,,,30.11,40,71,0,,,,32,30.11,FEW:02 95,30.06,10,55,150,,8,,,,,,,,,,,,,,,,,,,,,,,,,,,,,,,,,,,,,MET09804/28/06 17:56:50 METAR KCHS 282256Z 15007KT 10SM FEW095 22/04 A3011 RMK AO2 SLP197 T02170044 (WD),,,,,,,,,,,,,,,,,,,,,,,,,,,,
72208013880,2006-05-02T15:56:00,FM-15,7,,SE,0.25,mi,"TEMP, PRECIP, SNOW",,,"MMTS, SRG, SNOWBOARD",,,WFO CHS,,,,,,,,,,,,,,,,,,,,,,,,,,,30.02,55,76,0,,0.07,7,48,30.02,,29.97,10,64,170,17,14,,,,,,,,,,,,,,,,,,,,,,,,,,,,,,,,,,,,,MET10405/02/06 15:56:50 METAR KCHS 022056Z 17012G15KT 10SM CLR 24/13 A3002 RMK AO2 SLP166 T02440128 57023 (WD),,,,,,,,,,,,,,,,,,,,,,,,,,,,
72208013880,2006-05-02T16:00:00,FM-12,4,,SE,0.25,mi,"TEMP, PRECIP, SNOW",,,"MMTS, SRG, SNOWBOARD",,,WFO CHS,,,,,,,,,,,,,,,,,,,,,,,,,,,,55,76,,,0.07,7,48,30.02,CLR:00,29.97,9.94,64,170,,14,,,,,,,,,,,,,,,,,,,,,,,,,,,,,,,,,,,,,SYN076AAXX  02214 72208 35966 01712 10244 20128 30150 40166 57023 92056 555 90221;,,,,,,,,,,,,,,,,,,,,,,,,,,,,
72208013880,2006-05-05T15:56:00,FM-15,7,,SE,0.25,mi,"TEMP, PRECIP, SNOW",,,"MMTS, SRG, SNOWBOARD",,,WFO CHS,,,,,,,,,,,,,,,,,,,,,,,,,,,29.77,66,82,0,,0.06,6,58,29.77,FEW:02 65,29.72,9,71,150,,11,,,,,,,,,,,,,,,,,,,,,,,,,,,,,,,,,,,,,MET11905/05/06 15:56:51 METAR KCHS 052056Z 15010KT 9SM FEW065 28/19 A2977 RMK AO2 TSE19 SLP081 TS MOV SE T02780189 56019 (WD),,,,,,,,,,,,,,,,,,,,,,,,,,,,
72208013880,2006-05-05T16:00:00,FM-12,4,,SE,0.25,mi,"TEMP, PRECIP, SNOW",,,"MMTS, SRG, SNOWBOARD",,,WFO CHS,,,,,,,,,,,,,,,,,,,,,,,,,,,,66,82,,,0.06,6,58,29.77,,29.72,8.7,71,150,,11,,,,,,,,,,,,,,,,,,,,,,,,,,,,,,,,,,,,,SYN076AAXX  05214 72208 35764 21510 10278 20189 30065 40081 56019 92056 555 90521;,,,,,,,,,,,,,,,,,,,,,,,,,,,,
72208013880,2006-05-07T11:56:00,FM-15,7,,SE,0.25,mi,"TEMP, PRECIP, SNOW",,,"MMTS, SRG, SNOWBOARD",,,WFO CHS,,,,,,,,,,,,,,,,,,,,,,,,,,,29.91,61,82,0,,,,49,29.91,SCT:04 40 SCT:04 80 BKN:07 110,29.86,10,69,170,,16,,,,,,,,,,,,,,,,,,,,,,,,,,,,,,,,,,,,,MET11305/07/06 11:56:51 METAR KCHS 071656Z 17014KT 10SM SCT040 SCT080 BKN110 28/16 A2991 RMK AO2 SLP128 T02780161 (WRB),,,,,,,,,,,,,,,,,,,,,,,,,,,,
72208013880,2006-05-07T12:56:00,FM-15,7,,SE,0.25,mi,"TEMP, PRECIP, SNOW",,,"MMTS, SRG, SNOWBOARD",,,WFO CHS,,,,,,,,,,,,,,,,,,,,,,,,,,,29.88,61,80,0,,0.06,8,52,29.88,BKN:07 60 OVC:08 120,29.83,10,68,160,,16,,,,,,,,,,,,,,,,,,,,,,,,,,,,,,,,,,,,,MET13005/07/06 12:56:51 METAR KCHS 071756Z 16014KT 10SM BKN060 OVC120 27/16 A2988 RMK AO2 SLP119 60000 T02670161 10289 20211 58021 (WRB),,,,,,,,,,,,,,,,,,,,,,,,,,,,
72208013880,2006-05-07T13:00:00,FM-12,4,,SE,0.25,mi,"TEMP, PRECIP, SNOW",,,"MMTS, SRG, SNOWBOARD",,,WFO CHS,,,,,,,,,,,,,,,,,,,,,,,,,,,,61,80,,,0.06,8,52,29.88,,29.83,9.94,68,160,,16,,,,,,,,,,,,,,,,,,,,,,,,,,,,,,,,,,,,,SYN098AAXX  07184 72208 12766 81614 10267 20161 30102 40119 58021 69901 91756 333 10289 20211 555 90718;,,,,,,,,,,,,,,,,,,,,,,,,,,,,
72208013880,2006-05-07T13:50:00,FM-16,7,,SE,0.25,mi,"TEMP, PRECIP, SNOW",,,"MMTS, SRG, SNOWBOARD",,,WFO CHS,,,,,,,,,,,,,,,,,,,,,,,,,,,29.87,63,75,,TS:7 |TS |TS,,,65,,FEW:02 75 OVC:08 110,29.82,10,67,150,,13,,,,,,,,,,,,,,,,,,,,,,,,,,,,,,,,,,,,,MET14205/07/06 13:50:51 SPECI KCHS 071850Z 15011KT 10SM TS FEW075CB OVC110 24/17 A2987 RMK AO2 TSB45 OCNL LTGIC W TS W MOV NE CBMAM OHD MOV NE (WRB),,,,,,,,,,,,,,,,,,,,,,,,,,,,
72208013880,2006-05-07T13:56:00,FM-15,7,,SE,0.25,mi,"TEMP, PRECIP, SNOW",,,"MMTS, SRG, SNOWBOARD",,,WFO CHS,,,,,,,,,,,,,,,,,,,,,,,,,,,29.88,63,75,0,TS:7 |TS |TS,,,66,29.87,SCT:04 75 OVC:08 110,29.83,10,67,150,,13,,,,,,,,,,,,,,,,,,,,,,,,,,,,,,,,,,,,,MET15905/07/06 13:56:54 METAR KCHS 071856Z 15011KT 10SM TS SCT075CB OVC110 24/17 A2988 RMK AO2 TSB45 SLP116 OCNL LTGIC W TS W MOV NE CBMAM OHD MOV NE T02390172 (WRB),,,,,,,,,,,,,,,,,,,,,,,,,,,,
72208013880,2006-05-09T17:56:00,FM-15,7,,SE,0.25,mi,"TEMP, PRECIP, SNOW",,,"MMTS, SRG, SNOWBOARD",,,WFO CHS,,,,,,,,,,,,,,,,,,,,,,,,,,,29.97,55,67,0,,,,66,29.96,BKN:07 36,29.92,10,60,150,,8,,,,,,,,,,,,,,,,,,,,,,,,,,,,,,,,,,,,,MET09805/09/06 17:56:50 METAR KCHS 092256Z 15007KT 10SM BKN036 19/13 A2997 RMK AO2 SLP147 T01940128 (WD),,,,,,,,,,,,,,,,,,,,,,,,,,,,
72208013880,2006-05-10T16:25:00,FM-16,7,,SE,0.25,mi,"TEMP, PRECIP, SNOW",,,"MMTS, SRG, SNOWBOARD",,,WFO CHS,,,,,,,,,,,,,,,,,,,,,,,,,,,29.89,61,72,,,,,69,,OVC:08 28,29.84,10,65,150,,10,,,,,,,,,,,,,,,,,,,,,,,,,,,,,,,,,,,,,MET08205/10/06 16:25:50 SPECI KCHS 102125Z 15009KT 10SM OVC028 22/16 A2989 RMK AO2 (JRS),,,,,,,,,,,,,,,,,,,,,,,,,,,,
72208013880,2006-05-10T17:34:00,FM-16,7,,SE,0.25,mi,"TEMP, PRECIP, SNOW",,,"MMTS, SRG, SNOWBOARD",,,WFO CHS,,,,,,,,,,,,,,,,,,,,,,,,,,,29.88,61,72,,,,,69,,BKN:07 28 BKN:07 38,29.83,10,65,150,,9,,,,,,,,,,,,,,,,,,,,,,,,,,,,,,,,,,,,,MET08905/10/06 17:34:50 SPECI KCHS 102234Z 15008KT 10SM BKN028 BKN038 22/16 A2988 RMK AO2 (JRS),,,,,,,,,,,,,,,,,,,,,,,,,,,,
72208013880,2006-05-10T17:56:00,FM-15,7,,SE,0.25,mi,"TEMP, PRECIP, SNOW",,,"MMTS, SRG, SNOWBOARD",,,WFO CHS,,,,,,,,,,,,,,,,,,,,,,,,,,,29.88,61,71,0,,,,71,29.87,BKN:07 26 OVC:08 33,29.83,10,65,150,,9,,,,,,,,,,,,,,,,,,,,,,,,,,,,,,,,,,,,,MET10605/10/06 17:56:50 METAR KCHS 102256Z 15008KT 10SM BKN026 OVC033 22/16 A2988 RMK AO2 SLP116 T02170161 (JRS),,,,,,,,,,,,,,,,,,,,,,,,,,,,
72208013880,2006-05-14T15:08:00,FM-16,7,,SE,0.25,mi,"TEMP, PRECIP, SNOW",,,"MMTS, SRG, SNOWBOARD",,,WFO CHS,,,,,,,,,,,,,,,,,,,,,,,,,,,29.86,59,73,,TS:7 |TS |TS,,,61,,SCT:04 30 BKN:07 100,29.81,10,64,170,,15,,,,,,,,,,,,,,,,,,,,,,,,,,,,,,,,,,,,,MET12405/14/06 15:08:51 SPECI KCHS 142008Z 17013KT 10SM TS SCT030CB BKN100 23/15 A2986 RMK AO2 TSB03 FQT LTGIC NW TS NW MOV E (WD),,,,,,,,,,,,,,,,,,,,,,,,,,,,
72208013880,2006-05-20T12:56:00,FM-15,7,,SE,0.25,mi,"TEMP, PRECIP, SNOW",,,"MMTS, SRG, SNOWBOARD",,,WFO CHS,,,,,,,,,,,,,,,,,,,,,,,,,,,29.89,63,83,0,,0.06,8,51,29.89,FEW:02 35,29.84,10,70,160,,15,,,,,,,,,,,,,,,,,,,,,,,,,,,,,,,,,,,,,MET11705/20/06 12:56:51 METAR KCHS 201756Z 16013KT 10SM FEW035 28/17 A2989 RMK AO2 SLP122 T02830172 10289 20217 58020 (JRS),,,,,,,,,,,,,,,,,,,,,,,,,,,,
72208013880,2006-05-20T13:00:00,FM-12,4,,SE,0.25,mi,"TEMP, PRECIP, SNOW",,,"MMTS, SRG, SNOWBOARD",,,WFO CHS,,,,,,,,,,,,,,,,,,,,,,,,,,,,63,83,,,0.06,8,51,29.89,,29.84,9.94,70,160,,15,,,,,,,,,,,,,,,,,,,,,,,,,,,,,,,,,,,,,SYN076AAXX  20184 72208 32666 21613 10283 20172 30106 40122 58020 91756 555 92018;,,,,,,,,,,,,,,,,,,,,,,,,,,,,
72208013880,2006-05-20T15:56:00,FM-15,7,,SE,0.25,mi,"TEMP, PRECIP, SNOW",,,"MMTS, SRG, SNOWBOARD",,,WFO CHS,,,,,,,,,,,,,,,,,,,,,,,,,,,29.81,67,85,0,,0.08,8,55,29.81,,29.76,10,73,170,,11,,,,,,,,,,,,,,,,,,,,,,,,,,,,,,,,,,,,,MET10105/20/06 15:56:50 METAR KCHS 202056Z 17010KT 10SM CLR 29/19 A2981 RMK AO2 SLP094 T02940194 58028 (WD),,,,,,,,,,,,,,,,,,,,,,,,,,,,
72208013880,2006-05-24T10:56:00,FM-15,7,,SE,0.25,mi,"TEMP, PRECIP, SNOW",,,"MMTS, SRG, SNOWBOARD",,,WFO CHS,,,,,,,,,,,,,,,,,,,,,,,,,,,30.11,52,82,0,,,,35,30.11,FEW:02 80,30.06,10,64,150,,13,,,,,,,,,,,,,,,,,,,,,,,,,,,,,,,,,,,,,MET09905/24/06 10:56:50 METAR KCHS 241556Z 15011KT 10SM FEW080 28/11 A3011 RMK AO2 SLP195 T02780111 (WRB),,,,,,,,,,,,,,,,,,,,,,,,,,,,
72208013880,2006-05-24T11:56:00,FM-15,7,,SE,0.25,mi,"TEMP, PRECIP, SNOW",,,"MMTS, SRG, SNOWBOARD",,,WFO CHS,,,,,,,,,,,,,,,,,,,,,,,,,,,30.1,50,83,0,,,,32,30.1,FEW:02 40 SCT:04 75,30.05,10,64,150,,11,,,,,,,,,,,,,,,,,,,,,,,,,,,,,,,,,,,,,MET10605/24/06 11:56:50 METAR KCHS 241656Z 15010KT 10SM FEW040 SCT075 28/10 A3010 RMK AO2 SLP192 T02830100 (WRB),,,,,,,,,,,,,,,,,,,,,,,,,,,,
72208013880,2006-05-24T17:56:00,FM-15,7,,SE,0.25,mi,"TEMP, PRECIP, SNOW",,,"MMTS, SRG, SNOWBOARD",,,WFO CHS,,,,,,,,,,,,,,,,,,,,,,,,,,,30.04,61,78,0,,,,56,30.03,,29.99,10,67,150,,10,,,,,,,,,,,,,,,,,,,,,,,,,,,,,,,,,,,,,MET09505/24/06 17:56:50 METAR KCHS 242256Z 15009KT 10SM CLR 26/16 A3004 RMK AO2 SLP171 T02560161 (WD),,,,,,,,,,,,,,,,,,,,,,,,,,,,
72208013880,2006-05-25T11:56:00,FM-15,7,,SE,0.25,mi,"TEMP, PRECIP, SNOW",,,"MMTS, SRG, SNOWBOARD",,,WFO CHS,,,,,,,,,,,,,,,,,,,,,,,,,,,29.98,72,87,0,,,,61,29.97,SCT:04 35,29.93,8,77,170,16,8,,,,,,,,,,,,,,,,,,,,,,,,,,,,,,,,,,,,,MET11205/25/06 11:56:50 METAR KCHS 251656Z 17007G14KT 8SM SCT035 31/22 A2998 RMK AO2 SLP150 TCU DSNT W T03060222 (WRB),,,,,,,,,,,,,,,,,,,,,,,,,,,,
72208013880,2006-05-25T12:56:00,FM-15,7,,SE,0.25,mi,"TEMP, PRECIP, SNOW",,,"MMTS, SRG, SNOWBOARD",,,WFO CHS,,,,,,,,,,,,,,,,,,,,,,,,,,,29.96,72,86,0,,0.05,8,63,29.95,SCT:04 37,29.91,8,76,160,,16,,,,,,,,,,,,,,,,,,,,,,,,,,,,,,,,,,,,,MET13605/25/06 12:56:51 METAR KCHS 251756Z 16014KT 8SM SCT037CB 30/22 A2996 RMK AO2 SLP143 CB W MOV E VCSH W T03000222 10311 20239 58016 (WRB),,,,,,,,,,,,,,,,,,,,,,,,,,,,
72208013880,2006-05-25T13:00:00,FM-12,4,,SE,0.25,mi,"TEMP, PRECIP, SNOW",,,"MMTS, SRG, SNOWBOARD",,,WFO CHS,,,,,,,,,,,,,,,,,,,,,,,,,,,,72,86,,,0.05,8,63,29.95,,29.91,7.46,76,160,,16,,,,,,,,,,,,,,,,,,,,,,,,,,,,,,,,,,,,,SYN092AAXX  25184 72208 32662 41614 10300 20222 30129 40143 58016 91756 333 10311 20239 555 92518;,,,,,,,,,,,,,,,,,,,,,,,,,,,,
72208013880,2006-05-25T13:56:00,FM-15,7,,SE,0.25,mi,"TEMP, PRECIP, SNOW",,,"MMTS, SRG, SNOWBOARD",,,WFO CHS,,,,,,,,,,,,,,,,,,,,,,,,,,,29.94,72,84,0.01,,,,67,29.94,FEW:02 17 SCT:04 30 BKN:07 70,29.89,7,76,150,,14,,,,,,,,,,,,,,,,,,,,,,,,,,,,,,,,,,,,,MET17105/25/06 13:57:08 METAR KCHS 251856Z 15012KT 7SM FEW017 SCT030 BKN070 29/22 A2994 RMK AO2 TSB10E55RAB04E31 SLP138 TS E MOV E TS W DSPTD TCU DSNT W-NW P0001 T02890222 (WRB),,,,,,,,,,,,,,,,,,,,,,,,,,,,
72208013880,2006-06-01T13:56:00,FM-15,7,,SE,0.25,mi,"TEMP, PRECIP, SNOW",,,"MMTS, SRG, SNOWBOARD",,,WFO CHS,,,,,,,,,,,,,,,,,,,,,,,,,,,30.06,68,81,0,,,,65,30.06,BKN:07 38 BKN:07 80,30.01,10,72,150,,10,,,,,,,,,,,,,,,,,,,,,,,,,,,,,,,,,,,,,MET12406/01/06 13:58:51 METAR KCHS 011856Z 15009KT 10SM BKN038TCU BKN080 27/20 A3006 RMK AO2 SLP179 TCU ALQDS VCSH T02720200 (WRB),,,,,,,,,,,,,,,,,,,,,,,,,,,,
72208013880,2006-06-01T14:56:00,FM-15,7,,SE,0.25,mi,"TEMP, PRECIP, SNOW",,,"MMTS, SRG, SNOWBOARD",,,WFO CHS,,,,,,,,,,,,,,,,,,,,,,,,,,,30.04,68,81,0,,,,65,30.04,SCT:04 40 BKN:07 90,29.99,10,72,150,,11,,,,,,,,,,,,,,,,,,,,,,,,,,,,,,,,,,,,,MET12006/01/06 14:56:51 METAR KCHS 011956Z 15010KT 10SM SCT040 BKN090 27/20 A3004 RMK AO2 SLP172 TCU DSNT NW-N T02720200 (WRB),,,,,,,,,,,,,,,,,,,,,,,,,,,,
72208013880,2006-06-01T16:56:00,FM-15,7,,SE,0.25,mi,"TEMP, PRECIP, SNOW",,,"MMTS, SRG, SNOWBOARD",,,WFO CHS,,,,,,,,,,,,,,,,,,,,,,,,,,,30.01,67,81,0,,,,62,30.01,FEW:02 34 SCT:04 100,29.96,10,72,170,,10,,,,,,,,,,,,,,,,,,,,,,,,,,,,,,,,,,,,,MET12006/01/06 16:56:51 METAR KCHS 012156Z 17009KT 10SM FEW034 SCT100 27/19 A3001 RMK AO2 SLP163 TCU DSNT NW-NE T02720194 (WD),,,,,,,,,,,,,,,,,,,,,,,,,,,,
72208013880,2006-06-01T17:56:00,FM-15,7,,SE,0.25,mi,"TEMP, PRECIP, SNOW",,,"MMTS, SRG, SNOWBOARD",,,WFO CHS,,,,,,,,,,,,,,,,,,,,,,,,,,,30,66,80,0,,,,62,30,FEW:02 33,29.95,10,71,170,,13,,,,,,,,,,,,,,,,,,,,,,,,,,,,,,,,,,,,,MET09806/01/06 17:56:50 METAR KCHS 012256Z 17011KT 10SM FEW033 27/19 A3000 RMK AO2 SLP159 T02670189 (WD),,,,,,,,,,,,,,,,,,,,,,,,,,,,
72208013880,2006-06-02T12:56:00,FM-15,7,,SE,0.25,mi,"TEMP, PRECIP, SNOW",,,"MMTS, SRG, SNOWBOARD",,,WFO CHS,,,,,,,,,,,,,,,,,,,,,,,,,,,29.95,67,84,0,,0.06,8,57,29.95,SCT:04 40,29.9,10,73,160,,13,,,,,,,,,,,,,,,,,,,,,,,,,,,,,,,,,,,,,MET13706/02/06 12:56:51 METAR KCHS 021756Z 16011KT 10SM SCT040TCU 29/19 A2995 RMK AO2 SLP141 TCU W-NW VCSH NW T02890194 10300 20233 58019 (JRS),,,,,,,,,,,,,,,,,,,,,,,,,,,,
72208013880,2006-06-02T13:00:00,FM-12,4,,SE,0.25,mi,"TEMP, PRECIP, SNOW",,,"MMTS, SRG, SNOWBOARD",,,WFO CHS,,,,,,,,,,,,,,,,,,,,,,,,,,,,67,84,,,0.06,8,57,29.95,,29.9,9.94,73,160,,13,,,,,,,,,,,,,,,,,,,,,,,,,,,,,,,,,,,,,SYN092AAXX  02184 72208 32666 41611 10289 20194 30126 40141 58019 91756 333 10300 20233 555 90218;,,,,,,,,,,,,,,,,,,,,,,,,,,,,
72208013880,2006-06-04T14:56:00,FM-15,7,,SE,0.25,mi,"TEMP, PRECIP, SNOW",,,"MMTS, SRG, SNOWBOARD",,,WFO CHS,,,,,,,,,,,,,,,,,,,,,,,,,,,29.82,65,83,0,,,,55,29.81,SCT:04 55,29.77,10,71,150,,9,,,,,,,,,,,,,,,,,,,,,,,,,,,,,,,,,,,,,MET11106/04/06 14:56:51 METAR KCHS 041956Z 15008KT 10SM SCT055TCU 28/18 A2982 RMK AO2 SLP096 TCU NE-E T02830183 (JRS),,,,,,,,,,,,,,,,,,,,,,,,,,,,
72208013880,2006-06-04T15:56:00,FM-15,7,,SE,0.25,mi,"TEMP, PRECIP, SNOW",,,"MMTS, SRG, SNOWBOARD",,,WFO CHS,,,,,,,,,,,,,,,,,,,,,,,,,,,29.81,64,81,0,,0.02,6,57,29.81,BKN:07 55,29.76,10,70,170,,15,,,,,,,,,,,,,,,,,,,,,,,,,,,,,,,,,,,,,MET11806/04/06 15:56:51 METAR KCHS 042056Z 17013KT 10SM BKN055TCU 27/18 A2981 RMK AO2 SLP094 TCU NW-NE T02720178 56008 (JRS),,,,,,,,,,,,,,,,,,,,,,,,,,,,
72208013880,2006-06-04T16:00:00,FM-12,4,,SE,0.25,mi,"TEMP, PRECIP, SNOW",,,"MMTS, SRG, SNOWBOARD",,,WFO CHS,,,,,,,,,,,,,,,,,,,,,,,,,,,,64,81,,,0.02,6,57,29.81,,29.76,9.94,70,170,,15,,,,,,,,,,,,,,,,,,,,,,,,,,,,,,,,,,,,,SYN076AAXX  04214 72208 35766 61713 10272 20178 30079 40094 56008 92056 555 90421;,,,,,,,,,,,,,,,,,,,,,,,,,,,,
72208013880,2006-06-04T17:56:00,FM-15,7,,SE,0.25,mi,"TEMP, PRECIP, SNOW",,,"MMTS, SRG, SNOWBOARD",,,WFO CHS,,,,,,,,,,,,,,,,,,,,,,,,,,,29.8,61,80,0,,,,52,29.8,FEW:02 60 SCT:04 80,29.75,10,68,170,,9,,,,,,,,,,,,,,,,,,,,,,,,,,,,,,,,,,,,,MET10606/04/06 17:56:50 METAR KCHS 042256Z 17008KT 10SM FEW060 SCT080 27/16 A2980 RMK AO2 SLP091 T02670161 (JRS),,,,,,,,,,,,,,,,,,,,,,,,,,,,
72208013880,2006-06-18T15:56:00,FM-15,7,,SE,0.25,mi,"TEMP, PRECIP, SNOW",,,"MMTS, SRG, SNOWBOARD",,,WFO CHS,,,,,,,,,,,,,,,,,,,,,,,,,,,30.15,59,82,0,,0.04,6,46,30.14,FEW:02 60,30.1,10,68,160,,10,,,,,,,,,,,,,,,,,,,,,,,,,,,,,,,,,,,,,MET10406/18/06 15:56:50 METAR KCHS 182056Z 16009KT 10SM FEW060 28/15 A3015 RMK AO2 SLP208 T02780150 56013 (WD),,,,,,,,,,,,,,,,,,,,,,,,,,,,
72208013880,2006-06-18T16:00:00,FM-12,4,,SE,0.25,mi,"TEMP, PRECIP, SNOW",,,"MMTS, SRG, SNOWBOARD",,,WFO CHS,,,,,,,,,,,,,,,,,,,,,,,,,,,,59,82,,,0.04,6,46,30.14,,30.1,9.94,68,160,,10,,,,,,,,,,,,,,,,,,,,,,,,,,,,,,,,,,,,,SYN076AAXX  18214 72208 35766 21609 10278 20150 30194 40208 56013 92056 555 91821;,,,,,,,,,,,,,,,,,,,,,,,,,,,,
72208013880,2006-06-18T16:56:00,FM-15,7,,SE,0.25,mi,"TEMP, PRECIP, SNOW",,,"MMTS, SRG, SNOWBOARD",,,WFO CHS,,,,,,,,,,,,,,,,,,,,,,,,,,,30.14,59,80,0,,,,49,30.13,FEW:02 70,30.09,10,67,160,,13,,,,,,,,,,,,,,,,,,,,,,,,,,,,,,,,,,,,,MET09806/18/06 16:56:50 METAR KCHS 182156Z 16011KT 10SM FEW070 27/15 A3014 RMK AO2 SLP204 T02670150 (WD),,,,,,,,,,,,,,,,,,,,,,,,,,,,
72208013880,2006-06-19T11:56:00,FM-15,7,,SE,0.25,mi,"TEMP, PRECIP, SNOW",,,"MMTS, SRG, SNOWBOARD",,,WFO CHS,,,,,,,,,,,,,,,,,,,,,,,,,,,30.12,66,83,0,,,,57,30.12,BKN:07 45 BKN:07 65,30.07,10,72,150,,11,,,,,,,,,,,,,,,,,,,,,,,,,,,,,,,,,,,,,MET10606/19/06 11:56:50 METAR KCHS 191656Z 15010KT 10SM BKN045 BKN065 28/19 A3012 RMK AO2 SLP200 T02830189 (WRB),,,,,,,,,,,,,,,,,,,,,,,,,,,,
72208013880,2006-06-19T12:56:00,FM-15,7,,SE,0.25,mi,"TEMP, PRECIP, SNOW",,,"MMTS, SRG, SNOWBOARD",,,WFO CHS,,,,,,,,,,,,,,,,,,,,,,,,,,,30.11,69,85,0,,0.03,8,59,30.1,BKN:07 47,30.06,10,74,160,,10,,,,,,,,,,,,,,,,,,,,,,,,,,,,,,,,,,,,,MET11706/19/06 12:56:51 METAR KCHS 191756Z 16009KT 10SM BKN047 29/21 A3011 RMK AO2 SLP194 T02940206 10294 20228 58010 (WRB),,,,,,,,,,,,,,,,,,,,,,,,,,,,
72208013880,2006-06-19T13:00:00,FM-12,4,,SE,0.25,mi,"TEMP, PRECIP, SNOW",,,"MMTS, SRG, SNOWBOARD",,,WFO CHS,,,,,,,,,,,,,,,,,,,,,,,,,,,,69,85,,,0.03,8,59,30.1,,30.06,9.94,74,160,,10,,,,,,,,,,,,,,,,,,,,,,,,,,,,,,,,,,,,,SYN092AAXX  19184 72208 32666 61609 10294 20206 30180 40194 58010 91756 333 10294 20228 555 91918;,,,,,,,,,,,,,,,,,,,,,,,,,,,,
72208013880,2006-06-21T14:56:00,FM-15,7,,SE,0.25,mi,"TEMP, PRECIP, SNOW",,,"MMTS, SRG, SNOWBOARD",,,WFO CHS,,,,,,,,,,,,,,,,,,,,,,,,,,,30.07,73,91,0,,,,56,30.07,FEW:02 38,30.02,10,78,170,,14,,,,,,,,,,,,,,,,,,,,,,,,,,,,,,,,,,,,,MET09806/21/06 14:56:50 METAR KCHS 211956Z 17012KT 10SM FEW038 33/23 A3007 RMK AO2 SLP183 T03280228 (WD),,,,,,,,,,,,,,,,,,,,,,,,,,,,
72208013880,2006-06-21T15:56:00,FM-15,7,,SE,0.25,mi,"TEMP, PRECIP, SNOW",,,"MMTS, SRG, SNOWBOARD",,,WFO CHS,,,,,,,,,,,,,,,,,,,,,,,,,,,30.09,73,90,0,,0.03,5,58,30.08,FEW:02 40,30.04,10,78,160,,9,,,,,,,,,,,,,,,,,,,,,,,,,,,,,,,,,,,,,MET12506/21/06 15:56:51 METAR KCHS 212056Z 16008KT 10SM FEW040TCU 32/23 A3009 RMK AO2 SLP187 TCU N AND DSNT NE T03220228 55009 (WD),,,,,,,,,,,,,,,,,,,,,,,,,,,,
72208013880,2006-06-21T16:00:00,FM-12,4,,SE,0.25,mi,"TEMP, PRECIP, SNOW",,,"MMTS, SRG, SNOWBOARD",,,WFO CHS,,,,,,,,,,,,,,,,,,,,,,,,,,,,73,90,,,0.03,5,58,30.08,,30.04,9.94,78,160,,9,,,,,,,,,,,,,,,,,,,,,,,,,,,,,,,,,,,,,SYN076AAXX  21214 72208 35666 21608 10322 20228 30173 40187 55009 92056 555 92121;,,,,,,,,,,,,,,,,,,,,,,,,,,,,
72208013880,2006-06-21T16:56:00,FM-15,7,,SE,0.25,mi,"TEMP, PRECIP, SNOW",,,"MMTS, SRG, SNOWBOARD",,,WFO CHS,,,,,,,,,,,,,,,,,,,,,,,,,,,30.09,71,88,0,,,,57,30.09,FEW:02 50,30.04,10,76,160,,14,,,,,,,,,,,,,,,,,,,,,,,,,,,,,,,,,,,,,MET10906/21/06 16:56:50 METAR KCHS 212156Z 16012KT 10SM FEW050 31/22 A3009 RMK AO2 SLP188 CB DSNT NE T03110217 (WD),,,,,,,,,,,,,,,,,,,,,,,,,,,,
72208013880,2006-06-21T17:56:00,FM-15,7,,SE,0.25,mi,"TEMP, PRECIP, SNOW",,,"MMTS, SRG, SNOWBOARD",,,WFO CHS,,,,,,,,,,,,,,,,,,,,,,,,,,,30.09,69,85,0,,,,59,30.09,,30.04,10,74,170,,10,,,,,,,,,,,,,,,,,,,,,,,,,,,,,,,,,,,,,MET09506/21/06 17:56:50 METAR KCHS 212256Z 17009KT 10SM CLR 29/21 A3009 RMK AO2 SLP188 T02940206 (WD),,,,,,,,,,,,,,,,,,,,,,,,,,,,
72208013880,2006-06-22T15:56:00,FM-15,7,,SE,0.25,mi,"TEMP, PRECIP, SNOW",,,"MMTS, SRG, SNOWBOARD",,,WFO CHS,,,,,,,,,,,,,,,,,,,,,,,,,,,30.12,72,88,0,,0.05,6,59,30.11,FEW:02 45,30.07,10,77,150,,10,,,,,,,,,,,,,,,,,,,,,,,,,,,,,,,,,,,,,MET10506/22/06 15:56:50 METAR KCHS 222056Z 15009KT 10SM FEW045 31/22 A3012 RMK AO2 SLP198 T03110222 56017 (JRS),,,,,,,,,,,,,,,,,,,,,,,,,,,,
72208013880,2006-06-22T16:00:00,FM-12,4,,SE,0.25,mi,"TEMP, PRECIP, SNOW",,,"MMTS, SRG, SNOWBOARD",,,WFO CHS,,,,,,,,,,,,,,,,,,,,,,,,,,,,72,88,,,0.05,6,59,30.11,,30.07,9.94,77,150,,10,,,,,,,,,,,,,,,,,,,,,,,,,,,,,,,,,,,,,SYN076AAXX  22214 72208 35666 21509 10311 20222 30184 40198 56017 92056 555 92221;,,,,,,,,,,,,,,,,,,,,,,,,,,,,
72208013880,2006-06-25T10:56:00,FM-15,7,,SE,0.25,mi,"TEMP, PRECIP, SNOW",,,"MMTS, SRG, SNOWBOARD",,,WFO CHS,,,,,,,,,,,,,,,,,,,,,,,,,,,29.96,74,83,0,,,,74,29.96,SCT:04 21 BKN:07 80,29.91,10,77,150,,13,,,,,,,,,,,,,,,,,,,,,,,,,,,,,,,,,,,,,MET17506/25/06 10:57:05 METAR KCHS 251556Z 15011KT 10SM SCT021CB BKN080 28/23 A2996 RMK AO2 TSE17RAE1458 SLP146 TS MOV NW CB SW-W MOV NW TCU NE AND S CB DSNT E P0000 T02830233 (WRB),,,,,,,,,,,,,,,,,,,,,,,,,,,,
72208013880,2006-06-25T13:56:00,FM-15,7,,SE,0.25,mi,"TEMP, PRECIP, SNOW",,,"MMTS, SRG, SNOWBOARD",,,WFO CHS,,,,,,,,,,,,,,,,,,,,,,,,,,,29.94,74,79,0.02,TS:7 -RA:02 |RA TS |SHRA TS,,,85,29.93,SCT:04 19 BKN:07 42 BKN:07 65,29.89,10,76,150,,7,,,,,,,,,,,,,,,,,,,,,,,,,,,,,,,,,,,,,MET16806/25/06 13:56:51 METAR KCHS 251856Z 15006KT 10SM -TSRA SCT019CB BKN042 BKN065 26/23 A2994 RMK AO2 TSB52RAE19B56 SLP136 OCNL LTGICCG E TS E MOV NW P0002 T02610233 (WRB),,,,,,,,,,,,,,,,,,,,,,,,,,,,
72208013880,2006-06-26T10:56:00,FM-15,7,,SE,0.25,mi,"TEMP, PRECIP, SNOW",,,"MMTS, SRG, SNOWBOARD",,,WFO CHS,,,,,,,,,,,,,,,,,,,,,,,,,,,29.93,72,85,0,,,,65,29.92,FEW:02 25 SCT:04 33,29.88,10,76,150,,14,,,,,,,,,,,,,,,,,,,,,,,,,,,,,,,,,,,,,MET10606/26/06 10:56:50 METAR KCHS 261556Z 15012KT 10SM FEW025 SCT033 29/22 A2993 RMK AO2 SLP133 T02940222 (JRS),,,,,,,,,,,,,,,,,,,,,,,,,,,,
72208013880,2006-06-26T11:56:00,FM-15,7,,SE,0.25,mi,"TEMP, PRECIP, SNOW",,,"MMTS, SRG, SNOWBOARD",,,WFO CHS,,,,,,,,,,,,,,,,,,,,,,,,,,,29.93,72,83,0.01,-RA:02 |RA |RA,,,70,29.92,FEW:02 26 SCT:04 34,29.88,9,75,150,,15,,,,,,,,,,,,,,,,,,,,,,,,,,,,,,,,,,,,,MET13206/26/06 11:56:51 METAR KCHS 261656Z 15013KT 9SM -RA FEW026TCU SCT034 28/22 A2993 RMK AO2 RAB52 SLP133 TCU W-N P0001 T02830222 (JRS),,,,,,,,,,,,,,,,,,,,,,,,,,,,
72208013880,2006-06-26T12:56:00,FM-15,7,,SE,0.25,mi,"TEMP, PRECIP, SNOW",,,"MMTS, SRG, SNOWBOARD",,,WFO CHS,,,,,,,,,,,,,,,,,,,,,,,,,,,29.92,70,85,T,,0.02,8,61,29.91,FEW:02 28 SCT:04 33,29.87,10,75,170,,16,,,,,,,,,,,,,,,,,,,,,,,,,,,,,,,,,,,,,MET16706/26/06 12:56:51 METAR KCHS 261756Z 17014KT 10SM FEW028 SCT033 29/21 A2992 RMK AO2 RAE03 SLP129 TCU DSNT NW AND DSNT E-S P0000 60010 T02940211 10306 20261 58006 (JRS),,,,,,,,,,,,,,,,,,,,,,,,,,,,
72208013880,2006-06-26T13:00:00,FM-12,4,,SE,0.25,mi,"TEMP, PRECIP, SNOW",,,"MMTS, SRG, SNOWBOARD",,,WFO CHS,,,,,,,,,,,,,,,,,,,,,,,,,,,,70,85,,,0.02,8,61,29.91,,29.87,9.94,75,170,,16,,,,,,,,,,,,,,,,,,,,,,,,,,,,,,,,,,,,,SYN098AAXX  26184 72208 12566 41714 10294 20211 30116 40129 58006 60031 91756 333 10306 20244 555 92618;,,,,,,,,,,,,,,,,,,,,,,,,,,,,
72208013880,2006-06-26T14:56:00,FM-15,7,,SE,0.25,mi,"TEMP, PRECIP, SNOW",,,"MMTS, SRG, SNOWBOARD",,,WFO CHS,,,,,,,,,,,,,,,,,,,,,,,,,,,29.89,72,85,0,,,,65,29.88,FEW:02 25 BKN:07 30,29.84,10,76,150,23,17,,,,,,,,,,,,,,,,,,,,,,,,,,,,,,,,,,,,,MET11906/26/06 14:56:51 METAR KCHS 261956Z 15015G20KT 10SM FEW025 BKN030TCU 29/22 A2989 RMK AO2 SLP120 TCU W-N T02940222 (WD),,,,,,,,,,,,,,,,,,,,,,,,,,,,
72208013880,2006-06-26T16:56:00,FM-15,7,,SE,0.25,mi,"TEMP, PRECIP, SNOW",,,"MMTS, SRG, SNOWBOARD",,,WFO CHS,,,,,,,,,,,,,,,,,,,,,,,,,,,29.88,70,85,0,,,,61,29.88,FEW:02 40,29.83,10,75,160,,15,,,,,,,,,,,,,,,,,,,,,,,,,,,,,,,,,,,,,MET11906/26/06 16:56:51 METAR KCHS 262156Z 16013KT 10SM FEW040 29/21 A2988 RMK AO2 SLP118 TCU DSNT NE SE AND S T02940211 (WD),,,,,,,,,,,,,,,,,,,,,,,,,,,,
72208013880,2006-06-26T17:56:00,FM-15,7,,SE,0.25,mi,"TEMP, PRECIP, SNOW",,,"MMTS, SRG, SNOWBOARD",,,WFO CHS,,,,,,,,,,,,,,,,,,,,,,,,,,,29.9,72,81,0,,,,74,29.89,FEW:02 24,29.85,10,75,150,,11,,,,,,,,,,,,,,,,,,,,,,,,,,,,,,,,,,,,,MET12606/26/06 17:56:51 METAR KCHS 262256Z 15010KT 10SM FEW024 27/22 A2990 RMK AO2 SLP123 TCU DSNT NW CB DSNT N AND E T02720222 (WD),,,,,,,,,,,,,,,,,,,,,,,,,,,,
72208013880,2006-06-29T15:56:00,FM-15,7,,SE,0.25,mi,"TEMP, PRECIP, SNOW",,,"MMTS, SRG, SNOWBOARD",,,WFO CHS,,,,,,,,,,,,,,,,,,,,,,,,,,,30.03,71,84,T,-RA:02 |RA |RA,0.05,6,65,30.03,SCT:04 33 BKN:07 60,29.98,7,75,170,,9,,,,,,,,,,,,,,,,,,,,,,,,,,,,,,,,,,,,,MET14306/29/06 15:56:51 METAR KCHS 292056Z 17008KT 7SM -RA SCT033TCU BKN060 29/22 A3003 RMK AO2 RAB55 SLP169 TCU NW P0000 60000 T02890217 56016 (JRS),,,,,,,,,,,,,,,,,,,,,,,,,,,,
72208013880,2006-06-29T16:00:00,FM-12,4,,SE,0.25,mi,"TEMP, PRECIP, SNOW",,,"MMTS, SRG, SNOWBOARD",,,WFO CHS,,,,,,,,,,,,,,,,,,,,,,,,,,,,71,84,,|RA |,0.05,6,65,30.03,,29.98,6.84,75,170,,9,,,,,,,,,,,,,,,,,,,,,,,,,,,,,,,,,,,,,SYN088AAXX  29214 72208 17561 61708 10289 20217 30153 40169 56016 69907 761// 92056 555 92921;,,,,,,,,,,,,,,,,,,,,,,,,,,,,
72208013880,2006-06-30T15:56:00,FM-15,7,,SE,0.25,mi,"TEMP, PRECIP, SNOW",,,"MMTS, SRG, SNOWBOARD",,,WFO CHS,,,,,,,,,,,,,,,,,,,,,,,,,,,30.04,67,89,0,,0.02,6,48,30.04,FEW:02 80,29.99,8,74,150,,13,,,,,,,,,,,,,,,,,,,,,,,,,,,,,,,,,,,,,MET10306/30/06 15:56:50 METAR KCHS 302056Z 15011KT 8SM FEW080 32/19 A3004 RMK AO2 SLP172 T03170194 56006 (WD),,,,,,,,,,,,,,,,,,,,,,,,,,,,
72208013880,2006-06-30T16:00:00,FM-12,4,,SE,0.25,mi,"TEMP, PRECIP, SNOW",,,"MMTS, SRG, SNOWBOARD",,,WFO CHS,,,,,,,,,,,,,,,,,,,,,,,,,,,,67,89,,,0.02,6,48,30.04,,29.99,7.46,74,150,,13,,,,,,,,,,,,,,,,,,,,,,,,,,,,,,,,,,,,,SYN076AAXX  30214 72208 35862 21511 10317 20194 30157 40172 56006 92056 555 93021;,,,,,,,,,,,,,,,,,,,,,,,,,,,,
72208013880,2006-06-30T16:56:00,FM-15,7,,SE,0.25,mi,"TEMP, PRECIP, SNOW",,,"MMTS, SRG, SNOWBOARD",,,WFO CHS,,,,,,,,,,,,,,,,,,,,,,,,,,,30.04,65,89,0,,,,45,30.04,FEW:02 85,29.99,9,73,160,,14,,,,,,,,,,,,,,,,,,,,,,,,,,,,,,,,,,,,,MET09706/30/06 16:56:50 METAR KCHS 302156Z 16012KT 9SM FEW085 32/18 A3004 RMK AO2 SLP172 T03170183 (WD),,,,,,,,,,,,,,,,,,,,,,,,,,,,
72208013880,2006-07-01T15:56:00,FM-15,7,,SE,0.25,mi,"TEMP, PRECIP, SNOW",,,"MMTS, SRG, SNOWBOARD",,,WFO CHS,,,,,,,,,,,,,,,,,,,,,,,,,,,30.17,72,87,0,TS:7 |TS |TS,0.02,6,61,30.16,FEW:02 65,30.12,8,77,160,,11,,,,,,,,,,,,,,,,,,,,,,,,,,,,,,,,,,,,,MET16207/01/06 15:56:51 METAR KCHS 012056Z 16010KT 8SM TS FEW065CB 31/22 A3017 RMK AO2 TSB22 SLP215 OCNL LTGIC SE CB SE MOV STNRY VCSH SE CB DSNT E T03060222 56006 (WD),,,,,,,,,,,,,,,,,,,,,,,,,,,,
72208013880,2006-07-01T16:00:00,FM-12,4,,SE,0.25,mi,"TEMP, PRECIP, SNOW",,,"MMTS, SRG, SNOWBOARD",,,WFO CHS,,,,,,,,,,,,,,,,,,,,,,,,,,,,72,87,,|TS |,0.02,6,61,30.16,,30.12,7.46,77,160,,11,,,,,,,,,,,,,,,,,,,,,,,,,,,,,,,,,,,,,SYN082AAXX  01214 72208 37762 21610 10306 20222 30201 40215 56006 790// 92056 555 90121;,,,,,,,,,,,,,,,,,,,,,,,,,,,,
72208013880,2006-07-02T16:56:00,FM-15,7,,SE,0.25,mi,"TEMP, PRECIP, SNOW",,,"MMTS, SRG, SNOWBOARD",,,WFO CHS,,,,,,,,,,,,,,,,,,,,,,,,,,,30.16,67,89,0,,,,48,30.16,FEW:02 60,30.11,10,74,170,,8,,,,,,,,,,,,,,,,,,,,,,,,,,,,,,,,,,,,,MET09807/02/06 16:56:50 METAR KCHS 022156Z 17007KT 10SM FEW060 32/19 A3016 RMK AO2 SLP213 T03170194 (WD),,,,,,,,,,,,,,,,,,,,,,,,,,,,
72208013880,2006-07-02T17:56:00,FM-15,7,,SE,0.25,mi,"TEMP, PRECIP, SNOW",,,"MMTS, SRG, SNOWBOARD",,,WFO CHS,,,,,,,,,,,,,,,,,,,,,,,,,,,30.17,66,87,0,,,,50,30.16,FEW:02 70,30.12,10,73,170,,9,,,,,,,,,,,,,,,,,,,,,,,,,,,,,,,,,,,,,MET09807/02/06 17:56:50 METAR KCHS 022256Z 17008KT 10SM FEW070 31/19 A3017 RMK AO2 SLP215 T03060189 (WD),,,,,,,,,,,,,,,,,,,,,,,,,,,,
72208013880,2006-07-03T16:56:00,FM-15,7,,SE,0.25,mi,"TEMP, PRECIP, SNOW",,,"MMTS, SRG, SNOWBOARD",,,WFO CHS,,,,,,,,,,,,,,,,,,,,,,,,,,,30.12,73,86,0,,,,65,30.12,FEW:02 40 SCT:04 60,30.07,10,77,150,,10,,,,,,,,,,,,,,,,,,,,,,,,,,,,,,,,,,,,,MET10607/03/06 16:56:50 METAR KCHS 032156Z 15009KT 10SM FEW040 SCT060 30/23 A3012 RMK AO2 SLP200 T03000228 (JRS),,,,,,,,,,,,,,,,,,,,,,,,,,,,
72208013880,2006-07-03T17:56:00,FM-15,7,,SE,0.25,mi,"TEMP, PRECIP, SNOW",,,"MMTS, SRG, SNOWBOARD",,,WFO CHS,,,,,,,,,,,,,,,,,,,,,,,,,,,30.12,72,87,0,,,,61,30.12,FEW:02 55,30.07,10,77,170,,9,,,,,,,,,,,,,,,,,,,,,,,,,,,,,,,,,,,,,MET09907/03/06 17:56:50 METAR KCHS 032256Z 17008KT 10SM FEW055 31/22 A3012 RMK AO2 SLP200 T03060222 (JRS),,,,,,,,,,,,,,,,,,,,,,,,,,,,
72208013880,2006-07-04T14:56:00,FM-15,7,,SE,0.25,mi,"TEMP, PRECIP, SNOW",,,"MMTS, SRG, SNOWBOARD",,,WFO CHS,,,,,,,,,,,,,,,,,,,,,,,,,,,30.08,69,91,0,,,,49,30.08,FEW:02 43,30.03,10,76,150,,13,,,,,,,,,,,,,,,,,,,,,,,,,,,,,,,,,,,,,MET11707/04/06 14:56:51 METAR KCHS 041956Z 15011KT 10SM FEW043TCU 33/21 A3008 RMK AO2 SLP187 TCU NW DSNT NE T03280206 (WRB),,,,,,,,,,,,,,,,,,,,,,,,,,,,
72208013880,2006-07-04T15:56:00,FM-15,7,,SE,0.25,mi,"TEMP, PRECIP, SNOW",,,"MMTS, SRG, SNOWBOARD",,,WFO CHS,,,,,,,,,,,,,,,,,,,,,,,,,,,30.07,65,89,0,,0.04,6,45,30.07,FEW:02 45,30.02,10,73,160,,11,,,,,,,,,,,,,,,,,,,,,,,,,,,,,,,,,,,,,MET12207/04/06 15:56:51 METAR KCHS 042056Z 16010KT 10SM FEW045 32/18 A3007 RMK AO2 SLP182 TCU DSNT NE AN NW T03170183 56015 (WD),,,,,,,,,,,,,,,,,,,,,,,,,,,,
72208013880,2006-07-04T16:00:00,FM-12,4,,SE,0.25,mi,"TEMP, PRECIP, SNOW",,,"MMTS, SRG, SNOWBOARD",,,WFO CHS,,,,,,,,,,,,,,,,,,,,,,,,,,,,65,89,,,0.04,6,45,30.07,,30.02,9.94,73,160,,11,,,,,,,,,,,,,,,,,,,,,,,,,,,,,,,,,,,,,SYN076AAXX  04214 72208 35666 21610 10317 20183 30167 40182 56015 92056 555 90421;,,,,,,,,,,,,,,,,,,,,,,,,,,,,
72208013880,2006-07-04T16:56:00,FM-15,7,,SE,0.25,mi,"TEMP, PRECIP, SNOW",,,"MMTS, SRG, SNOWBOARD",,,WFO CHS,,,,,,,,,,,,,,,,,,,,,,,,,,,30.06,67,88,0,,,,50,30.05,,30.01,10,74,170,,11,,,,,,,,,,,,,,,,,,,,,,,,,,,,,,,,,,,,,MET09507/04/06 16:56:50 METAR KCHS 042156Z 17010KT 10SM CLR 31/19 A3006 RMK AO2 SLP177 T03110194 (WD),,,,,,,,,,,,,,,,,,,,,,,,,,,,
72208013880,2006-07-10T15:56:00,FM-15,7,,SE,0.25,mi,"TEMP, PRECIP, SNOW",,,"MMTS, SRG, SNOWBOARD",,,WFO CHS,,,,,,,,,,,,,,,,,,,,,,,,,,,30.09,63,87,0,,0.03,8,45,30.09,FEW:02 55,30.04,10,71,150,,11,,,,,,,,,,,,,,,,,,,,,,,,,,,,,,,,,,,,,MET10407/10/06 15:56:50 METAR KCHS 102056Z 15010KT 10SM FEW055 31/17 A3009 RMK AO2 SLP188 T03060172 58009 (WD),,,,,,,,,,,,,,,,,,,,,,,,,,,,
72208013880,2006-07-10T16:00:00,FM-12,4,,SE,0.25,mi,"TEMP, PRECIP, SNOW",,,"MMTS, SRG, SNOWBOARD",,,WFO CHS,,,,,,,,,,,,,,,,,,,,,,,,,,,,63,87,,,0.03,8,45,30.09,,30.04,9.94,71,150,,11,,,,,,,,,,,,,,,,,,,,,,,,,,,,,,,,,,,,,SYN076AAXX  10214 72208 35766 21510 10306 20172 30173 40188 58009 92056 555 91021;,,,,,,,,,,,,,,,,,,,,,,,,,,,,
72208013880,2006-07-10T16:56:00,FM-15,7,,SE,0.25,mi,"TEMP, PRECIP, SNOW",,,"MMTS, SRG, SNOWBOARD",,,WFO CHS,,,,,,,,,,,,,,,,,,,,,,,,,,,30.09,66,86,0,,,,51,30.08,,30.04,10,73,150,,8,,,,,,,,,,,,,,,,,,,,,,,,,,,,,,,,,,,,,MET09507/10/06 16:56:50 METAR KCHS 102156Z 15007KT 10SM CLR 30/19 A3009 RMK AO2 SLP187 T03000189 (WD),,,,,,,,,,,,,,,,,,,,,,,,,,,,
72208013880,2006-07-11T15:56:00,FM-15,7,,SE,0.25,mi,"TEMP, PRECIP, SNOW",,,"MMTS, SRG, SNOWBOARD",,,WFO CHS,,,,,,,,,,,,,,,,,,,,,,,,,,,30.17,68,87,0,,0.02,8,53,30.16,FEW:02 45,30.12,10,74,150,,11,,,,,,,,,,,,,,,,,,,,,,,,,,,,,,,,,,,,,MET12107/11/06 15:56:51 METAR KCHS 112056Z 15010KT 10SM FEW045 31/20 A3017 RMK AO2 SLP214 CB DSNT N AND NW T03060200 58008 (WD),,,,,,,,,,,,,,,,,,,,,,,,,,,,
72208013880,2006-07-11T16:00:00,FM-12,4,,SE,0.25,mi,"TEMP, PRECIP, SNOW",,,"MMTS, SRG, SNOWBOARD",,,WFO CHS,,,,,,,,,,,,,,,,,,,,,,,,,,,,68,87,,,0.02,8,53,30.16,,30.12,9.94,74,150,,11,,,,,,,,,,,,,,,,,,,,,,,,,,,,,,,,,,,,,SYN076AAXX  11214 72208 35666 21510 10306 20200 30201 40214 58008 92056 555 91121;,,,,,,,,,,,,,,,,,,,,,,,,,,,,
72208013880,2006-07-13T12:56:00,FM-15,7,,SE,0.25,mi,"TEMP, PRECIP, SNOW",,,"MMTS, SRG, SNOWBOARD",,,WFO CHS,,,,,,,,,,,,,,,,,,,,,,,,,,,30.14,73,88,0,,0.03,8,61,30.14,SCT:04 35,30.09,10,77,170,,14,,,,,,,,,,,,,,,,,,,,,,,,,,,,,,,,,,,,,MET11707/13/06 12:56:51 METAR KCHS 131756Z 17012KT 10SM SCT035 31/23 A3014 RMK AO2 SLP207 T03110228 10328 20267 58011 (WRB),,,,,,,,,,,,,,,,,,,,,,,,,,,,
72208013880,2006-07-13T13:00:00,FM-12,4,,SE,0.25,mi,"TEMP, PRECIP, SNOW",,,"MMTS, SRG, SNOWBOARD",,,WFO CHS,,,,,,,,,,,,,,,,,,,,,,,,,,,,73,88,,,0.03,8,61,30.14,,30.09,9.94,77,170,,14,,,,,,,,,,,,,,,,,,,,,,,,,,,,,,,,,,,,,SYN092AAXX  13184 72208 32666 41712 10311 20228 30190 40207 58011 91756 333 10328 20267 555 91318;,,,,,,,,,,,,,,,,,,,,,,,,,,,,
72208013880,2006-07-17T17:56:00,FM-15,7,,SE,0.25,mi,"TEMP, PRECIP, SNOW",,,"MMTS, SRG, SNOWBOARD",,,WFO CHS,,,,,,,,,,,,,,,,,,,,,,,,,,,29.98,67,87,0,,,,51,29.98,,29.93,10,74,150,,10,,,,,,,,,,,,,,,,,,,,,,,,,,,,,,,,,,,,,MET09507/17/06 17:56:50 METAR KCHS 172256Z 15009KT 10SM CLR 31/19 A2998 RMK AO2 SLP152 T03060194 (WD),,,,,,,,,,,,,,,,,,,,,,,,,,,,
72208013880,2006-07-18T15:56:00,FM-15,7,,SE,0.25,mi,"TEMP, PRECIP, SNOW",,,"MMTS, SRG, SNOWBOARD",,,WFO CHS,,,,,,,,,,,,,,,,,,,,,,,,,,,29.96,68,92,0,,0.05,6,46,29.96,FEW:02 60 SCT:04 80,29.91,9,76,170,,7,,,,,,,,,,,,,,,,,,,,,,,,,,,,,,,,,,,,,MET11007/18/06 15:56:50 METAR KCHS 182056Z 17006KT 9SM FEW060 SCT080 33/20 A2996 RMK AO2 SLP145 T03330200 56018 (WD),,,,,,,,,,,,,,,,,,,,,,,,,,,,
72208013880,2006-07-18T16:00:00,FM-12,4,,SE,0.25,mi,"TEMP, PRECIP, SNOW",,,"MMTS, SRG, SNOWBOARD",,,WFO CHS,,,,,,,,,,,,,,,,,,,,,,,,,,,,68,92,,,0.05,6,46,29.96,,29.91,8.7,76,170,,7,,,,,,,,,,,,,,,,,,,,,,,,,,,,,,,,,,,,,SYN076AAXX  18214 72208 35764 41706 10333 20200 30129 40145 56018 92056 555 91821;,,,,,,,,,,,,,,,,,,,,,,,,,,,,
72208013880,2006-07-18T16:56:00,FM-15,7,,SE,0.25,mi,"TEMP, PRECIP, SNOW",,,"MMTS, SRG, SNOWBOARD",,,WFO CHS,,,,,,,,,,,,,,,,,,,,,,,,,,,29.96,70,89,0,,,,53,29.96,FEW:02 60,29.91,10,76,160,,13,,,,,,,,,,,,,,,,,,,,,,,,,,,,,,,,,,,,,MET09807/18/06 16:56:50 METAR KCHS 182156Z 16011KT 10SM FEW060 32/21 A2996 RMK AO2 SLP146 T03170211 (WD),,,,,,,,,,,,,,,,,,,,,,,,,,,,
72208013880,2006-07-19T14:56:00,FM-15,7,,SE,0.25,mi,"TEMP, PRECIP, SNOW",,,"MMTS, SRG, SNOWBOARD",,,WFO CHS,,,,,,,,,,,,,,,,,,,,,,,,,,,30.01,71,92,0,,,,51,30.01,FEW:02 65,29.96,9,77,150,,13,,,,,,,,,,,,,,,,,,,,,,,,,,,,,,,,,,,,,MET09807/19/06 14:56:50 METAR KCHS 191956Z 15011KT 9SM FEW065 33/22 A3001 RMK AO2 SLP161 T03330217 (JRS),,,,,,,,,,,,,,,,,,,,,,,,,,,,
72208013880,2006-07-19T15:56:00,FM-15,7,,SE,0.25,mi,"TEMP, PRECIP, SNOW",,,"MMTS, SRG, SNOWBOARD",,,WFO CHS,,,,,,,,,,,,,,,,,,,,,,,,,,,30,70,90,0,,0.04,6,52,29.99,,29.95,9,76,150,,11,,,,,,,,,,,,,,,,,,,,,,,,,,,,,,,,,,,,,MET10107/19/06 15:56:50 METAR KCHS 192056Z 15010KT 9SM CLR 32/21 A3000 RMK AO2 SLP157 T03220211 56015 (JRS),,,,,,,,,,,,,,,,,,,,,,,,,,,,
72208013880,2006-07-19T16:00:00,FM-12,4,,SE,0.25,mi,"TEMP, PRECIP, SNOW",,,"MMTS, SRG, SNOWBOARD",,,WFO CHS,,,,,,,,,,,,,,,,,,,,,,,,,,,,70,90,,,0.04,6,52,29.99,CLR:00,29.95,8.7,76,150,,11,,,,,,,,,,,,,,,,,,,,,,,,,,,,,,,,,,,,,SYN076AAXX  19214 72208 35964 01510 10322 20211 30143 40157 56015 92056 555 91921;,,,,,,,,,,,,,,,,,,,,,,,,,,,,
72208013880,2006-07-19T16:56:00,FM-15,7,,SE,0.25,mi,"TEMP, PRECIP, SNOW",,,"MMTS, SRG, SNOWBOARD",,,WFO CHS,,,,,,,,,,,,,,,,,,,,,,,,,,,30,71,89,0,,,,55,29.99,,29.95,10,76,150,,13,,,,,,,,,,,,,,,,,,,,,,,,,,,,,,,,,,,,,MET09607/19/06 16:56:50 METAR KCHS 192156Z 15011KT 10SM CLR 32/22 A3000 RMK AO2 SLP157 T03170217 (JRS),,,,,,,,,,,,,,,,,,,,,,,,,,,,
72208013880,2006-07-20T13:56:00,FM-15,7,,SE,0.25,mi,"TEMP, PRECIP, SNOW",,,"MMTS, SRG, SNOWBOARD",,,WFO CHS,,,,,,,,,,,,,,,,,,,,,,,,,,,30.1,70,90,0,,,,52,30.09,FEW:02 49,30.05,10,76,160,,14,,,,,,,,,,,,,,,,,,,,,,,,,,,,,,,,,,,,,MET10707/20/06 13:56:50 METAR KCHS 201856Z 16012KT 10SM FEW049TCU 32/21 A3010 RMK AO2 SLP190 TCU N T03220211 (WD),,,,,,,,,,,,,,,,,,,,,,,,,,,,
72208013880,2006-07-20T14:56:00,FM-15,7,,SE,0.25,mi,"TEMP, PRECIP, SNOW",,,"MMTS, SRG, SNOWBOARD",,,WFO CHS,,,,,,,,,,,,,,,,,,,,,,,,,,,30.07,67,90,0,,,,47,30.07,FEW:02 50,30.02,10,74,150,,13,,,,,,,,,,,,,,,,,,,,,,,,,,,,,,,,,,,,,MET11907/20/06 14:56:51 METAR KCHS 201956Z 15011KT 10SM FEW050 32/19 A3007 RMK AO2 SLP183 CB DSNT N TCU DSNT W T03220194 (WD),,,,,,,,,,,,,,,,,,,,,,,,,,,,
72208013880,2006-07-20T16:56:00,FM-15,7,,SE,0.25,mi,"TEMP, PRECIP, SNOW",,,"MMTS, SRG, SNOWBOARD",,,WFO CHS,,,,,,,,,,,,,,,,,,,,,,,,,,,30.06,69,88,0,,,,54,30.06,FEW:02 43,30.01,10,75,170,,11,,,,,,,,,,,,,,,,,,,,,,,,,,,,,,,,,,,,,MET10907/20/06 16:56:51 METAR KCHS 202156Z 17010KT 10SM FEW043 31/21 A3006 RMK AO2 SLP180 CB DSNT N T03110206 (WRB),,,,,,,,,,,,,,,,,,,,,,,,,,,,
72208013880,2006-07-21T15:56:00,FM-15,7,,SE,0.25,mi,"TEMP, PRECIP, SNOW",,,"MMTS, SRG, SNOWBOARD",,,WFO CHS,,,,,,,,,,,,,,,,,,,,,,,,,,,30,70,89,0,,0.04,8,53,30,FEW:02 38,29.95,10,76,160,,13,,,,,,,,,,,,,,,,,,,,,,,,,,,,,,,,,,,,,MET11507/21/06 15:56:51 METAR KCHS 212056Z 16011KT 10SM FEW038 32/21 A3000 RMK AO2 SLP159 CB DSNT N T03170211 58013 (JRS),,,,,,,,,,,,,,,,,,,,,,,,,,,,
72208013880,2006-07-21T16:00:00,FM-12,4,,SE,0.25,mi,"TEMP, PRECIP, SNOW",,,"MMTS, SRG, SNOWBOARD",,,WFO CHS,,,,,,,,,,,,,,,,,,,,,,,,,,,,70,89,,,0.04,8,53,30,,29.95,9.94,76,160,,13,,,,,,,,,,,,,,,,,,,,,,,,,,,,,,,,,,,,,SYN076AAXX  21214 72208 35666 21611 10317 20211 30143 40159 58013 92056 555 92121;,,,,,,,,,,,,,,,,,,,,,,,,,,,,
72208013880,2006-07-22T13:56:00,FM-15,7,,SE,0.25,mi,"TEMP, PRECIP, SNOW",,,"MMTS, SRG, SNOWBOARD",,,WFO CHS,,,,,,,,,,,,,,,,,,,,,,,,,,,29.91,72,90,0,,,,56,29.91,SCT:04 42,29.86,10,77,170,,14,,,,,,,,,,,,,,,,,,,,,,,,,,,,,,,,,,,,,MET10907/22/06 13:56:51 METAR KCHS 221856Z 17012KT 10SM SCT042 32/22 A2991 RMK AO2 SLP127 CB DSNT W T03220222 (WRB),,,,,,,,,,,,,,,,,,,,,,,,,,,,
72208013880,2006-07-22T15:56:00,FM-15,7,,SE,0.25,mi,"TEMP, PRECIP, SNOW",,,"MMTS, SRG, SNOWBOARD",,,WFO CHS,,,,,,,,,,,,,,,,,,,,,,,,,,,29.86,72,87,0,,0.06,8,61,29.86,FEW:02 30,29.81,10,77,160,,16,,,,,,,,,,,,,,,,,,,,,,,,,,,,,,,,,,,,,MET10507/22/06 15:56:50 METAR KCHS 222056Z 16014KT 10SM FEW030 31/22 A2986 RMK AO2 SLP112 T03060222 58021 (JRS),,,,,,,,,,,,,,,,,,,,,,,,,,,,
72208013880,2006-07-22T16:00:00,FM-12,4,,SE,0.25,mi,"TEMP, PRECIP, SNOW",,,"MMTS, SRG, SNOWBOARD",,,WFO CHS,,,,,,,,,,,,,,,,,,,,,,,,,,,,72,87,,,0.06,8,61,29.86,,29.81,9.94,77,160,,16,,,,,,,,,,,,,,,,,,,,,,,,,,,,,,,,,,,,,SYN076AAXX  22214 72208 35566 21614 10306 20222 30096 40112 58021 92056 555 92221;,,,,,,,,,,,,,,,,,,,,,,,,,,,,
72208013880,2006-07-24T12:56:00,FM-15,7,,SE,0.25,mi,"TEMP, PRECIP, SNOW",,,"MMTS, SRG, SNOWBOARD",,,WFO CHS,,,,,,,,,,,,,,,,,,,,,,,,,,,30,73,86,0,,0.04,8,65,30,SCT:04 33 SCT:04 70,29.95,10,77,150,,15,,,,,,,,,,,,,,,,,,,,,,,,,,,,,,,,,,,,,MET16807/24/06 12:56:51 METAR KCHS 241756Z 15013KT 10SM SCT033CB SCT070 30/23 A3000 RMK AO2 SLP158 CB S-SW MOV NE VCSH S-SW TCU NE CB DSNT W T03000228 10322 20256 58013 (WRB),,,,,,,,,,,,,,,,,,,,,,,,,,,,
72208013880,2006-07-24T13:56:00,FM-15,7,,SE,0.25,mi,"TEMP, PRECIP, SNOW",,,"MMTS, SRG, SNOWBOARD",,,WFO CHS,,,,,,,,,,,,,,,,,,,,,,,,,,,29.99,75,84,T,-RA:02 |RA |RA,,,74,29.99,SCT:04 27 BKN:07 90,29.94,10,78,170,,8,,,,,,,,,,,,,,,,,,,,,,,,,,,,,,,,,,,,,MET13907/24/06 13:56:51 METAR KCHS 241856Z 17007KT 10SM -RA SCT027 BKN090 29/24 A2999 RMK AO2 RAB45 SLP155 CB DSNT W AND NE P0000 T02890239 (WRB),,,,,,,,,,,,,,,,,,,,,,,,,,,,
72208013880,2006-07-26T16:56:00,FM-15,7,,SE,0.25,mi,"TEMP, PRECIP, SNOW",,,"MMTS, SRG, SNOWBOARD",,,WFO CHS,,,,,,,,,,,,,,,,,,,,,,,,,,,30,69,82,0,,,,65,30,FEW:02 100,29.95,8,73,160,,15,,,,,,,,,,,,,,,,,,,,,,,,,,,,,,,,,,,,,MET11207/26/06 16:57:08 METAR KCHS 262156Z 16013KT 8SM FEW100 28/21 A3000 RMK AO2 TSE41 SLP159 TS MOV S T02780206 (WD),,,,,,,,,,,,,,,,,,,,,,,,,,,,
72208013880,2006-07-26T17:56:00,FM-15,7,,SE,0.25,mi,"TEMP, PRECIP, SNOW",,,"MMTS, SRG, SNOWBOARD",,,WFO CHS,,,,,,,,,,,,,,,,,,,,,,,,,,,29.99,68,82,0,,,,63,29.98,SCT:04 70 BKN:07 100,29.94,7,73,150,,8,,,,,,,,,,,,,,,,,,,,,,,,,,,,,,,,,,,,,MET10407/26/06 17:56:50 METAR KCHS 262256Z 15007KT 7SM SCT070 BKN100 28/20 A2999 RMK AO2 SLP154 T02780200 (WD),,,,,,,,,,,,,,,,,,,,,,,,,,,,
72208013880,2006-07-27T13:04:00,FM-16,7,,SE,0.25,mi,"TEMP, PRECIP, SNOW",,,"MMTS, SRG, SNOWBOARD",,,WFO CHS,,,,,,,,,,,,,,,,,,,,,,,,,,,30.07,68,82,0.23,TS:7 +RA:02 |RA TS |SHRA TS,,,62,,BKN:07 25 BKN:07 55,30.02,2,73,160,34,13,,,,,,,,,,,,,,,,,,,,,,,,,,,,,,,,,,,,,MET17507/27/06 13:04:51 SPECI KCHS 271804Z 16011G30KT 2SM +TSRA BKN025CB BKN055 28/20 A3007 RMK AO2 PK WND 26030/1757 WSHFT 1745 OCNL LTGCG OHD TS OHD MOV SE CB N MOV SE P0023 (WRB),,,,,,,,,,,,,,,,,,,,,,,,,,,,
72208013880,2006-07-28T10:56:00,FM-15,7,,SE,0.25,mi,"TEMP, PRECIP, SNOW",,,"MMTS, SRG, SNOWBOARD",,,WFO CHS,,,,,,,,,,,,,,,,,,,,,,,,,,,30.16,79,91,0,,,,68,30.16,SCT:04 29,30.11,10,82,170,,10,,,,,,,,,,,,,,,,,,,,,,,,,,,,,,,,,,,,,MET09907/28/06 10:56:50 METAR KCHS 281556Z 17009KT 10SM SCT029 33/26 A3016 RMK AO2 SLP212 T03280261 (WRB),,,,,,,,,,,,,,,,,,,,,,,,,,,,
72208013880,2006-07-28T14:56:00,FM-15,7,,SE,0.25,mi,"TEMP, PRECIP, SNOW",,,"MMTS, SRG, SNOWBOARD",,,WFO CHS,,,,,,,,,,,,,,,,,,,,,,,,,,,30.14,75,88,0,,,,66,30.13,SCT:04 32,30.09,10,79,170,,9,,,,,,,,,,,,,,,,,,,,,,,,,,,,,,,,,,,,,MET12707/28/06 14:56:51 METAR KCHS 281956Z 17008KT 10SM SCT032 31/24 A3014 RMK AO2 TSE54 SLP204 TS DSPTD CB DSNT W-NE T03110239 (WRB),,,,,,,,,,,,,,,,,,,,,,,,,,,,
72208013880,2006-07-29T17:20:00,FM-16,7,,SE,0.25,mi,"TEMP, PRECIP, SNOW",,,"MMTS, SRG, SNOWBOARD",,,WFO CHS,,,,,,,,,,,,,,,,,,,,,,,,,,,30.03,72,77,0.01,TS:7 -RA:02 |RA TS |SHRA TS,,,83,,FEW:02 9 SCT:04 26 BKN:07 100,29.98,9,74,170,,8,,,,,,,,,,,,,,,,,,,,,,,,,,,,,,,,,,,,,MET13307/29/06 17:20:56 SPECI KCHS 292220Z 17007KT 9SM -TSRA FEW009 SCT026CB BKN100 25/22 A3003 RMK AO2 OCNL LTGIC S TS S MOV SE P0001 (WD),,,,,,,,,,,,,,,,,,,,,,,,,,,,
72208013880,2006-07-29T17:56:00,FM-15,7,,SE,0.25,mi,"TEMP, PRECIP, SNOW",,,"MMTS, SRG, SNOWBOARD",,,WFO CHS,,,,,,,,,,,,,,,,,,,,,,,,,,,30.02,70,77,T,||TS,,,79,30.02,FEW:02 15 SCT:04 30,29.97,10,72,170,,8,,,,,,,,,,,,,,,,,,,,,,,,,,,,,,,,,,,,,MET15407/29/06 18:00:05 METAR KCHS 292256Z 17007KT 10SM FEW015 SCT030 25/21 A3002 RMK AO2 RAE32 SLP166 OCNL DSNT LTGIC SW CB DSNT SW MOV SE P0001 T02500211 (WD),,,,,,,,,,,,,,,,,,,,,,,,,,,,
72208013880,2006-07-31T16:56:00,FM-15,7,,SE,0.25,mi,"TEMP, PRECIP, SNOW",,,"MMTS, SRG, SNOWBOARD",,,WFO CHS,,,,,,,,,,,,,,,,,,,,,,,,,,,29.96,73,90,0,,,,58,29.96,FEW:02 41,29.91,7,78,160,,8,,,,,,,,,,,,,,,,,,,,,,,,,,,,,,,,,,,,,MET09707/31/06 16:56:50 METAR KCHS 312156Z 16007KT 7SM FEW041 32/23 A2996 RMK AO2 SLP144 T03220228 (WD),,,,,,,,,,,,,,,,,,,,,,,,,,,,
72208013880,2006-08-01T15:56:00,FM-15,7,,SE,0.25,mi,"TEMP, PRECIP, SNOW",,,"MMTS, SRG, SNOWBOARD",,,WFO CHS,,,,,,,,,,,,,,,,,,,,,,,,,,,30.01,75,92,0,,0.04,6,58,30.01,FEW:02 38,29.96,8,80,160,,13,,,,,,,,,,,,,,,,,,,,,,,,,,,,,,,,,,,,,MET10308/01/06 15:58:50 METAR KCHS 012056Z 16011KT 8SM FEW038 33/24 A3001 RMK AO2 SLP162 T03330239 56013 (WD),,,,,,,,,,,,,,,,,,,,,,,,,,,,
72208013880,2006-08-01T16:00:00,FM-12,4,,SE,0.25,mi,"TEMP, PRECIP, SNOW",,,"MMTS, SRG, SNOWBOARD",,,WFO CHS,,,,,,,,,,,,,,,,,,,,,,,,,,,,75,92,,,0.04,6,58,30.01,,29.96,7.46,80,160,,13,,,,,,,,,,,,,,,,,,,,,,,,,,,,,,,,,,,,,SYN076AAXX  01214 72208 35662 21611 10333 20239 30146 40162 56013 92056 555 90121;,,,,,,,,,,,,,,,,,,,,,,,,,,,,
72208013880,2006-08-01T16:56:00,FM-15,7,,SE,0.25,mi,"TEMP, PRECIP, SNOW",,,"MMTS, SRG, SNOWBOARD",,,WFO CHS,,,,,,,,,,,,,,,,,,,,,,,,,,,30.01,75,92,0,,,,58,30.01,FEW:02 45,29.96,7,80,160,,9,,,,,,,,,,,,,,,,,,,,,,,,,,,,,,,,,,,,,MET09708/01/06 16:56:50 METAR KCHS 012156Z 16008KT 7SM FEW045 33/24 A3001 RMK AO2 SLP163 T03330239 (WD),,,,,,,,,,,,,,,,,,,,,,,,,,,,
72208013880,2006-08-05T10:56:00,FM-15,7,,SE,0.25,mi,"TEMP, PRECIP, SNOW",,,"MMTS, SRG, SNOWBOARD",,,WFO CHS,,,,,,,,,,,,,,,,,,,,,,,,,,,30,74,90,0,,,,59,29.99,FEW:02 42,29.95,8,79,160,,8,,,,,,,,,,,,,,,,,,,,,,,,,,,,,,,,,,,,,MET09708/05/06 10:56:50 METAR KCHS 051556Z 16007KT 8SM FEW042 32/23 A3000 RMK AO2 SLP157 T03220233 (GP),,,,,,,,,,,,,,,,,,,,,,,,,,,,
72208013880,2006-08-05T13:56:00,FM-15,7,,SE,0.25,mi,"TEMP, PRECIP, SNOW",,,"MMTS, SRG, SNOWBOARD",,,WFO CHS,,,,,,,,,,,,,,,,,,,,,,,,,,,29.98,73,92,0,,,,54,29.98,FEW:02 39,29.93,10,78,170,,7,,,,,,,,,,,,,,,,,,,,,,,,,,,,,,,,,,,,,MET09808/05/06 13:56:50 METAR KCHS 051856Z 17006KT 10SM FEW039 33/23 A2998 RMK AO2 SLP152 T03330228 (GP),,,,,,,,,,,,,,,,,,,,,,,,,,,,
72208013880,2006-08-05T14:56:00,FM-15,7,,SE,0.25,mi,"TEMP, PRECIP, SNOW",,,"MMTS, SRG, SNOWBOARD",,,WFO CHS,,,,,,,,,,,,,,,,,,,,,,,,,,,29.96,73,93,0,,,,52,29.96,,29.91,10,79,170,,9,,,,,,,,,,,,,,,,,,,,,,,,,,,,,,,,,,,,,MET09508/05/06 14:56:50 METAR KCHS 051956Z 17008KT 10SM CLR 34/23 A2996 RMK AO2 SLP145 T03390228 (GP),,,,,,,,,,,,,,,,,,,,,,,,,,,,
72208013880,2006-08-06T15:56:00,FM-15,7,,SE,0.25,mi,"TEMP, PRECIP, SNOW",,,"MMTS, SRG, SNOWBOARD",,,WFO CHS,,,,,,,,,,,,,,,,,,,,,,,,,,,30.11,72,91,0,,0.01,8,54,30.1,FEW:02 45,30.06,10,78,160,,13,,,,,,,,,,,,,,,,,,,,,,,,,,,,,,,,,,,,,MET12608/06/06 15:56:51 METAR KCHS 062056Z 16011KT 10SM FEW045 33/22 A3011 RMK AO2 SLP194 CB DSNT N TCU DSNT NW T03280222 58002 (WD),,,,,,,,,,,,,,,,,,,,,,,,,,,,
72208013880,2006-08-06T16:00:00,FM-12,4,,SE,0.25,mi,"TEMP, PRECIP, SNOW",,,"MMTS, SRG, SNOWBOARD",,,WFO CHS,,,,,,,,,,,,,,,,,,,,,,,,,,,,72,91,,,0.01,8,54,30.1,,30.06,9.94,78,160,,13,,,,,,,,,,,,,,,,,,,,,,,,,,,,,,,,,,,,,SYN076AAXX  06214 72208 32666 21611 10328 20222 30180 40194 58002 92056 555 90621;,,,,,,,,,,,,,,,,,,,,,,,,,,,,
72208013880,2006-08-06T17:56:00,FM-15,7,,SE,0.25,mi,"TEMP, PRECIP, SNOW",,,"MMTS, SRG, SNOWBOARD",,,WFO CHS,,,,,,,,,,,,,,,,,,,,,,,,,,,30.12,72,86,0,,,,63,30.11,FEW:02 60,30.07,10,76,150,,7,,,,,,,,,,,,,,,,,,,,,,,,,,,,,,,,,,,,,MET09808/06/06 17:56:50 METAR KCHS 062256Z 15006KT 10SM FEW060 30/22 A3012 RMK AO2 SLP197 T03000222 (WD),,,,,,,,,,,,,,,,,,,,,,,,,,,,
72208013880,2006-08-07T14:56:00,FM-15,7,,SE,0.25,mi,"TEMP, PRECIP, SNOW",,,"MMTS, SRG, SNOWBOARD",,,WFO CHS,,,,,,,,,,,,,,,,,,,,,,,,,,,30.12,75,91,0,,,,59,30.12,FEW:02 50,30.07,10,80,150,,14,,,,,,,,,,,,,,,,,,,,,,,,,,,,,,,,,,,,,MET09808/07/06 14:56:50 METAR KCHS 071956Z 15012KT 10SM FEW050 33/24 A3012 RMK AO2 SLP199 T03280239 (WD),,,,,,,,,,,,,,,,,,,,,,,,,,,,
72208013880,2006-08-09T14:56:00,FM-15,7,,SE,0.25,mi,"TEMP, PRECIP, SNOW",,,"MMTS, SRG, SNOWBOARD",,,WFO CHS,,,,,,,,,,,,,,,,,,,,,,,,,,,29.98,74,91,0,,,,57,29.97,BKN:07 36,29.93,8,79,170,,13,,,,,,,,,,,,,,,,,,,,,,,,,,,,,,,,,,,,,MET12008/09/06 14:56:51 METAR KCHS 091956Z 17011KT 8SM BKN036CB 33/23 A2998 RMK AO2 SLP150 CB NE-SE STNRY VCSH T03280233 (JRS),,,,,,,,,,,,,,,,,,,,,,,,,,,,
72208013880,2006-08-09T15:09:00,FM-16,7,,SE,0.25,mi,"TEMP, PRECIP, SNOW",,,"MMTS, SRG, SNOWBOARD",,,WFO CHS,,,,,,,,,,,,,,,,,,,,,,,,,,,29.97,73,88,,TS:7 |TS |TS,,,62,,BKN:07 36,29.92,8,77,150,,10,,,,,,,,,,,,,,,,,,,,,,,,,,,,,,,,,,,,,MET13408/09/06 15:09:51 SPECI KCHS 092009Z 15009KT 8SM TS BKN036CB 31/23 A2997 RMK AO2 WSHFT 1950 TSB02 FRQ LTGCG N-E TS N-E-SE MOV SE (JRS),,,,,,,,,,,,,,,,,,,,,,,,,,,,
72208013880,2006-08-14T14:56:00,FM-15,7,,SE,0.25,mi,"TEMP, PRECIP, SNOW",,,"MMTS, SRG, SNOWBOARD",,,WFO CHS,,,,,,,,,,,,,,,,,,,,,,,,,,,30.05,66,86,0,,,,51,30.05,FEW:02 50,30,10,73,170,,9,,,,,,,,,,,,,,,,,,,,,,,,,,,,,,,,,,,,,MET09808/14/06 14:56:50 METAR KCHS 141956Z 17008KT 10SM FEW050 30/19 A3005 RMK AO2 SLP175 T03000189 (WD),,,,,,,,,,,,,,,,,,,,,,,,,,,,
72208013880,2006-08-14T16:56:00,FM-15,7,,SE,0.25,mi,"TEMP, PRECIP, SNOW",,,"MMTS, SRG, SNOWBOARD",,,WFO CHS,,,,,,,,,,,,,,,,,,,,,,,,,,,30.02,64,85,0,,,,50,30.02,FEW:02 70,29.97,10,71,150,,10,,,,,,,,,,,,,,,,,,,,,,,,,,,,,,,,,,,,,MET09808/14/06 16:56:50 METAR KCHS 142156Z 15009KT 10SM FEW070 29/18 A3002 RMK AO2 SLP165 T02940178 (WD),,,,,,,,,,,,,,,,,,,,,,,,,,,,
72208013880,2006-08-15T15:56:00,FM-15,7,,SE,0.25,mi,"TEMP, PRECIP, SNOW",,,"MMTS, SRG, SNOWBOARD",,,WFO CHS,,,,,,,,,,,,,,,,,,,,,,,,,,,29.96,69,86,0,,0.04,6,57,29.96,FEW:02 40 SCT:04 48,29.91,10,74,170,,9,,,,,,,,,,,,,,,,,,,,,,,,,,,,,,,,,,,,,MET11108/15/06 15:56:50 METAR KCHS 152056Z 17008KT 10SM FEW040 SCT048 30/21 A2996 RMK AO2 SLP146 T03000206 56014 (WD),,,,,,,,,,,,,,,,,,,,,,,,,,,,
72208013880,2006-08-15T16:00:00,FM-12,4,,SE,0.25,mi,"TEMP, PRECIP, SNOW",,,"MMTS, SRG, SNOWBOARD",,,WFO CHS,,,,,,,,,,,,,,,,,,,,,,,,,,,,69,86,,,0.04,6,57,29.96,,29.91,9.94,74,170,,9,,,,,,,,,,,,,,,,,,,,,,,,,,,,,,,,,,,,,SYN076AAXX  15214 72208 32666 41708 10300 20206 30129 40146 56014 92056 555 91521;,,,,,,,,,,,,,,,,,,,,,,,,,,,,
72208013880,2006-08-15T17:56:00,FM-15,7,,SE,0.25,mi,"TEMP, PRECIP, SNOW",,,"MMTS, SRG, SNOWBOARD",,,WFO CHS,,,,,,,,,,,,,,,,,,,,,,,,,,,29.96,69,84,0,,,,61,29.96,,29.91,10,74,150,,8,,,,,,,,,,,,,,,,,,,,,,,,,,,,,,,,,,,,,MET09508/15/06 17:56:50 METAR KCHS 152256Z 15007KT 10SM CLR 29/21 A2996 RMK AO2 SLP144 T02890206 (WD),,,,,,,,,,,,,,,,,,,,,,,,,,,,
72208013880,2006-08-16T16:56:00,FM-15,7,,SE,0.25,mi,"TEMP, PRECIP, SNOW",,,"MMTS, SRG, SNOWBOARD",,,WFO CHS,,,,,,,,,,,,,,,,,,,,,,,,,,,29.98,72,88,0,,,,59,29.98,FEW:02 45,29.93,10,77,150,,9,,,,,,,,,,,,,,,,,,,,,,,,,,,,,,,,,,,,,MET09908/16/06 16:56:50 METAR KCHS 162156Z 15008KT 10SM FEW045 31/22 A2998 RMK AO2 SLP152 T03110222 (JRS),,,,,,,,,,,,,,,,,,,,,,,,,,,,
72208013880,2006-08-16T17:56:00,FM-15,7,,SE,0.25,mi,"TEMP, PRECIP, SNOW",,,"MMTS, SRG, SNOWBOARD",,,WFO CHS,,,,,,,,,,,,,,,,,,,,,,,,,,,29.98,71,85,0,,,,63,29.98,FEW:02 40,29.93,10,75,160,,9,,,,,,,,,,,,,,,,,,,,,,,,,,,,,,,,,,,,,MET11208/16/06 17:56:51 METAR KCHS 162256Z 16008KT 10SM FEW040 29/22 A2998 RMK AO2 SLP151 CB DSNT W-NW T02940217 (JRS),,,,,,,,,,,,,,,,,,,,,,,,,,,,
72208013880,2006-08-19T12:56:00,FM-15,7,,SE,0.25,mi,"TEMP, PRECIP, SNOW",,,"MMTS, SRG, SNOWBOARD",,,WFO CHS,,,,,,,,,,,,,,,,,,,,,,,,,,,30,72,88,0,,0.04,8,59,30,SCT:04 37,29.95,10,77,150,,9,,,,,,,,,,,,,,,,,,,,,,,,,,,,,,,,,,,,,MET12708/19/06 12:56:51 METAR KCHS 191756Z 15008KT 10SM SCT037 31/22 A3000 RMK AO2 SLP159 CB DSNT N T03110222 10317 20244 58013 (WRB),,,,,,,,,,,,,,,,,,,,,,,,,,,,
72208013880,2006-08-19T13:00:00,FM-12,4,,SE,0.25,mi,"TEMP, PRECIP, SNOW",,,"MMTS, SRG, SNOWBOARD",,,WFO CHS,,,,,,,,,,,,,,,,,,,,,,,,,,,,72,88,,,0.04,8,59,30,,29.95,9.94,77,150,,9,,,,,,,,,,,,,,,,,,,,,,,,,,,,,,,,,,,,,SYN092AAXX  19184 72208 32666 41508 10311 20222 30143 40159 58013 91756 333 10317 20244 555 91918;,,,,,,,,,,,,,,,,,,,,,,,,,,,,
72208013880,2006-08-19T13:56:00,FM-15,7,,SE,0.25,mi,"TEMP, PRECIP, SNOW",,,"MMTS, SRG, SNOWBOARD",,,WFO CHS,,,,,,,,,,,,,,,,,,,,,,,,,,,30,71,89,0,,,,55,30,SCT:04 30 SCT:04 60,29.95,10,76,160,,7,,,,,,,,,,,,,,,,,,,,,,,,,,,,,,,,,,,,,MET11708/19/06 13:56:51 METAR KCHS 191856Z 16006KT 10SM SCT030 SCT060 32/22 A3000 RMK AO2 SLP158 CB DSNT NE T03170217 (WRB),,,,,,,,,,,,,,,,,,,,,,,,,,,,
72208013880,2006-08-19T15:56:00,FM-15,7,,SE,0.25,mi,"TEMP, PRECIP, SNOW",,,"MMTS, SRG, SNOWBOARD",,,WFO CHS,,,,,,,,,,,,,,,,,,,,,,,,,,,29.97,72,85,0,,0.04,8,65,29.96,FEW:02 35,29.92,10,76,150,,11,,,,,,,,,,,,,,,,,,,,,,,,,,,,,,,,,,,,,MET12108/19/06 15:56:51 METAR KCHS 192056Z 15010KT 10SM FEW035TCU 29/22 A2997 RMK AO2 SLP147 TCU SW AND NE T02940222 58012 (WD),,,,,,,,,,,,,,,,,,,,,,,,,,,,
72208013880,2006-08-19T16:00:00,FM-12,4,,SE,0.25,mi,"TEMP, PRECIP, SNOW",,,"MMTS, SRG, SNOWBOARD",,,WFO CHS,,,,,,,,,,,,,,,,,,,,,,,,,,,,72,85,,,0.04,8,65,29.96,,29.92,9.94,76,150,,11,,,,,,,,,,,,,,,,,,,,,,,,,,,,,,,,,,,,,SYN076AAXX  19214 72208 32666 21510 10294 20222 30133 40147 58012 92056 555 91921;,,,,,,,,,,,,,,,,,,,,,,,,,,,,
72208013880,2006-08-19T16:56:00,FM-15,7,,SE,0.25,mi,"TEMP, PRECIP, SNOW",,,"MMTS, SRG, SNOWBOARD",,,WFO CHS,,,,,,,,,,,,,,,,,,,,,,,,,,,29.96,72,86,0,,,,63,29.96,FEW:02 35,29.91,10,76,160,,7,,,,,,,,,,,,,,,,,,,,,,,,,,,,,,,,,,,,,MET11908/19/06 16:56:51 METAR KCHS 192156Z 16006KT 10SM FEW035TCU 30/22 A2996 RMK AO2 SLP144 TCU E AND DSNT NE T03000222 (WD),,,,,,,,,,,,,,,,,,,,,,,,,,,,
72208013880,2006-08-20T15:56:00,FM-15,7,,SE,0.25,mi,"TEMP, PRECIP, SNOW",,,"MMTS, SRG, SNOWBOARD",,,WFO CHS,,,,,,,,,,,,,,,,,,,,,,,,,,,29.97,72,89,0,,0.04,6,57,29.97,FEW:02 40,29.92,10,77,170,,13,,,,,,,,,,,,,,,,,,,,,,,,,,,,,,,,,,,,,MET10408/20/06 15:56:50 METAR KCHS 202056Z 17011KT 10SM FEW040 32/22 A2997 RMK AO2 SLP148 T03170222 56014 (WD),,,,,,,,,,,,,,,,,,,,,,,,,,,,
72208013880,2006-08-20T16:00:00,FM-12,4,,SE,0.25,mi,"TEMP, PRECIP, SNOW",,,"MMTS, SRG, SNOWBOARD",,,WFO CHS,,,,,,,,,,,,,,,,,,,,,,,,,,,,72,89,,,0.04,6,57,29.97,,29.92,9.94,77,170,,13,,,,,,,,,,,,,,,,,,,,,,,,,,,,,,,,,,,,,SYN076AAXX  20214 72208 32666 21711 10317 20222 30133 40148 56014 92056 555 92021;,,,,,,,,,,,,,,,,,,,,,,,,,,,,
72208013880,2006-08-22T15:56:00,FM-15,7,,SE,0.25,mi,"TEMP, PRECIP, SNOW",,,"MMTS, SRG, SNOWBOARD",,,WFO CHS,,,,,,,,,,,,,,,,,,,,,,,,,,,29.98,75,91,0,,0.08,6,59,29.98,FEW:02 40,29.93,10,79,170,,15,,,,,,,,,,,,,,,,,,,,,,,,,,,,,,,,,,,,,MET10508/22/06 15:56:50 METAR KCHS 222056Z 17013KT 10SM FEW040 33/24 A2998 RMK AO2 SLP152 T03280239 56027 (JRS),,,,,,,,,,,,,,,,,,,,,,,,,,,,
72208013880,2006-08-22T16:00:00,FM-12,4,,SE,0.25,mi,"TEMP, PRECIP, SNOW",,,"MMTS, SRG, SNOWBOARD",,,WFO CHS,,,,,,,,,,,,,,,,,,,,,,,,,,,,75,91,,,0.08,6,59,29.98,,29.93,9.94,79,170,,15,,,,,,,,,,,,,,,,,,,,,,,,,,,,,,,,,,,,,SYN076AAXX  22214 72208 32666 21713 10328 20239 30136 40152 56027 92056 555 92221;,,,,,,,,,,,,,,,,,,,,,,,,,,,,
72208013880,2006-08-28T11:56:00,FM-15,7,,SE,0.25,mi,"TEMP, PRECIP, SNOW",,,"MMTS, SRG, SNOWBOARD",,,WFO CHS,,,,,,,,,,,,,,,,,,,,,,,,,,,29.98,75,90,0,,,,62,29.98,SCT:04 32,29.93,10,79,160,,9,,,,,,,,,,,,,,,,,,,,,,,,,,,,,,,,,,,,,MET09908/28/06 11:56:50 METAR KCHS 281656Z 16008KT 10SM SCT032 32/24 A2998 RMK AO2 SLP151 T03220239 (JRS),,,,,,,,,,,,,,,,,,,,,,,,,,,,
72208013880,2006-08-28T12:56:00,FM-15,7,,SE,0.25,mi,"TEMP, PRECIP, SNOW",,,"MMTS, SRG, SNOWBOARD",,,WFO CHS,,,,,,,,,,,,,,,,,,,,,,,,,,,29.96,75,89,0,,0.04,8,63,29.96,SCT:04 35,29.91,10,79,170,,10,,,,,,,,,,,,,,,,,,,,,,,,,,,,,,,,,,,,,MET11708/28/06 12:56:51 METAR KCHS 281756Z 17009KT 10SM SCT035 32/24 A2996 RMK AO2 SLP145 T03170239 10322 20256 58015 (JRS),,,,,,,,,,,,,,,,,,,,,,,,,,,,
72208013880,2006-08-28T13:00:00,FM-12,4,,SE,0.25,mi,"TEMP, PRECIP, SNOW",,,"MMTS, SRG, SNOWBOARD",,,WFO CHS,,,,,,,,,,,,,,,,,,,,,,,,,,,,75,89,,,0.04,8,63,29.96,,29.91,9.94,79,170,,10,,,,,,,,,,,,,,,,,,,,,,,,,,,,,,,,,,,,,SYN092AAXX  28184 72208 32666 41709 10317 20239 30129 40145 58015 91756 333 10322 20256 555 92818;,,,,,,,,,,,,,,,,,,,,,,,,,,,,
72208013880,2006-09-02T15:56:00,FM-15,7,,SE,0.25,mi,"TEMP, PRECIP, SNOW",,,"MMTS, SRG, SNOWBOARD",,,WFO CHS,,,,,,,,,,,,,,,,,,,,,,,,,,,29.93,70,84,0,,0.04,6,63,29.93,FEW:02 37 BKN:07 45,29.88,10,74,150,,7,,,,,,,,,,,,,,,,,,,,,,,,,,,,,,,,,,,,,MET10609/02/06 15:56:00 METAR KCHS 022056Z 15006KT 10SM FEW037 BKN045 29/21 A2993 RMK AO2 SLP134 T02890211 56013,,,,,,,,,,,,,,,,,,,,,,,,,,,,
72208013880,2006-09-02T16:00:00,FM-12,4,,SE,0.25,mi,"TEMP, PRECIP, SNOW",,,"MMTS, SRG, SNOWBOARD",,,WFO CHS,,,,,,,,,,,,,,,,,,,,,,,,,,,,70,84,,,0.04,6,63,29.93,,29.88,9.94,74,150,,7,,,,,,,,,,,,,,,,,,,,,,,,,,,,,,,,,,,,,SYN076AAXX  02214 72208 32666 61506 10289 20211 30119 40134 56013 92056 555 90221;,,,,,,,,,,,,,,,,,,,,,,,,,,,,
72208013880,2006-09-05T10:56:00,FM-15,7,,SE,0.25,mi,"TEMP, PRECIP, SNOW",,,"MMTS, SRG, SNOWBOARD",,,WFO CHS,,,,,,,,,,,,,,,,,,,,,,,,,,,30.01,73,86,0,,,,65,30.01,SCT:04 24,29.96,10,77,170,,10,,,,,,,,,,,,,,,,,,,,,,,,,,,,,,,,,,,,,MET11109/05/06 10:56:50 METAR KCHS 051556Z 17009KT 10SM SCT024TCU 30/23 A3001 RMK AO2 SLP161 TCU E-SE T03000228 (WRB),,,,,,,,,,,,,,,,,,,,,,,,,,,,
72208013880,2006-09-13T11:56:00,FM-15,7,,SE,0.25,mi,"TEMP, PRECIP, SNOW",,,"MMTS, SRG, SNOWBOARD",,,WFO CHS,,,,,,,,,,,,,,,,,,,,,,,,,,,29.94,68,76,T,-RA:02 |RA |RA,,,77,29.93,FEW:02 27 BKN:07 44 OVC:08 65,29.89,10,71,150,,10,,,,,,,,,,,,,,,,,,,,,,,,,,,,,,,,,,,,,MET12909/13/06 11:56:51 METAR KCHS 131656Z 15009KT 10SM -RA FEW027 BKN044 OVC065 24/20 A2994 RMK AO2 RAB44 SLP137 P0000 T02440200 (WRB),,,,,,,,,,,,,,,,,,,,,,,,,,,,
72208013880,2006-09-13T12:56:00,SY-MT,7,,SE,0.25,mi,"TEMP, PRECIP, SNOW",,,"MMTS, SRG, SNOWBOARD",,,WFO CHS,,,,,,,,,,,,,,,,,,,,,,,,,,,29.93,69,77,T,-RA:02 |RA |RA,0.05,6,77,29.92,FEW:02 32 BKN:07 40 OVC:08 65,29.88,10,72,150,,9,,,,,,,,,,,,,,,,,,,,,,,,,,,,,,,,,,,,,SYN104AAXX  13184 72208 11566 81508 10250 20206 30119 40133 56017 69901 761// 91756 333 10261 20211 555 91318;MET14709/13/06 12:56:51 METAR KCHS 131756Z 15008KT 10SM -RA FEW032 BKN040 OVC065 25/21 A2993 RMK AO2 SLP133 P0000 60000 T02500206 10261 20222 56017 (WRB),,,,,,,,,,,,,,,,,,,,,,,,,,,,
72208013880,2006-09-13T13:56:00,FM-15,7,,SE,0.25,mi,"TEMP, PRECIP, SNOW",,,"MMTS, SRG, SNOWBOARD",,,WFO CHS,,,,,,,,,,,,,,,,,,,,,,,,,,,29.91,69,78,T,,,,74,29.9,SCT:04 37 OVC:08 55,29.86,10,72,170,,8,,,,,,,,,,,,,,,,,,,,,,,,,,,,,,,,,,,,,MET12409/13/06 13:56:51 METAR KCHS 131856Z 17007KT 10SM SCT037 OVC055 26/21 A2991 RMK AO2 RAE21B38E48 SLP126 P0000 T02560206 (WRB),,,,,,,,,,,,,,,,,,,,,,,,,,,,
72208013880,2006-09-13T14:56:00,FM-15,7,,SE,0.25,mi,"TEMP, PRECIP, SNOW",,,"MMTS, SRG, SNOWBOARD",,,WFO CHS,,,,,,,,,,,,,,,,,,,,,,,,,,,29.88,68,79,T,,,,69,29.88,FEW:02 32 BKN:07 55 OVC:08 90,29.83,10,72,160,,11,,,,,,,,,,,,,,,,,,,,,,,,,,,,,,,,,,,,,MET12809/13/06 14:56:51 METAR KCHS 131956Z 16010KT 10SM FEW032 BKN055 OVC090 26/20 A2988 RMK AO2 RAB02E26 SLP118 P0000 T02610200 (WRB),,,,,,,,,,,,,,,,,,,,,,,,,,,,
72208013880,2006-09-13T15:56:00,FM-15,7,,SE,0.25,mi,"TEMP, PRECIP, SNOW",,,"MMTS, SRG, SNOWBOARD",,,WFO CHS,,,,,,,,,,,,,,,,,,,,,,,,,,,29.88,68,78,T,-RA:02 |RA |RA,0.05,6,71,29.88,FEW:02 75 BKN:07 100,29.83,10,71,160,,10,,,,,,,,,,,,,,,,,,,,,,,,,,,,,,,,,,,,,MET13409/13/06 15:56:51 METAR KCHS 132056Z 16009KT 10SM -RA FEW075 BKN100 26/20 A2988 RMK AO2 RAB26 SLP117 P0000 60000 T02560200 56016 (WDS),,,,,,,,,,,,,,,,,,,,,,,,,,,,
72208013880,2006-09-13T16:00:00,FM-12,4,,SE,0.25,mi,"TEMP, PRECIP, SNOW",,,"MMTS, SRG, SNOWBOARD",,,WFO CHS,,,,,,,,,,,,,,,,,,,,,,,,,,,,68,78,,||RA,0.05,6,71,29.88,,29.83,9.94,71,160,,10,,,,,,,,,,,,,,,,,,,,,,,,,,,,,,,,,,,,,SYN088AAXX  13214 72208 11866 61609 10256 20200 30102 40117 56016 69907 761// 92056 555 91321;,,,,,,,,,,,,,,,,,,,,,,,,,,,,
72208013880,2006-09-13T16:56:00,FM-15,7,,SE,0.25,mi,"TEMP, PRECIP, SNOW",,,"MMTS, SRG, SNOWBOARD",,,WFO CHS,,,,,,,,,,,,,,,,,,,,,,,,,,,29.87,69,76,0.02,-RA:02 |RA |RA,,,79,29.87,FEW:02 42 SCT:04 60 BKN:07 75,29.82,8,71,160,,7,,,,,,,,,,,,,,,,,,,,,,,,,,,,,,,,,,,,,MET13109/13/06 16:56:51 METAR KCHS 132156Z 16006KT 8SM -RA FEW042 SCT060 BKN075 24/21 A2987 RMK AO2 RAE18B34 SLP115 P0001 T02440206 (WDS),,,,,,,,,,,,,,,,,,,,,,,,,,,,
72208013880,2006-09-13T17:48:00,FM-16,7,,SE,0.25,mi,"TEMP, PRECIP, SNOW",,,"MMTS, SRG, SNOWBOARD",,,WFO CHS,,,,,,,,,,,,,,,,,,,,,,,,,,,29.89,70,73,0.2,+RA:02 BR:1 |RA |RA,,,89,,FEW:02 14 BKN:07 29 OVC:08 39,29.84,1.75,71,150,,14,,,,,,,,,,,,,,,,,,,,,,,,,,,,,,,,,,,,,MET11209/13/06 17:48:51 SPECI KCHS 132248Z 15012KT 1 3/4SM +RA BR FEW014 BKN029 OVC039 23/21 A2989 RMK AO2 P0020 (WDS),,,,,,,,,,,,,,,,,,,,,,,,,,,,
72208013880,2006-09-13T17:56:00,FM-15,7,,SE,0.25,mi,"TEMP, PRECIP, SNOW",,,"MMTS, SRG, SNOWBOARD",,,WFO CHS,,,,,,,,,,,,,,,,,,,,,,,,,,,29.89,69,72,0.21,RA:02 BR:1 |RA |RA,,,91,29.88,FEW:02 22 BKN:07 38 OVC:08 45,29.84,2,70,160,,13,,,,,,,,,,,,,,,,,,,,,,,,,,,,,,,,,,,,,MET12409/13/06 17:56:51 METAR KCHS 132256Z 16011KT 2SM RA BR FEW022 BKN038 OVC045 22/21 A2989 RMK AO2 SLP119 P0022 T02220206 (WDS),,,,,,,,,,,,,,,,,,,,,,,,,,,,
72208013880,2006-09-23T14:56:00,FM-15,7,,SE,0.25,mi,"TEMP, PRECIP, SNOW",,,"MMTS, SRG, SNOWBOARD",,,WFO CHS,,,,,,,,,,,,,,,,,,,,,,,,,,,30.04,70,87,0,,,,57,30.04,FEW:02 45,29.99,10,75,170,,11,,,,,,,,,,,,,,,,,,,,,,,,,,,,,,,,,,,,,MET09809/23/06 14:56:50 METAR KCHS 231956Z 17010KT 10SM FEW045 31/21 A3004 RMK AO2 SLP173 T03060211 (WD),,,,,,,,,,,,,,,,,,,,,,,,,,,,
72208013880,2006-09-28T17:56:00,FM-15,7,,SE,0.25,mi,"TEMP, PRECIP, SNOW",,,"MMTS, SRG, SNOWBOARD",,,WFO CHS,,,,,,,,,,,,,,,,,,,,,,,,,,,29.82,64,75,0,,,,69,29.81,,29.77,10,68,160,,9,,,,,,,,,,,,,,,,,,,,,,,,,,,,,,,,,,,,,MET09509/28/06 17:56:50 METAR KCHS 282256Z 16008KT 10SM CLR 24/18 A2982 RMK AO2 SLP096 T02390178 (WD),,,,,,,,,,,,,,,,,,,,,,,,,,,,
72208013880,2006-09-30T16:56:00,FM-15,7,,SE,0.25,mi,"TEMP, PRECIP, SNOW",,,"MMTS, SRG, SNOWBOARD",,,WFO CHS,,,,,,,,,,,,,,,,,,,,,,,,,,,30.07,55,76,0,,,,48,30.07,,30.02,10,64,150,,8,,,,,,,,,,,,,,,,,,,,,,,,,,,,,,,,,,,,,MET09509/30/06 16:56:50 METAR KCHS 302156Z 15007KT 10SM CLR 24/13 A3007 RMK AO2 SLP182 T02440128 (WD),,,,,,,,,,,,,,,,,,,,,,,,,,,,
72208013880,2006-09-30T17:56:00,FM-15,6,,SE,0.25,mi,"TEMP, PRECIP, SNOW",,,"MMTS, SRG, SNOWBOARD",,,WFO CHS,,,,,,,,,,,,,,,,,,,,,,,,,,,30.06,55,71,0,,,,57,30.06,CLR:00,30.01,10,62,150,,8,,,,,,,,,,,,,,,,,,,,,,,,,,,,,,,,,,,,,MET09509/30/06 17:56:50 METAR KCHS 302256Z 15007KT 10SM CLR 22/13 A3006 RMK AO2 SLP178 T02170128 (WD),,,,,,,,,,,,,,,,,,,,,,,,,,,,
72208013880,2006-10-04T13:56:00,FM-15,7,,SE,0.25,mi,"TEMP, PRECIP, SNOW",,,"MMTS, SRG, SNOWBOARD",,,WFO CHS,,,,,,,,,,,,,,,,,,,,,,,,,,,30.15,61,83,0,,,,48,30.15,SCT:04 55,30.1,10,69,150,,9,,,,,,,,,,,,,,,,,,,,,,,,,,,,,,,,,,,,,MET09910/04/06 13:56:50 METAR KCHS 041856Z 15008KT 10SM SCT055 28/16 A3015 RMK AO2 SLP209 T02830161 (WRB),,,,,,,,,,,,,,,,,,,,,,,,,,,,
72208013880,2006-10-04T14:56:00,FM-15,7,,SE,0.25,mi,"TEMP, PRECIP, SNOW",,,"MMTS, SRG, SNOWBOARD",,,WFO CHS,,,,,,,,,,,,,,,,,,,,,,,,,,,30.14,61,83,0,,,,48,30.14,FEW:02 50,30.09,10,69,150,,7,,,,,,,,,,,,,,,,,,,,,,,,,,,,,,,,,,,,,MET09910/04/06 14:56:50 METAR KCHS 041956Z 15006KT 10SM FEW050 28/16 A3014 RMK AO2 SLP206 T02830161 (WRB),,,,,,,,,,,,,,,,,,,,,,,,,,,,
72208013880,2006-10-17T10:56:00,FM-15,7,,SE,0.25,mi,"TEMP, PRECIP, SNOW",,,"MMTS, SRG, SNOWBOARD",,,WFO CHS,,,,,,,,,,,,,,,,,,,,,,,,,,,29.97,67,79,0,,,,67,29.96,SCT:04 29,29.92,10,71,170,,17,,,,,,,,,,,,,,,,,,,,,,,,,,,,,,,,,,,,,MET09910/17/06 10:56:50 METAR KCHS 171556Z 17015KT 10SM SCT029 26/19 A2997 RMK AO2 SLP147 T02610194 (BBE),,,,,,,,,,,,,,,,,,,,,,,,,,,,
72208013880,2006-10-17T12:56:00,FM-15,7,,SE,0.25,mi,"TEMP, PRECIP, SNOW",,,"MMTS, SRG, SNOWBOARD",,,WFO CHS,,,,,,,,,,,,,,,,,,,,,,,,,,,29.93,68,80,T,,0.05,8,67,29.93,FEW:02 29 BKN:07 90,29.88,10,72,170,24,17,,,,,,,,,,,,,,,,,,,,,,,,,,,,,,,,,,,,,MET13210/17/06 12:56:51 METAR KCHS 171756Z 17015G21KT 10SM FEW029 BKN090 27/20 A2993 RMK AO2 SLP134 VCSH T02670200 10267 20222 58016 (BBE),,,,,,,,,,,,,,,,,,,,,,,,,,,,
72208013880,2006-10-17T13:00:00,FM-12,4,,SE,0.25,mi,"TEMP, PRECIP, SNOW",,,"MMTS, SRG, SNOWBOARD",,,WFO CHS,,,,,,,,,,,,,,,,,,,,,,,,,,,,68,80,,,0.05,8,67,29.93,,29.88,9.94,72,170,24,17,,,,,,,,,,,,,,,,,,,,,,,,,,,,,,,,,,,,,SYN098AAXX  17184 72208 32566 61715 10267 20200 30119 40134 58016 91756 333 10267 20206 91021 555 91718;,,,,,,,,,,,,,,,,,,,,,,,,,,,,
72208013880,2006-10-17T13:56:00,FM-15,7,,SE,0.25,mi,"TEMP, PRECIP, SNOW",,,"MMTS, SRG, SNOWBOARD",,,WFO CHS,,,,,,,,,,,,,,,,,,,,,,,,,,,29.9,68,79,T,,,,69,29.9,FEW:02 29 BKN:07 90,29.85,10,72,170,,17,,,,,,,,,,,,,,,,,,,,,,,,,,,,,,,,,,,,,MET12310/17/06 13:56:51 METAR KCHS 171856Z 17015KT 10SM FEW029 BKN090 26/20 A2990 RMK AO2 RAB1758E08 SLP126 P0000 T02610200 (BBE),,,,,,,,,,,,,,,,,,,,,,,,,,,,
72208013880,2006-10-17T15:56:00,FM-15,7,,SE,0.25,mi,"TEMP, PRECIP, SNOW",,,"MMTS, SRG, SNOWBOARD",,,WFO CHS,,,,,,,,,,,,,,,,,,,,,,,,,,,29.88,70,78,0,,0.05,6,76,29.88,FEW:02 42 OVC:08 110,29.83,10,73,160,,16,,,,,,,,,,,,,,,,,,,,,,,,,,,,,,,,,,,,,MET11810/17/06 15:56:51 METAR KCHS 172056Z 16014KT 10SM FEW042 OVC110 26/21 A2988 RMK AO2 SLP117 60000 T02560211 56016 (BBE),,,,,,,,,,,,,,,,,,,,,,,,,,,,
72208013880,2006-10-17T16:00:00,FM-12,4,,SE,0.25,mi,"TEMP, PRECIP, SNOW",,,"MMTS, SRG, SNOWBOARD",,,WFO CHS,,,,,,,,,,,,,,,,,,,,,,,,,,,,70,78,,,0.05,6,76,29.88,,29.83,9.94,73,160,,16,,,,,,,,,,,,,,,,,,,,,,,,,,,,,,,,,,,,,SYN082AAXX  17214 72208 12666 81614 10256 20211 30102 40117 56016 69907 92056 555 91721;,,,,,,,,,,,,,,,,,,,,,,,,,,,,
72208013880,2006-10-19T12:56:00,SY-MT,7,,SE,0.25,mi,"TEMP, PRECIP, SNOW",,,"MMTS, SRG, SNOWBOARD",,,WFO CHS,,,,,,,,,,,,,,,,,,,,,,,,,,,29.81,70,79,0,,0.06,8,74,29.8,SCT:04 27,29.76,7,73,160,,8,,,,,,,,,,,,,,,,,,,,,,,,,,,,,,,,,,,,,SYN092AAXX  19184 72208 32561 41607 10261 20211 30079 40093 58020 91756 333 10278 20200 555 91918;MET12710/19/06 12:56:51 METAR KCHS 191756Z 16007KT 7SM SCT027TCU 26/21 A2981 RMK AO2 SLP093 TCU W-N T02610211 10278 20200 58020 (WRB),,,,,,,,,,,,,,,,,,,,,,,,,,,,
72208013880,2006-10-19T17:56:00,FM-15,7,,SE,0.25,mi,"TEMP, PRECIP, SNOW",,,"MMTS, SRG, SNOWBOARD",,,WFO CHS,,,,,,,,,,,,,,,,,,,,,,,,,,,29.78,69,73,0,BR:1 ||,,,87,29.78,,29.73,3,70,170,,9,,,,,,,,,,,,,,,,,,,,,,,,,,,,,,,,,,,,,MET09810/19/06 17:56:50 METAR KCHS 192256Z 17008KT 3SM BR CLR 23/21 A2978 RMK AO2 SLP083 T02280206 (JRS),,,,,,,,,,,,,,,,,,,,,,,,,,,,
72208013880,2006-10-26T13:56:00,FM-15,7,,SE,0.25,mi,"TEMP, PRECIP, SNOW",,,"MMTS, SRG, SNOWBOARD",,,WFO CHS,,,,,,,,,,,,,,,,,,,,,,,,,,,30.19,42,65,0,,,,43,30.19,FEW:02 40 BKN:07 110,30.14,10,53,150,,7,,,,,,,,,,,,,,,,,,,,,,,,,,,,,,,,,,,,,MET10610/26/06 13:56:50 METAR KCHS 261856Z 15006KT 10SM FEW040 BKN110 18/06 A3019 RMK AO2 SLP224 T01830056 (WRB),,,,,,,,,,,,,,,,,,,,,,,,,,,,
72208013880,2006-10-26T14:56:00,FM-15,7,,SE,0.25,mi,"TEMP, PRECIP, SNOW",,,"MMTS, SRG, SNOWBOARD",,,WFO CHS,,,,,,,,,,,,,,,,,,,,,,,,,,,30.2,44,65,0,,,,47,30.2,FEW:02 35 BKN:07 100,30.15,10,54,150,,8,,,,,,,,,,,,,,,,,,,,,,,,,,,,,,,,,,,,,MET10610/26/06 14:56:50 METAR KCHS 261956Z 15007KT 10SM FEW035 BKN100 18/07 A3020 RMK AO2 SLP227 T01830067 (WRB),,,,,,,,,,,,,,,,,,,,,,,,,,,,
72208013880,2006-10-27T17:56:00,FM-15,7,,SE,0.25,mi,"TEMP, PRECIP, SNOW",,,"MMTS, SRG, SNOWBOARD",,,WFO CHS,,,,,,,,,,,,,,,,,,,,,,,,,,,29.78,66,69,0,BR:1 ||,,,90,29.78,FEW:02 8 SCT:04 31,29.73,5,67,150,,9,,,,,,,,,,,,,,,,,,,,,,,,,,,,,,,,,,,,,MET10810/27/06 17:56:50 METAR KCHS 272256Z 15008KT 5SM BR FEW008 SCT031 21/19 A2978 RMK AO2 SLP085 T02060189 (JRS),,,,,,,,,,,,,,,,,,,,,,,,,,,,
72208013880,2006-10-30T14:56:00,FM-15,7,,SE,0.25,mi,"TEMP, PRECIP, SNOW",,,"MMTS, SRG, SNOWBOARD",,,WFO CHS,,,,,,,,,,,,,,,,,,,,,,,,,,,30.11,48,76,0,,,,37,30.11,,30.06,10,60,150,,9,,,,,,,,,,,,,,,,,,,,,,,,,,,,,,,,,,,,,MET09610/30/06 14:56:50 METAR KCHS 301956Z 15008KT 10SM CLR 24/09 A3011 RMK AO2 SLP195 T02440089 (BBE),,,,,,,,,,,,,,,,,,,,,,,,,,,,
72208013880,2006-10-31T13:56:00,FM-15,7,,SE,0.25,mi,"TEMP, PRECIP, SNOW",,,"MMTS, SRG, SNOWBOARD",,,WFO CHS,,,,,,,,,,,,,,,,,,,,,,,,,,,30.07,56,77,0,,,,48,30.07,BKN:07 48 BKN:07 60,30.02,10,64,160,,9,,,,,,,,,,,,,,,,,,,,,,,,,,,,,,,,,,,,,MET10610/31/06 13:56:50 METAR KCHS 311856Z 16008KT 10SM BKN048 BKN060 25/13 A3007 RMK AO2 SLP182 T02500133 (WRB),,,,,,,,,,,,,,,,,,,,,,,,,,,,
72208013880,2006-11-01T17:56:00,FM-15,7,,SE,0.25,mi,"TEMP, PRECIP, SNOW",,,"MMTS, SRG, SNOWBOARD",,,WFO CHS,,,,,,,,,,,,,,,,,,,,,,,,,,,30,62,69,0,,,,78,30,FEW:02 65,29.95,10,65,150,,9,,,,,,,,,,,,,,,,,,,,,,,,,,,,,,,,,,,,,MET09811/01/06 17:57:14 METAR KCHS 012256Z 15008KT 10SM FEW065 21/17 A3000 RMK AO2 SLP159 T02060167 (WD),,,,,,,,,,,,,,,,,,,,,,,,,,,,
72208013880,2006-11-07T13:56:00,FM-15,7,,SE,0.25,mi,"TEMP, PRECIP, SNOW",,,"MMTS, SRG, SNOWBOARD",,,WFO CHS,,,,,,,,,,,,,,,,,,,,,,,,,,,29.77,67,70,T,,,,90,29.76,BKN:07 9 OVC:08 13,29.72,10,68,150,,9,,,,,,,,,,,,,,,,,,,,,,,,,,,,,,,,,,,,,MET11811/07/06 13:56:51 METAR KCHS 071856Z 15008KT 10SM BKN009 OVC013 21/19 A2977 RMK AO2 RAE07 SLP079 P0000 T02110194 (BBE),,,,,,,,,,,,,,,,,,,,,,,,,,,,
72208013880,2006-11-10T14:56:00,FM-15,7,,SE,0.25,mi,"TEMP, PRECIP, SNOW",,,"MMTS, SRG, SNOWBOARD",,,WFO CHS,,,,,,,,,,,,,,,,,,,,,,,,,,,30,52,76,0,,,,43,30,,29.95,10,62,170,,8,,,,,,,,,,,,,,,,,,,,,,,,,,,,,,,,,,,,,MET09611/10/06 14:56:50 METAR KCHS 101956Z 17007KT 10SM CLR 24/11 A3000 RMK AO2 SLP158 T02440111 (WRB),,,,,,,,,,,,,,,,,,,,,,,,,,,,
72208013880,2006-11-14T10:56:00,FM-15,6,,SE,0.25,mi,"TEMP, PRECIP, SNOW",,,"MMTS, SRG, SNOWBOARD",,,WFO CHS,,,,,,,,,,,,,,,,,,,,,,,,,,,29.91,42,68,0,,,,39,29.91,CLR:00,29.86,10,54,170,,9,,,,,,,,,,,,,,,,,,,,,,,,,,,,,,,,,,,,,MET09611/14/06 10:56:50 METAR KCHS 141556Z 17008KT 10SM CLR 20/06 A2991 RMK AO2 SLP127 T02000056 (WRB),,,,,,,,,,,,,,,,,,,,,,,,,,,,
72208013880,2006-11-15T17:56:00,FM-15,7,,SE,0.25,mi,"TEMP, PRECIP, SNOW",,,"MMTS, SRG, SNOWBOARD",,,WFO CHS,,,,,,,,,,,,,,,,,,,,,,,,,,,29.76,66,74,0,,,,76,29.75,FEW:02 24 BKN:07 29 OVC:08 60,29.71,10,69,170,,11,,,,,,,,,,,,,,,,,,,,,,,,,,,,,,,,,,,,,MET13011/15/06 17:56:51 METAR KCHS 152256Z 17010KT 10SM FEW024 BKN029 OVC060 23/19 A2976 RMK AO2 PK WND 16026/2233 SLP076 T02330189 (WD),,,,,,,,,,,,,,,,,,,,,,,,,,,,
72208013880,2006-11-28T15:56:00,FM-15,7,,SE,0.25,mi,"TEMP, PRECIP, SNOW",,,"MMTS, SRG, SNOWBOARD",,,WFO CHS,,,,,,,,,,,,,,,,,,,,,,,,,,,30.23,62,75,0,,,,64,30.23,FEW:02 26,30.18,10,67,150,,10,,,,,,,,,,,,,,,,,,,,,,,,,,,,,,,,,,,,,MET09911/28/06 15:56:50 METAR KCHS 282056Z 15009KT 10SM FEW026 24/17 A3023 RMK AO2 SLP237 T02390167 (WRB),,,,,,,,,,,,,,,,,,,,,,,,,,,,
72208013880,2006-11-28T16:00:00,FM-12,4,,SE,0.25,mi,"TEMP, PRECIP, SNOW",,,"MMTS, SRG, SNOWBOARD",,,WFO CHS,,,,,,,,,,,,,,,,,,,,,,,,,,,,62,75,,,,,64,30.23,,30.18,9.94,67,150,,10,,,,,,,,,,,,,,,,,,,,,,,,,,,,,,,,,,,,,SYN070AAXX  28214 72208 32566 21509 10239 20167 30221 40237 92056 555 92821;,,,,,,,,,,,,,,,,,,,,,,,,,,,,
72208013880,2006-11-29T12:56:00,FM-15,7,,SE,0.25,mi,"TEMP, PRECIP, SNOW",,,"MMTS, SRG, SNOWBOARD",,,WFO CHS,,,,,,,,,,,,,,,,,,,,,,,,,,,30.28,58,77,0,,0.05,8,52,30.27,BKN:07 38 BKN:07 100,30.23,10,65,150,,13,,,,,,,,,,,,,,,,,,,,,,,,,,,,,,,,,,,,,MET12611/29/06 12:56:51 METAR KCHS 291756Z 15011KT 10SM BKN038 BKN100 25/14 A3028 RMK AO2 SLP252 T02500144 10267 20122 58018 $ (WRB),,,,,,,,,,,,,,,,,,,,,,,,,,,,
72208013880,2006-11-29T13:00:00,FM-12,4,,SE,0.25,mi,"TEMP, PRECIP, SNOW",,,"MMTS, SRG, SNOWBOARD",,,WFO CHS,,,,,,,,,,,,,,,,,,,,,,,,,,,,58,77,,,0.05,8,52,30.27,,30.23,9.94,65,150,,13,,,,,,,,,,,,,,,,,,,,,,,,,,,,,,,,,,,,,SYN092AAXX  29184 72208 32666 61511 10250 20144 30238 40252 58018 91756 333 10267 20122 555 92918;,,,,,,,,,,,,,,,,,,,,,,,,,,,,
72208013880,2006-11-29T13:56:00,FM-15,7,,SE,0.25,mi,"TEMP, PRECIP, SNOW",,,"MMTS, SRG, SNOWBOARD",,,WFO CHS,,,,,,,,,,,,,,,,,,,,,,,,,,,30.27,56,78,0,,,,47,30.26,SCT:04 49 SCT:04 100,30.22,10,65,150,,14,,,,,,,,,,,,,,,,,,,,,,,,,,,,,,,,,,,,,MET10811/29/06 13:56:50 METAR KCHS 291856Z 15012KT 10SM SCT049 SCT100 26/13 A3027 RMK AO2 SLP248 T02560133 $ (WRB),,,,,,,,,,,,,,,,,,,,,,,,,,,,
72208013880,2006-11-30T11:31:00,FM-16,7,,SE,0.25,mi,"TEMP, PRECIP, SNOW",,,"MMTS, SRG, SNOWBOARD",,,WFO CHS,,,,,,,,,,,,,,,,,,,,,,,,,,,30.23,66,75,,,,,74,,BKN:07 24 BKN:07 80,30.18,10,69,150,,13,,,,,,,,,,,,,,,,,,,,,,,,,,,,,,,,,,,,,MET09111/30/06 11:31:50 SPECI KCHS 301631Z 15011KT 10SM BKN024 BKN080 24/19 A3023 RMK AO2 $ (WRB),,,,,,,,,,,,,,,,,,,,,,,,,,,,
72208013880,2006-11-30T14:56:00,FM-15,7,,SE,0.25,mi,"TEMP, PRECIP, SNOW",,,"MMTS, SRG, SNOWBOARD",,,WFO CHS,,,,,,,,,,,,,,,,,,,,,,,,,,,30.16,61,75,0,,,,62,30.16,SCT:04 34 OVC:08 48,30.11,10,66,170,21,15,,,,,,,,,,,,,,,,,,,,,,,,,,,,,,,,,,,,,MET11111/30/06 14:56:50 METAR KCHS 301956Z 17013G18KT 10SM SCT034 OVC048 24/16 A3016 RMK AO2 SLP212 T02390161 $ (WRB),,,,,,,,,,,,,,,,,,,,,,,,,,,,
72208013880,2006-11-30T15:56:00,FM-15,7,,SE,0.25,mi,"TEMP, PRECIP, SNOW",,,"MMTS, SRG, SNOWBOARD",,,WFO CHS,,,,,,,,,,,,,,,,,,,,,,,,,,,30.17,64,71,0,,0.02,5,79,30.16,FEW:02 31 OVC:08 70,30.12,10,67,170,,14,,,,,,,,,,,,,,,,,,,,,,,,,,,,,,,,,,,,,MET11911/30/06 15:56:51 METAR KCHS 302056Z 17012KT 10SM FEW031 OVC070 22/18 A3017 RMK AO2 SLP214 VCSH T02170178 55008 $ (WRB),,,,,,,,,,,,,,,,,,,,,,,,,,,,
72208013880,2006-11-30T16:00:00,FM-12,4,,SE,0.25,mi,"TEMP, PRECIP, SNOW",,,"MMTS, SRG, SNOWBOARD",,,WFO CHS,,,,,,,,,,,,,,,,,,,,,,,,,,,,64,71,,,0.02,5,79,30.16,,30.12,9.94,67,170,,14,,,,,,,,,,,,,,,,,,,,,,,,,,,,,,,,,,,,,SYN076AAXX  30214 72208 32566 81712 10217 20178 30201 40214 55008 92056 555 93021;,,,,,,,,,,,,,,,,,,,,,,,,,,,,
72208013880,2006-11-30T16:56:00,FM-15,7,,SE,0.25,mi,"TEMP, PRECIP, SNOW",,,"MMTS, SRG, SNOWBOARD",,,WFO CHS,,,,,,,,,,,,,,,,,,,,,,,,,,,30.16,65,69,T,,,,87,30.15,FEW:02 34 BKN:07 50 OVC:08 70,30.11,10,66,150,,7,,,,,,,,,,,,,,,,,,,,,,,,,,,,,,,,,,,,,MET12911/30/06 16:56:51 METAR KCHS 302156Z 15006KT 10SM FEW034 BKN050 OVC070 21/18 A3016 RMK AO2 RAB11E43 SLP211 P0000 T02060183 $ (WD),,,,,,,,,,,,,,,,,,,,,,,,,,,,
72208013880,2006-12-06T12:56:00,FM-15,7,,SE,0.25,mi,"TEMP, PRECIP, SNOW",,,"MMTS, SRG, SNOWBOARD",,,WFO CHS,,,,,,,,,,,,,,,,,,,,,,,,,,,30.25,48,68,0,,0.09,8,49,30.25,FEW:02 30 SCT:04 80,30.2,10,57,160,,7,,,,,,,,,,,,,,,,,,,,,,,,,,,,,,,,,,,,,MET12412/06/06 12:56:51 METAR KCHS 061756Z 16006KT 10SM FEW030 SCT080 20/09 A3025 RMK AO2 SLP244 T02000089 10200 20033 58032 (WRB),,,,,,,,,,,,,,,,,,,,,,,,,,,,
72208013880,2006-12-06T13:00:00,FM-12,4,,SE,0.25,mi,"TEMP, PRECIP, SNOW",,,"MMTS, SRG, SNOWBOARD",,,WFO CHS,,,,,,,,,,,,,,,,,,,,,,,,,,,,48,68,,,0.09,8,49,30.25,,30.2,9.94,57,160,,7,,,,,,,,,,,,,,,,,,,,,,,,,,,,,,,,,,,,,SYN092AAXX  06184 72208 32566 41606 10200 20089 30228 40244 58032 91756 333 10200 20033 555 90618;,,,,,,,,,,,,,,,,,,,,,,,,,,,,
72208013880,2006-12-22T12:30:00,FM-16,7,,SE,0.25,mi,"TEMP, PRECIP, SNOW",,,"MMTS, SRG, SNOWBOARD",,,WFO CHS,,,,,,,,,,,,,,,,,,,,,,,,,,,30.05,66,70,0.04,-RA:02 |RA |RA,,,88,,BKN:07 20 OVC:08 47,30,7,67,150,23,16,,,,,,,,,,,,,,,,,,,,,,,,,,,,,,,,,,,,,MET10112/22/06 12:30:50 SPECI KCHS 221730Z 15014G20KT 7SM -RA BKN020 OVC047 21/19 A3005 RMK AO2 P0004 (WRB),,,,,,,,,,,,,,,,,,,,,,,,,,,,
72208013880,2006-12-22T12:56:00,FM-15,7,,SE,0.25,mi,"TEMP, PRECIP, SNOW",,,"MMTS, SRG, SNOWBOARD",,,WFO CHS,,,,,,,,,,,,,,,,,,,,,,,,,,,30.03,67,69,0.05,-RA:02 BR:1 |RA |RA,0.1,8,93,30.02,SCT:04 15 BKN:07 35 OVC:08 50,29.98,5,68,150,,14,,,,,,,,,,,,,,,,,,,,,,,,,,,,,,,,,,,,,MET15812/22/06 12:56:51 METAR KCHS 221756Z 15012KT 5SM -RA BR SCT015 BKN035 OVC050 21/19 A3003 RMK AO2 RAE31B51 SLP167 P0004 60005 T02060194 10217 20183 58034 (WRB),,,,,,,,,,,,,,,,,,,,,,,,,,,,
72208013880,2006-12-22T13:00:00,FM-12,4,,SE,0.25,mi,"TEMP, PRECIP, SNOW",,,"MMTS, SRG, SNOWBOARD",,,WFO CHS,,,,,,,,,,,,,,,,,,,,,,,,,,,,67,69,,||RA,0.1,8,93,30.02,,29.98,4.97,68,150,,14,,,,,,,,,,,,,,,,,,,,,,,,,,,,,,,,,,,,,SYN110AAXX  22184 72208 11458 81512 10206 20194 30153 40167 58034 60011 761// 91756 333 10217 20178 96010 555 92218;,,,,,,,,,,,,,,,,,,,,,,,,,,,,
72208013880,2006-12-22T13:04:00,FM-16,7,,SE,0.25,mi,"TEMP, PRECIP, SNOW",,,"MMTS, SRG, SNOWBOARD",,,WFO CHS,,,,,,,,,,,,,,,,,,,,,,,,,,,30.03,66,70,0.01,-RA:02 BR:1 |RA |RA,,,88,,SCT:04 15 BKN:07 26 OVC:08 50,29.98,4,67,170,,17,,,,,,,,,,,,,,,,,,,,,,,,,,,,,,,,,,,,,MET10812/22/06 13:10:53 SPECI KCHS 221804Z 17015KT 4SM -RA BR SCT015 BKN026 OVC050 21/19 A3003 RMK AO2 P0001 (WRB),,,,,,,,,,,,,,,,,,,,,,,,,,,,
72208013880,2006-12-22T13:18:00,FM-16,7,,SE,0.25,mi,"TEMP, PRECIP, SNOW",,,"MMTS, SRG, SNOWBOARD",,,WFO CHS,,,,,,,,,,,,,,,,,,,,,,,,,,,30.02,66,70,0.03,-RA:02 BR:1 |RA |RA,,,88,,SCT:04 13 BKN:07 28 OVC:08 48,29.97,2.5,67,170,28,16,,,,,,,,,,,,,,,,,,,,,,,,,,,,,,,,,,,,,MET11512/22/06 13:18:51 SPECI KCHS 221818Z 17014G24KT 2 1/2SM -RA BR SCT013 BKN028 OVC048 21/19 A3002 RMK AO2 P0003 (WRB),,,,,,,,,,,,,,,,,,,,,,,,,,,,
72208013880,2006-12-22T13:35:00,FM-16,7,,SE,0.25,mi,"TEMP, PRECIP, SNOW",,,"MMTS, SRG, SNOWBOARD",,,WFO CHS,,,,,,,,,,,,,,,,,,,,,,,,,,,30.01,66,70,0.04,RA:02 BR:1 |RA |RA,,,88,,BKN:07 13 OVC:08 28,29.96,4,67,170,23,17,,,,,,,,,,,,,,,,,,,,,,,,,,,,,,,,,,,,,MET10312/22/06 13:36:09 SPECI KCHS 221835Z 17015G20KT 4SM RA BR BKN013 OVC028 21/19 A3001 RMK AO2 P0004 (WRB),,,,,,,,,,,,,,,,,,,,,,,,,,,,
72208013880,2006-12-22T13:46:00,FM-16,7,,SE,0.25,mi,"TEMP, PRECIP, SNOW",,,"MMTS, SRG, SNOWBOARD",,,WFO CHS,,,,,,,,,,,,,,,,,,,,,,,,,,,30,66,70,0.08,RA:02 BR:1 |RA |RA,,,88,,BKN:07 15 OVC:08 30,29.95,2,67,170,23,15,,,,,,,,,,,,,,,,,,,,,,,,,,,,,,,,,,,,,MET11712/22/06 13:46:51 SPECI KCHS 221846Z 17013G20KT 2SM RA BR BKN015 OVC030 21/19 A3000 RMK AO2 SFC VIS 2 1/2 P0008 (WRB),,,,,,,,,,,,,,,,,,,,,,,,,,,,
72208013880,2006-12-22T14:10:00,FM-16,7,,SE,0.25,mi,"TEMP, PRECIP, SNOW",,,"MMTS, SRG, SNOWBOARD",,,WFO CHS,,,,,,,,,,,,,,,,,,,,,,,,,,,30,66,70,0.04,RA:02 BR:1 |RA |RA,,,88,,FEW:02 8 BKN:07 18 OVC:08 35,29.95,1.5,67,170,,13,,,,,,,,,,,,,,,,,,,,,,,,,,,,,,,,,,,,,MET12112/22/06 14:11:14 SPECI KCHS 221910Z 17011KT 1 1/2SM RA BR FEW008 BKN018 OVC035 21/19 A3000 RMK AO2 TWR VIS 2 P0004 (WRB),,,,,,,,,,,,,,,,,,,,,,,,,,,,
72208013880,2006-12-22T14:15:00,FM-16,7,,SE,0.25,mi,"TEMP, PRECIP, SNOW",,,"MMTS, SRG, SNOWBOARD",,,WFO CHS,,,,,,,,,,,,,,,,,,,,,,,,,,,30,66,70,0.11,+RA:02 BR:1 |RA |RA,,,88,,SCT:04 11 BKN:07 20 OVC:08 37,29.95,1.5,67,170,,13,,,,,,,,,,,,,,,,,,,,,,,,,,,,,,,,,,,,,MET13412/22/06 14:15:52 SPECI KCHS 221915Z 17011KT 1 1/2SM +RA BR SCT011 BKN020 OVC037 21/19 A3000 RMK AO2 TWR VIS 2 (ACFT MSHP) P0011 (WRB),,,,,,,,,,,,,,,,,,,,,,,,,,,,
72208013880,2006-12-31T14:56:00,FM-15,7,,SE,0.25,mi,"TEMP, PRECIP, SNOW",,,"MMTS, SRG, SNOWBOARD",,,WFO CHS,,,,,,,,,,,,,,,,,,,,,,,,,,,30.19,65,72,0,,,,79,30.19,BKN:07 15 OVC:08 28,30.14,10,68,150,,9,,,,,,,,,,,,,,,,,,,,,,,,,,,,,,,,,,,,,MET10612/31/06 14:56:50 METAR KCHS 311956Z 15008KT 10SM BKN015 OVC028 22/18 A3019 RMK AO2 SLP222 T02220183 (JRS),,,,,,,,,,,,,,,,,,,,,,,,,,,,
72208013880,2006-12-31T15:56:00,FM-15,7,,SE,0.25,mi,"TEMP, PRECIP, SNOW",,,"MMTS, SRG, SNOWBOARD",,,WFO CHS,,,,,,,,,,,,,,,,,,,,,,,,,,,30.18,65,71,0,,0.04,6,81,30.18,SCT:04 16,30.13,10,67,170,,9,,,,,,,,,,,,,,,,,,,,,,,,,,,,,,,,,,,,,MET10412/31/06 15:56:50 METAR KCHS 312056Z 17008KT 10SM SCT016 22/18 A3018 RMK AO2 SLP220 T02170183 56013 (WD),,,,,,,,,,,,,,,,,,,,,,,,,,,,
72208013880,2006-12-31T16:00:00,FM-12,4,,SE,0.25,mi,"TEMP, PRECIP, SNOW",,,"MMTS, SRG, SNOWBOARD",,,WFO CHS,,,,,,,,,,,,,,,,,,,,,,,,,,,,65,71,,,0.04,6,81,30.18,,30.13,9.94,67,170,,9,,,,,,,,,,,,,,,,,,,,,,,,,,,,,,,,,,,,,SYN076AAXX  31214 72208 32466 41708 10217 20183 30204 40220 56013 92056 555 93121;,,,,,,,,,,,,,,,,,,,,,,,,,,,,
72208013880,2006-12-31T16:56:00,FM-15,7,,SE,0.25,mi,"TEMP, PRECIP, SNOW",,,"MMTS, SRG, SNOWBOARD",,,WFO CHS,,,,,,,,,,,,,,,,,,,,,,,,,,,30.18,64,69,0,,,,84,30.18,FEW:02 14 SCT:04 50,30.13,10,66,150,,8,,,,,,,,,,,,,,,,,,,,,,,,,,,,,,,,,,,,,MET10512/31/06 16:56:50 METAR KCHS 312156Z 15007KT 10SM FEW014 SCT050 21/18 A3018 RMK AO2 SLP219 T02060178 (WD),,,,,,,,,,,,,,,,,,,,,,,,,,,,
72208013880,2007-01-07T15:56:00,FM-15,7,,SE,0.25,mi,"TEMP, PRECIP, SNOW",,,"MMTS, SRG, SNOWBOARD",,,WFO CHS,,,,,,,,,,,,,,,,,,,,,,,,,,,30.06,66,73,0,,0.08,6,79,30.06,SCT:04 14,30.01,10,69,160,,8,,,,,,,,,,,,,,,,,,,,,,,,,,,,,,,,,,,,,MET10501/07/07 15:57:08 METAR KCHS 072056Z 16007KT 10SM SCT014 23/19 A3006 RMK AO2 SLP179 T02280189 56026 (JRS),,,,,,,,,,,,,,,,,,,,,,,,,,,,
72208013880,2007-01-07T16:00:00,FM-12,4,,SE,0.25,mi,"TEMP, PRECIP, SNOW",,,"MMTS, SRG, SNOWBOARD",,,WFO CHS,,,,,,,,,,,,,,,,,,,,,,,,,,,,66,73,,,0.08,6,79,30.06,,30.01,9.94,69,160,,8,,,,,,,,,,,,,,,,,,,,,,,,,,,,,,,,,,,,,SYN076AAXX  07214 72208 32466 41607 10228 20189 30163 40179 56026 92056 555 90721;,,,,,,,,,,,,,,,,,,,,,,,,,,,,
72208013880,2007-01-07T16:56:00,FM-15,7,,SE,0.25,mi,"TEMP, PRECIP, SNOW",,,"MMTS, SRG, SNOWBOARD",,,WFO CHS,,,,,,,,,,,,,,,,,,,,,,,,,,,30.06,66,71,0,,,,84,30.05,FEW:02 13,30.01,10,68,150,,9,,,,,,,,,,,,,,,,,,,,,,,,,,,,,,,,,,,,,MET09901/07/07 16:56:50 METAR KCHS 072156Z 15008KT 10SM FEW013 22/19 A3006 RMK AO2 SLP177 T02170189 (BBE),,,,,,,,,,,,,,,,,,,,,,,,,,,,
72208013880,2007-01-13T10:56:00,FM-15,7,,SE,0.25,mi,"TEMP, PRECIP, SNOW",,,"MMTS, SRG, SNOWBOARD",,,WFO CHS,,,,,,,,,,,,,,,,,,,,,,,,,,,30.42,58,71,0,,,,63,30.42,FEW:02 50,30.37,10,63,160,,8,,,,,,,,,,,,,,,,,,,,,,,,,,,,,,,,,,,,,MET09901/13/07 10:56:50 METAR KCHS 131556Z 16007KT 10SM FEW050 22/14 A3042 RMK AO2 SLP302 T02170144 (WRB),,,,,,,,,,,,,,,,,,,,,,,,,,,,
72208013880,2007-01-13T16:56:00,FM-15,7,,SE,0.25,mi,"TEMP, PRECIP, SNOW",,,"MMTS, SRG, SNOWBOARD",,,WFO CHS,,,,,,,,,,,,,,,,,,,,,,,,,,,30.33,55,71,0,,,,57,30.33,FEW:02 45,30.28,10,62,170,,9,,,,,,,,,,,,,,,,,,,,,,,,,,,,,,,,,,,,,MET09901/13/07 16:56:50 METAR KCHS 132156Z 17008KT 10SM FEW045 22/13 A3033 RMK AO2 SLP270 T02170128 (JRS),,,,,,,,,,,,,,,,,,,,,,,,,,,,
72208013880,2007-01-13T17:56:00,FM-15,7,,SE,0.25,mi,"TEMP, PRECIP, SNOW",,,"MMTS, SRG, SNOWBOARD",,,WFO CHS,,,,,,,,,,,,,,,,,,,,,,,,,,,30.34,56,64,0,,,,75,30.34,FEW:02 60,30.29,10,59,160,,7,,,,,,,,,,,,,,,,,,,,,,,,,,,,,,,,,,,,,MET09901/13/07 17:56:50 METAR KCHS 132256Z 16006KT 10SM FEW060 18/13 A3034 RMK AO2 SLP274 T01780133 (JRS),,,,,,,,,,,,,,,,,,,,,,,,,,,,
72208013880,2007-02-06T17:56:00,FM-15,7,,SE,0.25,mi,"TEMP, PRECIP, SNOW",,,"MMTS, SRG, SNOWBOARD",,,WFO CHS,,,,,,,,,,,,,,,,,,,,,,,,,,,30.27,24,42,0,,,,49,30.27,,30.22,10,35,170,,9,,,,,,,,,,,,,,,,,,,,,,,,,,,,,,,,,,,,,MET09602/06/07 17:56:50 METAR KCHS 062256Z 17008KT 10SM CLR 06/M04 A3027 RMK AO2 SLP250 T00561044 (WD),,,,,,,,,,,,,,,,,,,,,,,,,,,,
72208013880,2007-02-11T17:56:00,FM-15,7,,SE,0.25,mi,"TEMP, PRECIP, SNOW",,,"MMTS, SRG, SNOWBOARD",,,WFO CHS,,,,,,,,,,,,,,,,,,,,,,,,,,,30.27,33,49,0,,,,55,30.27,,30.22,10,42,150,,8,,,,,,,,,,,,,,,,,,,,,,,,,,,,,,,,,,,,,MET09602/11/07 17:56:50 METAR KCHS 112256Z 15007KT 10SM CLR 09/01 A3027 RMK AO2 SLP250 T00940006 (BPN),,,,,,,,,,,,,,,,,,,,,,,,,,,,
72208013880,2007-02-12T12:56:00,SY-MT,7,,SE,0.25,mi,"TEMP, PRECIP, SNOW",,,"MMTS, SRG, SNOWBOARD",,,WFO CHS,,,,,,,,,,,,,,,,,,,,,,,,,,,30.21,50,70,0,,0.06,8,49,30.21,SCT:04 38,30.16,10,59,150,,10,,,,,,,,,,,,,,,,,,,,,,,,,,,,,,,,,,,,,SYN092AAXX  12184 72208 32666 41509 10211 20100 30214 40230 58022 91756 333 10211 20044 555 91218;MET11702/12/07 12:56:51 METAR KCHS 121756Z 15009KT 10SM SCT038 21/10 A3021 RMK AO2 SLP230 T02110100 10211 20044 58022 (JRS),,,,,,,,,,,,,,,,,,,,,,,,,,,,
72208013880,2007-02-12T13:56:00,FM-15,7,,SE,0.25,mi,"TEMP, PRECIP, SNOW",,,"MMTS, SRG, SNOWBOARD",,,WFO CHS,,,,,,,,,,,,,,,,,,,,,,,,,,,30.18,49,72,0,,,,44,30.17,SCT:04 40,30.13,10,59,150,17,11,,,,,,,,,,,,,,,,,,,,,,,,,,,,,,,,,,,,,MET10202/12/07 13:56:50 METAR KCHS 121856Z 15010G15KT 10SM SCT040 22/09 A3018 RMK AO2 SLP218 T02220094 (JRS),,,,,,,,,,,,,,,,,,,,,,,,,,,,
72208013880,2007-02-12T14:56:00,FM-15,7,,SE,0.25,mi,"TEMP, PRECIP, SNOW",,,"MMTS, SRG, SNOWBOARD",,,WFO CHS,,,,,,,,,,,,,,,,,,,,,,,,,,,30.17,50,69,0,,,,51,30.16,SCT:04 42,30.12,10,58,150,,10,,,,,,,,,,,,,,,,,,,,,,,,,,,,,,,,,,,,,MET09902/12/07 14:56:50 METAR KCHS 121956Z 15009KT 10SM SCT042 21/10 A3017 RMK AO2 SLP214 T02060100 (JRS),,,,,,,,,,,,,,,,,,,,,,,,,,,,
72208013880,2007-02-13T17:37:00,FM-16,7,,SE,0.25,mi,"TEMP, PRECIP, SNOW",,,"MMTS, SRG, SNOWBOARD",,,WFO CHS,,,,,,,,,,,,,,,,,,,,,,,,,,,29.69,63,64,0.47,,,,94,,FEW:02 2 BKN:07 7 OVC:08 13,29.64,10,63,170,20,15,,,,,,,,,,,,,,,,,,,,,,,,,,,,,,,,,,,,,MET12802/13/07 17:37:51 SPECI KCHS 132237Z 17013G17KT 10SM FEW002 BKN007 OVC013 18/17 A2969 RMK AO2 PK WND 13026/2221 RAE36 P0047 (WD),,,,,,,,,,,,,,,,,,,,,,,,,,,,
72208013880,2007-02-13T17:56:00,FM-15,7,,SE,0.25,mi,"TEMP, PRECIP, SNOW",,,"MMTS, SRG, SNOWBOARD",,,WFO CHS,,,,,,,,,,,,,,,,,,,,,,,,,,,29.7,62,64,0.46,,,,93,29.7,OVC:08 5,29.65,8,63,170,,11,,,,,,,,,,,,,,,,,,,,,,,,,,,,,,,,,,,,,MET13902/13/07 17:56:51 METAR KCHS 132256Z 17010KT 8SM OVC005 18/17 A2970 RMK AO2 PK WND 13026/2221 RAE36 CIG 004V009 SLP057 P0047 T01780167 (WD),,,,,,,,,,,,,,,,,,,,,,,,,,,,
72208013880,2007-02-19T15:56:00,FM-15,7,,SE,0.25,mi,"TEMP, PRECIP, SNOW",,,"MMTS, SRG, SNOWBOARD",,,WFO CHS,,,,,,,,,,,,,,,,,,,,,,,,,,,30.28,29,53,0,,0.05,6,40,30.27,FEW:02 15,30.23,10,43,170,,11,,,,,,,,,,,,,,,,,,,,,,,,,,,,,,,,,,,,,MET11602/19/07 15:56:51 METAR KCHS 192056Z 17010KT 10SM FEW015 12/M02 A3028 RMK AO2 SLP252 FU FEW015 T01171017 56018 (WRB),,,,,,,,,,,,,,,,,,,,,,,,,,,,
72208013880,2007-02-19T16:00:00,FM-12,4,,SE,0.25,mi,"TEMP, PRECIP, SNOW",,,"MMTS, SRG, SNOWBOARD",,,WFO CHS,,,,,,,,,,,,,,,,,,,,,,,,,,,,28,54,,,0.05,6,38,30.27,,30.23,9.94,43,170,,11,,,,,,,,,,,,,,,,,,,,,,,,,,,,,,,,,,,,,SYN076AAXX  19214 72208 32466 21710 10120 21020 30238 40252 56018 92056 555 91921;,,,,,,,,,,,,,,,,,,,,,,,,,,,,
72208013880,2007-02-19T17:56:00,FM-15,7,,SE,0.25,mi,"TEMP, PRECIP, SNOW",,,"MMTS, SRG, SNOWBOARD",,,WFO CHS,,,,,,,,,,,,,,,,,,,,,,,,,,,30.27,29,47,0,,,,50,30.27,,30.22,10,40,150,,10,,,,,,,,,,,,,,,,,,,,,,,,,,,,,,,,,,,,,MET09602/19/07 17:56:50 METAR KCHS 192256Z 15009KT 10SM CLR 08/M02 A3027 RMK AO2 SLP250 T00831017 (WD),,,,,,,,,,,,,,,,,,,,,,,,,,,,
72208013880,2007-02-27T16:56:00,FM-15,7,,SE,0.25,mi,"TEMP, PRECIP, SNOW",,,"MMTS, SRG, SNOWBOARD",,,WFO CHS,,,,,,,,,,,,,,,,,,,,,,,,,,,29.92,32,67,0,,,,27,29.91,,29.87,10,50,150,,9,,,,,,,,,,,,,,,,,,,,,,,,,,,,,,,,,,,,,MET09502/27/07 16:56:50 METAR KCHS 272156Z 15008KT 10SM CLR 19/00 A2992 RMK AO2 SLP130 T01940000 (WD),,,,,,,,,,,,,,,,,,,,,,,,,,,,
72208013880,2007-03-01T10:56:00,FM-15,7,,SE,0.25,mi,"TEMP, PRECIP, SNOW",,,"MMTS, SRG, SNOWBOARD",,,WFO CHS,,,,,,,,,,,,,,,,,,,,,,,,,,,29.98,56,72,0,,,,57,29.98,FEW:02 38 SCT:04 90,29.93,10,63,160,,17,,,,,,,,,,,,,,,,,,,,,,,,,,,,,,,,,,,,,MET10603/01/07 10:56:50 METAR KCHS 011556Z 16015KT 10SM FEW038 SCT090 22/13 A2998 RMK AO2 SLP153 T02220133 (WRB),,,,,,,,,,,,,,,,,,,,,,,,,,,,
72208013880,2007-03-01T12:56:00,FM-15,7,,SE,0.25,mi,"TEMP, PRECIP, SNOW",,,"MMTS, SRG, SNOWBOARD",,,WFO CHS,,,,,,,,,,,,,,,,,,,,,,,,,,,29.92,57,70,0,,0.07,8,64,29.91,FEW:02 41 SCT:04 90 OVC:08 110,29.87,10,62,150,29,17,,,,,,,,,,,,,,,,,,,,,,,,,,,,,,,,,,,,,MET13403/01/07 12:56:51 METAR KCHS 011756Z 15015G25KT 10SM FEW041 SCT090 OVC110 21/14 A2992 RMK AO2 SLP129 T02110139 10222 20122 58023 (WRB),,,,,,,,,,,,,,,,,,,,,,,,,,,,
72208013880,2007-03-01T13:00:00,FM-12,4,,SE,0.25,mi,"TEMP, PRECIP, SNOW",,,"MMTS, SRG, SNOWBOARD",,,WFO CHS,,,,,,,,,,,,,,,,,,,,,,,,,,,,57,70,,,0.07,8,64,29.91,,29.87,9.94,62,150,29,17,,,,,,,,,,,,,,,,,,,,,,,,,,,,,,,,,,,,,SYN098AAXX  01184 72208 32666 81515 10211 20139 30116 40129 58023 91756 333 10222 20122 91025 555 90118;,,,,,,,,,,,,,,,,,,,,,,,,,,,,
72208013880,2007-03-01T15:08:00,FM-16,7,,SE,0.25,mi,"TEMP, PRECIP, SNOW",,,"MMTS, SRG, SNOWBOARD",,,WFO CHS,,,,,,,,,,,,,,,,,,,,,,,,,,,29.89,61,64,0.02,RA:02 |RA |RA,,,88,,BKN:07 16 BKN:07 34 OVC:08 70,29.84,5,62,170,,15,,,,,,,,,,,,,,,,,,,,,,,,,,,,,,,,,,,,,MET10403/01/07 15:08:50 SPECI KCHS 012008Z 17013KT 5SM RA BKN016 BKN034 OVC070 18/16 A2989 RMK AO2 P0002 (WRB),,,,,,,,,,,,,,,,,,,,,,,,,,,,
72208013880,2007-03-01T15:46:00,FM-16,7,,SE,0.25,mi,"TEMP, PRECIP, SNOW",,,"MMTS, SRG, SNOWBOARD",,,WFO CHS,,,,,,,,,,,,,,,,,,,,,,,,,,,29.83,61,64,0.04,-RA:02 |RA |RA,,,88,,FEW:02 16 SCT:04 30 OVC:08 60,29.78,8,62,150,,14,,,,,,,,,,,,,,,,,,,,,,,,,,,,,,,,,,,,,MET11203/01/07 15:46:51 SPECI KCHS 012046Z 15012KT 8SM -RA FEW016 SCT030 OVC060 18/16 A2983 RMK AO2 PRESFR P0004 (WRB),,,,,,,,,,,,,,,,,,,,,,,,,,,,
72208013880,2007-03-01T15:56:00,FM-15,7,,SE,0.25,mi,"TEMP, PRECIP, SNOW",,,"MMTS, SRG, SNOWBOARD",,,WFO CHS,,,,,,,,,,,,,,,,,,,,,,,,,,,29.82,60,63,0.04,-RA:02 |RA |RA,0.1,8,90,29.82,FEW:02 14 SCT:04 30 OVC:08 60,29.77,7,61,150,25,16,,,,,,,,,,,,,,,,,,,,,,,,,,,,,,,,,,,,,MET14403/01/07 15:57:07 METAR KCHS 012056Z 15014G22KT 7SM -RA FEW014 SCT030 OVC060 17/16 A2982 RMK AO2 PRESFR SLP097 P0004 60005 T01720156 58033 (WRB),,,,,,,,,,,,,,,,,,,,,,,,,,,,
72208013880,2007-03-01T16:00:00,FM-12,4,,SE,0.25,mi,"TEMP, PRECIP, SNOW",,,"MMTS, SRG, SNOWBOARD",,,WFO CHS,,,,,,,,,,,,,,,,,,,,,,,,,,,,60,63,,||RA,0.1,8,90,29.82,,29.77,6.84,61,150,25,16,,,,,,,,,,,,,,,,,,,,,,,,,,,,,,,,,,,,,SYN098AAXX  01214 72208 11461 81514 10172 20156 30082 40097 58033 60017 761// 92056 333 91022 555 90121;,,,,,,,,,,,,,,,,,,,,,,,,,,,,
72208013880,2007-03-01T16:56:00,FM-15,7,,SE,0.25,mi,"TEMP, PRECIP, SNOW",,,"MMTS, SRG, SNOWBOARD",,,WFO CHS,,,,,,,,,,,,,,,,,,,,,,,,,,,29.82,61,64,0.01,-RA:02 BR:1 |RA |RA,,,90,29.82,SCT:04 19 BKN:07 25 OVC:08 39,29.77,6,62,170,,17,,,,,,,,,,,,,,,,,,,,,,,,,,,,,,,,,,,,,MET12403/01/07 16:56:51 METAR KCHS 012156Z 17015KT 6SM -RA BR SCT019 BKN025 OVC039 18/16 A2982 RMK AO2 SLP098 P0001 T01780161 (WD),,,,,,,,,,,,,,,,,,,,,,,,,,,,
72208013880,2007-03-12T12:56:00,FM-15,7,,SE,0.25,mi,"TEMP, PRECIP, SNOW",,,"MMTS, SRG, SNOWBOARD",,,WFO CHS,,,,,,,,,,,,,,,,,,,,,,,,,,,30.26,55,73,0,,0.06,8,53,30.25,FEW:02 41 SCT:04 80,30.21,10,62,160,,11,,,,,,,,,,,,,,,,,,,,,,,,,,,,,,,,,,,,,MET12403/12/07 12:56:51 METAR KCHS 121756Z 16010KT 10SM FEW041 SCT080 23/13 A3026 RMK AO2 SLP245 T02280128 10228 20128 58019 (WRB),,,,,,,,,,,,,,,,,,,,,,,,,,,,
72208013880,2007-03-12T13:00:00,FM-12,4,,SE,0.25,mi,"TEMP, PRECIP, SNOW",,,"MMTS, SRG, SNOWBOARD",,,WFO CHS,,,,,,,,,,,,,,,,,,,,,,,,,,,,55,73,,,0.06,8,53,30.25,,30.21,9.94,62,160,,11,,,,,,,,,,,,,,,,,,,,,,,,,,,,,,,,,,,,,SYN092AAXX  12184 72208 32666 41610 10228 20128 30231 40245 58019 91756 333 10228 20128 555 91218;,,,,,,,,,,,,,,,,,,,,,,,,,,,,
72208013880,2007-03-12T14:56:00,FM-15,7,,SE,0.25,mi,"TEMP, PRECIP, SNOW",,,"MMTS, SRG, SNOWBOARD",,,WFO CHS,,,,,,,,,,,,,,,,,,,,,,,,,,,30.22,56,71,0,,,,59,30.22,FEW:02 43 SCT:04 75 BKN:07 110,30.17,10,62,170,,10,,,,,,,,,,,,,,,,,,,,,,,,,,,,,,,,,,,,,MET11303/12/07 14:56:50 METAR KCHS 121956Z 17009KT 10SM FEW043 SCT075 BKN110 22/13 A3022 RMK AO2 SLP232 T02170133 (WRB),,,,,,,,,,,,,,,,,,,,,,,,,,,,
72208013880,2007-03-13T17:56:00,FM-15,7,,SE,0.25,mi,"TEMP, PRECIP, SNOW",,,"MMTS, SRG, SNOWBOARD",,,WFO CHS,,,,,,,,,,,,,,,,,,,,,,,,,,,30.2,54,68,0,,,,61,30.19,,30.15,9,60,150,,10,,,,,,,,,,,,,,,,,,,,,,,,,,,,,,,,,,,,,MET09403/13/07 17:56:50 METAR KCHS 132256Z 15009KT 9SM CLR 20/12 A3020 RMK AO2 SLP225 T02000122 (WD),,,,,,,,,,,,,,,,,,,,,,,,,,,,
72208013880,2007-03-15T16:56:00,FM-15,7,,SE,0.25,mi,"TEMP, PRECIP, SNOW",,,"MMTS, SRG, SNOWBOARD",,,WFO CHS,,,,,,,,,,,,,,,,,,,,,,,,,,,29.98,58,75,0,,,,55,29.97,FEW:02 85,29.93,10,65,170,,15,,,,,,,,,,,,,,,,,,,,,,,,,,,,,,,,,,,,,MET09803/15/07 16:56:50 METAR KCHS 152156Z 17013KT 10SM FEW085 24/14 A2998 RMK AO2 SLP150 T02390144 (WD),,,,,,,,,,,,,,,,,,,,,,,,,,,,
72208013880,2007-03-15T17:56:00,FM-15,7,,SE,0.25,mi,"TEMP, PRECIP, SNOW",,,"MMTS, SRG, SNOWBOARD",,,WFO CHS,,,,,,,,,,,,,,,,,,,,,,,,,,,29.98,61,71,0,,,,71,29.97,FEW:02 80,29.93,10,65,160,,13,,,,,,,,,,,,,,,,,,,,,,,,,,,,,,,,,,,,,MET09803/15/07 17:56:50 METAR KCHS 152256Z 16011KT 10SM FEW080 22/16 A2998 RMK AO2 SLP150 T02170161 (WD),,,,,,,,,,,,,,,,,,,,,,,,,,,,
72208013880,2007-03-18T16:56:00,FM-15,7,,SE,0.25,mi,"TEMP, PRECIP, SNOW",,,"MMTS, SRG, SNOWBOARD",,,WFO CHS,,,,,,,,,,,,,,,,,,,,,,,,,,,30.23,27,55,0,,,,34,30.23,,30.18,10,43,160,,10,,,,,,,,,,,,,,,,,,,,,,,,,,,,,,,,,,,,,MET09703/18/07 16:56:50 METAR KCHS 182156Z 16009KT 10SM CLR 13/M03 A3023 RMK AO2 SLP236 T01281028 (BBE),,,,,,,,,,,,,,,,,,,,,,,,,,,,
72208013880,2007-03-18T17:56:00,FM-15,7,,SE,0.25,mi,"TEMP, PRECIP, SNOW",,,"MMTS, SRG, SNOWBOARD",,,WFO CHS,,,,,,,,,,,,,,,,,,,,,,,,,,,30.26,28,52,0,,,,40,30.25,,30.21,10,42,170,,9,,,,,,,,,,,,,,,,,,,,,,,,,,,,,,,,,,,,,MET09703/18/07 17:56:50 METAR KCHS 182256Z 17008KT 10SM CLR 11/M02 A3026 RMK AO2 SLP245 T01111022 (BBE),,,,,,,,,,,,,,,,,,,,,,,,,,,,
72208013880,2007-03-19T12:56:00,FM-15,7,,SE,0.25,mi,"TEMP, PRECIP, SNOW",,,"MMTS, SRG, SNOWBOARD",,,WFO CHS,,,,,,,,,,,,,,,,,,,,,,,,,,,30.44,35,65,0,,0.02,8,33,30.44,FEW:02 60,30.39,10,51,170,21,13,,,,,,,,,,,,,,,,,,,,,,,,,,,,,,,,,,,,,MET12003/19/07 12:56:51 METAR KCHS 191756Z 17011G18KT 10SM FEW060 18/02 A3044 RMK AO2 SLP307 T01830017 10189 20033 58006 (WRB),,,,,,,,,,,,,,,,,,,,,,,,,,,,
72208013880,2007-03-19T13:00:00,FM-12,4,,SE,0.25,mi,"TEMP, PRECIP, SNOW",,,"MMTS, SRG, SNOWBOARD",,,WFO CHS,,,,,,,,,,,,,,,,,,,,,,,,,,,,35,65,,,0.02,8,33,30.44,,30.39,9.94,51,170,21,13,,,,,,,,,,,,,,,,,,,,,,,,,,,,,,,,,,,,,SYN098AAXX  19184 72208 32766 21711 10183 20017 30292 40307 58006 91756 333 10189 20033 91018 555 91918;,,,,,,,,,,,,,,,,,,,,,,,,,,,,
72208013880,2007-03-19T14:56:00,FM-15,7,,SE,0.25,mi,"TEMP, PRECIP, SNOW",,,"MMTS, SRG, SNOWBOARD",,,WFO CHS,,,,,,,,,,,,,,,,,,,,,,,,,,,30.4,36,66,0,,,,33,30.4,FEW:02 65,30.35,10,51,160,25,13,,,,,,,,,,,,,,,,,,,,,,,,,,,,,,,,,,,,,MET10203/19/07 14:56:50 METAR KCHS 191956Z 16011G22KT 10SM FEW065 19/02 A3040 RMK AO2 SLP293 T01890022 (WRB),,,,,,,,,,,,,,,,,,,,,,,,,,,,
72208013880,2007-03-19T15:56:00,FM-15,7,,SE,0.25,mi,"TEMP, PRECIP, SNOW",,,"MMTS, SRG, SNOWBOARD",,,WFO CHS,,,,,,,,,,,,,,,,,,,,,,,,,,,30.39,36,64,0,,0.05,6,35,30.39,,30.34,10,51,160,,13,,,,,,,,,,,,,,,,,,,,,,,,,,,,,,,,,,,,,MET10203/19/07 15:56:50 METAR KCHS 192056Z 16011KT 10SM CLR 18/02 A3039 RMK AO2 SLP291 T01780022 56017 (WRB),,,,,,,,,,,,,,,,,,,,,,,,,,,,
72208013880,2007-03-19T16:00:00,FM-12,4,,SE,0.25,mi,"TEMP, PRECIP, SNOW",,,"MMTS, SRG, SNOWBOARD",,,WFO CHS,,,,,,,,,,,,,,,,,,,,,,,,,,,,36,64,,,0.05,6,35,30.39,CLR:00,30.34,9.94,51,160,,13,,,,,,,,,,,,,,,,,,,,,,,,,,,,,,,,,,,,,SYN076AAXX  19214 72208 32966 01611 10178 20022 30275 40291 56017 92056 555 91921;,,,,,,,,,,,,,,,,,,,,,,,,,,,,
72208013880,2007-03-19T16:56:00,FM-15,7,,SE,0.25,mi,"TEMP, PRECIP, SNOW",,,"MMTS, SRG, SNOWBOARD",,,WFO CHS,,,,,,,,,,,,,,,,,,,,,,,,,,,30.4,37,63,0,,,,38,30.39,,30.35,10,50,170,,14,,,,,,,,,,,,,,,,,,,,,,,,,,,,,,,,,,,,,MET09003/19/07 16:56:50 METAR KCHS 192156Z 17012KT 10SM CLR 17/03 A3040 RMK AO2 SLP292 T01720028,,,,,,,,,,,,,,,,,,,,,,,,,,,,
72208013880,2007-03-19T17:56:00,FM-15,7,,SE,0.25,mi,"TEMP, PRECIP, SNOW",,,"MMTS, SRG, SNOWBOARD",,,WFO CHS,,,,,,,,,,,,,,,,,,,,,,,,,,,30.41,38,60,0,,,,44,30.41,,30.36,10,49,170,,11,,,,,,,,,,,,,,,,,,,,,,,,,,,,,,,,,,,,,MET09003/19/07 17:56:50 METAR KCHS 192256Z 17010KT 10SM CLR 16/03 A3041 RMK AO2 SLP297 T01560033,,,,,,,,,,,,,,,,,,,,,,,,,,,,
72208013880,2007-03-20T15:56:00,SY-MT,7,,SE,0.25,mi,"TEMP, PRECIP, SNOW",,,"MMTS, SRG, SNOWBOARD",,,WFO CHS,,,,,,,,,,,,,,,,,,,,,,,,,,,30.34,44,75,0,,0.05,6,33,30.34,,30.29,10,58,170,,13,,,,,,,,,,,,,,,,,,,,,,,,,,,,,,,,,,,,,SYN076AAXX  20214 72208 32966 01711 10239 20067 30258 40275 56016 92056 555 92021;MET10103/20/07 15:56:50 METAR KCHS 202056Z 17011KT 10SM CLR 24/07 A3034 RMK AO2 SLP275 T02390067 56016 (WD),,,,,,,,,,,,,,,,,,,,,,,,,,,,
72208013880,2007-03-22T15:56:00,FM-15,7,,SE,0.25,mi,"TEMP, PRECIP, SNOW",,,"MMTS, SRG, SNOWBOARD",,,WFO CHS,,,,,,,,,,,,,,,,,,,,,,,,,,,30.3,51,73,0,,0.06,6,46,30.29,FEW:02 48,30.25,10,60,150,,10,,,,,,,,,,,,,,,,,,,,,,,,,,,,,,,,,,,,,MET09903/22/07 15:56:00 METAR KCHS 222056Z 15009KT 10SM FEW048 23/11 A3030 RMK AO2 SLP259 T02280106 56019,,,,,,,,,,,,,,,,,,,,,,,,,,,,
72208013880,2007-03-22T16:00:00,FM-12,4,,SE,0.25,mi,"TEMP, PRECIP, SNOW",,,"MMTS, SRG, SNOWBOARD",,,WFO CHS,,,,,,,,,,,,,,,,,,,,,,,,,,,,51,73,,,0.06,6,46,30.29,,30.25,9.94,60,150,,10,,,,,,,,,,,,,,,,,,,,,,,,,,,,,,,,,,,,,SYN076AAXX  22214 72208 32666 21509 10228 20106 30244 40259 56019 92056 555 92221;,,,,,,,,,,,,,,,,,,,,,,,,,,,,
72208013880,2007-03-23T13:56:00,FM-15,7,,SE,0.25,mi,"TEMP, PRECIP, SNOW",,,"MMTS, SRG, SNOWBOARD",,,WFO CHS,,,,,,,,,,,,,,,,,,,,,,,,,,,30.25,59,79,0,,,,50,30.24,SCT:04 55,30.2,10,67,150,20,14,,,,,,,,,,,,,,,,,,,,,,,,,,,,,,,,,,,,,MET09603/23/07 13:56:00 METAR KCHS 231856Z 15012G17KT 10SM SCT055 26/15 A3025 RMK AO2 SLP242 T02610150,,,,,,,,,,,,,,,,,,,,,,,,,,,,
72208013880,2007-03-23T14:56:00,FM-15,7,,SE,0.25,mi,"TEMP, PRECIP, SNOW",,,"MMTS, SRG, SNOWBOARD",,,WFO CHS,,,,,,,,,,,,,,,,,,,,,,,,,,,30.23,59,80,0,,,,49,30.23,FEW:02 50,30.18,10,67,170,,15,,,,,,,,,,,,,,,,,,,,,,,,,,,,,,,,,,,,,MET09303/23/07 14:56:00 METAR KCHS 231956Z 17013KT 10SM FEW050 27/15 A3023 RMK AO2 SLP237 T02670150,,,,,,,,,,,,,,,,,,,,,,,,,,,,
72208013880,2007-03-23T16:56:00,FM-15,7,,SE,0.25,mi,"TEMP, PRECIP, SNOW",,,"MMTS, SRG, SNOWBOARD",,,WFO CHS,,,,,,,,,,,,,,,,,,,,,,,,,,,30.22,56,77,0,,,,48,30.22,FEW:02 60,30.17,10,64,160,,11,,,,,,,,,,,,,,,,,,,,,,,,,,,,,,,,,,,,,MET09303/23/07 16:56:00 METAR KCHS 232156Z 16010KT 10SM FEW060 25/13 A3022 RMK AO2 SLP232 T02500133,,,,,,,,,,,,,,,,,,,,,,,,,,,,
72208013880,2007-03-23T17:56:00,FM-15,7,,SE,0.25,mi,"TEMP, PRECIP, SNOW",,,"MMTS, SRG, SNOWBOARD",,,WFO CHS,,,,,,,,,,,,,,,,,,,,,,,,,,,30.23,56,73,0,,,,55,30.22,,30.18,10,63,170,,10,,,,,,,,,,,,,,,,,,,,,,,,,,,,,,,,,,,,,MET09003/23/07 17:56:00 METAR KCHS 232256Z 17009KT 10SM CLR 23/13 A3023 RMK AO2 SLP235 T02280133,,,,,,,,,,,,,,,,,,,,,,,,,,,,
72208013880,2007-03-27T15:56:00,FM-15,7,,SE,0.25,mi,"TEMP, PRECIP, SNOW",,,"MMTS, SRG, SNOWBOARD",,,WFO CHS,,,,,,,,,,,,,,,,,,,,,,,,,,,30.16,58,77,0,,0.05,6,52,30.16,,30.11,10,65,170,,10,,,,,,,,,,,,,,,,,,,,,,,,,,,,,,,,,,,,,MET10103/27/07 15:56:50 METAR KCHS 272056Z 17009KT 10SM CLR 25/14 A3016 RMK AO2 SLP213 T02500144 56017 (WD),,,,,,,,,,,,,,,,,,,,,,,,,,,,
72208013880,2007-03-27T16:00:00,FM-12,4,,SE,0.25,mi,"TEMP, PRECIP, SNOW",,,"MMTS, SRG, SNOWBOARD",,,WFO CHS,,,,,,,,,,,,,,,,,,,,,,,,,,,,58,77,,,0.05,6,52,30.16,CLR:00,30.11,9.94,65,170,,10,,,,,,,,,,,,,,,,,,,,,,,,,,,,,,,,,,,,,SYN076AAXX  27214 72208 32966 01709 10250 20144 30197 40213 56017 92056 555 92721;,,,,,,,,,,,,,,,,,,,,,,,,,,,,
72208013880,2007-03-28T13:56:00,FM-15,7,,SE,0.25,mi,"TEMP, PRECIP, SNOW",,,"MMTS, SRG, SNOWBOARD",,,WFO CHS,,,,,,,,,,,,,,,,,,,,,,,,,,,30.12,48,83,0,,,,30,30.12,FEW:02 85,30.07,10,63,160,,8,,,,,,,,,,,,,,,,,,,,,,,,,,,,,,,,,,,,,MET10903/28/07 13:56:51 METAR KCHS 281856Z 16007KT 10SM FEW085 28/09 A3012 RMK AO2 SLP200 FU DSNT W T02830089 (WRB),,,,,,,,,,,,,,,,,,,,,,,,,,,,
72208013880,2007-03-28T16:56:00,FM-15,7,,SE,0.25,mi,"TEMP, PRECIP, SNOW",,,"MMTS, SRG, SNOWBOARD",,,WFO CHS,,,,,,,,,,,,,,,,,,,,,,,,,,,30.1,59,79,0,,,,50,30.1,,30.05,10,67,160,,13,,,,,,,,,,,,,,,,,,,,,,,,,,,,,,,,,,,,,MET10503/28/07 16:56:50 METAR KCHS 282156Z 16011KT 10SM CLR 26/15 A3010 RMK AO2 SLP192 FU DSNT W T02610150 (WD),,,,,,,,,,,,,,,,,,,,,,,,,,,,
72208013880,2007-04-03T16:56:00,FM-15,7,,SE,0.25,mi,"TEMP, PRECIP, SNOW",,,"MMTS, SRG, SNOWBOARD",,,WFO CHS,,,,,,,,,,,,,,,,,,,,,,,,,,,30.01,65,73,0.02,TS:7 -RA:02 |RA TS |SHRA TS,,,76,30.01,FEW:02 27 SCT:04 49,29.96,5,68,150,,9,,,,,,,,,,,,,,,,,,,,,,,,,,,,,,,,,,,,,MET16604/03/07 16:56:51 METAR KCHS 032156Z 15008KT 5SM -TSRA FEW027CB SCT049 23/18 A3001 RMK AO2 TSB01RAB06E22B38 SLP163 OCNL LTGIC NE TS NE MOV E DSNT P0002 T02280183 (WD),,,,,,,,,,,,,,,,,,,,,,,,,,,,
72208013880,2007-04-03T17:56:00,FM-15,7,,SE,0.25,mi,"TEMP, PRECIP, SNOW",,,"MMTS, SRG, SNOWBOARD",,,WFO CHS,,,,,,,,,,,,,,,,,,,,,,,,,,,30.01,66,72,T,,,,82,30.01,FEW:02 100,29.96,10,68,160,,8,,,,,,,,,,,,,,,,,,,,,,,,,,,,,,,,,,,,,MET12504/03/07 17:57:07 METAR KCHS 032256Z 16007KT 10SM FEW100 22/19 A3001 RMK AO2 TSE06RAE12 SLP161 TS MOV NE P0000 T02220189 (WD),,,,,,,,,,,,,,,,,,,,,,,,,,,,
72208013880,2007-04-06T17:56:00,FM-15,7,,SE,0.25,mi,"TEMP, PRECIP, SNOW",,,"MMTS, SRG, SNOWBOARD",,,WFO CHS,,,,,,,,,,,,,,,,,,,,,,,,,,,29.75,38,58,0,,,,48,29.75,FEW:02 70,29.7,10,48,170,,11,,,,,,,,,,,,,,,,,,,,,,,,,,,,,,,,,,,,,MET09804/06/07 17:56:50 METAR KCHS 062256Z 17010KT 10SM FEW070 14/03 A2975 RMK AO2 SLP074 T01440033 (WD),,,,,,,,,,,,,,,,,,,,,,,,,,,,
72208013880,2007-04-13T16:56:00,FM-15,7,,SE,0.25,mi,"TEMP, PRECIP, SNOW",,,"MMTS, SRG, SNOWBOARD",,,WFO CHS,,,,,,,,,,,,,,,,,,,,,,,,,,,30.04,44,71,0,,,,38,30.04,,29.99,10,57,160,,13,,,,,,,,,,,,,,,,,,,,,,,,,,,,,,,,,,,,,MET09504/13/07 16:56:50 METAR KCHS 132156Z 16011KT 10SM CLR 22/07 A3004 RMK AO2 SLP172 T02170067 (WD),,,,,,,,,,,,,,,,,,,,,,,,,,,,
72208013880,2007-04-13T17:56:00,FM-15,7,,SE,0.25,mi,"TEMP, PRECIP, SNOW",,,"MMTS, SRG, SNOWBOARD",,,WFO CHS,,,,,,,,,,,,,,,,,,,,,,,,,,,30.05,45,68,0,,,,44,30.05,,30,10,56,150,,11,,,,,,,,,,,,,,,,,,,,,,,,,,,,,,,,,,,,,MET09504/13/07 17:56:50 METAR KCHS 132256Z 15010KT 10SM CLR 20/07 A3005 RMK AO2 SLP176 T02000072 (WD),,,,,,,,,,,,,,,,,,,,,,,,,,,,
72208013880,2007-04-14T15:56:00,FM-15,7,,SE,0.25,mi,"TEMP, PRECIP, SNOW",,,"MMTS, SRG, SNOWBOARD",,,WFO CHS,,,,,,,,,,,,,,,,,,,,,,,,,,,29.9,59,76,0,,0.08,6,56,29.9,SCT:04 38,29.85,9,66,150,,15,,,,,,,,,,,,,,,,,,,,,,,,,,,,,,,,,,,,,MET10404/14/07 15:56:50 METAR KCHS 142056Z 15013KT 9SM SCT038 24/15 A2990 RMK AO2 SLP125 T02440150 56028 (BBE),,,,,,,,,,,,,,,,,,,,,,,,,,,,
72208013880,2007-04-14T16:00:00,FM-12,4,,SE,0.25,mi,"TEMP, PRECIP, SNOW",,,"MMTS, SRG, SNOWBOARD",,,WFO CHS,,,,,,,,,,,,,,,,,,,,,,,,,,,,59,76,,,0.08,6,56,29.9,,29.85,8.7,66,150,,15,,,,,,,,,,,,,,,,,,,,,,,,,,,,,,,,,,,,,SYN076AAXX  14214 72208 32664 41513 10244 20150 30109 40125 56028 92056 555 91421;,,,,,,,,,,,,,,,,,,,,,,,,,,,,
72208013880,2007-04-14T17:56:00,FM-15,7,,SE,0.25,mi,"TEMP, PRECIP, SNOW",,,"MMTS, SRG, SNOWBOARD",,,WFO CHS,,,,,,,,,,,,,,,,,,,,,,,,,,,29.87,63,73,0,,,,71,29.86,SCT:04 28 BKN:07 44,29.82,10,67,150,24,17,,,,,,,,,,,,,,,,,,,,,,,,,,,,,,,,,,,,,MET10904/14/07 17:56:50 METAR KCHS 142256Z 15015G21KT 10SM SCT028 BKN044 23/17 A2987 RMK AO2 SLP113 T02280172 (BBE),,,,,,,,,,,,,,,,,,,,,,,,,,,,
72208013880,2007-04-19T14:56:00,FM-15,7,,SE,0.25,mi,"TEMP, PRECIP, SNOW",,,"MMTS, SRG, SNOWBOARD",,,WFO CHS,,,,,,,,,,,,,,,,,,,,,,,,,,,29.83,50,68,0,,,,53,29.83,FEW:02 44,29.78,10,58,160,,11,,,,,,,,,,,,,,,,,,,,,,,,,,,,,,,,,,,,,MET09904/19/07 14:56:50 METAR KCHS 191956Z 16010KT 10SM FEW044 20/10 A2983 RMK AO2 SLP101 T02000100 (WRB),,,,,,,,,,,,,,,,,,,,,,,,,,,,
72208013880,2007-04-22T12:56:00,FM-15,7,,SE,0.25,mi,"TEMP, PRECIP, SNOW",,,"MMTS, SRG, SNOWBOARD",,,WFO CHS,,,,,,,,,,,,,,,,,,,,,,,,,,,30.28,42,74,0,,0.02,8,32,30.28,FEW:02 50,30.23,10,57,170,,9,,,,,,,,,,,,,,,,,,,,,,,,,,,,,,,,,,,,,MET11704/22/07 12:56:51 METAR KCHS 221756Z 17008KT 10SM FEW050 23/06 A3028 RMK AO2 SLP254 T02330056 10256 20117 58007 (JRS),,,,,,,,,,,,,,,,,,,,,,,,,,,,
72208013880,2007-04-22T13:00:00,FM-12,4,,SE,0.25,mi,"TEMP, PRECIP, SNOW",,,"MMTS, SRG, SNOWBOARD",,,WFO CHS,,,,,,,,,,,,,,,,,,,,,,,,,,,,42,74,,,0.02,8,32,30.28,,30.23,9.94,57,170,,9,,,,,,,,,,,,,,,,,,,,,,,,,,,,,,,,,,,,,SYN092AAXX  22184 72208 32766 21708 10233 20056 30238 40254 58007 91756 333 10256 20117 555 92218;,,,,,,,,,,,,,,,,,,,,,,,,,,,,
72208013880,2007-04-22T15:56:00,FM-15,7,,SE,0.25,mi,"TEMP, PRECIP, SNOW",,,"MMTS, SRG, SNOWBOARD",,,WFO CHS,,,,,,,,,,,,,,,,,,,,,,,,,,,30.25,45,75,0,,0.03,6,34,30.25,,30.2,10,59,150,,13,,,,,,,,,,,,,,,,,,,,,,,,,,,,,,,,,,,,,MET10204/22/07 15:56:50 METAR KCHS 222056Z 15011KT 10SM CLR 24/07 A3025 RMK AO2 SLP243 T02390072 56011 (BBE),,,,,,,,,,,,,,,,,,,,,,,,,,,,
72208013880,2007-04-22T16:00:00,FM-12,4,,SE,0.25,mi,"TEMP, PRECIP, SNOW",,,"MMTS, SRG, SNOWBOARD",,,WFO CHS,,,,,,,,,,,,,,,,,,,,,,,,,,,,45,75,,,0.03,6,34,30.25,CLR:00,30.2,9.94,59,150,,13,,,,,,,,,,,,,,,,,,,,,,,,,,,,,,,,,,,,,SYN076AAXX  22214 72208 32966 01511 10239 20072 30228 40243 56011 92056 555 92221;,,,,,,,,,,,,,,,,,,,,,,,,,,,,
72208013880,2007-04-22T16:56:00,FM-15,7,,SE,0.25,mi,"TEMP, PRECIP, SNOW",,,"MMTS, SRG, SNOWBOARD",,,WFO CHS,,,,,,,,,,,,,,,,,,,,,,,,,,,30.26,43,75,0,,,,32,30.26,,30.21,10,58,170,,11,,,,,,,,,,,,,,,,,,,,,,,,,,,,,,,,,,,,,MET09604/22/07 16:56:50 METAR KCHS 222156Z 17010KT 10SM CLR 24/06 A3026 RMK AO2 SLP246 T02390061 (BBE),,,,,,,,,,,,,,,,,,,,,,,,,,,,
72208013880,2007-04-22T17:56:00,FM-15,7,,SE,0.25,mi,"TEMP, PRECIP, SNOW",,,"MMTS, SRG, SNOWBOARD",,,WFO CHS,,,,,,,,,,,,,,,,,,,,,,,,,,,30.26,39,72,0,,,,30,30.26,,30.21,10,55,160,,11,,,,,,,,,,,,,,,,,,,,,,,,,,,,,,,,,,,,,MET09604/22/07 17:56:50 METAR KCHS 222256Z 16010KT 10SM CLR 22/04 A3026 RMK AO2 SLP246 T02220039 (BBE),,,,,,,,,,,,,,,,,,,,,,,,,,,,
72208013880,2007-04-23T14:56:00,FM-15,7,,SE,0.25,mi,"TEMP, PRECIP, SNOW",,,"MMTS, SRG, SNOWBOARD",,,WFO CHS,,,,,,,,,,,,,,,,,,,,,,,,,,,30.25,49,80,0,,,,34,30.25,FEW:02 65,30.2,10,62,170,,16,,,,,,,,,,,,,,,,,,,,,,,,,,,,,,,,,,,,,MET09904/23/07 14:56:50 METAR KCHS 231956Z 17014KT 10SM FEW065 27/09 A3025 RMK AO2 SLP244 T02670094 (WRB),,,,,,,,,,,,,,,,,,,,,,,,,,,,
72208013880,2007-04-24T16:56:00,FM-15,7,,SE,0.25,mi,"TEMP, PRECIP, SNOW",,,"MMTS, SRG, SNOWBOARD",,,WFO CHS,,,,,,,,,,,,,,,,,,,,,,,,,,,30.09,58,76,0,,,,54,30.09,FEW:02 100,30.04,10,65,170,,11,,,,,,,,,,,,,,,,,,,,,,,,,,,,,,,,,,,,,MET09804/24/07 16:56:50 METAR KCHS 242156Z 17010KT 10SM FEW100 24/14 A3009 RMK AO2 SLP188 T02440144 (WD),,,,,,,,,,,,,,,,,,,,,,,,,,,,
72208013880,2007-04-26T10:56:00,FM-15,7,,SE,0.25,mi,"TEMP, PRECIP, SNOW",,,"MMTS, SRG, SNOWBOARD",,,WFO CHS,,,,,,,,,,,,,,,,,,,,,,,,,,,30.05,63,80,0,,,,56,30.05,FEW:02 40 BKN:07 70,30,10,69,160,,13,,,,,,,,,,,,,,,,,,,,,,,,,,,,,,,,,,,,,MET10604/26/07 10:56:50 METAR KCHS 261556Z 16011KT 10SM FEW040 BKN070 27/17 A3005 RMK AO2 SLP175 T02670172 (WRB),,,,,,,,,,,,,,,,,,,,,,,,,,,,
72208013880,2007-04-26T12:56:00,SY-MT,7,,SE,0.25,mi,"TEMP, PRECIP, SNOW",,,"MMTS, SRG, SNOWBOARD",,,WFO CHS,,,,,,,,,,,,,,,,,,,,,,,,,,,30.01,63,83,0,,0.04,8,51,30.01,FEW:02 47,29.96,10,70,170,,13,,,,,,,,,,,,,,,,,,,,,,,,,,,,,,,,,,,,,SYN092AAXX  26184 72208 32666 21711 10283 20172 30146 40162 58014 91756 333 10289 20211 555 92618;MET11704/26/07 12:56:51 METAR KCHS 261756Z 17011KT 10SM FEW047 28/17 A3001 RMK AO2 SLP162 T02830172 10289 20211 58014 (WRB),,,,,,,,,,,,,,,,,,,,,,,,,,,,
72208013880,2007-04-26T15:56:00,FM-15,7,,SE,0.25,mi,"TEMP, PRECIP, SNOW",,,"MMTS, SRG, SNOWBOARD",,,WFO CHS,,,,,,,,,,,,,,,,,,,,,,,,,,,29.96,59,83,0,,0.05,6,44,29.96,FEW:02 65,29.91,10,68,170,,15,,,,,,,,,,,,,,,,,,,,,,,,,,,,,,,,,,,,,MET10404/26/07 15:56:50 METAR KCHS 262056Z 17013KT 10SM FEW065 28/15 A2996 RMK AO2 SLP146 T02830150 56017 (WD),,,,,,,,,,,,,,,,,,,,,,,,,,,,
72208013880,2007-04-26T16:00:00,FM-12,4,,SE,0.25,mi,"TEMP, PRECIP, SNOW",,,"MMTS, SRG, SNOWBOARD",,,WFO CHS,,,,,,,,,,,,,,,,,,,,,,,,,,,,59,83,,,0.05,6,44,29.96,,29.91,9.94,68,170,,15,,,,,,,,,,,,,,,,,,,,,,,,,,,,,,,,,,,,,SYN076AAXX  26214 72208 32766 21713 10283 20150 30129 40146 56017 92056 555 92621;,,,,,,,,,,,,,,,,,,,,,,,,,,,,
72208013880,2007-04-26T16:56:00,FM-15,7,,SE,0.25,mi,"TEMP, PRECIP, SNOW",,,"MMTS, SRG, SNOWBOARD",,,WFO CHS,,,,,,,,,,,,,,,,,,,,,,,,,,,29.96,61,81,0,,,,51,29.95,FEW:02 65,29.91,10,68,160,,15,,,,,,,,,,,,,,,,,,,,,,,,,,,,,,,,,,,,,MET09804/26/07 16:56:50 METAR KCHS 262156Z 16013KT 10SM FEW065 27/16 A2996 RMK AO2 SLP143 T02720161 (WD),,,,,,,,,,,,,,,,,,,,,,,,,,,,
72208013880,2007-04-26T17:56:00,FM-15,7,,SE,0.25,mi,"TEMP, PRECIP, SNOW",,,"MMTS, SRG, SNOWBOARD",,,WFO CHS,,,,,,,,,,,,,,,,,,,,,,,,,,,29.95,61,77,0,,,,58,29.94,,29.9,10,67,170,,15,,,,,,,,,,,,,,,,,,,,,,,,,,,,,,,,,,,,,MET09504/26/07 17:56:50 METAR KCHS 262256Z 17013KT 10SM CLR 25/16 A2995 RMK AO2 SLP140 T02500161 (WD),,,,,,,,,,,,,,,,,,,,,,,,,,,,
72208013880,2007-04-30T10:56:00,FM-15,7,,SE,0.25,mi,"TEMP, PRECIP, SNOW",,,"MMTS, SRG, SNOWBOARD",,,WFO CHS,,,,,,,,,,,,,,,,,,,,,,,,,,,30.08,44,84,0,,,,25,30.08,,30.03,10,62,150,,7,,,,,,,,,,,,,,,,,,,,,,,,,,,,,,,,,,,,,MET09604/30/07 10:56:50 METAR KCHS 301556Z 15006KT 10SM CLR 29/07 A3008 RMK AO2 SLP186 T02890067 (BPN),,,,,,,,,,,,,,,,,,,,,,,,,,,,
72208013880,2007-04-30T14:56:00,FM-15,7,,SE,0.25,mi,"TEMP, PRECIP, SNOW",,,"MMTS, SRG, SNOWBOARD",,,WFO CHS,,,,,,,,,,,,,,,,,,,,,,,,,,,30.02,44,87,0,,,,22,30.01,FEW:02 90,29.97,10,63,170,,16,,,,,,,,,,,,,,,,,,,,,,,,,,,,,,,,,,,,,MET09804/30/07 14:56:50 METAR KCHS 301956Z 17014KT 10SM FEW090 31/07 A3002 RMK AO2 SLP164 T03060067 (WD),,,,,,,,,,,,,,,,,,,,,,,,,,,,
72208013880,2007-05-01T15:56:00,FM-15,7,,SE,0.25,mi,"TEMP, PRECIP, SNOW",,,"MMTS, SRG, SNOWBOARD",,,WFO CHS,,,,,,,,,,,,,,,,,,,,,,,,,,,30.02,58,84,0,,0.04,6,41,30.02,,29.97,10,68,170,,15,,,,,,,,,,,,,,,,,,,,,,,,,,,,,,,,,,,,,MET10105/01/07 15:56:50 METAR KCHS 012056Z 17013KT 10SM CLR 29/14 A3002 RMK AO2 SLP165 T02890144 56012 (WD),,,,,,,,,,,,,,,,,,,,,,,,,,,,
72208013880,2007-05-01T16:00:00,FM-12,4,,SE,0.25,mi,"TEMP, PRECIP, SNOW",,,"MMTS, SRG, SNOWBOARD",,,WFO CHS,,,,,,,,,,,,,,,,,,,,,,,,,,,,58,84,,,0.04,6,41,30.02,CLR:00,29.97,9.94,68,170,,15,,,,,,,,,,,,,,,,,,,,,,,,,,,,,,,,,,,,,SYN076AAXX  01214 72208 32966 01713 10289 20144 30150 40165 56012 92056 555 90121;,,,,,,,,,,,,,,,,,,,,,,,,,,,,
72208013880,2007-05-01T16:56:00,FM-15,7,,SE,0.25,mi,"TEMP, PRECIP, SNOW",,,"MMTS, SRG, SNOWBOARD",,,WFO CHS,,,,,,,,,,,,,,,,,,,,,,,,,,,30.02,59,81,0,,,,47,30.01,,29.97,10,67,170,,15,,,,,,,,,,,,,,,,,,,,,,,,,,,,,,,,,,,,,MET09505/01/07 16:56:50 METAR KCHS 012156Z 17013KT 10SM CLR 27/15 A3002 RMK AO2 SLP164 T02720150 (WD),,,,,,,,,,,,,,,,,,,,,,,,,,,,
72208013880,2007-05-02T13:56:00,FM-15,7,,SE,0.25,mi,"TEMP, PRECIP, SNOW",,,"MMTS, SRG, SNOWBOARD",,,WFO CHS,,,,,,,,,,,,,,,,,,,,,,,,,,,29.96,65,87,0,HZ:7 ||HZ,,,48,29.96,FEW:02 50 SCT:04 80,29.91,6,72,160,,14,,,,,,,,,,,,,,,,,,,,,,,,,,,,,,,,,,,,,MET11905/02/07 13:56:51 METAR KCHS 021856Z 16012KT 6SM HZ FEW050 SCT080 31/18 A2996 RMK AO2 SLP145 TCU DSNT W T03060183 (WRB),,,,,,,,,,,,,,,,,,,,,,,,,,,,
72208013880,2007-05-02T16:56:00,FM-15,7,,SE,0.25,mi,"TEMP, PRECIP, SNOW",,,"MMTS, SRG, SNOWBOARD",,,WFO CHS,,,,,,,,,,,,,,,,,,,,,,,,,,,29.93,64,82,0,,,,55,29.92,FEW:02 75,29.88,7,70,160,,13,,,,,,,,,,,,,,,,,,,,,,,,,,,,,,,,,,,,,MET09705/02/07 16:56:50 METAR KCHS 022156Z 16011KT 7SM FEW075 28/18 A2993 RMK AO2 SLP133 T02780178 (WD),,,,,,,,,,,,,,,,,,,,,,,,,,,,
72208013880,2007-05-03T13:56:00,FM-15,7,,SE,0.25,mi,"TEMP, PRECIP, SNOW",,,"MMTS, SRG, SNOWBOARD",,,WFO CHS,,,,,,,,,,,,,,,,,,,,,,,,,,,29.98,63,87,0,HZ:7 FU:3 |FU |FU HZ,,,45,29.98,SCT:04 120,29.93,6,71,160,,15,,,,,,,,,,,,,,,,,,,,,,,,,,,,,,,,,,,,,MET11405/03/07 13:56:51 METAR KCHS 031856Z 16013KT 6SM HZ FU SCT120 31/17 A2998 RMK AO2 SLP151 CB DSNT W T03060172 (BBE),,,,,,,,,,,,,,,,,,,,,,,,,,,,
72208013880,2007-05-03T14:56:00,FM-15,7,,SE,0.25,mi,"TEMP, PRECIP, SNOW",,,"MMTS, SRG, SNOWBOARD",,,WFO CHS,,,,,,,,,,,,,,,,,,,,,,,,,,,29.98,63,84,T,FU:3 |FU |FU,,,49,29.97,FEW:02 60 SCT:04 110,29.93,5,70,170,,14,,,,,,,,,,,,,,,,,,,,,,,,,,,,,,,,,,,,,MET12305/03/07 14:56:51 METAR KCHS 031956Z 17012KT 5SM FU FEW060 SCT110 29/17 A2998 RMK AO2 RAB27E39 SLP150 P0000 T02890172 (BBE),,,,,,,,,,,,,,,,,,,,,,,,,,,,
72208013880,2007-05-03T16:56:00,FM-15,7,,SE,0.25,mi,"TEMP, PRECIP, SNOW",,,"MMTS, SRG, SNOWBOARD",,,WFO CHS,,,,,,,,,,,,,,,,,,,,,,,,,,,29.97,58,83,0,FU:3 |FU |FU,,,43,29.97,FEW:02 90,29.92,5,67,150,,10,,,,,,,,,,,,,,,,,,,,,,,,,,,,,,,,,,,,,MET10005/03/07 16:56:50 METAR KCHS 032156Z 15009KT 5SM FU FEW090 28/14 A2997 RMK AO2 SLP148 T02830144 (WD),,,,,,,,,,,,,,,,,,,,,,,,,,,,
72208013880,2007-05-03T17:56:00,FM-15,7,,SE,0.25,mi,"TEMP, PRECIP, SNOW",,,"MMTS, SRG, SNOWBOARD",,,WFO CHS,,,,,,,,,,,,,,,,,,,,,,,,,,,29.98,58,79,0,FU:3 |FU |FU,,,49,29.98,FEW:02 100,29.93,2,66,170,,7,,,,,,,,,,,,,,,,,,,,,,,,,,,,,,,,,,,,,MET10005/03/07 17:57:08 METAR KCHS 032256Z 17006KT 2SM FU FEW100 26/14 A2998 RMK AO2 SLP151 T02610144 (WD),,,,,,,,,,,,,,,,,,,,,,,,,,,,
72208013880,2007-05-12T11:56:00,FM-15,7,,SE,0.25,mi,"TEMP, PRECIP, SNOW",,,"MMTS, SRG, SNOWBOARD",,,WFO CHS,,,,,,,,,,,,,,,,,,,,,,,,,,,29.94,65,83,0,,,,55,29.94,SCT:04 38,29.89,10,71,150,,14,,,,,,,,,,,,,,,,,,,,,,,,,,,,,,,,,,,,,MET09905/12/07 11:56:50 METAR KCHS 121656Z 15012KT 10SM SCT038 28/18 A2994 RMK AO2 SLP138 T02830183 (JRS),,,,,,,,,,,,,,,,,,,,,,,,,,,,
72208013880,2007-05-12T14:56:00,FM-15,7,,SE,0.25,mi,"TEMP, PRECIP, SNOW",,,"MMTS, SRG, SNOWBOARD",,,WFO CHS,,,,,,,,,,,,,,,,,,,,,,,,,,,29.89,63,83,0,,,,51,29.88,FEW:02 45,29.84,10,70,160,,13,,,,,,,,,,,,,,,,,,,,,,,,,,,,,,,,,,,,,MET09905/12/07 14:56:50 METAR KCHS 121956Z 16011KT 10SM FEW045 28/17 A2989 RMK AO2 SLP120 T02830172 (JRS),,,,,,,,,,,,,,,,,,,,,,,,,,,,
72208013880,2007-05-12T15:56:00,SY-MT,7,,SE,0.25,mi,"TEMP, PRECIP, SNOW",,,"MMTS, SRG, SNOWBOARD",,,WFO CHS,,,,,,,,,,,,,,,,,,,,,,,,,,,29.87,63,82,0,,0.06,6,53,29.87,FEW:02 45,29.82,10,70,160,,13,,,,,,,,,,,,,,,,,,,,,,,,,,,,,,,,,,,,,SYN076AAXX  12214 72208 32666 21611 10278 20172 30099 40115 56021 92056 555 91221;MET10505/12/07 15:56:50 METAR KCHS 122056Z 16011KT 10SM FEW045 28/17 A2987 RMK AO2 SLP115 T02780172 56021 (BBE),,,,,,,,,,,,,,,,,,,,,,,,,,,,
72208013880,2007-05-12T17:56:00,FM-15,7,,SE,0.25,mi,"TEMP, PRECIP, SNOW",,,"MMTS, SRG, SNOWBOARD",,,WFO CHS,,,,,,,,,,,,,,,,,,,,,,,,,,,29.88,62,79,0,,,,56,29.87,FEW:02 90,29.83,10,68,150,,9,,,,,,,,,,,,,,,,,,,,,,,,,,,,,,,,,,,,,MET09905/12/07 17:56:50 METAR KCHS 122256Z 15008KT 10SM FEW090 26/17 A2988 RMK AO2 SLP116 T02610167 (BBE),,,,,,,,,,,,,,,,,,,,,,,,,,,,
72208013880,2007-05-15T15:56:00,FM-15,7,,SE,0.25,mi,"TEMP, PRECIP, SNOW",,,"MMTS, SRG, SNOWBOARD",,,WFO CHS,,,,,,,,,,,,,,,,,,,,,,,,,,,30.17,54,78,0,,0.06,8,43,30.16,FEW:02 25,30.12,10,64,150,,14,,,,,,,,,,,,,,,,,,,,,,,,,,,,,,,,,,,,,MET10405/15/07 15:56:50 METAR KCHS 152056Z 15012KT 10SM FEW025 26/12 A3017 RMK AO2 SLP215 T02560122 58021 (WD),,,,,,,,,,,,,,,,,,,,,,,,,,,,
72208013880,2007-05-15T16:00:00,FM-12,4,,SE,0.25,mi,"TEMP, PRECIP, SNOW",,,"MMTS, SRG, SNOWBOARD",,,WFO CHS,,,,,,,,,,,,,,,,,,,,,,,,,,,,54,78,,,0.06,8,43,30.16,,30.12,9.94,64,150,,14,,,,,,,,,,,,,,,,,,,,,,,,,,,,,,,,,,,,,SYN076AAXX  15214 72208 32566 21512 10256 20122 30201 40215 58021 92056 555 91521;,,,,,,,,,,,,,,,,,,,,,,,,,,,,
72208013880,2007-05-15T17:56:00,FM-15,7,,SE,0.25,mi,"TEMP, PRECIP, SNOW",,,"MMTS, SRG, SNOWBOARD",,,WFO CHS,,,,,,,,,,,,,,,,,,,,,,,,,,,30.15,57,74,0,,,,56,30.15,SCT:04 37,30.1,10,64,150,,14,,,,,,,,,,,,,,,,,,,,,,,,,,,,,,,,,,,,,MET09805/15/07 17:56:50 METAR KCHS 152256Z 15012KT 10SM SCT037 23/14 A3015 RMK AO2 SLP209 T02330139 (WD),,,,,,,,,,,,,,,,,,,,,,,,,,,,
72208013880,2007-05-16T13:56:00,FM-15,7,,SE,0.25,mi,"TEMP, PRECIP, SNOW",,,"MMTS, SRG, SNOWBOARD",,,WFO CHS,,,,,,,,,,,,,,,,,,,,,,,,,,,29.98,59,83,0,,,,44,29.97,SCT:04 50,29.93,10,68,170,,15,,,,,,,,,,,,,,,,,,,,,,,,,,,,,,,,,,,,,MET09905/16/07 13:56:50 METAR KCHS 161856Z 17013KT 10SM SCT050 28/15 A2998 RMK AO2 SLP150 T02830150 (BBE),,,,,,,,,,,,,,,,,,,,,,,,,,,,
72208013880,2007-05-21T16:56:00,FM-15,7,,SE,0.25,mi,"TEMP, PRECIP, SNOW",,,"MMTS, SRG, SNOWBOARD",,,WFO CHS,,,,,,,,,,,,,,,,,,,,,,,,,,,30.08,54,83,0,,,,37,30.08,,30.03,10,65,170,,11,,,,,,,,,,,,,,,,,,,,,,,,,,,,,,,,,,,,,MET09505/21/07 16:56:50 METAR KCHS 212156Z 17010KT 10SM CLR 28/12 A3008 RMK AO2 SLP186 T02830122 (WD),,,,,,,,,,,,,,,,,,,,,,,,,,,,
72208013880,2007-05-22T14:56:00,FM-15,7,,SE,0.25,mi,"TEMP, PRECIP, SNOW",,,"MMTS, SRG, SNOWBOARD",,,WFO CHS,,,,,,,,,,,,,,,,,,,,,,,,,,,30.21,55,82,0,,,,40,30.21,FEW:02 65,30.16,10,66,150,17,11,,,,,,,,,,,,,,,,,,,,,,,,,,,,,,,,,,,,,MET10505/22/07 15:00:12 METAR KCHS 221956Z 15010G15KT 10SM FEW065 28/13 A3021 RMK AO2 SLP230 T02780128 RTX (WD),,,,,,,,,,,,,,,,,,,,,,,,,,,,
72208013880,2007-05-22T15:56:00,SY-MT,7,,SE,0.25,mi,"TEMP, PRECIP, SNOW",,,"MMTS, SRG, SNOWBOARD",,,WFO CHS,,,,,,,,,,,,,,,,,,,,,,,,,,,30.2,55,81,0,,0.02,8,41,30.2,FEW:02 70,30.15,10,65,150,,13,,,,,,,,,,,,,,,,,,,,,,,,,,,,,,,,,,,,,SYN076AAXX  22214 72208 32866 21511 10272 20128 30211 40227 58006 92056 555 92221;MET10405/22/07 15:56:50 METAR KCHS 222056Z 15011KT 10SM FEW070 27/13 A3020 RMK AO2 SLP227 T02720128 58006 (WD),,,,,,,,,,,,,,,,,,,,,,,,,,,,
72208013880,2007-05-22T16:56:00,FM-15,7,,SE,0.25,mi,"TEMP, PRECIP, SNOW",,,"MMTS, SRG, SNOWBOARD",,,WFO CHS,,,,,,,,,,,,,,,,,,,,,,,,,,,30.21,56,81,0,,,,42,30.2,FEW:02 75,30.16,10,66,150,,13,,,,,,,,,,,,,,,,,,,,,,,,,,,,,,,,,,,,,MET09805/22/07 16:56:50 METAR KCHS 222156Z 15011KT 10SM FEW075 27/13 A3021 RMK AO2 SLP228 T02720133 (WD),,,,,,,,,,,,,,,,,,,,,,,,,,,,
72208013880,2007-05-22T17:56:00,FM-15,7,,SE,0.25,mi,"TEMP, PRECIP, SNOW",,,"MMTS, SRG, SNOWBOARD",,,WFO CHS,,,,,,,,,,,,,,,,,,,,,,,,,,,30.2,57,79,0,,,,47,30.19,FEW:02 85,30.15,10,66,150,,10,,,,,,,,,,,,,,,,,,,,,,,,,,,,,,,,,,,,,MET09805/22/07 17:56:50 METAR KCHS 222256Z 15009KT 10SM FEW085 26/14 A3020 RMK AO2 SLP225 T02610139 (WD),,,,,,,,,,,,,,,,,,,,,,,,,,,,
72208013880,2007-05-26T15:56:00,FM-15,7,,SE,0.25,mi,"TEMP, PRECIP, SNOW",,,"MMTS, SRG, SNOWBOARD",,,WFO CHS,,,,,,,,,,,,,,,,,,,,,,,,,,,30.18,56,80,0,,0.03,6,44,30.17,FEW:02 60,30.13,10,65,160,,13,,,,,,,,,,,,,,,,,,,,,,,,,,,,,,,,,,,,,MET10505/26/07 15:56:50 METAR KCHS 262056Z 16011KT 10SM FEW060 27/13 A3018 RMK AO2 SLP218 T02670133 56011 (BBE),,,,,,,,,,,,,,,,,,,,,,,,,,,,
72208013880,2007-05-26T16:00:00,FM-12,4,,SE,0.25,mi,"TEMP, PRECIP, SNOW",,,"MMTS, SRG, SNOWBOARD",,,WFO CHS,,,,,,,,,,,,,,,,,,,,,,,,,,,,56,80,,,0.03,6,44,30.17,,30.13,9.94,65,160,,13,,,,,,,,,,,,,,,,,,,,,,,,,,,,,,,,,,,,,SYN076AAXX  26214 72208 32766 21611 10267 20133 30204 40218 56011 92056 555 92621;,,,,,,,,,,,,,,,,,,,,,,,,,,,,
72208013880,2007-05-26T17:56:00,FM-15,7,,SE,0.25,mi,"TEMP, PRECIP, SNOW",,,"MMTS, SRG, SNOWBOARD",,,WFO CHS,,,,,,,,,,,,,,,,,,,,,,,,,,,30.17,57,77,0,,,,50,30.17,FEW:02 70,30.12,10,65,150,,11,,,,,,,,,,,,,,,,,,,,,,,,,,,,,,,,,,,,,MET09905/26/07 17:56:50 METAR KCHS 262256Z 15010KT 10SM FEW070 25/14 A3017 RMK AO2 SLP216 T02500139 (BBE),,,,,,,,,,,,,,,,,,,,,,,,,,,,
72208013880,2007-05-27T10:56:00,FM-15,7,,SE,0.25,mi,"TEMP, PRECIP, SNOW",,,"MMTS, SRG, SNOWBOARD",,,WFO CHS,,,,,,,,,,,,,,,,,,,,,,,,,,,30.24,61,81,0,,,,51,30.24,FEW:02 39,30.19,10,68,150,,13,,,,,,,,,,,,,,,,,,,,,,,,,,,,,,,,,,,,,MET09905/27/07 10:56:50 METAR KCHS 271556Z 15011KT 10SM FEW039 27/16 A3024 RMK AO2 SLP240 T02720161 (JRS),,,,,,,,,,,,,,,,,,,,,,,,,,,,
72208013880,2007-05-27T11:56:00,FM-15,7,,SE,0.25,mi,"TEMP, PRECIP, SNOW",,,"MMTS, SRG, SNOWBOARD",,,WFO CHS,,,,,,,,,,,,,,,,,,,,,,,,,,,30.24,61,81,0,,,,51,30.23,SCT:04 38,30.19,10,68,160,20,15,,,,,,,,,,,,,,,,,,,,,,,,,,,,,,,,,,,,,MET10205/27/07 11:56:50 METAR KCHS 271656Z 16013G17KT 10SM SCT038 27/16 A3024 RMK AO2 SLP238 T02720161 (JRS),,,,,,,,,,,,,,,,,,,,,,,,,,,,
72208013880,2007-05-27T12:56:00,SY-MT,7,,SE,0.25,mi,"TEMP, PRECIP, SNOW",,,"MMTS, SRG, SNOWBOARD",,,WFO CHS,,,,,,,,,,,,,,,,,,,,,,,,,,,30.22,60,83,0,,0.02,8,46,30.22,SCT:04 40,30.17,10,69,160,17,13,,,,,,,,,,,,,,,,,,,,,,,,,,,,,,,,,,,,,SYN098AAXX  27184 72208 32666 41611 10283 20156 30217 40233 58006 91756 333 10283 20200 91015 555 92718;MET12005/27/07 12:56:51 METAR KCHS 271756Z 16011G15KT 10SM SCT040 28/16 A3022 RMK AO2 SLP233 T02830156 10283 20200 58006 (JRS),,,,,,,,,,,,,,,,,,,,,,,,,,,,
72208013880,2007-05-27T13:56:00,FM-15,7,,SE,0.25,mi,"TEMP, PRECIP, SNOW",,,"MMTS, SRG, SNOWBOARD",,,WFO CHS,,,,,,,,,,,,,,,,,,,,,,,,,,,30.21,58,82,0,,,,44,30.2,FEW:02 45,30.16,10,67,160,20,10,,,,,,,,,,,,,,,,,,,,,,,,,,,,,,,,,,,,,MET10205/27/07 13:56:50 METAR KCHS 271856Z 16009G17KT 10SM FEW045 28/14 A3021 RMK AO2 SLP228 T02780144 (JRS),,,,,,,,,,,,,,,,,,,,,,,,,,,,
72208013880,2007-05-27T14:56:00,FM-15,7,,SE,0.25,mi,"TEMP, PRECIP, SNOW",,,"MMTS, SRG, SNOWBOARD",,,WFO CHS,,,,,,,,,,,,,,,,,,,,,,,,,,,30.2,57,82,0,,,,42,30.19,FEW:02 50,30.15,10,67,170,,16,,,,,,,,,,,,,,,,,,,,,,,,,,,,,,,,,,,,,MET09905/27/07 14:56:50 METAR KCHS 271956Z 17014KT 10SM FEW050 28/14 A3020 RMK AO2 SLP225 T02780139 (JRS),,,,,,,,,,,,,,,,,,,,,,,,,,,,
72208013880,2007-05-27T15:56:00,SY-MT,7,,SE,0.25,mi,"TEMP, PRECIP, SNOW",,,"MMTS, SRG, SNOWBOARD",,,WFO CHS,,,,,,,,,,,,,,,,,,,,,,,,,,,30.19,55,81,0,,0.03,6,41,30.19,FEW:02 50,30.14,10,65,170,,9,,,,,,,,,,,,,,,,,,,,,,,,,,,,,,,,,,,,,SYN076AAXX  27214 72208 32766 21708 10272 20128 30207 40223 56010 92056 555 92721;MET10505/27/07 15:56:50 METAR KCHS 272056Z 17008KT 10SM FEW050 27/13 A3019 RMK AO2 SLP223 T02720128 56010 (BBE),,,,,,,,,,,,,,,,,,,,,,,,,,,,
72208013880,2007-05-29T13:56:00,FM-15,7,,SE,0.25,mi,"TEMP, PRECIP, SNOW",,,"MMTS, SRG, SNOWBOARD",,,WFO CHS,,,,,,,,,,,,,,,,,,,,,,,,,,,30.19,58,85,0,,,,40,30.18,FEW:02 60,30.14,10,68,150,,11,,,,,,,,,,,,,,,,,,,,,,,,,,,,,,,,,,,,,MET09905/29/07 13:56:50 METAR KCHS 291856Z 15010KT 10SM FEW060 29/14 A3019 RMK AO2 SLP221 T02940144 (WRB),,,,,,,,,,,,,,,,,,,,,,,,,,,,
72208013880,2007-05-29T15:56:00,FM-15,7,,SE,0.25,mi,"TEMP, PRECIP, SNOW",,,"MMTS, SRG, SNOWBOARD",,,WFO CHS,,,,,,,,,,,,,,,,,,,,,,,,,,,30.16,53,85,0,,0.03,6,33,30.16,FEW:02 55,30.11,10,66,150,,13,,,,,,,,,,,,,,,,,,,,,,,,,,,,,,,,,,,,,MET10405/29/07 15:56:50 METAR KCHS 292056Z 15011KT 10SM FEW055 29/12 A3016 RMK AO2 SLP214 T02940117 56010 (WD),,,,,,,,,,,,,,,,,,,,,,,,,,,,
72208013880,2007-05-29T16:00:00,FM-12,4,,SE,0.25,mi,"TEMP, PRECIP, SNOW",,,"MMTS, SRG, SNOWBOARD",,,WFO CHS,,,,,,,,,,,,,,,,,,,,,,,,,,,,53,85,,,0.03,6,33,30.16,,30.11,9.94,66,150,,13,,,,,,,,,,,,,,,,,,,,,,,,,,,,,,,,,,,,,SYN076AAXX  29214 72208 32766 21511 10294 20117 30197 40214 56010 92056 555 92921;,,,,,,,,,,,,,,,,,,,,,,,,,,,,
72208013880,2007-05-30T14:56:00,FM-15,7,,SE,0.25,mi,"TEMP, PRECIP, SNOW",,,"MMTS, SRG, SNOWBOARD",,,WFO CHS,,,,,,,,,,,,,,,,,,,,,,,,,,,30.14,54,89,0,,,,30,30.13,FEW:02 65,30.09,10,67,150,,11,,,,,,,,,,,,,,,,,,,,,,,,,,,,,,,,,,,,,MET09905/30/07 14:56:50 METAR KCHS 301956Z 15010KT 10SM FEW065 32/12 A3014 RMK AO2 SLP204 T03170122 (WRB),,,,,,,,,,,,,,,,,,,,,,,,,,,,
72208013880,2007-05-30T15:56:00,FM-15,7,,SE,0.25,mi,"TEMP, PRECIP, SNOW",,,"MMTS, SRG, SNOWBOARD",,,WFO CHS,,,,,,,,,,,,,,,,,,,,,,,,,,,30.13,56,86,0,,0.04,6,36,30.13,FEW:02 65,30.08,10,67,160,,15,,,,,,,,,,,,,,,,,,,,,,,,,,,,,,,,,,,,,MET10405/30/07 15:56:50 METAR KCHS 302056Z 16013KT 10SM FEW065 30/13 A3013 RMK AO2 SLP202 T03000133 56012 (WD),,,,,,,,,,,,,,,,,,,,,,,,,,,,
72208013880,2007-05-30T16:00:00,FM-12,4,,SE,0.25,mi,"TEMP, PRECIP, SNOW",,,"MMTS, SRG, SNOWBOARD",,,WFO CHS,,,,,,,,,,,,,,,,,,,,,,,,,,,,56,86,,,0.04,6,36,30.13,,30.08,9.94,67,160,,15,,,,,,,,,,,,,,,,,,,,,,,,,,,,,,,,,,,,,SYN076AAXX  30214 72208 32766 21613 10300 20133 30187 40202 56012 92056 555 93021;,,,,,,,,,,,,,,,,,,,,,,,,,,,,
72208013880,2007-05-30T16:56:00,FM-15,7,,SE,0.25,mi,"TEMP, PRECIP, SNOW",,,"MMTS, SRG, SNOWBOARD",,,WFO CHS,,,,,,,,,,,,,,,,,,,,,,,,,,,30.12,56,84,0,,,,38,30.12,,30.07,10,67,170,,10,,,,,,,,,,,,,,,,,,,,,,,,,,,,,,,,,,,,,MET09505/30/07 16:56:50 METAR KCHS 302156Z 17009KT 10SM CLR 29/13 A3012 RMK AO2 SLP200 T02890133 (WD),,,,,,,,,,,,,,,,,,,,,,,,,,,,
72208013880,2007-05-30T17:56:00,FM-15,7,,SE,0.25,mi,"TEMP, PRECIP, SNOW",,,"MMTS, SRG, SNOWBOARD",,,WFO CHS,,,,,,,,,,,,,,,,,,,,,,,,,,,30.12,56,82,0,,,,41,30.11,,30.07,10,66,170,,10,,,,,,,,,,,,,,,,,,,,,,,,,,,,,,,,,,,,,MET09505/30/07 17:56:50 METAR KCHS 302256Z 17009KT 10SM CLR 28/13 A3012 RMK AO2 SLP198 T02780133 (WD),,,,,,,,,,,,,,,,,,,,,,,,,,,,
72208013880,2007-06-05T14:16:00,FM-16,7,,SE,0.25,mi,"TEMP, PRECIP, SNOW",,,"MMTS, SRG, SNOWBOARD",,,WFO CHS,,,,,,,,,,,,,,,,,,,,,,,,,,,29.77,70,84,,,,,62,,FEW:02 41 BKN:07 50 BKN:07 90,29.72,10,74,170,,14,,,,,,,,,,,,,,,,,,,,,,,,,,,,,,,,,,,,,MET13906/05/07 14:16:52 SPECI KCHS 051916Z 17012KT 10SM FEW041 BKN050TCU BKN090 29/21 A2977 RMK AO2 TSE11 TS MOV E TCU OHD CB DSNT E AND SW (WRB),,,,,,,,,,,,,,,,,,,,,,,,,,,,
72208013880,2007-06-07T12:56:00,FM-15,7,,SE,0.25,mi,"TEMP, PRECIP, SNOW",,,"MMTS, SRG, SNOWBOARD",,,WFO CHS,,,,,,,,,,,,,,,,,,,,,,,,,,,30.05,70,89,0,,0.01,8,53,30.05,SCT:04 43 SCT:04 75,30,10,76,150,,10,,,,,,,,,,,,,,,,,,,,,,,,,,,,,,,,,,,,,MET12606/07/07 12:56:51 METAR KCHS 071756Z 15009KT 10SM SCT043 SCT075 32/21 A3005 RMK AO2 SLP175 T03170211 10333 20244 58004 $ (WRB),,,,,,,,,,,,,,,,,,,,,,,,,,,,
72208013880,2007-06-07T13:00:00,FM-12,4,,SE,0.25,mi,"TEMP, PRECIP, SNOW",,,"MMTS, SRG, SNOWBOARD",,,WFO CHS,,,,,,,,,,,,,,,,,,,,,,,,,,,,70,89,,,0.01,8,53,30.05,,30,9.94,76,150,,10,,,,,,,,,,,,,,,,,,,,,,,,,,,,,,,,,,,,,SYN092AAXX  07184 72208 32666 41509 10317 20211 30160 40175 58004 91756 333 10333 20244 555 90718;,,,,,,,,,,,,,,,,,,,,,,,,,,,,
72208013880,2007-06-07T14:56:00,FM-15,7,,SE,0.25,mi,"TEMP, PRECIP, SNOW",,,"MMTS, SRG, SNOWBOARD",,,WFO CHS,,,,,,,,,,,,,,,,,,,,,,,,,,,30.03,70,87,0,,,,57,30.03,FEW:02 55 SCT:04 100,29.98,10,75,150,,14,,,,,,,,,,,,,,,,,,,,,,,,,,,,,,,,,,,,,MET12806/07/07 14:56:51 METAR KCHS 071956Z 15012KT 10SM FEW055 SCT100 31/21 A3003 RMK AO2 SLP170 TCU DSNT W CB DSNT NE T03060211 (WRB),,,,,,,,,,,,,,,,,,,,,,,,,,,,
72208013880,2007-06-07T16:56:00,FM-15,7,,SE,0.25,mi,"TEMP, PRECIP, SNOW",,,"MMTS, SRG, SNOWBOARD",,,WFO CHS,,,,,,,,,,,,,,,,,,,,,,,,,,,30.05,72,84,0,,,,67,30.04,FEW:02 23 SCT:04 80,30,10,76,150,,14,,,,,,,,,,,,,,,,,,,,,,,,,,,,,,,,,,,,,MET10506/07/07 16:56:50 METAR KCHS 072156Z 15012KT 10SM FEW023 SCT080 29/22 A3005 RMK AO2 SLP174 T02890222 (WD),,,,,,,,,,,,,,,,,,,,,,,,,,,,
72208013880,2007-06-12T12:56:00,FM-15,7,,SE,0.25,mi,"TEMP, PRECIP, SNOW",,,"MMTS, SRG, SNOWBOARD",,,WFO CHS,,,,,,,,,,,,,,,,,,,,,,,,,,,29.98,65,82,0,,0.02,8,56,29.98,BKN:07 42,29.93,10,71,150,,8,,,,,,,,,,,,,,,,,,,,,,,,,,,,,,,,,,,,,MET13806/12/07 12:58:51 METAR KCHS 121756Z 15007KT 10SM BKN042CB 28/18 A2998 RMK AO2 SLP153 VCSH CB E MOV SW T02780183 10300 20222 58006 $ (BPN),,,,,,,,,,,,,,,,,,,,,,,,,,,,
72208013880,2007-06-12T13:00:00,FM-12,4,,SE,0.25,mi,"TEMP, PRECIP, SNOW",,,"MMTS, SRG, SNOWBOARD",,,WFO CHS,,,,,,,,,,,,,,,,,,,,,,,,,,,,65,82,,,0.02,8,56,29.98,,29.93,9.94,71,150,,8,,,,,,,,,,,,,,,,,,,,,,,,,,,,,,,,,,,,,SYN092AAXX  12184 72208 32666 61507 10278 20183 30136 40153 58006 91756 333 10300 20222 555 91218;,,,,,,,,,,,,,,,,,,,,,,,,,,,,
72208013880,2007-06-16T16:56:00,FM-15,7,,SE,0.25,mi,"TEMP, PRECIP, SNOW",,,"MMTS, SRG, SNOWBOARD",,,WFO CHS,,,,,,,,,,,,,,,,,,,,,,,,,,,30.04,64,81,0,,,,57,30.04,FEW:02 36 SCT:04 47,29.99,10,70,170,,11,,,,,,,,,,,,,,,,,,,,,,,,,,,,,,,,,,,,,MET10606/16/07 16:56:50 METAR KCHS 162156Z 17010KT 10SM FEW036 SCT047 27/18 A3004 RMK AO2 SLP172 T02720178 (BBE),,,,,,,,,,,,,,,,,,,,,,,,,,,,
72208013880,2007-06-16T17:56:00,FM-15,7,,SE,0.25,mi,"TEMP, PRECIP, SNOW",,,"MMTS, SRG, SNOWBOARD",,,WFO CHS,,,,,,,,,,,,,,,,,,,,,,,,,,,30.05,63,80,0,,,,56,30.04,FEW:02 37,30,10,69,170,,10,,,,,,,,,,,,,,,,,,,,,,,,,,,,,,,,,,,,,MET09906/16/07 17:56:50 METAR KCHS 162256Z 17009KT 10SM FEW037 27/17 A3005 RMK AO2 SLP174 T02670172 (BBE),,,,,,,,,,,,,,,,,,,,,,,,,,,,
72208013880,2007-06-22T15:56:00,FM-15,7,,SE,0.25,mi,"TEMP, PRECIP, SNOW",,,"MMTS, SRG, SNOWBOARD",,,WFO CHS,,,,,,,,,,,,,,,,,,,,,,,,,,,29.94,66,88,0,,0.04,6,48,29.93,FEW:02 65,29.89,10,73,170,,14,,,,,,,,,,,,,,,,,,,,,,,,,,,,,,,,,,,,,MET10406/22/07 15:56:50 METAR KCHS 222056Z 17012KT 10SM FEW065 31/19 A2994 RMK AO2 SLP137 T03110189 56015 (WD),,,,,,,,,,,,,,,,,,,,,,,,,,,,
72208013880,2007-06-22T16:00:00,FM-12,4,,SE,0.25,mi,"TEMP, PRECIP, SNOW",,,"MMTS, SRG, SNOWBOARD",,,WFO CHS,,,,,,,,,,,,,,,,,,,,,,,,,,,,66,88,,,0.04,6,48,29.93,,29.89,9.94,73,170,,14,,,,,,,,,,,,,,,,,,,,,,,,,,,,,,,,,,,,,SYN076AAXX  22214 72208 32766 21712 10311 20189 30123 40137 56015 92056 555 92221;,,,,,,,,,,,,,,,,,,,,,,,,,,,,
72208013880,2007-06-25T10:56:00,FM-15,7,,SE,0.25,mi,"TEMP, PRECIP, SNOW",,,"MMTS, SRG, SNOWBOARD",,,WFO CHS,,,,,,,,,,,,,,,,,,,,,,,,,,,30.23,72,87,0,,,,61,30.23,SCT:04 36,30.18,10,77,150,,8,,,,,,,,,,,,,,,,,,,,,,,,,,,,,,,,,,,,,MET09906/25/07 10:56:50 METAR KCHS 251556Z 15007KT 10SM SCT036 31/22 A3023 RMK AO2 SLP237 T03060222 (WRB),,,,,,,,,,,,,,,,,,,,,,,,,,,,
72208013880,2007-06-25T15:56:00,FM-15,7,,SE,0.25,mi,"TEMP, PRECIP, SNOW",,,"MMTS, SRG, SNOWBOARD",,,WFO CHS,,,,,,,,,,,,,,,,,,,,,,,,,,,30.18,68,87,0,,0.05,6,53,30.17,FEW:02 50,30.13,10,74,150,,15,,,,,,,,,,,,,,,,,,,,,,,,,,,,,,,,,,,,,MET10406/25/07 15:56:50 METAR KCHS 252056Z 15013KT 10SM FEW050 31/20 A3018 RMK AO2 SLP218 T03060200 56016 (WD),,,,,,,,,,,,,,,,,,,,,,,,,,,,
72208013880,2007-06-25T16:00:00,FM-12,4,,SE,0.25,mi,"TEMP, PRECIP, SNOW",,,"MMTS, SRG, SNOWBOARD",,,WFO CHS,,,,,,,,,,,,,,,,,,,,,,,,,,,,68,87,,,0.05,6,53,30.17,,30.13,9.94,74,150,,15,,,,,,,,,,,,,,,,,,,,,,,,,,,,,,,,,,,,,SYN076AAXX  25214 72208 32766 21513 10306 20200 30204 40218 56016 92056 555 92521;,,,,,,,,,,,,,,,,,,,,,,,,,,,,
72208013880,2007-06-25T17:56:00,FM-15,7,,SE,0.25,mi,"TEMP, PRECIP, SNOW",,,"MMTS, SRG, SNOWBOARD",,,WFO CHS,,,,,,,,,,,,,,,,,,,,,,,,,,,30.19,71,83,0,,,,67,30.19,FEW:02 30,30.14,10,75,150,,9,,,,,,,,,,,,,,,,,,,,,,,,,,,,,,,,,,,,,MET09806/25/07 17:56:50 METAR KCHS 252256Z 15008KT 10SM FEW030 28/22 A3019 RMK AO2 SLP223 T02830217 (WD),,,,,,,,,,,,,,,,,,,,,,,,,,,,
72208013880,2007-06-26T12:56:00,FM-15,7,,SE,0.25,mi,"TEMP, PRECIP, SNOW",,,"MMTS, SRG, SNOWBOARD",,,WFO CHS,,,,,,,,,,,,,,,,,,,,,,,,,,,30.28,71,87,0,,0.03,8,59,30.27,SCT:04 33,30.23,10,76,150,,14,,,,,,,,,,,,,,,,,,,,,,,,,,,,,,,,,,,,,MET13506/26/07 12:56:51 METAR KCHS 261756Z 15012KT 10SM SCT033TCU 31/22 A3028 RMK AO2 SLP252 TCU NE VCSH NE T03060217 10317 20250 58009 (WRB),,,,,,,,,,,,,,,,,,,,,,,,,,,,
72208013880,2007-06-26T13:00:00,FM-12,4,,SE,0.25,mi,"TEMP, PRECIP, SNOW",,,"MMTS, SRG, SNOWBOARD",,,WFO CHS,,,,,,,,,,,,,,,,,,,,,,,,,,,,71,87,,,0.03,8,59,30.27,,30.23,9.94,76,150,,14,,,,,,,,,,,,,,,,,,,,,,,,,,,,,,,,,,,,,SYN092AAXX  26184 72208 32566 41512 10306 20217 30238 40252 58009 91756 333 10317 20250 555 92618;,,,,,,,,,,,,,,,,,,,,,,,,,,,,
72208013880,2007-06-26T15:56:00,FM-15,7,,SE,0.25,mi,"TEMP, PRECIP, SNOW",,,"MMTS, SRG, SNOWBOARD",,,WFO CHS,,,,,,,,,,,,,,,,,,,,,,,,,,,30.23,71,87,0,,0.04,8,59,30.23,BKN:07 33,30.18,10,76,150,,13,,,,,,,,,,,,,,,,,,,,,,,,,,,,,,,,,,,,,MET11706/26/07 15:56:51 METAR KCHS 262056Z 15011KT 10SM BKN033 31/22 A3023 RMK AO2 SLP237 CB DSNT N-NW T03060217 58015 (WD),,,,,,,,,,,,,,,,,,,,,,,,,,,,
72208013880,2007-06-26T16:00:00,FM-12,4,,SE,0.25,mi,"TEMP, PRECIP, SNOW",,,"MMTS, SRG, SNOWBOARD",,,WFO CHS,,,,,,,,,,,,,,,,,,,,,,,,,,,,71,87,,,0.04,8,59,30.23,,30.18,9.94,76,150,,13,,,,,,,,,,,,,,,,,,,,,,,,,,,,,,,,,,,,,SYN076AAXX  26214 72208 32566 61511 10306 20217 30221 40237 58015 92056 555 92621;,,,,,,,,,,,,,,,,,,,,,,,,,,,,
72208013880,2007-06-26T17:56:00,FM-15,7,,SE,0.25,mi,"TEMP, PRECIP, SNOW",,,"MMTS, SRG, SNOWBOARD",,,WFO CHS,,,,,,,,,,,,,,,,,,,,,,,,,,,30.22,70,83,0,,,,65,30.22,FEW:02 25,30.17,10,74,150,,9,,,,,,,,,,,,,,,,,,,,,,,,,,,,,,,,,,,,,MET09806/26/07 17:56:50 METAR KCHS 262256Z 15008KT 10SM FEW025 28/21 A3022 RMK AO2 SLP232 T02830211 (WD),,,,,,,,,,,,,,,,,,,,,,,,,,,,
72208013880,2007-06-27T16:56:00,FM-15,7,,SE,0.25,mi,"TEMP, PRECIP, SNOW",,,"MMTS, SRG, SNOWBOARD",,,WFO CHS,,,,,,,,,,,,,,,,,,,,,,,,,,,30.15,69,85,0,,,,59,30.15,FEW:02 33 SCT:04 45,30.1,10,74,160,,15,,,,,,,,,,,,,,,,,,,,,,,,,,,,,,,,,,,,,MET10506/27/07 16:56:50 METAR KCHS 272156Z 16013KT 10SM FEW033 SCT045 29/21 A3015 RMK AO2 SLP209 T02940206 (WD),,,,,,,,,,,,,,,,,,,,,,,,,,,,
72208013880,2007-06-27T17:56:00,FM-15,7,,SE,0.25,mi,"TEMP, PRECIP, SNOW",,,"MMTS, SRG, SNOWBOARD",,,WFO CHS,,,,,,,,,,,,,,,,,,,,,,,,,,,30.14,69,83,0,,,,63,30.13,SCT:04 32,30.09,10,74,160,,13,,,,,,,,,,,,,,,,,,,,,,,,,,,,,,,,,,,,,MET09806/27/07 17:56:50 METAR KCHS 272256Z 16011KT 10SM SCT032 28/21 A3014 RMK AO2 SLP204 T02830206 (WD),,,,,,,,,,,,,,,,,,,,,,,,,,,,
72208013880,2007-06-28T13:56:00,FM-15,7,,SE,0.25,mi,"TEMP, PRECIP, SNOW",,,"MMTS, SRG, SNOWBOARD",,,WFO CHS,,,,,,,,,,,,,,,,,,,,,,,,,,,30.09,68,89,0,,,,50,30.09,SCT:04 40,30.04,10,75,150,,11,,,,,,,,,,,,,,,,,,,,,,,,,,,,,,,,,,,,,MET11006/28/07 13:56:50 METAR KCHS 281856Z 15010KT 10SM SCT040 32/20 A3009 RMK AO2 SLP189 CB DSNT NW T03170200 (WRB),,,,,,,,,,,,,,,,,,,,,,,,,,,,
72208013880,2007-06-28T14:56:00,FM-15,7,,SE,0.25,mi,"TEMP, PRECIP, SNOW",,,"MMTS, SRG, SNOWBOARD",,,WFO CHS,,,,,,,,,,,,,,,,,,,,,,,,,,,30.07,69,89,0,,,,52,30.07,SCT:04 39,30.02,10,75,160,,11,,,,,,,,,,,,,,,,,,,,,,,,,,,,,,,,,,,,,MET11806/28/07 14:56:51 METAR KCHS 281956Z 16010KT 10SM SCT039 32/21 A3007 RMK AO2 SLP183 CB DSNT NW-N AND S T03170206 (WRB),,,,,,,,,,,,,,,,,,,,,,,,,,,,
72208013880,2007-06-28T16:56:00,FM-15,7,,SE,0.25,mi,"TEMP, PRECIP, SNOW",,,"MMTS, SRG, SNOWBOARD",,,WFO CHS,,,,,,,,,,,,,,,,,,,,,,,,,,,30.05,70,87,0,,,,57,30.05,FEW:02 40,30,10,75,160,,14,,,,,,,,,,,,,,,,,,,,,,,,,,,,,,,,,,,,,MET10806/28/07 16:56:50 METAR KCHS 282156Z 16012KT 10SM FEW040 31/21 A3005 RMK AO2 SLP175 CB DSNT N T03060211 (WD),,,,,,,,,,,,,,,,,,,,,,,,,,,,
72208013880,2007-06-29T13:56:00,FM-15,7,,SE,0.25,mi,"TEMP, PRECIP, SNOW",,,"MMTS, SRG, SNOWBOARD",,,WFO CHS,,,,,,,,,,,,,,,,,,,,,,,,,,,30.06,69,90,0,,,,50,30.06,SCT:04 44 SCT:04 80,30.01,10,76,160,,14,,,,,,,,,,,,,,,,,,,,,,,,,,,,,,,,,,,,,MET10606/29/07 13:56:50 METAR KCHS 291856Z 16012KT 10SM SCT044 SCT080 32/21 A3006 RMK AO2 SLP179 T03220206 (WRB),,,,,,,,,,,,,,,,,,,,,,,,,,,,
72208013880,2007-06-30T14:56:00,FM-15,7,,SE,0.25,mi,"TEMP, PRECIP, SNOW",,,"MMTS, SRG, SNOWBOARD",,,WFO CHS,,,,,,,,,,,,,,,,,,,,,,,,,,,29.96,71,90,0,,,,54,29.96,FEW:02 42,29.91,10,77,170,,16,,,,,,,,,,,,,,,,,,,,,,,,,,,,,,,,,,,,,MET09906/30/07 14:56:50 METAR KCHS 301956Z 17014KT 10SM FEW042 32/22 A2996 RMK AO2 SLP144 T03220217 (JRS),,,,,,,,,,,,,,,,,,,,,,,,,,,,
72208013880,2007-06-30T16:56:00,FM-15,7,,SE,0.25,mi,"TEMP, PRECIP, SNOW",,,"MMTS, SRG, SNOWBOARD",,,WFO CHS,,,,,,,,,,,,,,,,,,,,,,,,,,,29.94,70,87,0,,,,57,29.94,SCT:04 39,29.89,10,75,170,,11,,,,,,,,,,,,,,,,,,,,,,,,,,,,,,,,,,,,,MET13506/30/07 16:56:51 METAR KCHS 302156Z 17010KT 10SM SCT039 31/21 A2994 RMK AO2 SLP139 OCNL LTGIC DSNT NW-NE CB DSNT NW-NE T03060211 (BBE),,,,,,,,,,,,,,,,,,,,,,,,,,,,
72208013880,2007-07-01T15:09:00,FM-16,7,,SE,0.25,mi,"TEMP, PRECIP, SNOW",,,"MMTS, SRG, SNOWBOARD",,,WFO CHS,,,,,,,,,,,,,,,,,,,,,,,,,,,29.98,75,81,0.08,TS:7 -RA:02 |RA TS |SHRA TS,,,84,,FEW:02 29 SCT:04 35 BKN:07 50,29.93,3,77,160,,8,,,,,,,,,,,,,,,,,,,,,,,,,,,,,,,,,,,,,MET14707/01/07 15:09:51 SPECI KCHS 012009Z 16007KT 3SM -TSRA FEW029 SCT035CB BKN050 27/24 A2998 RMK AO2 TSB01 OCNL LTGCG OHD-E TS OHD-E STNRY P0008 (JRS),,,,,,,,,,,,,,,,,,,,,,,,,,,,
72208013880,2007-07-01T15:45:00,FM-16,7,,SE,0.25,mi,"TEMP, PRECIP, SNOW",,,"MMTS, SRG, SNOWBOARD",,,WFO CHS,,,,,,,,,,,,,,,,,,,,,,,,,,,29.99,73,79,0.35,,,,84,,FEW:02 17 SCT:04 31 BKN:07 44,29.94,8,75,150,,11,,,,,,,,,,,,,,,,,,,,,,,,,,,,,,,,,,,,,MET13707/01/07 15:45:51 SPECI KCHS 012045Z 15010KT 8SM FEW017 SCT031 BKN044 26/23 A2999 RMK AO2 TSB01E40RAE42 TS MOV S CB DSNT SE-S P0035 (BBE),,,,,,,,,,,,,,,,,,,,,,,,,,,,
72208013880,2007-07-05T15:56:00,FM-15,7,,SE,0.25,mi,"TEMP, PRECIP, SNOW",,,"MMTS, SRG, SNOWBOARD",,,WFO CHS,,,,,,,,,,,,,,,,,,,,,,,,,,,30.04,69,87,0,,0.04,6,55,30.03,FEW:02 45 SCT:04 90,29.99,10,75,150,,13,,,,,,,,,,,,,,,,,,,,,,,,,,,,,,,,,,,,,MET11107/05/07 15:56:51 METAR KCHS 052056Z 15011KT 10SM FEW045 SCT090 31/21 A3004 RMK AO2 SLP170 T03060206 56013 (WD),,,,,,,,,,,,,,,,,,,,,,,,,,,,
72208013880,2007-07-05T16:00:00,FM-12,4,,SE,0.25,mi,"TEMP, PRECIP, SNOW",,,"MMTS, SRG, SNOWBOARD",,,WFO CHS,,,,,,,,,,,,,,,,,,,,,,,,,,,,69,87,,,0.04,6,55,30.03,,29.99,9.94,75,150,,13,,,,,,,,,,,,,,,,,,,,,,,,,,,,,,,,,,,,,SYN076AAXX  05214 72208 32666 41511 10306 20206 30157 40170 56013 92056 555 90521;,,,,,,,,,,,,,,,,,,,,,,,,,,,,
72208013880,2007-07-05T17:56:00,FM-15,7,,SE,0.25,mi,"TEMP, PRECIP, SNOW",,,"MMTS, SRG, SNOWBOARD",,,WFO CHS,,,,,,,,,,,,,,,,,,,,,,,,,,,30.01,71,83,0,,,,67,30.01,FEW:02 30 SCT:04 90,29.96,10,75,150,,11,,,,,,,,,,,,,,,,,,,,,,,,,,,,,,,,,,,,,MET10507/05/07 17:56:50 METAR KCHS 052256Z 15010KT 10SM FEW030 SCT090 28/22 A3001 RMK AO2 SLP162 T02830217 (WD),,,,,,,,,,,,,,,,,,,,,,,,,,,,
72208013880,2007-07-06T14:56:00,FM-15,7,,SE,0.25,mi,"TEMP, PRECIP, SNOW",,,"MMTS, SRG, SNOWBOARD",,,WFO CHS,,,,,,,,,,,,,,,,,,,,,,,,,,,29.96,71,89,0,,,,55,29.96,FEW:02 45 SCT:04 80,29.91,10,76,160,,10,,,,,,,,,,,,,,,,,,,,,,,,,,,,,,,,,,,,,MET11807/06/07 14:56:51 METAR KCHS 061956Z 16009KT 10SM FEW045TCU SCT080 32/22 A2996 RMK AO2 SLP145 TCU N-NE T03170217 (JRS),,,,,,,,,,,,,,,,,,,,,,,,,,,,
72208013880,2007-07-06T17:56:00,FM-15,7,,SE,0.25,mi,"TEMP, PRECIP, SNOW",,,"MMTS, SRG, SNOWBOARD",,,WFO CHS,,,,,,,,,,,,,,,,,,,,,,,,,,,29.96,70,85,0,,,,61,29.95,SCT:04 49 BKN:07 60,29.91,10,75,160,,9,,,,,,,,,,,,,,,,,,,,,,,,,,,,,,,,,,,,,MET10607/06/07 17:56:50 METAR KCHS 062256Z 16008KT 10SM SCT049 BKN060 29/21 A2996 RMK AO2 SLP143 T02940211 (BBE),,,,,,,,,,,,,,,,,,,,,,,,,,,,
72208013880,2007-07-08T13:56:00,FM-15,7,,SE,0.25,mi,"TEMP, PRECIP, SNOW",,,"MMTS, SRG, SNOWBOARD",,,WFO CHS,,,,,,,,,,,,,,,,,,,,,,,,,,,29.93,70,89,0,,,,53,29.92,SCT:04 40 BKN:07 100,29.88,9,76,170,,10,,,,,,,,,,,,,,,,,,,,,,,,,,,,,,,,,,,,,MET10707/08/07 13:56:50 METAR KCHS 081856Z 17009KT 9SM SCT040 BKN100 32/21 A2993 RMK AO2 SLP133 T03170211 $ (JRS),,,,,,,,,,,,,,,,,,,,,,,,,,,,
72208013880,2007-07-09T13:15:00,FM-16,7,,SE,0.25,mi,"TEMP, PRECIP, SNOW",,,"MMTS, SRG, SNOWBOARD",,,WFO CHS,,,,,,,,,,,,,,,,,,,,,,,,,,,29.97,75,81,0.1,TS:7 -RA:02 |RA TS |SHRA TS,,,84,,SCT:04 30 BKN:07 70,29.92,5,77,170,,8,,,,,,,,,,,,,,,,,,,,,,,,,,,,,,,,,,,,,MET14407/09/07 13:15:51 SPECI KCHS 091815Z 17007KT 5SM -TSRA SCT030CB BKN070 27/24 A2997 RMK AO2 OCNL LTGIC E-S TS E-S MOV NE CB DSNT SW-N P0010 (WRB),,,,,,,,,,,,,,,,,,,,,,,,,,,,
72208013880,2007-07-09T15:26:00,FM-16,7,,SE,0.25,mi,"TEMP, PRECIP, SNOW",,,"MMTS, SRG, SNOWBOARD",,,WFO CHS,,,,,,,,,,,,,,,,,,,,,,,,,,,29.95,75,79,0.03,TS:7 +RA:02 BR:1 |RA TS |SHRA TS,,,89,,FEW:02 10 SCT:04 37 BKN:07 60,29.9,1.75,76,170,23,14,,,,,,,,,,,,,,,,,,,,,,,,,,,,,,,,,,,,,MET15607/09/07 15:26:51 SPECI KCHS 092026Z 17012G20KT 1 3/4SM +TSRA BR FEW010 SCT037CB BKN060 26/24 A2995 RMK AO2 0CNL LTGIC SE-SW TS SE-SW MOV NE VSHR P0003 (WD),,,,,,,,,,,,,,,,,,,,,,,,,,,,
72208013880,2007-07-14T12:12:00,FM-16,7,,SE,0.25,mi,"TEMP, PRECIP, SNOW",,,"MMTS, SRG, SNOWBOARD",,,WFO CHS,,,,,,,,,,,,,,,,,,,,,,,,,,,29.99,73,79,T,TS:7 -RA:02 |RA TS |SHRA TS,,,84,,FEW:02 7 BKN:07 23 BKN:07 50,29.94,5,75,160,,13,,,,,,,,,,,,,,,,,,,,,,,,,,,,,,,,,,,,,MET15907/14/07 12:12:51 SPECI KCHS 141712Z 16011KT 5SM -TSRA FEW007 BKN023CB BKN050 26/23 A2999 RMK AO2 RAB12 FRQ LTGCG SE-SW TS SE-SW MOV NE CB DSNT W P0000 $ (JRS),,,,,,,,,,,,,,,,,,,,,,,,,,,,
72208013880,2007-07-14T12:16:00,FM-16,7,,SE,0.25,mi,"TEMP, PRECIP, SNOW",,,"MMTS, SRG, SNOWBOARD",,,WFO CHS,,,,,,,,,,,,,,,,,,,,,,,,,,,29.99,73,77,0.01,TS:7 -RA:02 BR:1 |RA TS |SHRA TS,,,89,,FEW:02 7 BKN:07 23 BKN:07 50,29.94,1.5,74,150,,14,,,,,,,,,,,,,,,,,,,,,,,,,,,,,,,,,,,,,MET16607/14/07 12:16:51 SPECI KCHS 141716Z 15012KT 1 1/2SM -TSRA BR FEW007 BKN023CB BKN050 25/23 A2999 RMK AO2 RAB12 FRQ LTGCG SE-SW TS SE-SW MOV NE CB DSNT W P0001 $ (JRS),,,,,,,,,,,,,,,,,,,,,,,,,,,,
72208013880,2007-07-14T12:26:00,FM-16,7,,SE,0.25,mi,"TEMP, PRECIP, SNOW",,,"MMTS, SRG, SNOWBOARD",,,WFO CHS,,,,,,,,,,,,,,,,,,,,,,,,,,,29.99,72,73,0.08,TS:7 RA:02 BR:1 |RA TS |SHRA TS,,,94,,FEW:02 7 BKN:07 28 OVC:08 50,29.94,1.25V,72,160,,15,,,,,,,,,,,,,,,,,,,,,,,,,,,,,,,,,,,,,MET16707/14/07 12:27:08 SPECI KCHS 141726Z 16013KT 1 1/4SM TSRA BR FEW007 BKN028CB OVC050 23/22 A2999 RMK AO2 VIS 1/2V3 RAB12 FRQ LTGCGIC ALQDS TS ALQDS MOV NE P0008 $ (JRS),,,,,,,,,,,,,,,,,,,,,,,,,,,,
72208013880,2007-07-14T12:49:00,FM-16,7,,SE,0.25,mi,"TEMP, PRECIP, SNOW",,,"MMTS, SRG, SNOWBOARD",,,WFO CHS,,,,,,,,,,,,,,,,,,,,,,,,,,,29.98,70,72,0.38,TS:7 RA:02 BR:1 |RA TS |SHRA TS,,,94,,FEW:02 8 BKN:07 30 OVC:08 60,29.93,1.75,71,150,,13,,,,,,,,,,,,,,,,,,,,,,,,,,,,,,,,,,,,,MET15807/14/07 12:50:05 SPECI KCHS 141749Z 15011KT 1 3/4SM TSRA BR FEW008 BKN030CB OVC060 22/21 A2998 RMK AO2 RAB12 OCNL LTGCGIC ALQDS TS ALQDS MOV NE P0038 $ (JRS),,,,,,,,,,,,,,,,,,,,,,,,,,,,
72208013880,2007-07-15T15:56:00,FM-15,7,,SE,0.25,mi,"TEMP, PRECIP, SNOW",,,"MMTS, SRG, SNOWBOARD",,,WFO CHS,,,,,,,,,,,,,,,,,,,,,,,,,,,29.96,70,86,0,,0.03,6,59,29.95,SCT:04 37 SCT:04 50,29.91,10,75,170,,8,,,,,,,,,,,,,,,,,,,,,,,,,,,,,,,,,,,,,MET11407/15/07 15:56:51 METAR KCHS 152056Z 17007KT 10SM SCT037 SCT050 30/21 A2996 RMK AO2 SLP143 T03000211 56011 $ (BBE),,,,,,,,,,,,,,,,,,,,,,,,,,,,
72208013880,2007-07-15T16:00:00,FM-12,4,,SE,0.25,mi,"TEMP, PRECIP, SNOW",,,"MMTS, SRG, SNOWBOARD",,,WFO CHS,,,,,,,,,,,,,,,,,,,,,,,,,,,,70,86,,,0.03,6,59,29.95,,29.91,9.94,75,170,,8,,,,,,,,,,,,,,,,,,,,,,,,,,,,,,,,,,,,,SYN076AAXX  15214 72208 32666 41707 10300 20211 30129 40143 56011 92056 555 91521;,,,,,,,,,,,,,,,,,,,,,,,,,,,,
72208013880,2007-07-17T16:56:00,FM-15,7,,SE,0.25,mi,"TEMP, PRECIP, SNOW",,,"MMTS, SRG, SNOWBOARD",,,WFO CHS,,,,,,,,,,,,,,,,,,,,,,,,,,,30.04,72,89,0,,,,57,30.03,FEW:02 60,29.99,10,77,170,,13,,,,,,,,,,,,,,,,,,,,,,,,,,,,,,,,,,,,,MET12007/17/07 16:56:51 METAR KCHS 172156Z 17011KT 10SM FEW060 32/22 A3004 RMK AO2 SLP171 TCU DSNT N CB DSNT NE T03170222 (WD),,,,,,,,,,,,,,,,,,,,,,,,,,,,
72208013880,2007-07-23T15:56:00,FM-15,7,,SE,0.25,mi,"TEMP, PRECIP, SNOW",,,"MMTS, SRG, SNOWBOARD",,,WFO CHS,,,,,,,,,,,,,,,,,,,,,,,,,,,30.06,58,84,0,,0.03,6,41,30.05,FEW:02 80,30.01,10,68,150,,9,,,,,,,,,,,,,,,,,,,,,,,,,,,,,,,,,,,,,MET10407/23/07 15:56:50 METAR KCHS 232056Z 15008KT 10SM FEW080 29/14 A3006 RMK AO2 SLP177 T02890144 56009 (WD),,,,,,,,,,,,,,,,,,,,,,,,,,,,
72208013880,2007-07-23T16:00:00,FM-12,4,,SE,0.25,mi,"TEMP, PRECIP, SNOW",,,"MMTS, SRG, SNOWBOARD",,,WFO CHS,,,,,,,,,,,,,,,,,,,,,,,,,,,,58,84,,,0.03,6,41,30.05,,30.01,9.94,68,150,,9,,,,,,,,,,,,,,,,,,,,,,,,,,,,,,,,,,,,,SYN076AAXX  23214 72208 32866 21508 10289 20144 30163 40177 56009 92056 555 92321;,,,,,,,,,,,,,,,,,,,,,,,,,,,,
72208013880,2007-07-23T17:56:00,FM-15,7,,SE,0.25,mi,"TEMP, PRECIP, SNOW",,,"MMTS, SRG, SNOWBOARD",,,WFO CHS,,,,,,,,,,,,,,,,,,,,,,,,,,,30.05,57,81,0,,,,44,30.04,FEW:02 90,30,10,66,150,,11,,,,,,,,,,,,,,,,,,,,,,,,,,,,,,,,,,,,,MET09807/23/07 17:56:50 METAR KCHS 232256Z 15010KT 10SM FEW090 27/14 A3005 RMK AO2 SLP173 T02720139 (WD),,,,,,,,,,,,,,,,,,,,,,,,,,,,
72208013880,2007-07-26T14:32:00,FM-16,7,,SE,0.25,mi,"TEMP, PRECIP, SNOW",,,"MMTS, SRG, SNOWBOARD",,,WFO CHS,,,,,,,,,,,,,,,,,,,,,,,,,,,30.06,73,81,0.01,,,,79,,SCT:04 23 OVC:08 45,30.01,10,75,150,,13,,,,,,,,,,,,,,,,,,,,,,,,,,,,,,,,,,,,,MET12907/26/07 14:32:56 SPECI KCHS 261932Z 15011KT 10SM SCT023CB OVC045 27/23 A3006 RMK AO2 TSE16RAE13 TS MOV NE CB W MOV N P0001 (BPN),,,,,,,,,,,,,,,,,,,,,,,,,,,,
72208013880,2007-07-26T14:56:00,FM-15,7,,SE,0.25,mi,"TEMP, PRECIP, SNOW",,,"MMTS, SRG, SNOWBOARD",,,WFO CHS,,,,,,,,,,,,,,,,,,,,,,,,,,,30.05,73,80,0.01,-RA:02 |RA |RA,,,79,30.05,SCT:04 23 BKN:07 55,30,10,75,150,,10,,,,,,,,,,,,,,,,,,,,,,,,,,,,,,,,,,,,,MET15307/26/07 14:56:51 METAR KCHS 261956Z 15009KT 10SM -RA SCT023CB BKN055 27/23 A3005 RMK AO2 TSE16RAE13B45 SLP177 TS MOV NE CB W MOV N P0001 T02670228 (BPN),,,,,,,,,,,,,,,,,,,,,,,,,,,,
72208013880,2007-07-26T15:56:00,FM-15,7,,SE,0.25,mi,"TEMP, PRECIP, SNOW",,,"MMTS, SRG, SNOWBOARD",,,WFO CHS,,,,,,,,,,,,,,,,,,,,,,,,,,,30.05,73,80,T,,0.04,6,79,30.05,FEW:02 21 BKN:07 65,30,10,75,150,,7,,,,,,,,,,,,,,,,,,,,,,,,,,,,,,,,,,,,,MET12907/26/07 15:56:51 METAR KCHS 262056Z 15006KT 10SM FEW021 BKN065 27/23 A3005 RMK AO2 RAE40 SLP176 P0000 60009 T02670228 56012 (WD),,,,,,,,,,,,,,,,,,,,,,,,,,,,
72208013880,2007-07-26T16:00:00,FM-12,4,,SE,0.25,mi,"TEMP, PRECIP, SNOW",,,"MMTS, SRG, SNOWBOARD",,,WFO CHS,,,,,,,,,,,,,,,,,,,,,,,,,,,,73,80,,,0.04,6,79,30.05,,30,9.94,75,150,,7,,,,,,,,,,,,,,,,,,,,,,,,,,,,,,,,,,,,,SYN082AAXX  26214 72208 12566 61506 10267 20228 30160 40176 56012 60027 92056 555 92621;,,,,,,,,,,,,,,,,,,,,,,,,,,,,
72208013880,2007-07-26T16:56:00,FM-15,7,,SE,0.25,mi,"TEMP, PRECIP, SNOW",,,"MMTS, SRG, SNOWBOARD",,,WFO CHS,,,,,,,,,,,,,,,,,,,,,,,,,,,30.05,72,82,0,,,,72,30.04,FEW:02 20,30,10,75,160,,7,,,,,,,,,,,,,,,,,,,,,,,,,,,,,,,,,,,,,MET09807/26/07 16:56:50 METAR KCHS 262156Z 16006KT 10SM FEW020 28/22 A3005 RMK AO2 SLP174 T02780222 (WD),,,,,,,,,,,,,,,,,,,,,,,,,,,,
72208013880,2007-07-26T17:56:00,FM-15,7,,SE,0.25,mi,"TEMP, PRECIP, SNOW",,,"MMTS, SRG, SNOWBOARD",,,WFO CHS,,,,,,,,,,,,,,,,,,,,,,,,,,,30.04,72,83,0,,,,70,30.04,SCT:04 23,29.99,10,75,170,,7,,,,,,,,,,,,,,,,,,,,,,,,,,,,,,,,,,,,,MET09807/26/07 17:56:50 METAR KCHS 262256Z 17006KT 10SM SCT023 28/22 A3004 RMK AO2 SLP173 T02830222 (WD),,,,,,,,,,,,,,,,,,,,,,,,,,,,
72208013880,2007-07-27T14:56:00,FM-15,7,,SE,0.25,mi,"TEMP, PRECIP, SNOW",,,"MMTS, SRG, SNOWBOARD",,,WFO CHS,,,,,,,,,,,,,,,,,,,,,,,,,,,29.93,74,89,0,,,,61,29.93,FEW:02 33 SCT:04 50,29.88,10,78,160,,14,,,,,,,,,,,,,,,,,,,,,,,,,,,,,,,,,,,,,MET12507/27/07 14:56:51 METAR KCHS 271956Z 16012KT 10SM FEW033 SCT050TCU 32/23 A2993 RMK AO2 SLP134 TCU W CB DSNT N T03170233 (WRB),,,,,,,,,,,,,,,,,,,,,,,,,,,,
72208013880,2007-07-27T15:56:00,FM-15,7,,SE,0.25,mi,"TEMP, PRECIP, SNOW",,,"MMTS, SRG, SNOWBOARD",,,WFO CHS,,,,,,,,,,,,,,,,,,,,,,,,,,,29.91,73,87,0,,0.07,6,63,29.91,FEW:02 40,29.86,10,77,160,,15,,,,,,,,,,,,,,,,,,,,,,,,,,,,,,,,,,,,,MET11507/27/07 15:56:51 METAR KCHS 272056Z 16013KT 10SM FEW040 31/23 A2991 RMK AO2 SLP127 CB DSNT NE T03060228 56024 (WD),,,,,,,,,,,,,,,,,,,,,,,,,,,,
72208013880,2007-07-27T16:00:00,FM-12,4,,SE,0.25,mi,"TEMP, PRECIP, SNOW",,,"MMTS, SRG, SNOWBOARD",,,WFO CHS,,,,,,,,,,,,,,,,,,,,,,,,,,,,73,87,,,0.07,6,63,29.91,,29.86,9.94,77,160,,15,,,,,,,,,,,,,,,,,,,,,,,,,,,,,,,,,,,,,SYN076AAXX  27214 72208 32666 21613 10306 20228 30113 40127 56024 92056 555 92721;,,,,,,,,,,,,,,,,,,,,,,,,,,,,
72208013880,2007-07-27T17:56:00,FM-15,7,,SE,0.25,mi,"TEMP, PRECIP, SNOW",,,"MMTS, SRG, SNOWBOARD",,,WFO CHS,,,,,,,,,,,,,,,,,,,,,,,,,,,29.92,73,84,0,,,,70,29.92,FEW:02 35,29.87,10,76,160,,9,,,,,,,,,,,,,,,,,,,,,,,,,,,,,,,,,,,,,MET09807/27/07 17:56:50 METAR KCHS 272256Z 16008KT 10SM FEW035 29/23 A2992 RMK AO2 SLP131 T02890228 (WD),,,,,,,,,,,,,,,,,,,,,,,,,,,,
72208013880,2007-07-28T13:56:00,FM-15,7,,SE,0.25,mi,"TEMP, PRECIP, SNOW",,,"MMTS, SRG, SNOWBOARD",,,WFO CHS,,,,,,,,,,,,,,,,,,,,,,,,,,,29.88,69,76,0.02,,,,79,29.88,FEW:02 8 SCT:04 35 SCT:04 80,29.83,9,71,150,,8,,,,,,,,,,,,,,,,,,,,,,,,,,,,,,,,,,,,,MET13807/28/07 13:56:51 METAR KCHS 281856Z 15007KT 9SM FEW008 SCT035 SCT080 24/21 A2988 RMK AO2 TSE30RAE27 SLP118 TS MOV E P0002 T02440206 (JRS),,,,,,,,,,,,,,,,,,,,,,,,,,,,
72208013880,2007-07-28T14:56:00,FM-15,7,,SE,0.25,mi,"TEMP, PRECIP, SNOW",,,"MMTS, SRG, SNOWBOARD",,,WFO CHS,,,,,,,,,,,,,,,,,,,,,,,,,,,29.87,69,75,0,,,,82,29.87,FEW:02 35 SCT:04 100,29.82,10,71,170,,8,,,,,,,,,,,,,,,,,,,,,,,,,,,,,,,,,,,,,MET10607/28/07 14:56:50 METAR KCHS 281956Z 17007KT 10SM FEW035 SCT100 24/21 A2987 RMK AO2 SLP115 T02390206 (JRS),,,,,,,,,,,,,,,,,,,,,,,,,,,,
72208013880,2007-07-29T10:56:00,FM-15,7,,SE,0.25,mi,"TEMP, PRECIP, SNOW",,,"MMTS, SRG, SNOWBOARD",,,WFO CHS,,,,,,,,,,,,,,,,,,,,,,,,,,,29.88,72,82,0,,,,72,29.88,FEW:02 22 SCT:04 30 OVC:08 55,29.83,10,75,150,,9,,,,,,,,,,,,,,,,,,,,,,,,,,,,,,,,,,,,,MET12407/29/07 10:56:51 METAR KCHS 291556Z 15008KT 10SM FEW022 SCT030TCU OVC055 28/22 A2988 RMK AO2 SLP118 TCU S-W T02780222 (JRS),,,,,,,,,,,,,,,,,,,,,,,,,,,,
72208013880,2007-07-29T12:56:00,FM-15,7,,SE,0.25,mi,"TEMP, PRECIP, SNOW",,,"MMTS, SRG, SNOWBOARD",,,WFO CHS,,,,,,,,,,,,,,,,,,,,,,,,,,,29.87,72,84,0,,0.02,8,67,29.86,FEW:02 30 SCT:04 60,29.82,10,76,160,,8,,,,,,,,,,,,,,,,,,,,,,,,,,,,,,,,,,,,,MET12407/29/07 12:56:51 METAR KCHS 291756Z 16007KT 10SM FEW030 SCT060 29/22 A2987 RMK AO2 SLP112 T02890222 10294 20250 58006 (JRS),,,,,,,,,,,,,,,,,,,,,,,,,,,,
72208013880,2007-07-29T13:00:00,FM-12,4,,SE,0.25,mi,"TEMP, PRECIP, SNOW",,,"MMTS, SRG, SNOWBOARD",,,WFO CHS,,,,,,,,,,,,,,,,,,,,,,,,,,,,72,84,,,0.02,8,67,29.86,,29.82,9.94,76,160,,8,,,,,,,,,,,,,,,,,,,,,,,,,,,,,,,,,,,,,SYN092AAXX  29184 72208 32566 41607 10289 20222 30099 40112 58006 91756 333 10294 20222 555 92918;,,,,,,,,,,,,,,,,,,,,,,,,,,,,
72208013880,2007-07-29T13:56:00,FM-15,7,,SE,0.25,mi,"TEMP, PRECIP, SNOW",,,"MMTS, SRG, SNOWBOARD",,,WFO CHS,,,,,,,,,,,,,,,,,,,,,,,,,,,29.86,72,83,0,,,,70,29.86,FEW:02 26 SCT:04 34 BKN:07 41,29.81,10,75,160,,10,,,,,,,,,,,,,,,,,,,,,,,,,,,,,,,,,,,,,MET12507/29/07 13:56:51 METAR KCHS 291856Z 16009KT 10SM FEW026 SCT034TCU BKN041 28/22 A2986 RMK AO2 SLP111 TCU W-NW T02830222 (JRS),,,,,,,,,,,,,,,,,,,,,,,,,,,,
72208013880,2007-07-29T15:56:00,FM-15,7,,SE,0.25,mi,"TEMP, PRECIP, SNOW",,,"MMTS, SRG, SNOWBOARD",,,WFO CHS,,,,,,,,,,,,,,,,,,,,,,,,,,,29.83,72,84,0,,0.03,8,67,29.83,SCT:04 23 BKN:07 44 BKN:07 65,29.78,10,76,170,,11,,,,,,,,,,,,,,,,,,,,,,,,,,,,,,,,,,,,,MET15207/29/07 15:56:51 METAR KCHS 292056Z 17010KT 10SM SCT023 BKN044 BKN065 29/22 A2983 RMK AO2 RAE1958 SLP101 CB DSNT N-NE P0000 60000 T02890222 58011 (BBE),,,,,,,,,,,,,,,,,,,,,,,,,,,,
72208013880,2007-07-29T16:00:00,FM-12,4,,SE,0.25,mi,"TEMP, PRECIP, SNOW",,,"MMTS, SRG, SNOWBOARD",,,WFO CHS,,,,,,,,,,,,,,,,,,,,,,,,,,,,72,84,,,0.03,8,67,29.83,,29.78,9.94,76,170,,11,,,,,,,,,,,,,,,,,,,,,,,,,,,,,,,,,,,,,SYN082AAXX  29214 72208 12566 61710 10289 20222 30086 40101 58011 69907 92056 555 92921;,,,,,,,,,,,,,,,,,,,,,,,,,,,,
72208013880,2007-07-29T16:56:00,FM-15,7,,SE,0.25,mi,"TEMP, PRECIP, SNOW",,,"MMTS, SRG, SNOWBOARD",,,WFO CHS,,,,,,,,,,,,,,,,,,,,,,,,,,,29.82,72,84,0,,,,67,29.82,SCT:04 23 SCT:04 47 BKN:07 60,29.77,10,76,170,,10,,,,,,,,,,,,,,,,,,,,,,,,,,,,,,,,,,,,,MET11307/29/07 16:56:51 METAR KCHS 292156Z 17009KT 10SM SCT023 SCT047 BKN060 29/22 A2982 RMK AO2 SLP097 T02890222 (BBE),,,,,,,,,,,,,,,,,,,,,,,,,,,,
72208013880,2007-07-29T17:56:00,FM-15,7,,SE,0.25,mi,"TEMP, PRECIP, SNOW",,,"MMTS, SRG, SNOWBOARD",,,WFO CHS,,,,,,,,,,,,,,,,,,,,,,,,,,,29.82,72,83,0,,,,70,29.82,SCT:04 25 BKN:07 50,29.77,10,75,160,,8,,,,,,,,,,,,,,,,,,,,,,,,,,,,,,,,,,,,,MET10607/29/07 17:56:50 METAR KCHS 292256Z 16007KT 10SM SCT025 BKN050 28/22 A2982 RMK AO2 SLP098 T02830222 (BBE),,,,,,,,,,,,,,,,,,,,,,,,,,,,
72208013880,2007-08-04T17:56:00,FM-15,7,,SE,0.25,mi,"TEMP, PRECIP, SNOW",,,"MMTS, SRG, SNOWBOARD",,,WFO CHS,,,,,,,,,,,,,,,,,,,,,,,,,,,29.96,75,86,0,,,,70,29.96,FEW:02 35,29.91,10,78,150,,9,,,,,,,,,,,,,,,,,,,,,,,,,,,,,,,,,,,,,MET10108/04/07 17:56:50 METAR KCHS 042256Z 15008KT 10SM FEW035 30/24 A2996 RMK AO2 SLP144 T03000239 $ (BBE),,,,,,,,,,,,,,,,,,,,,,,,,,,,
72208013880,2007-08-07T16:56:00,FM-15,7,,SE,0.25,mi,"TEMP, PRECIP, SNOW",,,"MMTS, SRG, SNOWBOARD",,,WFO CHS,,,,,,,,,,,,,,,,,,,,,,,,,,,29.88,72,89,0,HZ:7 ||HZ,,,57,29.88,FEW:02 75,29.83,6,77,150,,8,,,,,,,,,,,,,,,,,,,,,,,,,,,,,,,,,,,,,MET10008/07/07 16:56:50 METAR KCHS 072156Z 15007KT 6SM HZ FEW075 32/22 A2988 RMK AO2 SLP118 T03170222 (WD),,,,,,,,,,,,,,,,,,,,,,,,,,,,
72208013880,2007-08-07T17:56:00,FM-15,7,,SE,0.25,mi,"TEMP, PRECIP, SNOW",,,"MMTS, SRG, SNOWBOARD",,,WFO CHS,,,,,,,,,,,,,,,,,,,,,,,,,,,29.88,77,89,0,HZ:7 ||HZ,,,68,29.88,FEW:02 95,29.83,4,80,170,,8,,,,,,,,,,,,,,,,,,,,,,,,,,,,,,,,,,,,,MET10008/07/07 17:56:50 METAR KCHS 072256Z 17007KT 4SM HZ FEW095 32/25 A2988 RMK AO2 SLP117 T03170250 (WD),,,,,,,,,,,,,,,,,,,,,,,,,,,,
72208013880,2007-08-11T10:56:00,FM-15,7,,SE,0.25,mi,"TEMP, PRECIP, SNOW",,,"MMTS, SRG, SNOWBOARD",,,WFO CHS,,,,,,,,,,,,,,,,,,,,,,,,,,,29.92,74,87,0,,,,65,29.92,FEW:02 30,29.87,10,78,170,,15,,,,,,,,,,,,,,,,,,,,,,,,,,,,,,,,,,,,,MET09908/11/07 10:56:50 METAR KCHS 111556Z 17013KT 10SM FEW030 31/23 A2992 RMK AO2 SLP132 T03060233 (JRS),,,,,,,,,,,,,,,,,,,,,,,,,,,,
72208013880,2007-08-14T17:56:00,FM-15,7,,SE,0.25,mi,"TEMP, PRECIP, SNOW",,,"MMTS, SRG, SNOWBOARD",,,WFO CHS,,,,,,,,,,,,,,,,,,,,,,,,,,,29.88,72,86,0,,,,63,29.88,FEW:02 100,29.83,9,76,150,,9,,,,,,,,,,,,,,,,,,,,,,,,,,,,,,,,,,,,,MET09708/14/07 17:56:50 METAR KCHS 142256Z 15008KT 9SM FEW100 30/22 A2988 RMK AO2 SLP119 T03000222 (WD),,,,,,,,,,,,,,,,,,,,,,,,,,,,
72208013880,2007-08-18T12:56:00,FM-15,7,,SE,0.25,mi,"TEMP, PRECIP, SNOW",,,"MMTS, SRG, SNOWBOARD",,,WFO CHS,,,,,,,,,,,,,,,,,,,,,,,,,,,30.1,73,91,0,,0.01,8,56,30.1,FEW:02 40,30.05,9,78,160,,10,,,,,,,,,,,,,,,,,,,,,,,,,,,,,,,,,,,,,MET11608/18/07 12:56:51 METAR KCHS 181756Z 16009KT 9SM FEW040 33/23 A3010 RMK AO2 SLP192 T03280228 10333 20256 58004 (JRS),,,,,,,,,,,,,,,,,,,,,,,,,,,,
72208013880,2007-08-18T13:00:00,FM-12,4,,SE,0.25,mi,"TEMP, PRECIP, SNOW",,,"MMTS, SRG, SNOWBOARD",,,WFO CHS,,,,,,,,,,,,,,,,,,,,,,,,,,,,73,91,,,0.01,8,56,30.1,,30.05,8.7,78,160,,10,,,,,,,,,,,,,,,,,,,,,,,,,,,,,,,,,,,,,SYN092AAXX  18184 72208 32664 21609 10328 20228 30177 40192 58004 91756 333 10333 20256 555 91818;,,,,,,,,,,,,,,,,,,,,,,,,,,,,
72208013880,2007-08-18T15:56:00,FM-15,7,,SE,0.25,mi,"TEMP, PRECIP, SNOW",,,"MMTS, SRG, SNOWBOARD",,,WFO CHS,,,,,,,,,,,,,,,,,,,,,,,,,,,30.1,74,91,0,,0,5,57,30.1,SCT:04 37,30.05,8,79,160,,9,,,,,,,,,,,,,,,,,,,,,,,,,,,,,,,,,,,,,MET10408/18/07 15:56:50 METAR KCHS 182056Z 16008KT 8SM SCT037 33/23 A3010 RMK AO2 SLP192 T03280233 55000 (BBE),,,,,,,,,,,,,,,,,,,,,,,,,,,,
72208013880,2007-08-18T16:00:00,FM-12,4,,SE,0.25,mi,"TEMP, PRECIP, SNOW",,,"MMTS, SRG, SNOWBOARD",,,WFO CHS,,,,,,,,,,,,,,,,,,,,,,,,,,,,74,91,,,0,5,57,30.1,,30.05,7.46,79,160,,9,,,,,,,,,,,,,,,,,,,,,,,,,,,,,,,,,,,,,SYN076AAXX  18214 72208 32662 41608 10328 20233 30177 40192 55000 92056 555 91821;,,,,,,,,,,,,,,,,,,,,,,,,,,,,
72208013880,2007-08-18T16:56:00,FM-15,7,,SE,0.25,mi,"TEMP, PRECIP, SNOW",,,"MMTS, SRG, SNOWBOARD",,,WFO CHS,,,,,,,,,,,,,,,,,,,,,,,,,,,30.1,73,89,0,,,,59,30.1,FEW:02 35,30.05,8,78,150,,9,,,,,,,,,,,,,,,,,,,,,,,,,,,,,,,,,,,,,MET09808/18/07 16:56:50 METAR KCHS 182156Z 15008KT 8SM FEW035 32/23 A3010 RMK AO2 SLP193 T03170228 (BBE),,,,,,,,,,,,,,,,,,,,,,,,,,,,
72208013880,2007-08-19T13:56:00,FM-15,7,,SE,0.25,mi,"TEMP, PRECIP, SNOW",,,"MMTS, SRG, SNOWBOARD",,,WFO CHS,,,,,,,,,,,,,,,,,,,,,,,,,,,30.13,68,92,0,,,,46,30.13,FEW:02 47,30.08,10,76,160,,11,,,,,,,,,,,,,,,,,,,,,,,,,,,,,,,,,,,,,MET09908/19/07 13:56:50 METAR KCHS 191856Z 16010KT 10SM FEW047 33/20 A3013 RMK AO2 SLP202 T03330200 (JRS),,,,,,,,,,,,,,,,,,,,,,,,,,,,
72208013880,2007-08-19T14:56:00,FM-15,7,,SE,0.25,mi,"TEMP, PRECIP, SNOW",,,"MMTS, SRG, SNOWBOARD",,,WFO CHS,,,,,,,,,,,,,,,,,,,,,,,,,,,30.12,71,90,0,,,,54,30.12,FEW:02 43,30.07,10,77,170,,9,,,,,,,,,,,,,,,,,,,,,,,,,,,,,,,,,,,,,MET09908/19/07 14:56:50 METAR KCHS 191956Z 17008KT 10SM FEW043 32/22 A3012 RMK AO2 SLP199 T03220217 (JRS),,,,,,,,,,,,,,,,,,,,,,,,,,,,
72208013880,2007-08-21T13:56:00,FM-15,7,,SE,0.25,mi,"TEMP, PRECIP, SNOW",,,"MMTS, SRG, SNOWBOARD",,,WFO CHS,,,,,,,,,,,,,,,,,,,,,,,,,,,30.07,74,96,0,,,,49,30.07,SCT:04 50,30.02,10,80,150,,8,,,,,,,,,,,,,,,,,,,,,,,,,,,,,,,,,,,,,MET09908/21/07 13:56:50 METAR KCHS 211856Z 15007KT 10SM SCT050 36/23 A3007 RMK AO2 SLP183 T03560233 (WRB),,,,,,,,,,,,,,,,,,,,,,,,,,,,
72208013880,2007-08-21T17:56:00,FM-15,7,,SE,0.25,mi,"TEMP, PRECIP, SNOW",,,"MMTS, SRG, SNOWBOARD",,,WFO CHS,,,,,,,,,,,,,,,,,,,,,,,,,,,30.06,75,89,0,,,,63,30.06,,30.01,10,79,170,,11,,,,,,,,,,,,,,,,,,,,,,,,,,,,,,,,,,,,,MET09608/21/07 17:56:50 METAR KCHS 212256Z 17010KT 10SM CLR 32/24 A3006 RMK AO2 SLP178 T03170239 (BPN),,,,,,,,,,,,,,,,,,,,,,,,,,,,
72208013880,2007-08-22T15:56:00,FM-15,7,,SE,0.25,mi,"TEMP, PRECIP, SNOW",,,"MMTS, SRG, SNOWBOARD",,,WFO CHS,,,,,,,,,,,,,,,,,,,,,,,,,,,30.01,77,92,0,,0.05,6,62,30.01,FEW:02 50 SCT:04 75,29.96,10,81,160,,11,,,,,,,,,,,,,,,,,,,,,,,,,,,,,,,,,,,,,MET14008/22/07 15:56:51 METAR KCHS 222056Z 16010KT 10SM FEW050CB SCT075 33/25 A3001 RMK AO2 SLP161 CB SW-W MOV S TCU DSNT NE T03330250 56018 (BBE),,,,,,,,,,,,,,,,,,,,,,,,,,,,
72208013880,2007-08-22T16:00:00,FM-12,4,,SE,0.25,mi,"TEMP, PRECIP, SNOW",,,"MMTS, SRG, SNOWBOARD",,,WFO CHS,,,,,,,,,,,,,,,,,,,,,,,,,,,,77,92,,,0.05,6,62,30.01,,29.96,9.94,81,160,,11,,,,,,,,,,,,,,,,,,,,,,,,,,,,,,,,,,,,,SYN076AAXX  22214 72208 32766 41610 10333 20250 30146 40161 56018 92056 555 92221;,,,,,,,,,,,,,,,,,,,,,,,,,,,,
72208013880,2007-08-22T16:56:00,FM-15,7,,SE,0.25,mi,"TEMP, PRECIP, SNOW",,,"MMTS, SRG, SNOWBOARD",,,WFO CHS,,,,,,,,,,,,,,,,,,,,,,,,,,,30.01,77,91,0,,,,64,30.01,FEW:02 33,29.96,10,81,160,,10,,,,,,,,,,,,,,,,,,,,,,,,,,,,,,,,,,,,,MET11308/22/07 16:56:50 METAR KCHS 222156Z 16009KT 10SM FEW033 33/25 A3001 RMK AO2 SLP162 TCU DSNT N-NE T03280250 (BBE),,,,,,,,,,,,,,,,,,,,,,,,,,,,
72208013880,2007-08-22T17:56:00,FM-15,7,,SE,0.25,mi,"TEMP, PRECIP, SNOW",,,"MMTS, SRG, SNOWBOARD",,,WFO CHS,,,,,,,,,,,,,,,,,,,,,,,,,,,30.01,76,88,0,,,,68,30.01,FEW:02 31,29.96,10,79,150,,10,,,,,,,,,,,,,,,,,,,,,,,,,,,,,,,,,,,,,MET11108/22/07 17:56:50 METAR KCHS 222256Z 15009KT 10SM FEW031 31/24 A3001 RMK AO2 SLP162 TCU DSNT NE T03110244 (BBE),,,,,,,,,,,,,,,,,,,,,,,,,,,,
72208013880,2007-08-24T15:56:00,FM-15,7,,SE,0.25,mi,"TEMP, PRECIP, SNOW",,,"MMTS, SRG, SNOWBOARD",,,WFO CHS,,,,,,,,,,,,,,,,,,,,,,,,,,,30.01,75,86,0,,0.05,8,70,30.01,SCT:04 27,29.96,10,78,150,,8,,,,,,,,,,,,,,,,,,,,,,,,,,,,,,,,,,,,,MET11108/24/07 15:56:50 METAR KCHS 242056Z 15007KT 10SM SCT027 30/24 A3001 RMK AO2 SLP162 60000 T03000239 58016 (BBE),,,,,,,,,,,,,,,,,,,,,,,,,,,,
72208013880,2007-08-24T16:00:00,FM-12,4,,SE,0.25,mi,"TEMP, PRECIP, SNOW",,,"MMTS, SRG, SNOWBOARD",,,WFO CHS,,,,,,,,,,,,,,,,,,,,,,,,,,,,75,86,,,0.05,8,70,30.01,,29.96,9.94,78,150,,8,,,,,,,,,,,,,,,,,,,,,,,,,,,,,,,,,,,,,SYN082AAXX  24214 72208 12566 41507 10300 20239 30146 40162 58016 69907 92056 555 92421;,,,,,,,,,,,,,,,,,,,,,,,,,,,,
72208013880,2007-08-25T11:10:00,FM-16,7,,SE,0.25,mi,"TEMP, PRECIP, SNOW",,,"MMTS, SRG, SNOWBOARD",,,WFO CHS,,,,,,,,,,,,,,,,,,,,,,,,,,,29.99,75,82,0.07,+RA:02 |RA |RA,,,79,,BKN:07 26 BKN:07 45,29.94,3,77,150,,7,,,,,,,,,,,,,,,,,,,,,,,,,,,,,,,,,,,,,MET11708/25/07 11:11:14 SPECI KCHS 251610Z 15006KT 3SM +RA BKN026TCU BKN045 28/24 A2999 RMK AO2 TCU OHD AND W-N P0007 (JRS),,,,,,,,,,,,,,,,,,,,,,,,,,,,
72208013880,2007-08-25T13:56:00,FM-15,7,,SE,0.25,mi,"TEMP, PRECIP, SNOW",,,"MMTS, SRG, SNOWBOARD",,,WFO CHS,,,,,,,,,,,,,,,,,,,,,,,,,,,29.98,76,85,T,,,,75,29.98,SCT:04 23 BKN:07 80,29.93,10,79,170,,9,,,,,,,,,,,,,,,,,,,,,,,,,,,,,,,,,,,,,MET14808/25/07 13:56:51 METAR KCHS 251856Z 17008KT 10SM SCT023TCU BKN080 29/24 A2998 RMK AO2 TSE11RAE11B33E44 SLP151 TCU NE TS MOV N P0001 T02940244 (JRS),,,,,,,,,,,,,,,,,,,,,,,,,,,,
72208013880,2007-08-25T15:56:00,FM-15,7,,SE,0.25,mi,"TEMP, PRECIP, SNOW",,,"MMTS, SRG, SNOWBOARD",,,WFO CHS,,,,,,,,,,,,,,,,,,,,,,,,,,,29.9,75,86,0,,0.09,8,70,29.9,FEW:02 18 SCT:04 22,29.85,10,78,170,,7,,,,,,,,,,,,,,,,,,,,,,,,,,,,,,,,,,,,,MET11808/25/07 15:56:51 METAR KCHS 252056Z 17006KT 10SM FEW018 SCT022 30/24 A2990 RMK AO2 SLP124 60001 T03000239 58029 (BBE),,,,,,,,,,,,,,,,,,,,,,,,,,,,
72208013880,2007-08-25T16:00:00,FM-12,4,,SE,0.25,mi,"TEMP, PRECIP, SNOW",,,"MMTS, SRG, SNOWBOARD",,,WFO CHS,,,,,,,,,,,,,,,,,,,,,,,,,,,,75,86,,,0.09,8,70,29.9,,29.85,9.94,78,170,,7,,,,,,,,,,,,,,,,,,,,,,,,,,,,,,,,,,,,,SYN082AAXX  25214 72208 12466 41706 10300 20239 30109 40124 58029 69937 92056 555 92521;,,,,,,,,,,,,,,,,,,,,,,,,,,,,
72208013880,2007-08-25T16:56:00,FM-15,7,,SE,0.25,mi,"TEMP, PRECIP, SNOW",,,"MMTS, SRG, SNOWBOARD",,,WFO CHS,,,,,,,,,,,,,,,,,,,,,,,,,,,29.91,75,86,0,,,,70,29.91,SCT:04 24,29.86,10,78,150,,7,,,,,,,,,,,,,,,,,,,,,,,,,,,,,,,,,,,,,MET09908/25/07 16:56:50 METAR KCHS 252156Z 15006KT 10SM SCT024 30/24 A2991 RMK AO2 SLP127 T03000239 (BBE),,,,,,,,,,,,,,,,,,,,,,,,,,,,
72208013880,2007-08-25T17:56:00,FM-15,7,,SE,0.25,mi,"TEMP, PRECIP, SNOW",,,"MMTS, SRG, SNOWBOARD",,,WFO CHS,,,,,,,,,,,,,,,,,,,,,,,,,,,29.93,74,84,0,,,,72,29.93,SCT:04 25,29.88,10,77,170,,10,,,,,,,,,,,,,,,,,,,,,,,,,,,,,,,,,,,,,MET09908/25/07 17:56:50 METAR KCHS 252256Z 17009KT 10SM SCT025 29/23 A2993 RMK AO2 SLP134 T02890233 (BBE),,,,,,,,,,,,,,,,,,,,,,,,,,,,
72208013880,2007-08-26T14:56:00,FM-15,7,,SE,0.25,mi,"TEMP, PRECIP, SNOW",,,"MMTS, SRG, SNOWBOARD",,,WFO CHS,,,,,,,,,,,,,,,,,,,,,,,,,,,29.92,74,89,0,,,,61,29.92,SCT:04 30,29.87,10,78,150,,9,,,,,,,,,,,,,,,,,,,,,,,,,,,,,,,,,,,,,MET11808/26/07 14:56:51 METAR KCHS 261956Z 15008KT 10SM SCT030CB 32/23 A2992 RMK AO2 SLP132 CB E MOV N TCU N T03170233 (JRS),,,,,,,,,,,,,,,,,,,,,,,,,,,,
72208013880,2007-08-26T15:56:00,FM-15,7,,SE,0.25,mi,"TEMP, PRECIP, SNOW",,,"MMTS, SRG, SNOWBOARD",,,WFO CHS,,,,,,,,,,,,,,,,,,,,,,,,,,,29.91,75,89,0,,0.06,6,63,29.91,SCT:04 32 SCT:04 41,29.86,10,79,150,,14,,,,,,,,,,,,,,,,,,,,,,,,,,,,,,,,,,,,,MET12608/26/07 15:56:51 METAR KCHS 262056Z 15012KT 10SM SCT032 SCT041 32/24 A2991 RMK AO2 SLP127 TCU DSNT NW-N T03170239 56019 (BBE),,,,,,,,,,,,,,,,,,,,,,,,,,,,
72208013880,2007-08-26T16:00:00,FM-12,4,,SE,0.25,mi,"TEMP, PRECIP, SNOW",,,"MMTS, SRG, SNOWBOARD",,,WFO CHS,,,,,,,,,,,,,,,,,,,,,,,,,,,,75,89,,,0.06,6,63,29.91,,29.86,9.94,79,150,,14,,,,,,,,,,,,,,,,,,,,,,,,,,,,,,,,,,,,,SYN076AAXX  26214 72208 32566 41512 10317 20239 30113 40127 56019 92056 555 92621;,,,,,,,,,,,,,,,,,,,,,,,,,,,,
72208013880,2007-08-30T13:56:00,FM-15,7,,SE,0.25,mi,"TEMP, PRECIP, SNOW",,,"MMTS, SRG, SNOWBOARD",,,WFO CHS,,,,,,,,,,,,,,,,,,,,,,,,,,,29.9,75,90,0,,,,62,29.9,SCT:04 39 SCT:04 70,29.85,8,79,160,,10,,,,,,,,,,,,,,,,,,,,,,,,,,,,,,,,,,,,,MET11608/30/07 13:56:51 METAR KCHS 301856Z 16009KT 8SM SCT039 SCT070 32/24 A2990 RMK AO2 SLP125 TCU DSNT W T03220239 (WRB),,,,,,,,,,,,,,,,,,,,,,,,,,,,
72208013880,2007-08-30T16:56:00,FM-15,7,,SE,0.25,mi,"TEMP, PRECIP, SNOW",,,"MMTS, SRG, SNOWBOARD",,,WFO CHS,,,,,,,,,,,,,,,,,,,,,,,,,,,29.87,72,84,0,VCTS:7 ||TS,,,67,29.87,FEW:02 45,29.82,9,76,160,,8,,,,,,,,,,,,,,,,,,,,,,,,,,,,,,,,,,,,,MET15408/30/07 16:56:51 METAR KCHS 302156Z 16007KT 9SM VCTS FEW045CB 29/22 A2987 RMK AO2 TSB19 SLP115 OCNL LTGICCG VC DSNT NW VCTS DSNT NW MOV SW T02890222 (WD),,,,,,,,,,,,,,,,,,,,,,,,,,,,
72208013880,2007-08-30T17:12:00,FM-16,7,,SE,0.25,mi,"TEMP, PRECIP, SNOW",,,"MMTS, SRG, SNOWBOARD",,,WFO CHS,,,,,,,,,,,,,,,,,,,,,,,,,,,29.89,72,84,,,,,66,,FEW:02 45,29.84,9,76,150,,8,,,,,,,,,,,,,,,,,,,,,,,,,,,,,,,,,,,,,MET10308/30/07 17:13:03 SPECI KCHS 302212Z 15007KT 9SM FEW045 29/22 A2989 RMK AO2 TSE07 MOV W CB DSNT NW (WD),,,,,,,,,,,,,,,,,,,,,,,,,,,,
72208013880,2007-08-30T17:56:00,FM-15,7,,SE,0.25,mi,"TEMP, PRECIP, SNOW",,,"MMTS, SRG, SNOWBOARD",,,WFO CHS,,,,,,,,,,,,,,,,,,,,,,,,,,,29.89,72,83,T,,,,70,29.88,FEW:02 45,29.84,9,75,150,,7,,,,,,,,,,,,,,,,,,,,,,,,,,,,,,,,,,,,,MET13708/30/07 17:57:09 METAR KCHS 302256Z 15006KT 9SM FEW045 28/22 A2989 RMK AO2 TSE07RAB27E43 SLP119 TS MOV W CB DSNT NW P0000 T02830222 (WD),,,,,,,,,,,,,,,,,,,,,,,,,,,,
72208013880,2007-09-11T15:56:00,SY-MT,7,,SE,0.25,mi,"TEMP, PRECIP, SNOW",,,"MMTS, SRG, SNOWBOARD",,,WFO CHS,,,,,,,,,,,,,,,,,,,,,,,,,,,29.92,75,85,0,,0.03,6,72,29.92,SCT:04 26,29.87,10,78,170,,14,,,,,,,,,,,,,,,,,,,,,,,,,,,,,,,,,,,,,SYN082AAXX  11214 72208 12566 41712 10294 20239 30116 40131 56010 60017 92056 555 91121;MET13709/11/07 15:56:51 METAR KCHS 112056Z 17012KT 10SM SCT026 29/24 A2992 RMK AO2 TSE29 SLP131 TS MOV NE CB DSNT NE 60005 T02940239 56010 (WD),,,,,,,,,,,,,,,,,,,,,,,,,,,,
72208013880,2007-09-12T13:56:00,FM-15,7,,SE,0.25,mi,"TEMP, PRECIP, SNOW",,,"MMTS, SRG, SNOWBOARD",,,WFO CHS,,,,,,,,,,,,,,,,,,,,,,,,,,,29.96,75,88,T,,,,66,29.96,FEW:02 33 SCT:04 100,29.91,10,79,160,,9,,,,,,,,,,,,,,,,,,,,,,,,,,,,,,,,,,,,,MET13309/12/07 13:56:51 METAR KCHS 121856Z 16008KT 10SM FEW033 SCT100 31/24 A2996 RMK AO2 RAB17E51 SLP144 CB DSNT W-N P0000 T03110239 (BBE),,,,,,,,,,,,,,,,,,,,,,,,,,,,
72208013880,2007-09-14T10:56:00,FM-15,7,,SE,0.25,mi,"TEMP, PRECIP, SNOW",,,"MMTS, SRG, SNOWBOARD",,,WFO CHS,,,,,,,,,,,,,,,,,,,,,,,,,,,30.05,74,84,0,,,,72,30.05,BKN:07 22,30,10,77,170,,9,,,,,,,,,,,,,,,,,,,,,,,,,,,,,,,,,,,,,MET09909/14/07 10:56:50 METAR KCHS 141556Z 17008KT 10SM BKN022 29/23 A3005 RMK AO2 SLP175 T02890233 (WRB),,,,,,,,,,,,,,,,,,,,,,,,,,,,
72208013880,2007-09-14T13:56:00,FM-15,7,,SE,0.25,mi,"TEMP, PRECIP, SNOW",,,"MMTS, SRG, SNOWBOARD",,,WFO CHS,,,,,,,,,,,,,,,,,,,,,,,,,,,29.99,74,88,0,,,,63,29.98,SCT:04 28,29.94,10,78,170,,15,,,,,,,,,,,,,,,,,,,,,,,,,,,,,,,,,,,,,MET09909/14/07 13:56:50 METAR KCHS 141856Z 17013KT 10SM SCT028 31/23 A2999 RMK AO2 SLP153 T03110233 (WRB),,,,,,,,,,,,,,,,,,,,,,,,,,,,
72208013880,2007-09-14T16:56:00,FM-15,7,,SE,0.25,mi,"TEMP, PRECIP, SNOW",,,"MMTS, SRG, SNOWBOARD",,,WFO CHS,,,,,,,,,,,,,,,,,,,,,,,,,,,29.95,75,85,0,,,,72,29.94,FEW:02 26,29.9,10,78,170,,14,,,,,,,,,,,,,,,,,,,,,,,,,,,,,,,,,,,,,MET10909/14/07 16:56:50 METAR KCHS 142156Z 17012KT 10SM FEW026 29/24 A2995 RMK AO2 SLP140 TCU DSNT N T02940239 (WD),,,,,,,,,,,,,,,,,,,,,,,,,,,,
72208013880,2007-09-22T13:33:00,FM-16,7,,SE,0.25,mi,"TEMP, PRECIP, SNOW",,,"MMTS, SRG, SNOWBOARD",,,WFO CHS,,,,,,,,,,,,,,,,,,,,,,,,,,,30.08,72,75,0.26,+RA:02 BR:1 |RA |RA,,,89,,FEW:02 8 BKN:07 20 OVC:08 28,30.03,1.5,73,160,,9,,,,,,,,,,,,,,,,,,,,,,,,,,,,,,,,,,,,,MET12909/22/07 13:33:51 SPECI KCHS 221833Z 16008KT 1 1/2SM +RA BR FEW008 BKN020CB OVC028 24/22 A3008 RMK AO2 CB ALQDS STNRY P0026 (JRS),,,,,,,,,,,,,,,,,,,,,,,,,,,,
72208013880,2007-09-23T15:56:00,FM-15,7,,SE,0.25,mi,"TEMP, PRECIP, SNOW",,,"MMTS, SRG, SNOWBOARD",,,WFO CHS,,,,,,,,,,,,,,,,,,,,,,,,,,,30.08,73,89,0,,0.05,6,59,30.08,SCT:04 38,30.03,10,78,150,,8,,,,,,,,,,,,,,,,,,,,,,,,,,,,,,,,,,,,,MET11709/23/07 15:56:51 METAR KCHS 232056Z 15007KT 10SM SCT038TCU 32/23 A3008 RMK AO2 SLP186 TCU SW-W T03170228 56018 (BBE),,,,,,,,,,,,,,,,,,,,,,,,,,,,
72208013880,2007-09-23T16:00:00,FM-12,4,,SE,0.25,mi,"TEMP, PRECIP, SNOW",,,"MMTS, SRG, SNOWBOARD",,,WFO CHS,,,,,,,,,,,,,,,,,,,,,,,,,,,,73,89,,,0.05,6,59,30.08,,30.03,9.94,78,150,,8,,,,,,,,,,,,,,,,,,,,,,,,,,,,,,,,,,,,,SYN076AAXX  23214 72208 32666 41507 10317 20228 30170 40186 56018 92056 555 92321;,,,,,,,,,,,,,,,,,,,,,,,,,,,,
72208013880,2007-09-27T16:56:00,FM-15,7,,SE,0.25,mi,"TEMP, PRECIP, SNOW",,,"MMTS, SRG, SNOWBOARD",,,WFO CHS,,,,,,,,,,,,,,,,,,,,,,,,,,,29.9,69,83,0,,,,63,29.89,FEW:02 50,29.85,10,74,170,,9,,,,,,,,,,,,,,,,,,,,,,,,,,,,,,,,,,,,,MET09809/27/07 16:56:50 METAR KCHS 272156Z 17008KT 10SM FEW050 28/21 A2990 RMK AO2 SLP123 T02830206 (WD),,,,,,,,,,,,,,,,,,,,,,,,,,,,
72208013880,2007-09-27T17:56:00,FM-15,7,,SE,0.25,mi,"TEMP, PRECIP, SNOW",,,"MMTS, SRG, SNOWBOARD",,,WFO CHS,,,,,,,,,,,,,,,,,,,,,,,,,,,29.9,70,79,0,,,,74,29.89,,29.85,10,73,150,,7,,,,,,,,,,,,,,,,,,,,,,,,,,,,,,,,,,,,,MET09509/27/07 17:56:50 METAR KCHS 272256Z 15006KT 10SM CLR 26/21 A2990 RMK AO2 SLP123 T02610211 (WD),,,,,,,,,,,,,,,,,,,,,,,,,,,,
72208013880,2007-10-07T13:56:00,FM-15,7,,SE,0.25,mi,"TEMP, PRECIP, SNOW",,,"MMTS, SRG, SNOWBOARD",,,WFO CHS,,,,,,,,,,,,,,,,,,,,,,,,,,,30.02,70,85,0,,,,61,30.01,SCT:04 23 SCT:04 80,29.97,10,75,150,,8,,,,,,,,,,,,,,,,,,,,,,,,,,,,,,,,,,,,,MET10610/07/07 13:56:50 METAR KCHS 071856Z 15007KT 10SM SCT023 SCT080 29/21 A3002 RMK AO2 SLP163 T02940211 (JRS),,,,,,,,,,,,,,,,,,,,,,,,,,,,
72208013880,2007-10-08T14:56:00,FM-15,7,,SE,0.25,mi,"TEMP, PRECIP, SNOW",,,"MMTS, SRG, SNOWBOARD",,,WFO CHS,,,,,,,,,,,,,,,,,,,,,,,,,,,29.99,68,86,0,,,,55,29.99,SCT:04 46,29.94,10,74,160,,8,,,,,,,,,,,,,,,,,,,,,,,,,,,,,,,,,,,,,MET09910/08/07 14:56:50 METAR KCHS 081956Z 16007KT 10SM SCT046 30/20 A2999 RMK AO2 SLP155 T03000200 (WRB),,,,,,,,,,,,,,,,,,,,,,,,,,,,
72208013880,2007-10-08T15:56:00,FM-15,7,,SE,0.25,mi,"TEMP, PRECIP, SNOW",,,"MMTS, SRG, SNOWBOARD",,,WFO CHS,,,,,,,,,,,,,,,,,,,,,,,,,,,29.99,66,84,0,,0.03,6,55,29.98,FEW:02 46,29.94,10,72,160,,10,,,,,,,,,,,,,,,,,,,,,,,,,,,,,,,,,,,,,MET10410/08/07 15:56:50 METAR KCHS 082056Z 16009KT 10SM FEW046 29/19 A2999 RMK AO2 SLP153 T02890189 56009 (WD),,,,,,,,,,,,,,,,,,,,,,,,,,,,
72208013880,2007-10-08T16:00:00,FM-12,4,,SE,0.25,mi,"TEMP, PRECIP, SNOW",,,"MMTS, SRG, SNOWBOARD",,,WFO CHS,,,,,,,,,,,,,,,,,,,,,,,,,,,,66,84,,,0.03,6,55,29.98,,29.94,9.94,72,160,,10,,,,,,,,,,,,,,,,,,,,,,,,,,,,,,,,,,,,,SYN076AAXX  08214 72208 32666 21609 10289 20189 30140 40153 56009 92056 555 90821;,,,,,,,,,,,,,,,,,,,,,,,,,,,,
72208013880,2007-10-08T16:56:00,FM-15,7,,SE,0.25,mi,"TEMP, PRECIP, SNOW",,,"MMTS, SRG, SNOWBOARD",,,WFO CHS,,,,,,,,,,,,,,,,,,,,,,,,,,,29.99,66,82,0,,,,58,29.98,FEW:02 70,29.94,10,71,150,,7,,,,,,,,,,,,,,,,,,,,,,,,,,,,,,,,,,,,,MET09810/08/07 17:01:50 METAR KCHS 082156Z 15006KT 10SM FEW070 28/19 A2999 RMK AO2 SLP154 T02780189 (WD),,,,,,,,,,,,,,,,,,,,,,,,,,,,
72208013880,2007-10-08T17:56:00,FM-15,7,,SE,0.25,mi,"TEMP, PRECIP, SNOW",,,"MMTS, SRG, SNOWBOARD",,,WFO CHS,,,,,,,,,,,,,,,,,,,,,,,,,,,29.99,68,77,0,,,,74,29.98,FEW:02 50,29.94,10,71,150,,7,,,,,,,,,,,,,,,,,,,,,,,,,,,,,,,,,,,,,MET09810/08/07 17:57:12 METAR KCHS 082256Z 15006KT 10SM FEW050 25/20 A2999 RMK AO2 SLP154 T02500200 (WD),,,,,,,,,,,,,,,,,,,,,,,,,,,,
72208013880,2007-10-13T16:56:00,FM-15,7,,SE,0.25,mi,"TEMP, PRECIP, SNOW",,,"MMTS, SRG, SNOWBOARD",,,WFO CHS,,,,,,,,,,,,,,,,,,,,,,,,,,,29.98,49,73,0,,,,43,29.98,,29.93,10,60,160,,8,,,,,,,,,,,,,,,,,,,,,,,,,,,,,,,,,,,,,MET09610/13/07 16:56:50 METAR KCHS 132156Z 16007KT 10SM CLR 23/09 A2998 RMK AO2 SLP152 T02280094 (BBE),,,,,,,,,,,,,,,,,,,,,,,,,,,,
72208013880,2007-10-18T11:56:00,FM-15,7,,SE,0.25,mi,"TEMP, PRECIP, SNOW",,,"MMTS, SRG, SNOWBOARD",,,WFO CHS,,,,,,,,,,,,,,,,,,,,,,,,,,,29.92,73,81,0,,,,77,29.92,SCT:04 13 BKN:07 25,29.87,10,75,150,,7,,,,,,,,,,,,,,,,,,,,,,,,,,,,,,,,,,,,,MET10610/18/07 11:56:50 METAR KCHS 181656Z 15006KT 10SM SCT013 BKN025 27/23 A2992 RMK AO2 SLP131 T02720228 (WRB),,,,,,,,,,,,,,,,,,,,,,,,,,,,
72208013880,2007-10-23T10:56:00,FM-15,7,,SE,0.25,mi,"TEMP, PRECIP, SNOW",,,"MMTS, SRG, SNOWBOARD",,,WFO CHS,,,,,,,,,,,,,,,,,,,,,,,,,,,29.98,73,83,0,,,,72,29.97,BKN:07 19 BKN:07 37,29.93,10,76,170,,15,,,,,,,,,,,,,,,,,,,,,,,,,,,,,,,,,,,,,MET10610/23/07 10:56:50 METAR KCHS 231556Z 17013KT 10SM BKN019 BKN037 28/23 A2998 RMK AO2 SLP150 T02830228 (WRB),,,,,,,,,,,,,,,,,,,,,,,,,,,,
72208013880,2007-10-23T11:41:00,FM-16,7,,SE,0.25,mi,"TEMP, PRECIP, SNOW",,,"MMTS, SRG, SNOWBOARD",,,WFO CHS,,,,,,,,,,,,,,,,,,,,,,,,,,,29.96,73,84,,,,,70,,SCT:04 19 SCT:04 70,29.91,10,76,170,,14,,,,,,,,,,,,,,,,,,,,,,,,,,,,,,,,,,,,,MET10410/23/07 11:42:14 SPECI KCHS 231641Z 17012KT 10SM SCT019TCU SCT070 29/23 A2996 RMK AO2 TCU E AND W (WRB),,,,,,,,,,,,,,,,,,,,,,,,,,,,
72208013880,2007-10-23T12:56:00,FM-15,7,,SE,0.25,mi,"TEMP, PRECIP, SNOW",,,"MMTS, SRG, SNOWBOARD",,,WFO CHS,,,,,,,,,,,,,,,,,,,,,,,,,,,29.93,73,85,0,,0.06,8,68,29.92,BKN:07 26 BKN:07 65,29.88,10,77,170,22,16,,,,,,,,,,,,,,,,,,,,,,,,,,,,,,,,,,,,,MET14610/23/07 12:56:51 METAR KCHS 231756Z 17014G19KT 10SM BKN026TCU BKN065 29/23 A2993 RMK AO2 SLP133 TCU NE-SW 60000 T02940228 10300 20211 58022 (WRB),,,,,,,,,,,,,,,,,,,,,,,,,,,,
72208013880,2007-10-23T13:00:00,FM-12,4,,SE,0.25,mi,"TEMP, PRECIP, SNOW",,,"MMTS, SRG, SNOWBOARD",,,WFO CHS,,,,,,,,,,,,,,,,,,,,,,,,,,,,73,85,,,0.06,8,68,29.92,,29.88,9.94,77,170,22,16,,,,,,,,,,,,,,,,,,,,,,,,,,,,,,,,,,,,,SYN104AAXX  23184 72208 12566 61714 10294 20228 30119 40133 58022 69901 91756 333 10300 20211 91019 555 92318;,,,,,,,,,,,,,,,,,,,,,,,,,,,,
72208013880,2007-10-24T10:56:00,FM-15,7,,SE,0.25,mi,"TEMP, PRECIP, SNOW",,,"MMTS, SRG, SNOWBOARD",,,WFO CHS,,,,,,,,,,,,,,,,,,,,,,,,,,,29.83,74,79,T,,,,85,29.82,FEW:02 7 BKN:07 14 BKN:07 41,29.78,10,76,160,23,17,,,,,,,,,,,,,,,,,,,,,,,,,,,,,,,,,,,,,MET14910/24/07 10:56:51 METAR KCHS 241556Z 16015G20KT 10SM FEW007 BKN014CB BKN041 26/23 A2983 RMK AO2 RAE03 SLP099 CB SE-S MOV N VCSH P0000 T02610233 (WRB),,,,,,,,,,,,,,,,,,,,,,,,,,,,
72208013880,2007-10-24T11:25:00,FM-16,7,,SE,0.25,mi,"TEMP, PRECIP, SNOW",,,"MMTS, SRG, SNOWBOARD",,,WFO CHS,,,,,,,,,,,,,,,,,,,,,,,,,,,29.84,70,73,0.02,TS:7 |TS |TS,,,89,,BKN:07 16 BKN:07 36 BKN:07 90,29.79,10,71,150,,15,,,,,,,,,,,,,,,,,,,,,,,,,,,,,,,,,,,,,MET17210/24/07 11:26:00 SPECI KCHS 241625Z 15013KT 10SM TS BKN016CB BKN036 BKN090 23/21 A2984 RMK AO2 PK WND 16026/1558 TSB00RAB00E24 FRQ LTGICCG NE-SE TS NE-SE MOV N P0002 (WRB),,,,,,,,,,,,,,,,,,,,,,,,,,,,
72208013880,2007-10-24T11:47:00,FM-16,7,,SE,0.25,mi,"TEMP, PRECIP, SNOW",,,"MMTS, SRG, SNOWBOARD",,,WFO CHS,,,,,,,,,,,,,,,,,,,,,,,,,,,29.84,70,73,0.08,TS:7 +RA:02 BR:1 |RA TS |SHRA TS,,,89,,BKN:07 20 BKN:07 36 OVC:08 75,29.79,1,71,170,29,14,,,,,,,,,,,,,,,,,,,,,,,,,,,,,,,,,,,,,MET17410/24/07 11:47:51 SPECI KCHS 241647Z 17012G25KT 1SM +TSRA BR BKN020CB BKN036 OVC075 23/21 A2984 RMK AO2 PK WND 16026/1558 TSB00RAB00 OCNL LTGICCG OHD TS OHD MOV N P0008 (WRB),,,,,,,,,,,,,,,,,,,,,,,,,,,,
72208013880,2007-10-24T11:56:00,FM-15,7,,SE,0.25,mi,"TEMP, PRECIP, SNOW",,,"MMTS, SRG, SNOWBOARD",,,WFO CHS,,,,,,,,,,,,,,,,,,,,,,,,,,,29.82,69,73,0.18,TS:7 -RA:02 BR:1 |RA TS |SHRA TS,,,87,29.81,SCT:04 15 BKN:07 36 BKN:07 75,29.77,4,70,160,,10,,,,,,,,,,,,,,,,,,,,,,,,,,,,,,,,,,,,,MET18410/24/07 11:56:51 METAR KCHS 241656Z 16009KT 4SM -TSRA BR SCT015CB BKN036 BKN075 23/21 A2982 RMK AO2 PK WND 16026/1558 TSB00RAB00 SLP096 OCNL LTGICCG N TS N MOV N P0018 T02280206 (WRB),,,,,,,,,,,,,,,,,,,,,,,,,,,,
72208013880,2007-10-24T12:56:00,FM-15,7,,SE,0.25,mi,"TEMP, PRECIP, SNOW",,,"MMTS, SRG, SNOWBOARD",,,WFO CHS,,,,,,,,,,,,,,,,,,,,,,,,,,,29.78,74,76,T,,0.04,8,94,29.78,FEW:02 39 BKN:07 70,29.73,10,75,150,,7,,,,,,,,,,,,,,,,,,,,,,,,,,,,,,,,,,,,,MET17010/24/07 12:58:51 METAR KCHS 241756Z 15006KT 10SM FEW039 BKN070 24/23 A2978 RMK AO2 TSE15RAE16 SLP084 TS MOV N TCU DSNT SW-W P0000 60109 T02440233 10278 20228 58013 (WRB),,,,,,,,,,,,,,,,,,,,,,,,,,,,
72208013880,2007-10-24T13:00:00,FM-12,4,,SE,0.25,mi,"TEMP, PRECIP, SNOW",,,"MMTS, SRG, SNOWBOARD",,,WFO CHS,,,,,,,,,,,,,,,,,,,,,,,,,,,,74,76,,,0.04,8,94,29.78,,29.73,9.94,75,150,,7,,,,,,,,,,,,,,,,,,,,,,,,,,,,,,,,,,,,,SYN098AAXX  24184 72208 12666 61506 10244 20233 30069 40084 58013 60281 91756 333 10278 20228 555 92418;,,,,,,,,,,,,,,,,,,,,,,,,,,,,
72208013880,2007-10-24T13:56:00,FM-15,7,,SE,0.25,mi,"TEMP, PRECIP, SNOW",,,"MMTS, SRG, SNOWBOARD",,,WFO CHS,,,,,,,,,,,,,,,,,,,,,,,,,,,29.75,73,80,0,,,,79,29.75,FEW:02 14 BKN:07 19 BKN:07 32,29.7,10,75,150,,10,,,,,,,,,,,,,,,,,,,,,,,,,,,,,,,,,,,,,MET12010/24/07 13:56:51 METAR KCHS 241856Z 15009KT 10SM FEW014 BKN019 BKN032 27/23 A2975 RMK AO2 SLP073 VCSH W T02670228 (WRB),,,,,,,,,,,,,,,,,,,,,,,,,,,,
72208013880,2007-10-24T14:56:00,FM-15,7,,SE,0.25,mi,"TEMP, PRECIP, SNOW",,,"MMTS, SRG, SNOWBOARD",,,WFO CHS,,,,,,,,,,,,,,,,,,,,,,,,,,,29.76,73,76,0.15,TS:7 +RA:02 FG:2 |FG RA TS |FG SHRA TS,,,91,29.75,BKN:07 8 OVC:08 13,29.71,0.5,74,160,,15,,,,,,,,,,,,,,,,,,,,,,,,,,,,,,,,,,,,,MET16710/24/07 14:56:51 METAR KCHS 241956Z 16013KT 1/2SM +TSRA FG BKN008 OVC013CB 24/23 A2976 RMK AO2 TSB35RAB35 SLP076 OCNL LTGICCG OVHD TS OVHD MOV N P0011 T02440228 (WRB),,,,,,,,,,,,,,,,,,,,,,,,,,,,
72208013880,2007-10-24T15:11:00,FM-16,7,,SE,0.25,mi,"TEMP, PRECIP, SNOW",,,"MMTS, SRG, SNOWBOARD",,,WFO CHS,,,,,,,,,,,,,,,,,,,,,,,,,,,29.74,73,75,0.34,TS:7 RA:02 BR:1 |RA TS |SHRA TS,,,94,,BKN:07 8 BKN:07 13 OVC:08 20,29.69,1,74,160,,17,,,,,,,,,,,,,,,,,,,,,,,,,,,,,,,,,,,,,MET14310/24/07 15:11:51 SPECI KCHS 242011Z 16015KT 1SM TSRA BR BKN008 BKN013CB OVC020 24/23 A2974 RMK AO2 OCNL LTGICCG W-NE TS W-NE MOV N P0034 (BPN),,,,,,,,,,,,,,,,,,,,,,,,,,,,
72208013880,2007-10-24T15:37:00,FM-16,7,,SE,0.25,mi,"TEMP, PRECIP, SNOW",,,"MMTS, SRG, SNOWBOARD",,,WFO CHS,,,,,,,,,,,,,,,,,,,,,,,,,,,29.74,73,77,0.38,,,,89,,SCT:04 14 SCT:04 27 BKN:07 60,29.69,10,74,160,,14,,,,,,,,,,,,,,,,,,,,,,,,,,,,,,,,,,,,,MET13610/24/07 15:42:51 SPECI KCHS 242037Z 16012KT 10SM SCT014 SCT027 BKN060 25/23 A2974 RMK AO2 TSE35RAE28 TS MOV N CB DSNT NW-NE P0038 (BPN),,,,,,,,,,,,,,,,,,,,,,,,,,,,
72208013880,2007-10-24T15:56:00,FM-15,7,,SE,0.25,mi,"TEMP, PRECIP, SNOW",,,"MMTS, SRG, SNOWBOARD",,,WFO CHS,,,,,,,,,,,,,,,,,,,,,,,,,,,29.75,73,77,0.34,,0.04,6,88,29.74,SCT:04 20 BKN:07 37 BKN:07 60,29.7,10,74,160,,9,,,,,,,,,,,,,,,,,,,,,,,,,,,,,,,,,,,,,MET15210/24/07 15:56:51 METAR KCHS 242056Z 16008KT 10SM SCT020 BKN037 BKN060 25/23 A2975 RMK AO2 TSE35RAE28 SLP072 CB DSNT N P0038 60049 T02500228 56013 (BPN),,,,,,,,,,,,,,,,,,,,,,,,,,,,
72208013880,2007-10-24T16:00:00,FM-12,4,,SE,0.25,mi,"TEMP, PRECIP, SNOW",,,"MMTS, SRG, SNOWBOARD",,,WFO CHS,,,,,,,,,,,,,,,,,,,,,,,,,,,,73,77,,,0.04,6,88,29.74,,29.7,9.94,74,160,,9,,,,,,,,,,,,,,,,,,,,,,,,,,,,,,,,,,,,,SYN082AAXX  24214 72208 12566 61608 10250 20228 30058 40072 56013 60127 92056 555 92421;,,,,,,,,,,,,,,,,,,,,,,,,,,,,
72208013880,2007-12-02T14:56:00,FM-15,7,,SE,0.25,mi,"TEMP, PRECIP, SNOW",,,"MMTS, SRG, SNOWBOARD",,,WFO CHS,,,,,,,,,,,,,,,,,,,,,,,,,,,30.19,61,73,T,,,,66,30.19,SCT:04 27 BKN:07 34,30.14,10,66,150,,7,,,,,,,,,,,,,,,,,,,,,,,,,,,,,,,,,,,,,MET12112/02/07 14:56:51 METAR KCHS 021956Z 15006KT 10SM SCT027 BKN034 23/16 A3019 RMK AO2 RAB22E49 SLP222 P0000 T02280161 (JRS),,,,,,,,,,,,,,,,,,,,,,,,,,,,
72208013880,2007-12-09T12:56:00,FM-15,7,,SE,0.25,mi,"TEMP, PRECIP, SNOW",,,"MMTS, SRG, SNOWBOARD",,,WFO CHS,,,,,,,,,,,,,,,,,,,,,,,,,,,30.35,58,76,0,,0.05,8,54,30.35,FEW:02 40,30.29,10,65,150,,8,,,,,,,,,,,,,,,,,,,,,,,,,,,,,,,,,,,,,MET11712/09/07 12:56:51 METAR KCHS 091756Z 15007KT 10SM FEW040 24/14 A3035 RMK AO2 SLP276 T02440144 10244 20111 58016 (JRS),,,,,,,,,,,,,,,,,,,,,,,,,,,,
72208013880,2007-12-09T13:00:00,FM-12,4,,SE,0.25,mi,"TEMP, PRECIP, SNOW",,,"MMTS, SRG, SNOWBOARD",,,WFO CHS,,,,,,,,,,,,,,,,,,,,,,,,,,,,58,76,,,0.05,8,54,30.35,,30.3,9.94,65,150,,8,,,,,,,,,,,,,,,,,,,,,,,,,,,,,,,,,,,,,SYN092AAXX  09184 72208 32666 21507 10244 20144 30261 40276 58016 91756 333 10244 20111 555 90918;,,,,,,,,,,,,,,,,,,,,,,,,,,,,
72208013880,2007-12-09T15:56:00,SY-MT,7,,SE,0.25,mi,"TEMP, PRECIP, SNOW",,,"MMTS, SRG, SNOWBOARD",,,WFO CHS,,,,,,,,,,,,,,,,,,,,,,,,,,,30.31,58,74,0,,0.04,5,57,30.31,FEW:02 40,30.26,10,64,160,,9,,,,,,,,,,,,,,,,,,,,,,,,,,,,,,,,,,,,,SYN076AAXX  09214 72208 32666 21608 10233 20144 30248 40263 55013 92056 555 90921;MET10512/09/07 15:56:50 METAR KCHS 092056Z 16008KT 10SM FEW040 23/14 A3031 RMK AO2 SLP263 T02330144 55013 (JRS),,,,,,,,,,,,,,,,,,,,,,,,,,,,
72208013880,2007-12-10T16:56:00,FM-15,7,,SE,0.25,mi,"TEMP, PRECIP, SNOW",,,"MMTS, SRG, SNOWBOARD",,,WFO CHS,,,,,,,,,,,,,,,,,,,,,,,,,,,30.28,62,73,0,,,,69,30.27,SCT:04 40,30.23,10,66,150,,9,,,,,,,,,,,,,,,,,,,,,,,,,,,,,,,,,,,,,MET09912/10/07 16:56:50 METAR KCHS 102156Z 15008KT 10SM SCT040 23/17 A3028 RMK AO2 SLP251 T02280167 (BBE),,,,,,,,,,,,,,,,,,,,,,,,,,,,
72208013880,2007-12-10T17:56:00,FM-15,7,,SE,0.25,mi,"TEMP, PRECIP, SNOW",,,"MMTS, SRG, SNOWBOARD",,,WFO CHS,,,,,,,,,,,,,,,,,,,,,,,,,,,30.29,61,67,0,,,,81,30.28,,30.24,10,63,170,,7,,,,,,,,,,,,,,,,,,,,,,,,,,,,,,,,,,,,,MET09612/10/07 17:56:50 METAR KCHS 102256Z 17006KT 10SM CLR 19/16 A3029 RMK AO2 SLP255 T01940161 (BBE),,,,,,,,,,,,,,,,,,,,,,,,,,,,
72208013880,2007-12-27T16:56:00,FM-15,7,,SE,0.25,mi,"TEMP, PRECIP, SNOW",,,"MMTS, SRG, SNOWBOARD",,,WFO CHS,,,,,,,,,,,,,,,,,,,,,,,,,,,30.14,49,60,0,,,,67,30.14,BKN:07 39,30.09,10,54,160,,8,,,,,,,,,,,,,,,,,,,,,,,,,,,,,,,,,,,,,MET09912/27/07 16:56:50 METAR KCHS 272156Z 16007KT 10SM BKN039 16/09 A3014 RMK AO2 SLP207 T01560094 (BBE),,,,,,,,,,,,,,,,,,,,,,,,,,,,
72208013880,2007-12-28T13:56:00,FM-15,7,,SE,0.25,mi,"TEMP, PRECIP, SNOW",,,"MMTS, SRG, SNOWBOARD",,,WFO CHS,,,,,,,,,,,,,,,,,,,,,,,,,,,30.14,62,72,0,,,,71,30.14,SCT:04 33 BKN:07 60,30.09,10,66,150,,11,,,,,,,,,,,,,,,,,,,,,,,,,,,,,,,,,,,,,MET10612/28/07 13:56:50 METAR KCHS 281856Z 15010KT 10SM SCT033 BKN060 22/17 A3014 RMK AO2 SLP205 T02220167 (WRB),,,,,,,,,,,,,,,,,,,,,,,,,,,,
72208013880,2007-12-28T15:56:00,FM-15,7,,SE,0.25,mi,"TEMP, PRECIP, SNOW",,,"MMTS, SRG, SNOWBOARD",,,WFO CHS,,,,,,,,,,,,,,,,,,,,,,,,,,,30.12,63,73,0,,0.03,5,71,30.12,SCT:04 27 SCT:04 55,30.07,10,67,170,,15,,,,,,,,,,,,,,,,,,,,,,,,,,,,,,,,,,,,,MET11212/28/07 15:56:51 METAR KCHS 282056Z 17013KT 10SM SCT027 SCT055 23/17 A3012 RMK AO2 SLP200 T02280172 55011 (WRB),,,,,,,,,,,,,,,,,,,,,,,,,,,,
72208013880,2007-12-28T16:00:00,FM-12,4,,SE,0.25,mi,"TEMP, PRECIP, SNOW",,,"MMTS, SRG, SNOWBOARD",,,WFO CHS,,,,,,,,,,,,,,,,,,,,,,,,,,,,63,73,,,0.03,5,71,30.12,,30.07,9.94,67,170,,15,,,,,,,,,,,,,,,,,,,,,,,,,,,,,,,,,,,,,SYN076AAXX  28214 72208 32566 41713 10228 20172 30184 40200 55011 92056 555 92821;,,,,,,,,,,,,,,,,,,,,,,,,,,,,
72208013880,2007-12-31T14:56:00,FM-15,7,,SE,0.25,mi,"TEMP, PRECIP, SNOW",,,"MMTS, SRG, SNOWBOARD",,,WFO CHS,,,,,,,,,,,,,,,,,,,,,,,,,,,30.09,39,64,0,,,,40,30.09,FEW:02 110,30.04,10,52,150,,7,,,,,,,,,,,,,,,,,,,,,,,,,,,,,,,,,,,,,MET09912/31/07 14:56:50 METAR KCHS 311956Z 15006KT 10SM FEW110 18/04 A3009 RMK AO2 SLP189 T01780039 (WRB),,,,,,,,,,,,,,,,,,,,,,,,,,,,
72208013880,2008-01-06T16:56:00,FM-15,7,,SE,0.25,mi,"TEMP, PRECIP, SNOW",,,"MMTS, SRG, SNOWBOARD",,,WFO CHS,,,,,,,,,,,,,,,,,,,,,,,,,,,30.29,55,67,0,,,,66,30.29,SCT:04 42 SCT:04 65,30.24,10,60,150,,7,,,,,,,,,,,,,,,,,,,,,,,,,,,,,,,,,,,,,MET10601/06/08 16:56:50 METAR KCHS 062156Z 15006KT 10SM SCT042 SCT065 19/13 A3029 RMK AO2 SLP257 T01940128 (BBE),,,,,,,,,,,,,,,,,,,,,,,,,,,,
72208013880,2008-01-07T15:56:00,FM-15,7,,SE,0.25,mi,"TEMP, PRECIP, SNOW",,,"MMTS, SRG, SNOWBOARD",,,WFO CHS,,,,,,,,,,,,,,,,,,,,,,,,,,,30.33,56,71,0,,0.02,5,59,30.32,FEW:02 40 SCT:04 55,30.28,10,62,150,,9,,,,,,,,,,,,,,,,,,,,,,,,,,,,,,,,,,,,,MET11201/07/08 15:56:51 METAR KCHS 072056Z 15008KT 10SM FEW040 SCT055 22/13 A3033 RMK AO2 SLP269 T02170133 55007 (WRB),,,,,,,,,,,,,,,,,,,,,,,,,,,,
72208013880,2008-01-07T16:00:00,FM-12,4,,SE,0.25,mi,"TEMP, PRECIP, SNOW",,,"MMTS, SRG, SNOWBOARD",,,WFO CHS,,,,,,,,,,,,,,,,,,,,,,,,,,,,56,71,,,0.02,5,59,30.32,,30.28,9.94,62,150,,9,,,,,,,,,,,,,,,,,,,,,,,,,,,,,,,,,,,,,SYN076AAXX  07214 72208 32666 41508 10217 20133 30255 40269 55007 92056 555 90721;,,,,,,,,,,,,,,,,,,,,,,,,,,,,
72208013880,2008-01-08T10:56:00,FM-15,7,,SE,0.25,mi,"TEMP, PRECIP, SNOW",,,"MMTS, SRG, SNOWBOARD",,,WFO CHS,,,,,,,,,,,,,,,,,,,,,,,,,,,30.32,56,74,0,,,,54,30.32,,30.27,10,63,150,,9,,,,,,,,,,,,,,,,,,,,,,,,,,,,,,,,,,,,,MET10001/08/08 11:00:42 METAR KCHS 081556Z 15008KT 10SM CLR 23/13 A3032 RMK AO2 SLP267 T02330133 RTX (BPN),,,,,,,,,,,,,,,,,,,,,,,,,,,,
72208013880,2008-01-08T12:56:00,FM-15,7,,SE,0.25,mi,"TEMP, PRECIP, SNOW",,,"MMTS, SRG, SNOWBOARD",,,WFO CHS,,,,,,,,,,,,,,,,,,,,,,,,,,,30.25,55,75,0,,0.08,8,50,30.25,SCT:04 40,30.2,10,63,170,,10,,,,,,,,,,,,,,,,,,,,,,,,,,,,,,,,,,,,,MET11701/08/08 12:56:51 METAR KCHS 081756Z 17009KT 10SM SCT040 24/13 A3025 RMK AO2 SLP244 T02390128 10244 20100 58027 (BPN),,,,,,,,,,,,,,,,,,,,,,,,,,,,
72208013880,2008-01-08T13:00:00,FM-12,4,,SE,0.25,mi,"TEMP, PRECIP, SNOW",,,"MMTS, SRG, SNOWBOARD",,,WFO CHS,,,,,,,,,,,,,,,,,,,,,,,,,,,,55,75,,,0.08,8,50,30.25,,30.2,9.94,63,170,,10,,,,,,,,,,,,,,,,,,,,,,,,,,,,,,,,,,,,,SYN092AAXX  08184 72208 32666 41709 10239 20128 30228 40244 58027 91756 333 10244 20100 555 90818;,,,,,,,,,,,,,,,,,,,,,,,,,,,,
72208013880,2008-01-10T13:56:00,FM-15,7,,SE,0.25,mi,"TEMP, PRECIP, SNOW",,,"MMTS, SRG, SNOWBOARD",,,WFO CHS,,,,,,,,,,,,,,,,,,,,,,,,,,,30.02,54,77,0,,,,45,30.02,FEW:02 45,29.97,10,63,170,21,15,,,,,,,,,,,,,,,,,,,,,,,,,,,,,,,,,,,,,MET10201/10/08 13:56:50 METAR KCHS 101856Z 17013G18KT 10SM FEW045 25/12 A3002 RMK AO2 SLP166 T02500122 (WRB),,,,,,,,,,,,,,,,,,,,,,,,,,,,
72208013880,2008-01-10T16:56:00,FM-15,7,,SE,0.25,mi,"TEMP, PRECIP, SNOW",,,"MMTS, SRG, SNOWBOARD",,,WFO CHS,,,,,,,,,,,,,,,,,,,,,,,,,,,29.99,57,71,0,,,,61,29.99,FEW:02 34 SCT:04 41,29.94,10,63,170,,11,,,,,,,,,,,,,,,,,,,,,,,,,,,,,,,,,,,,,MET10501/10/08 16:56:50 METAR KCHS 102156Z 17010KT 10SM FEW034 SCT041 22/14 A2999 RMK AO2 SLP155 T02170139 (WD),,,,,,,,,,,,,,,,,,,,,,,,,,,,
72208013880,2008-01-10T17:56:00,FM-15,7,,SE,0.25,mi,"TEMP, PRECIP, SNOW",,,"MMTS, SRG, SNOWBOARD",,,WFO CHS,,,,,,,,,,,,,,,,,,,,,,,,,,,29.98,54,65,0,,,,68,29.98,,29.93,10,59,160,,9,,,,,,,,,,,,,,,,,,,,,,,,,,,,,,,,,,,,,MET09501/10/08 17:56:50 METAR KCHS 102256Z 16008KT 10SM CLR 18/12 A2998 RMK AO2 SLP151 T01830122 (WD),,,,,,,,,,,,,,,,,,,,,,,,,,,,
72208013880,2008-02-02T15:56:00,FM-15,7,,SE,0.25,mi,"TEMP, PRECIP, SNOW",,,"MMTS, SRG, SNOWBOARD",,,WFO CHS,,,,,,,,,,,,,,,,,,,,,,,,,,,30.25,34,59,0,,0.03,6,39,30.24,,30.2,10,47,170,,9,,,,,,,,,,,,,,,,,,,,,,,,,,,,,,,,,,,,,MET10202/02/08 15:56:50 METAR KCHS 022056Z 17008KT 10SM CLR 15/01 A3025 RMK AO2 SLP241 T01500011 56010 (JRS),,,,,,,,,,,,,,,,,,,,,,,,,,,,
72208013880,2008-02-02T16:00:00,FM-12,4,,SE,0.25,mi,"TEMP, PRECIP, SNOW",,,"MMTS, SRG, SNOWBOARD",,,WFO CHS,,,,,,,,,,,,,,,,,,,,,,,,,,,,34,59,,,0.03,6,39,30.24,CLR:00,30.2,9.94,47,170,,9,,,,,,,,,,,,,,,,,,,,,,,,,,,,,,,,,,,,,SYN076AAXX  02214 72208 32966 01708 10150 20011 30228 40241 56010 92056 555 90221;,,,,,,,,,,,,,,,,,,,,,,,,,,,,
72208013880,2008-02-02T17:56:00,FM-15,7,,SE,0.25,mi,"TEMP, PRECIP, SNOW",,,"MMTS, SRG, SNOWBOARD",,,WFO CHS,,,,,,,,,,,,,,,,,,,,,,,,,,,30.23,36,52,0,,,,55,30.22,,30.18,10,45,170,,7,,,,,,,,,,,,,,,,,,,,,,,,,,,,,,,,,,,,,MET09602/02/08 17:56:50 METAR KCHS 022256Z 17006KT 10SM CLR 11/02 A3023 RMK AO2 SLP235 T01110022 (BBE),,,,,,,,,,,,,,,,,,,,,,,,,,,,
72208013880,2008-02-03T16:56:00,FM-15,7,,SE,0.25,mi,"TEMP, PRECIP, SNOW",,,"MMTS, SRG, SNOWBOARD",,,WFO CHS,,,,,,,,,,,,,,,,,,,,,,,,,,,30.18,45,65,0,,,,49,30.18,,30.13,10,55,170,,11,,,,,,,,,,,,,,,,,,,,,,,,,,,,,,,,,,,,,MET09602/03/08 16:56:50 METAR KCHS 032156Z 17010KT 10SM CLR 18/07 A3018 RMK AO2 SLP220 T01830072 (BBE),,,,,,,,,,,,,,,,,,,,,,,,,,,,
72208013880,2008-02-03T17:56:00,FM-15,7,,SE,0.25,mi,"TEMP, PRECIP, SNOW",,,"MMTS, SRG, SNOWBOARD",,,WFO CHS,,,,,,,,,,,,,,,,,,,,,,,,,,,30.19,46,59,0,,,,62,30.19,,30.14,10,52,170,,7,,,,,,,,,,,,,,,,,,,,,,,,,,,,,,,,,,,,,MET09602/03/08 17:56:50 METAR KCHS 032256Z 17006KT 10SM CLR 15/08 A3019 RMK AO2 SLP223 T01500078 (BBE),,,,,,,,,,,,,,,,,,,,,,,,,,,,
72208013880,2008-02-04T15:56:00,FM-15,7,,SE,0.25,mi,"TEMP, PRECIP, SNOW",,,"MMTS, SRG, SNOWBOARD",,,WFO CHS,,,,,,,,,,,,,,,,,,,,,,,,,,,30.17,60,72,0,,0.04,5,66,30.16,,30.12,10,65,150,,11,,,,,,,,,,,,,,,,,,,,,,,,,,,,,,,,,,,,,MET10402/04/08 15:56:50 METAR KCHS 042056Z 15010KT 10SM CLR 22/16 A3017 RMK AO2 SLP215 T02220156 55012 $ (JRS),,,,,,,,,,,,,,,,,,,,,,,,,,,,
72208013880,2008-02-04T16:00:00,FM-12,4,,SE,0.25,mi,"TEMP, PRECIP, SNOW",,,"MMTS, SRG, SNOWBOARD",,,WFO CHS,,,,,,,,,,,,,,,,,,,,,,,,,,,,60,72,,,0.04,5,66,30.16,CLR:00,30.12,9.94,65,150,,11,,,,,,,,,,,,,,,,,,,,,,,,,,,,,,,,,,,,,SYN076AAXX  04214 72208 32966 01510 10222 20156 30201 40215 55012 92056 555 90421;,,,,,,,,,,,,,,,,,,,,,,,,,,,,
72208013880,2008-02-04T16:56:00,FM-15,7,,SE,0.25,mi,"TEMP, PRECIP, SNOW",,,"MMTS, SRG, SNOWBOARD",,,WFO CHS,,,,,,,,,,,,,,,,,,,,,,,,,,,30.17,60,68,0,,,,76,30.17,,30.12,9,63,150,,10,,,,,,,,,,,,,,,,,,,,,,,,,,,,,,,,,,,,,MET09402/04/08 16:56:50 METAR KCHS 042156Z 15009KT 9SM CLR 20/16 A3017 RMK AO2 SLP217 T02000156 (WD),,,,,,,,,,,,,,,,,,,,,,,,,,,,
72208013880,2008-02-04T17:56:00,FM-15,7,,SE,0.25,mi,"TEMP, PRECIP, SNOW",,,"MMTS, SRG, SNOWBOARD",,,WFO CHS,,,,,,,,,,,,,,,,,,,,,,,,,,,30.18,60,63,0,BR:1 ||,,,90,30.18,SCT:04 5,30.13,6,61,150,,10,,,,,,,,,,,,,,,,,,,,,,,,,,,,,,,,,,,,,MET10002/04/08 17:56:50 METAR KCHS 042256Z 15009KT 6SM BR SCT005 17/16 A3018 RMK AO2 SLP220 T01720156 (WD),,,,,,,,,,,,,,,,,,,,,,,,,,,,
72208013880,2008-02-04T17:58:00,FM-16,7,,SE,0.25,mi,"TEMP, PRECIP, SNOW",,,"MMTS, SRG, SNOWBOARD",,,WFO CHS,,,,,,,,,,,,,,,,,,,,,,,,,,,30.18,61,63,,BR:1 ||,,,94,,BKN:07 5,30.13,2,62,150,,9,,,,,,,,,,,,,,,,,,,,,,,,,,,,,,,,,,,,,MET09302/04/08 17:58:50 SPECI KCHS 042258Z 15008KT 2SM BR BKN005 17/16 A3018 RMK AO2 SFC VIS 6 (WD),,,,,,,,,,,,,,,,,,,,,,,,,,,,
72208013880,2008-02-12T10:56:00,FM-15,7,,SE,0.25,mi,"TEMP, PRECIP, SNOW",,,"MMTS, SRG, SNOWBOARD",,,WFO CHS,,,,,,,,,,,,,,,,,,,,,,,,,,,30.16,53,73s,0,,,,50,30.16,,30.11,10,61,170,,17,,,,,,,,,,,,,,,,,,,,,,,,,,,,,,,,,,,,,MET09602/12/08 10:56:50 METAR KCHS 121556Z 17015KT 10SM CLR 23/12 A3016 RMK AO2 SLP213 T02280117 (AWS),,,,,,,,,,,,,,,,,,,,,,,,,,,,
72208013880,2008-02-12T15:56:00,FM-15,7,,SE,0.25,mi,"TEMP, PRECIP, SNOW",,,"MMTS, SRG, SNOWBOARD",,,WFO CHS,,,,,,,,,,,,,,,,,,,,,,,,,,,30.02,57,71,0,,0.08,6,61,30.01,FEW:02 40 BKN:07 55 OVC:08 90,29.97,10,63,150,,16,,,,,,,,,,,,,,,,,,,,,,,,,,,,,,,,,,,,,MET11802/12/08 15:56:51 METAR KCHS 122056Z 15014KT 10SM FEW040 BKN055 OVC090 22/14 A3002 RMK AO2 SLP164 T02170139 56027 (WD),,,,,,,,,,,,,,,,,,,,,,,,,,,,
72208013880,2008-02-12T16:00:00,FM-12,4,,SE,0.25,mi,"TEMP, PRECIP, SNOW",,,"MMTS, SRG, SNOWBOARD",,,WFO CHS,,,,,,,,,,,,,,,,,,,,,,,,,,,,57,71,,,0.08,6,61,30.01,,29.97,9.94,63,150,,16,,,,,,,,,,,,,,,,,,,,,,,,,,,,,,,,,,,,,SYN076AAXX  12214 72208 32666 81514 10217 20139 30150 40164 56027 92056 555 91221;,,,,,,,,,,,,,,,,,,,,,,,,,,,,
72208013880,2008-02-12T16:56:00,FM-15,7,,SE,0.25,mi,"TEMP, PRECIP, SNOW",,,"MMTS, SRG, SNOWBOARD",,,WFO CHS,,,,,,,,,,,,,,,,,,,,,,,,,,,30.01,57,70,0,,,,64,30.01,FEW:02 50 SCT:04 75,29.96,10,62,150,,16,,,,,,,,,,,,,,,,,,,,,,,,,,,,,,,,,,,,,MET10502/12/08 16:56:50 METAR KCHS 122156Z 15014KT 10SM FEW050 SCT075 21/14 A3001 RMK AO2 SLP161 T02110139 (WD),,,,,,,,,,,,,,,,,,,,,,,,,,,,
72208013880,2008-02-12T17:56:00,FM-15,7,,SE,0.25,mi,"TEMP, PRECIP, SNOW",,,"MMTS, SRG, SNOWBOARD",,,WFO CHS,,,,,,,,,,,,,,,,,,,,,,,,,,,29.98,58,68,0,,,,70,29.97,FEW:02 60 SCT:04 75,29.93,10,62,150,,11,,,,,,,,,,,,,,,,,,,,,,,,,,,,,,,,,,,,,MET10502/12/08 17:56:50 METAR KCHS 122256Z 15010KT 10SM FEW060 SCT075 20/14 A2998 RMK AO2 SLP150 T02000144 (WD),,,,,,,,,,,,,,,,,,,,,,,,,,,,
72208013880,2008-02-14T16:56:00,FM-15,7,,SE,0.25,mi,"TEMP, PRECIP, SNOW",,,"MMTS, SRG, SNOWBOARD",,,WFO CHS,,,,,,,,,,,,,,,,,,,,,,,,,,,30.24,35,55,0,,,,47,30.24,,30.19,10,46,150,,9,,,,,,,,,,,,,,,,,,,,,,,,,,,,,,,,,,,,,MET09502/14/08 16:56:50 METAR KCHS 142156Z 15008KT 10SM CLR 13/02 A3024 RMK AO2 SLP240 T01280017 (WD),,,,,,,,,,,,,,,,,,,,,,,,,,,,
72208013880,2008-02-14T17:56:00,FM-15,7,,SE,0.25,mi,"TEMP, PRECIP, SNOW",,,"MMTS, SRG, SNOWBOARD",,,WFO CHS,,,,,,,,,,,,,,,,,,,,,,,,,,,30.27,36,49,0,,,,61,30.27,,30.22,10,43,150,,8,,,,,,,,,,,,,,,,,,,,,,,,,,,,,,,,,,,,,MET09502/14/08 17:56:50 METAR KCHS 142256Z 15007KT 10SM CLR 09/02 A3027 RMK AO2 SLP249 T00940022 (WD),,,,,,,,,,,,,,,,,,,,,,,,,,,,
72208013880,2008-02-16T14:56:00,FM-15,7,,SE,0.25,mi,"TEMP, PRECIP, SNOW",,,"MMTS, SRG, SNOWBOARD",,,WFO CHS,,,,,,,,,,,,,,,,,,,,,,,,,,,30.12,42,69,0,,,,38,30.12,,30.07,10,55,150,,11,,,,,,,,,,,,,,,,,,,,,,,,,,,,,,,,,,,,,MET09602/16/08 14:56:50 METAR KCHS 161956Z 15010KT 10SM CLR 21/06 A3012 RMK AO2 SLP200 T02060056 (JRS),,,,,,,,,,,,,,,,,,,,,,,,,,,,
72208013880,2008-02-17T11:56:00,FM-15,7,,SE,0.25,mi,"TEMP, PRECIP, SNOW",,,"MMTS, SRG, SNOWBOARD",,,WFO CHS,,,,,,,,,,,,,,,,,,,,,,,,,,,30.06,57,73,0,,,,57,30.06,FEW:02 35 SCT:04 50,30.01,10,63,170,,9,,,,,,,,,,,,,,,,,,,,,,,,,,,,,,,,,,,,,MET10602/17/08 11:56:50 METAR KCHS 171656Z 17008KT 10SM FEW035 SCT050 23/14 A3006 RMK AO2 SLP179 T02280139 (JRS),,,,,,,,,,,,,,,,,,,,,,,,,,,,
72208013880,2008-02-17T13:56:00,FM-15,7,,SE,0.25,mi,"TEMP, PRECIP, SNOW",,,"MMTS, SRG, SNOWBOARD",,,WFO CHS,,,,,,,,,,,,,,,,,,,,,,,,,,,29.99,57,75,0,,,,54,29.99,SCT:04 35 BKN:07 47,29.94,10,64,170,,15,,,,,,,,,,,,,,,,,,,,,,,,,,,,,,,,,,,,,MET12402/17/08 13:56:51 METAR KCHS 171856Z 17013KT 10SM SCT035 BKN047 24/14 A2999 RMK AO2 PK WND 17027/1816 SLP155 T02390139 (JRS),,,,,,,,,,,,,,,,,,,,,,,,,,,,
72208013880,2008-02-17T15:56:00,FM-15,7,,SE,0.25,mi,"TEMP, PRECIP, SNOW",,,"MMTS, SRG, SNOWBOARD",,,WFO CHS,,,,,,,,,,,,,,,,,,,,,,,,,,,29.9,57,74,0,,0.12,8,56,29.9,FEW:02 43 SCT:04 55,29.85,10,64,160,25,17,,,,,,,,,,,,,,,,,,,,,,,,,,,,,,,,,,,,,MET11502/17/08 15:56:51 METAR KCHS 172056Z 16015G22KT 10SM FEW043 SCT055 23/14 A2990 RMK AO2 SLP125 T02330139 58040 (JRS),,,,,,,,,,,,,,,,,,,,,,,,,,,,
72208013880,2008-02-17T16:00:00,FM-12,4,,SE,0.25,mi,"TEMP, PRECIP, SNOW",,,"MMTS, SRG, SNOWBOARD",,,WFO CHS,,,,,,,,,,,,,,,,,,,,,,,,,,,,57,74,,,0.12,8,56,29.9,,29.85,9.94,64,160,,17,,,,,,,,,,,,,,,,,,,,,,,,,,,,,,,,,,,,,SYN086AAXX  17214 72208 32666 41615 10233 20139 30109 40125 58040 92056 333 91022 555 91721;,,,,,,,,,,,,,,,,,,,,,,,,,,,,
72208013880,2008-02-17T16:56:00,FM-15,7,,SE,0.25,mi,"TEMP, PRECIP, SNOW",,,"MMTS, SRG, SNOWBOARD",,,WFO CHS,,,,,,,,,,,,,,,,,,,,,,,,,,,29.91,59,72,0,,,,64,29.91,BKN:07 40,29.86,10,64,170,,16,,,,,,,,,,,,,,,,,,,,,,,,,,,,,,,,,,,,,MET09902/17/08 16:56:50 METAR KCHS 172156Z 17014KT 10SM BKN040 22/15 A2991 RMK AO2 SLP127 T02220150 (WRB),,,,,,,,,,,,,,,,,,,,,,,,,,,,
72208013880,2008-02-22T17:17:00,FM-16,7,,SE,0.25,mi,"TEMP, PRECIP, SNOW",,,"MMTS, SRG, SNOWBOARD",,,WFO CHS,,,,,,,,,,,,,,,,,,,,,,,,,,,29.91,52,54,0.05,RA:02 BR:1 |RA |RA,,,94,,BKN:07 25 OVC:08 75,29.86,3,53,170,,8,,,,,,,,,,,,,,,,,,,,,,,,,,,,,,,,,,,,,MET09902/22/08 17:17:50 SPECI KCHS 222217Z 17007KT 3SM RA BR BKN025 OVC075 12/11 A2991 RMK AO2 P0005 (WD),,,,,,,,,,,,,,,,,,,,,,,,,,,,
72208013880,2008-02-22T17:27:00,FM-16,7,,SE,0.25,mi,"TEMP, PRECIP, SNOW",,,"MMTS, SRG, SNOWBOARD",,,WFO CHS,,,,,,,,,,,,,,,,,,,,,,,,,,,29.91,52,54,0.1,+RA:02 BR:1 |RA |RA,,,94,,BKN:07 23 OVC:08 80,29.86,2,53,160,,11,,,,,,,,,,,,,,,,,,,,,,,,,,,,,,,,,,,,,MET11402/22/08 17:28:07 SPECI KCHS 222227Z 16010KT 2SM +RA BR BKN023 OVC080 12/11 A2991 RMK AO2 SFC VIS 2 1/2 P0010 (WD),,,,,,,,,,,,,,,,,,,,,,,,,,,,
72208013880,2008-02-29T15:56:00,FM-15,7,,SE,0.25,mi,"TEMP, PRECIP, SNOW",,,"MMTS, SRG, SNOWBOARD",,,WFO CHS,,,,,,,,,,,,,,,,,,,,,,,,,,,30.39,31,58,0,,0.07,6,36,30.39,,30.34,10,46,150,,11,,,,,,,,,,,,,,,,,,,,,,,,,,,,,,,,,,,,,MET10302/29/08 15:56:50 METAR KCHS 292056Z 15010KT 10SM CLR 14/M01 A3039 RMK AO2 SLP292 T01441006 56025 (AWS),,,,,,,,,,,,,,,,,,,,,,,,,,,,
72208013880,2008-02-29T16:00:00,FM-12,4,,SE,0.25,mi,"TEMP, PRECIP, SNOW",,,"MMTS, SRG, SNOWBOARD",,,WFO CHS,,,,,,,,,,,,,,,,,,,,,,,,,,,,31,58,,,0.07,6,36,30.39,CLR:00,30.34,9.94,46,150,,11,,,,,,,,,,,,,,,,,,,,,,,,,,,,,,,,,,,,,SYN076AAXX  29214 72208 32966 01510 10144 21006 30275 40292 56025 92056 555 92921;,,,,,,,,,,,,,,,,,,,,,,,,,,,,
72208013880,2008-02-29T16:56:00,FM-15,7,,SE,0.25,mi,"TEMP, PRECIP, SNOW",,,"MMTS, SRG, SNOWBOARD",,,WFO CHS,,,,,,,,,,,,,,,,,,,,,,,,,,,30.38,35,56,0,,,,46,30.38,,30.33,10,46,150,,14,,,,,,,,,,,,,,,,,,,,,,,,,,,,,,,,,,,,,MET09502/29/08 16:56:50 METAR KCHS 292156Z 15012KT 10SM CLR 13/02 A3038 RMK AO2 SLP287 T01330017 (WD),,,,,,,,,,,,,,,,,,,,,,,,,,,,
72208013880,2008-02-29T17:56:00,FM-15,7,,SE,0.25,mi,"TEMP, PRECIP, SNOW",,,"MMTS, SRG, SNOWBOARD",,,WFO CHS,,,,,,,,,,,,,,,,,,,,,,,,,,,30.37,36,53,0,,,,52,30.37,,30.32,10,45,170,,14,,,,,,,,,,,,,,,,,,,,,,,,,,,,,,,,,,,,,MET09502/29/08 17:56:50 METAR KCHS 292256Z 17012KT 10SM CLR 12/02 A3037 RMK AO2 SLP284 T01170022 (WD),,,,,,,,,,,,,,,,,,,,,,,,,,,,
72208013880,2008-03-03T11:56:00,FM-15,7,,SE,0.25,mi,"TEMP, PRECIP, SNOW",,,"MMTS, SRG, SNOWBOARD",,,WFO CHS,,,,,,,,,,,,,,,,,,,,,,,,,,,30.25,52,74,0,,,,46,30.25,SCT:04 48,30.2,10,61,150,,14,,,,,,,,,,,,,,,,,,,,,,,,,,,,,,,,,,,,,MET09303/03/08 11:56:00 METAR KCHS 031656Z 15012KT 10SM SCT048 23/11 A3025 RMK AO2 SLP243 T02330111,,,,,,,,,,,,,,,,,,,,,,,,,,,,
72208013880,2008-03-03T13:56:00,FM-15,7,,SE,0.25,mi,"TEMP, PRECIP, SNOW",,,"MMTS, SRG, SNOWBOARD",,,WFO CHS,,,,,,,,,,,,,,,,,,,,,,,,,,,30.21,52,73,0,,,,48,30.21,BKN:07 47 BKN:07 70,30.16,10,61,170,25,17,,,,,,,,,,,,,,,,,,,,,,,,,,,,,,,,,,,,,MET10303/03/08 13:56:00 METAR KCHS 031856Z 17015G22KT 10SM BKN047 BKN070 23/11 A3021 RMK AO2 SLP231 T02280111,,,,,,,,,,,,,,,,,,,,,,,,,,,,
72208013880,2008-03-03T15:56:00,FM-15,7,,SE,0.25,mi,"TEMP, PRECIP, SNOW",,,"MMTS, SRG, SNOWBOARD",,,WFO CHS,,,,,,,,,,,,,,,,,,,,,,,,,,,30.18,52,75,0,,0.05,8,45,30.17,SCT:04 49 SCT:04 75,30.13,10,62,150,,16,,,,,,,,,,,,,,,,,,,,,,,,,,,,,,,,,,,,,MET10603/03/08 15:56:00 METAR KCHS 032056Z 15014KT 10SM SCT049 SCT075 24/11 A3018 RMK AO2 SLP218 T02390111 58018,,,,,,,,,,,,,,,,,,,,,,,,,,,,
72208013880,2008-03-03T16:00:00,FM-12,4,,SE,0.25,mi,"TEMP, PRECIP, SNOW",,,"MMTS, SRG, SNOWBOARD",,,WFO CHS,,,,,,,,,,,,,,,,,,,,,,,,,,,,52,75,,,0.05,8,45,30.17,,30.13,9.94,62,150,,16,,,,,,,,,,,,,,,,,,,,,,,,,,,,,,,,,,,,,SYN076AAXX  03214 72208 32666 41514 10239 20111 30204 40218 58018 92056 555 90321;,,,,,,,,,,,,,,,,,,,,,,,,,,,,
72208013880,2008-03-03T16:56:00,FM-15,7,,SE,0.25,mi,"TEMP, PRECIP, SNOW",,,"MMTS, SRG, SNOWBOARD",,,WFO CHS,,,,,,,,,,,,,,,,,,,,,,,,,,,30.16,55,72,0,,,,55,30.15,FEW:02 47 SCT:04 75,30.11,10,62,160,24,17,,,,,,,,,,,,,,,,,,,,,,,,,,,,,,,,,,,,,MET10303/03/08 16:56:00 METAR KCHS 032156Z 16015G21KT 10SM FEW047 SCT075 22/13 A3016 RMK AO2 SLP211 T02220128,,,,,,,,,,,,,,,,,,,,,,,,,,,,
72208013880,2008-03-03T17:56:00,FM-15,7,,SE,0.25,mi,"TEMP, PRECIP, SNOW",,,"MMTS, SRG, SNOWBOARD",,,WFO CHS,,,,,,,,,,,,,,,,,,,,,,,,,,,30.15,54,69,0,,,,59,30.14,BKN:07 42 OVC:08 70,30.1,10,60,150,,14,,,,,,,,,,,,,,,,,,,,,,,,,,,,,,,,,,,,,MET10003/03/08 17:56:00 METAR KCHS 032256Z 15012KT 10SM BKN042 OVC070 21/12 A3015 RMK AO2 SLP208 T02060122,,,,,,,,,,,,,,,,,,,,,,,,,,,,
72208013880,2008-03-07T10:56:00,FM-15,7,,SE,0.25,mi,"TEMP, PRECIP, SNOW",,,"MMTS, SRG, SNOWBOARD",,,WFO CHS,,,,,,,,,,,,,,,,,,,,,,,,,,,29.84,64,66,0.59,RA:02 BR:1 |RA |RA,,,93,29.84,SCT:04 5 BKN:07 12 OVC:08 19,29.79,2,65,150,,9,,,,,,,,,,,,,,,,,,,,,,,,,,,,,,,,,,,,,MET11803/07/08 10:56:00 METAR KCHS 071556Z 15008KT 2SM RA BR SCT005 BKN012 OVC019 19/18 A2984 RMK AO2 SLP105 P0059 T01890178,,,,,,,,,,,,,,,,,,,,,,,,,,,,
72208013880,2008-03-07T11:19:00,FM-16,7,,SE,0.25,mi,"TEMP, PRECIP, SNOW",,,"MMTS, SRG, SNOWBOARD",,,WFO CHS,,,,,,,,,,,,,,,,,,,,,,,,,,,29.81,64,66,0.03,-RA:02 BR:1 |RA |RA,,,94,,SCT:04 6 OVC:08 10,29.76,3,65,150,,14,,,,,,,,,,,,,,,,,,,,,,,,,,,,,,,,,,,,,MET10203/07/08 11:19:00 SPECI KCHS 071619Z 15012KT 3SM -RA BR SCT006 OVC010 19/18 A2981 RMK AO2 PRESFR P0003,,,,,,,,,,,,,,,,,,,,,,,,,,,,
72208013880,2008-03-10T15:56:00,FM-15,7,,SE,0.25,mi,"TEMP, PRECIP, SNOW",,,"MMTS, SRG, SNOWBOARD",,,WFO CHS,,,,,,,,,,,,,,,,,,,,,,,,,,,30.29,41,65,0,,0.09,6,42,30.29,FEW:02 75,30.24,10,53,150,,13,,,,,,,,,,,,,,,,,,,,,,,,,,,,,,,,,,,,,MET10803/10/08 15:56:00 METAR KCHS 102056Z 15011KT 10SM FEW075 18/05 A3029 RMK AO2 SLP257 T01830050 56031 RTX (WD),,,,,,,,,,,,,,,,,,,,,,,,,,,,
72208013880,2008-03-10T16:00:00,FM-12,4,,SE,0.25,mi,"TEMP, PRECIP, SNOW",,,"MMTS, SRG, SNOWBOARD",,,WFO CHS,,,,,,,,,,,,,,,,,,,,,,,,,,,,41,65,,,0.09,6,42,30.29,,30.24,9.94,53,150,,13,,,,,,,,,,,,,,,,,,,,,,,,,,,,,,,,,,,,,SYN076AAXX  10214 72208 32866 21511 10183 20050 30241 40257 56031 92056 555 91021;,,,,,,,,,,,,,,,,,,,,,,,,,,,,
72208013880,2008-03-10T16:56:00,FM-15,7,,SE,0.25,mi,"TEMP, PRECIP, SNOW",,,"MMTS, SRG, SNOWBOARD",,,WFO CHS,,,,,,,,,,,,,,,,,,,,,,,,,,,30.28,44,63,0,,,,50,30.27,FEW:02 85,30.23,10,53,150,,11,,,,,,,,,,,,,,,,,,,,,,,,,,,,,,,,,,,,,MET10203/10/08 16:56:00 METAR KCHS 102156Z 15010KT 10SM FEW085 17/07 A3028 RMK AO2 SLP252 T01720067 RTX (WD),,,,,,,,,,,,,,,,,,,,,,,,,,,,
72208013880,2008-03-10T17:56:00,FM-15,7,,SE,0.25,mi,"TEMP, PRECIP, SNOW",,,"MMTS, SRG, SNOWBOARD",,,WFO CHS,,,,,,,,,,,,,,,,,,,,,,,,,,,30.27,44,58,0,,,,60,30.27,,30.22,10,51,150,,11,,,,,,,,,,,,,,,,,,,,,,,,,,,,,,,,,,,,,MET09903/10/08 17:56:00 METAR KCHS 102256Z 15010KT 10SM CLR 14/07 A3027 RMK AO2 SLP249 T01440067 RTX (WD),,,,,,,,,,,,,,,,,,,,,,,,,,,,
72208013880,2008-03-13T14:56:00,FM-15,7,,SE,0.25,mi,"TEMP, PRECIP, SNOW",,,"MMTS, SRG, SNOWBOARD",,,WFO CHS,,,,,,,,,,,,,,,,,,,,,,,,,,,29.94,37,75,0,,,,25,29.93,,29.89,10,56,150,,16,,,,,,,,,,,,,,,,,,,,,,,,,,,,,,,,,,,,,MET09603/13/08 14:56:50 METAR KCHS 131956Z 15014KT 10SM CLR 24/03 A2994 RMK AO2 SLP137 T02390028 (AWS),,,,,,,,,,,,,,,,,,,,,,,,,,,,
72208013880,2008-03-15T13:56:00,FM-15,7,,SE,0.25,mi,"TEMP, PRECIP, SNOW",,,"MMTS, SRG, SNOWBOARD",,,WFO CHS,,,,,,,,,,,,,,,,,,,,,,,,,,,29.72,60,72,0,,,,66,29.72,SCT:04 24,29.67,10,65,150,,13,,,,,,,,,,,,,,,,,,,,,,,,,,,,,,,,,,,,,MET09903/15/08 13:56:50 METAR KCHS 151856Z 15011KT 10SM SCT024 22/16 A2972 RMK AO2 SLP063 T02220156 (JRS),,,,,,,,,,,,,,,,,,,,,,,,,,,,
72208013880,2008-03-15T14:56:00,FM-15,7,,SE,0.25,mi,"TEMP, PRECIP, SNOW",,,"MMTS, SRG, SNOWBOARD",,,WFO CHS,,,,,,,,,,,,,,,,,,,,,,,,,,,29.68,60,73,0,,,,64,29.68,FEW:02 22 SCT:04 40,29.63,10,65,170,,17,,,,,,,,,,,,,,,,,,,,,,,,,,,,,,,,,,,,,MET11303/15/08 14:56:50 METAR KCHS 151956Z 17015KT 10SM FEW022 SCT040 23/16 A2968 RMK AO2 PRESFR SLP050 T02280156 (JRS),,,,,,,,,,,,,,,,,,,,,,,,,,,,
72208013880,2008-03-18T11:56:00,FM-15,7,,SE,0.25,mi,"TEMP, PRECIP, SNOW",,,"MMTS, SRG, SNOWBOARD",,,WFO CHS,,,,,,,,,,,,,,,,,,,,,,,,,,,30.33,51,71,0,,,,49,30.32,SCT:04 36 BKN:07 60,30.28,10,60,150,,17,,,,,,,,,,,,,,,,,,,,,,,,,,,,,,,,,,,,,MET10603/18/08 11:56:50 METAR KCHS 181656Z 15015KT 10SM SCT036 BKN060 22/11 A3033 RMK AO2 SLP269 T02170106 (AWS),,,,,,,,,,,,,,,,,,,,,,,,,,,,
72208013880,2008-03-18T12:56:00,FM-15,7,,SE,0.25,mi,"TEMP, PRECIP, SNOW",,,"MMTS, SRG, SNOWBOARD",,,WFO CHS,,,,,,,,,,,,,,,,,,,,,,,,,,,30.31,52,69,0,,0.04,8,55,30.3,SCT:04 34 OVC:08 45,30.26,10,59,150,,16,,,,,,,,,,,,,,,,,,,,,,,,,,,,,,,,,,,,,MET12403/18/08 12:56:51 METAR KCHS 181756Z 15014KT 10SM SCT034 OVC045 21/11 A3031 RMK AO2 SLP262 T02060111 10222 20128 58014 (AWS),,,,,,,,,,,,,,,,,,,,,,,,,,,,
72208013880,2008-03-18T13:00:00,FM-12,4,,SE,0.25,mi,"TEMP, PRECIP, SNOW",,,"MMTS, SRG, SNOWBOARD",,,WFO CHS,,,,,,,,,,,,,,,,,,,,,,,,,,,,52,69,,,0.04,8,55,30.3,,30.26,9.94,59,150,,16,,,,,,,,,,,,,,,,,,,,,,,,,,,,,,,,,,,,,SYN092AAXX  18184 72208 32666 81514 10206 20111 30248 40262 58014 91756 333 10222 20117 555 91818;,,,,,,,,,,,,,,,,,,,,,,,,,,,,
72208013880,2008-03-18T13:56:00,FM-15,7,,SE,0.25,mi,"TEMP, PRECIP, SNOW",,,"MMTS, SRG, SNOWBOARD",,,WFO CHS,,,,,,,,,,,,,,,,,,,,,,,,,,,30.27,51,69,0,,,,53,30.27,BKN:07 43 OVC:08 70,30.22,10,59,150,,16,,,,,,,,,,,,,,,,,,,,,,,,,,,,,,,,,,,,,MET10603/18/08 13:56:50 METAR KCHS 181856Z 15014KT 10SM BKN043 OVC070 21/11 A3027 RMK AO2 SLP250 T02060106 (AWS),,,,,,,,,,,,,,,,,,,,,,,,,,,,
72208013880,2008-03-18T14:56:00,FM-15,7,,SE,0.25,mi,"TEMP, PRECIP, SNOW",,,"MMTS, SRG, SNOWBOARD",,,WFO CHS,,,,,,,,,,,,,,,,,,,,,,,,,,,30.26,51,70,0,,,,51,30.25,SCT:04 39 BKN:07 50 OVC:08 70,30.21,10,59,160,,16,,,,,,,,,,,,,,,,,,,,,,,,,,,,,,,,,,,,,MET11303/18/08 14:56:51 METAR KCHS 181956Z 16014KT 10SM SCT039 BKN050 OVC070 21/11 A3026 RMK AO2 SLP244 T02110106 (AWS),,,,,,,,,,,,,,,,,,,,,,,,,,,,
72208013880,2008-03-18T15:56:00,FM-15,7,,SE,0.25,mi,"TEMP, PRECIP, SNOW",,,"MMTS, SRG, SNOWBOARD",,,WFO CHS,,,,,,,,,,,,,,,,,,,,,,,,,,,30.23,52,70,0,,0.07,6,53,30.23,FEW:02 40 OVC:08 65,30.18,10,60,150,,16,,,,,,,,,,,,,,,,,,,,,,,,,,,,,,,,,,,,,MET11103/18/08 15:56:50 METAR KCHS 182056Z 15014KT 10SM FEW040 OVC065 21/11 A3023 RMK AO2 SLP237 T02110111 56025 (WD),,,,,,,,,,,,,,,,,,,,,,,,,,,,
72208013880,2008-03-18T16:00:00,FM-12,4,,SE,0.25,mi,"TEMP, PRECIP, SNOW",,,"MMTS, SRG, SNOWBOARD",,,WFO CHS,,,,,,,,,,,,,,,,,,,,,,,,,,,,52,70,,,0.07,6,53,30.23,,30.18,9.94,60,150,,16,,,,,,,,,,,,,,,,,,,,,,,,,,,,,,,,,,,,,SYN076AAXX  18214 72208 32666 81514 10211 20111 30221 40237 56025 92056 555 91821;,,,,,,,,,,,,,,,,,,,,,,,,,,,,
72208013880,2008-03-18T17:56:00,FM-15,7,,SE,0.25,mi,"TEMP, PRECIP, SNOW",,,"MMTS, SRG, SNOWBOARD",,,WFO CHS,,,,,,,,,,,,,,,,,,,,,,,,,,,30.19,54,67,0,,,,63,30.19,FEW:02 35 OVC:08 65,30.14,10,60,160,22,14,,,,,,,,,,,,,,,,,,,,,,,,,,,,,,,,,,,,,MET10803/18/08 17:56:50 METAR KCHS 182256Z 16012G19KT 10SM FEW035 OVC065 19/12 A3019 RMK AO2 SLP222 T01940122 (WD),,,,,,,,,,,,,,,,,,,,,,,,,,,,
72208013880,2008-03-21T13:56:00,FM-15,7,,SE,0.25,mi,"TEMP, PRECIP, SNOW",,,"MMTS, SRG, SNOWBOARD",,,WFO CHS,,,,,,,,,,,,,,,,,,,,,,,,,,,30.25,36,67,0,,,,32,30.24,,30.2,10,52,160,,10,,,,,,,,,,,,,,,,,,,,,,,,,,,,,,,,,,,,,MET09603/21/08 13:56:50 METAR KCHS 211856Z 16009KT 10SM CLR 19/02 A3025 RMK AO2 SLP242 T01940022 (JRS),,,,,,,,,,,,,,,,,,,,,,,,,,,,
72208013880,2008-03-21T14:56:00,FM-15,7,,SE,0.25,mi,"TEMP, PRECIP, SNOW",,,"MMTS, SRG, SNOWBOARD",,,WFO CHS,,,,,,,,,,,,,,,,,,,,,,,,,,,30.23,34,66,0,,,,30,30.23,,30.18,10,51,150,,10,,,,,,,,,,,,,,,,,,,,,,,,,,,,,,,,,,,,,MET09603/21/08 14:56:50 METAR KCHS 211956Z 15009KT 10SM CLR 19/01 A3023 RMK AO2 SLP237 T01890011 (JRS),,,,,,,,,,,,,,,,,,,,,,,,,,,,
72208013880,2008-03-21T16:56:00,FM-15,7,,SE,0.25,mi,"TEMP, PRECIP, SNOW",,,"MMTS, SRG, SNOWBOARD",,,WFO CHS,,,,,,,,,,,,,,,,,,,,,,,,,,,30.19,38,64,0,,,,38,30.19,,30.14,10,51,160,,10,,,,,,,,,,,,,,,,,,,,,,,,,,,,,,,,,,,,,MET09503/21/08 16:56:50 METAR KCHS 212156Z 16009KT 10SM CLR 18/03 A3019 RMK AO2 SLP222 T01780033 (WD),,,,,,,,,,,,,,,,,,,,,,,,,,,,
72208013880,2008-03-21T17:56:00,FM-15,7,,SE,0.25,mi,"TEMP, PRECIP, SNOW",,,"MMTS, SRG, SNOWBOARD",,,WFO CHS,,,,,,,,,,,,,,,,,,,,,,,,,,,30.18,38,61,0,,,,43,30.18,,30.13,10,50,170,,11,,,,,,,,,,,,,,,,,,,,,,,,,,,,,,,,,,,,,MET09503/21/08 17:56:50 METAR KCHS 212256Z 17010KT 10SM CLR 16/03 A3018 RMK AO2 SLP219 T01610033 (WD),,,,,,,,,,,,,,,,,,,,,,,,,,,,
72208013880,2008-03-22T14:56:00,FM-15,7,,SE,0.25,mi,"TEMP, PRECIP, SNOW",,,"MMTS, SRG, SNOWBOARD",,,WFO CHS,,,,,,,,,,,,,,,,,,,,,,,,,,,29.89,50,75,0,,,,41,29.88,FEW:02 65,29.84,10,61,150,,10,,,,,,,,,,,,,,,,,,,,,,,,,,,,,,,,,,,,,MET11203/22/08 14:56:50 METAR KCHS 221956Z 15009KT 10SM FEW065 24/10 A2989 RMK AO2 WSHFT 1918 SLP120 T02390100 $ (JRS),,,,,,,,,,,,,,,,,,,,,,,,,,,,
72208013880,2008-03-25T15:56:00,FM-15,7,,SE,0.25,mi,"TEMP, PRECIP, SNOW",,,"MMTS, SRG, SNOWBOARD",,,WFO CHS,,,,,,,,,,,,,,,,,,,,,,,,,,,30.36,30,58,0,,0.05,6,35,30.36,,30.31,10,46,160,18,9,,,,,,,,,,,,,,,,,,,,,,,,,,,,,,,,,,,,,MET10503/25/08 15:56:50 METAR KCHS 252056Z 16008G16KT 10SM CLR 14/M01 A3036 RMK AO2 SLP281 T01441011 56017 (WD),,,,,,,,,,,,,,,,,,,,,,,,,,,,
72208013880,2008-03-25T16:00:00,FM-12,4,,SE,0.25,mi,"TEMP, PRECIP, SNOW",,,"MMTS, SRG, SNOWBOARD",,,WFO CHS,,,,,,,,,,,,,,,,,,,,,,,,,,,,30,58,,,0.05,6,35,30.36,CLR:00,30.31,9.94,46,160,,9,,,,,,,,,,,,,,,,,,,,,,,,,,,,,,,,,,,,,SYN086AAXX  25214 72208 32966 01608 10144 21011 30265 40281 56017 92056 333 91016 555 92521;,,,,,,,,,,,,,,,,,,,,,,,,,,,,
72208013880,2008-03-25T16:56:00,FM-15,7,,SE,0.25,mi,"TEMP, PRECIP, SNOW",,,"MMTS, SRG, SNOWBOARD",,,WFO CHS,,,,,,,,,,,,,,,,,,,,,,,,,,,30.36,30,56,0,,,,37,30.36,,30.31,10,45,160,,13,,,,,,,,,,,,,,,,,,,,,,,,,,,,,,,,,,,,,MET09603/25/08 16:56:50 METAR KCHS 252156Z 16011KT 10SM CLR 13/M01 A3036 RMK AO2 SLP280 T01331011 (WD),,,,,,,,,,,,,,,,,,,,,,,,,,,,
72208013880,2008-03-25T17:56:00,FM-15,7,,SE,0.25,mi,"TEMP, PRECIP, SNOW",,,"MMTS, SRG, SNOWBOARD",,,WFO CHS,,,,,,,,,,,,,,,,,,,,,,,,,,,30.38,30,53,0,,,,41,30.37,,30.33,10,43,160,,14,,,,,,,,,,,,,,,,,,,,,,,,,,,,,,,,,,,,,MET09603/25/08 17:56:50 METAR KCHS 252256Z 16012KT 10SM CLR 12/M01 A3038 RMK AO2 SLP285 T01171011 (WD),,,,,,,,,,,,,,,,,,,,,,,,,,,,
72208013880,2008-03-31T16:56:00,FM-15,7,,SE,0.25,mi,"TEMP, PRECIP, SNOW",,,"MMTS, SRG, SNOWBOARD",,,WFO CHS,,,,,,,,,,,,,,,,,,,,,,,,,,,30.23,62,68,0,,,,81,30.23,SCT:04 13 BKN:07 23 OVC:08 34,30.18,10,64,150,,11,,,,,,,,,,,,,,,,,,,,,,,,,,,,,,,,,,,,,MET11203/31/08 16:56:50 METAR KCHS 312156Z 15010KT 10SM SCT013 BKN023 OVC034 20/17 A3023 RMK AO2 SLP237 T02000167 (WD),,,,,,,,,,,,,,,,,,,,,,,,,,,,
72208013880,2008-04-01T17:07:00,FM-16,7,,SE,0.25,mi,"TEMP, PRECIP, SNOW",,,"MMTS, SRG, SNOWBOARD",,,WFO CHS,,,,,,,,,,,,,,,,,,,,,,,,,,,30.11,66,72,,,,,83,,FEW:02 18,30.06,10,68,170,,9,,,,,,,,,,,,,,,,,,,,,,,,,,,,,,,,,,,,,MET09804/01/08 17:07:50 SPECI KCHS 012207Z 17008KT 10SM FEW018 22/19 A3011 RMK AO2 TSE02 TS DSPTD $ (WD),,,,,,,,,,,,,,,,,,,,,,,,,,,,
72208013880,2008-04-02T13:56:00,FM-15,7,,SE,0.25,mi,"TEMP, PRECIP, SNOW",,,"MMTS, SRG, SNOWBOARD",,,WFO CHS,,,,,,,,,,,,,,,,,,,,,,,,,,,30.14,63,81,0,,,,54,30.14,BKN:07 50,30.09,10,69,160,,10,,,,,,,,,,,,,,,,,,,,,,,,,,,,,,,,,,,,,MET09904/02/08 13:56:50 METAR KCHS 021856Z 16009KT 10SM BKN050 27/17 A3014 RMK AO2 SLP205 T02720172 (AWS),,,,,,,,,,,,,,,,,,,,,,,,,,,,
72208013880,2008-04-08T14:56:00,FM-15,7,,SE,0.25,mi,"TEMP, PRECIP, SNOW",,,"MMTS, SRG, SNOWBOARD",,,WFO CHS,,,,,,,,,,,,,,,,,,,,,,,,,,,30.13,53,67,0,,,,61,30.12,OVC:08 36,30.08,10,59,150,,10,,,,,,,,,,,,,,,,,,,,,,,,,,,,,,,,,,,,,MET09804/08/08 14:56:50 METAR KCHS 081956Z 15009KT 10SM OVC036 19/12 A3013 RMK AO2 SLP201 T01940117 (WD),,,,,,,,,,,,,,,,,,,,,,,,,,,,
72208013880,2008-04-08T17:56:00,FM-15,7,,SE,0.25,mi,"TEMP, PRECIP, SNOW",,,"MMTS, SRG, SNOWBOARD",,,WFO CHS,,,,,,,,,,,,,,,,,,,,,,,,,,,30.15,53,63,0,,,,70,30.15,OVC:08 44,30.1,10,57,150,,7,,,,,,,,,,,,,,,,,,,,,,,,,,,,,,,,,,,,,MET09804/08/08 17:56:50 METAR KCHS 082256Z 15006KT 10SM OVC044 17/12 A3015 RMK AO2 SLP209 T01720117 (WD),,,,,,,,,,,,,,,,,,,,,,,,,,,,
72208013880,2008-04-09T16:56:00,FM-15,7,,SE,0.25,mi,"TEMP, PRECIP, SNOW",,,"MMTS, SRG, SNOWBOARD",,,WFO CHS,,,,,,,,,,,,,,,,,,,,,,,,,,,30.11,55,70,0,,,,59,30.11,,30.06,10,61,150,,10,,,,,,,,,,,,,,,,,,,,,,,,,,,,,,,,,,,,,MET09504/09/08 16:56:50 METAR KCHS 092156Z 15009KT 10SM CLR 21/13 A3011 RMK AO2 SLP196 T02110128 (WD),,,,,,,,,,,,,,,,,,,,,,,,,,,,
72208013880,2008-04-09T17:56:00,FM-15,7,,SE,0.25,mi,"TEMP, PRECIP, SNOW",,,"MMTS, SRG, SNOWBOARD",,,WFO CHS,,,,,,,,,,,,,,,,,,,,,,,,,,,30.12,55,66,0,,,,68,30.11,,30.07,10,60,150,,10,,,,,,,,,,,,,,,,,,,,,,,,,,,,,,,,,,,,,MET09504/09/08 17:56:50 METAR KCHS 092256Z 15009KT 10SM CLR 19/13 A3012 RMK AO2 SLP197 T01890128 (WD),,,,,,,,,,,,,,,,,,,,,,,,,,,,
72208013880,2008-04-10T14:56:00,FM-15,7,,SE,0.25,mi,"TEMP, PRECIP, SNOW",,,"MMTS, SRG, SNOWBOARD",,,WFO CHS,,,,,,,,,,,,,,,,,,,,,,,,,,,30.08,58,77,0,,,,52,30.08,FEW:02 37,30.03,10,65,170,,7,,,,,,,,,,,,,,,,,,,,,,,,,,,,,,,,,,,,,MET09904/10/08 14:56:50 METAR KCHS 101956Z 17006KT 10SM FEW037 25/14 A3008 RMK AO2 SLP186 T02500144 (AWS),,,,,,,,,,,,,,,,,,,,,,,,,,,,
72208013880,2008-04-10T15:56:00,FM-15,7,,SE,0.25,mi,"TEMP, PRECIP, SNOW",,,"MMTS, SRG, SNOWBOARD",,,WFO CHS,,,,,,,,,,,,,,,,,,,,,,,,,,,30.07,60,76,0,,0.04,7,58,30.07,SCT:04 31,30.02,10,66,160,,10,,,,,,,,,,,,,,,,,,,,,,,,,,,,,,,,,,,,,MET10404/10/08 15:56:50 METAR KCHS 102056Z 16009KT 10SM SCT031 24/16 A3007 RMK AO2 SLP182 T02440156 57014 (WD),,,,,,,,,,,,,,,,,,,,,,,,,,,,
72208013880,2008-04-10T16:00:00,FM-12,4,,SE,0.25,mi,"TEMP, PRECIP, SNOW",,,"MMTS, SRG, SNOWBOARD",,,WFO CHS,,,,,,,,,,,,,,,,,,,,,,,,,,,,60,76,,,0.04,7,58,30.07,,30.02,9.94,66,160,,10,,,,,,,,,,,,,,,,,,,,,,,,,,,,,,,,,,,,,SYN076AAXX  10214 72208 32566 41609 10244 20156 30167 40182 57014 92056 555 91021;,,,,,,,,,,,,,,,,,,,,,,,,,,,,
72208013880,2008-04-17T17:56:00,FM-15,7,,SE,0.25,mi,"TEMP, PRECIP, SNOW",,,"MMTS, SRG, SNOWBOARD",,,WFO CHS,,,,,,,,,,,,,,,,,,,,,,,,,,,30.13,44,70,0,,,,39,30.12,,30.08,10,56,170,,10,,,,,,,,,,,,,,,,,,,,,,,,,,,,,,,,,,,,,MET09504/17/08 17:56:50 METAR KCHS 172256Z 17009KT 10SM CLR 21/07 A3013 RMK AO2 SLP201 T02110067 (WD),,,,,,,,,,,,,,,,,,,,,,,,,,,,
72208013880,2008-04-25T10:56:00,FM-15,7,,SE,0.25,mi,"TEMP, PRECIP, SNOW",,,"MMTS, SRG, SNOWBOARD",,,WFO CHS,,,,,,,,,,,,,,,,,,,,,,,,,,,30.17,55,76,0,,,,48,30.17,SCT:04 44,30.12,7,64,150,,8,,,,,,,,,,,,,,,,,,,,,,,,,,,,,,,,,,,,,MET09804/25/08 10:56:50 METAR KCHS 251556Z 15007KT 7SM SCT044 24/13 A3017 RMK AO2 SLP216 T02440128 (AWS),,,,,,,,,,,,,,,,,,,,,,,,,,,,
72208013880,2008-04-25T11:56:00,FM-15,7,,SE,0.25,mi,"TEMP, PRECIP, SNOW",,,"MMTS, SRG, SNOWBOARD",,,WFO CHS,,,,,,,,,,,,,,,,,,,,,,,,,,,30.16,51,79,0,,,,38,30.15,FEW:02 49,30.11,10,63,160,,9,,,,,,,,,,,,,,,,,,,,,,,,,,,,,,,,,,,,,MET09904/25/08 11:56:50 METAR KCHS 251656Z 16008KT 10SM FEW049 26/11 A3016 RMK AO2 SLP211 T02610106 (AWS),,,,,,,,,,,,,,,,,,,,,,,,,,,,
72208013880,2008-04-25T12:56:00,FM-15,7,,SE,0.25,mi,"TEMP, PRECIP, SNOW",,,"MMTS, SRG, SNOWBOARD",,,WFO CHS,,,,,,,,,,,,,,,,,,,,,,,,,,,30.15,51,80,0,,0.03,8,37,30.14,FEW:02 60,30.1,10,63,150,17,11,,,,,,,,,,,,,,,,,,,,,,,,,,,,,,,,,,,,,MET12004/25/08 12:56:51 METAR KCHS 251756Z 15010G15KT 10SM FEW060 27/11 A3015 RMK AO2 SLP208 T02670106 10272 20178 58009 (AWS),,,,,,,,,,,,,,,,,,,,,,,,,,,,
72208013880,2008-04-25T13:00:00,FM-12,4,,SE,0.25,mi,"TEMP, PRECIP, SNOW",,,"MMTS, SRG, SNOWBOARD",,,WFO CHS,,,,,,,,,,,,,,,,,,,,,,,,,,,,51,80,,,0.03,8,37,30.14,,30.1,9.94,63,150,,11,,,,,,,,,,,,,,,,,,,,,,,,,,,,,,,,,,,,,SYN098AAXX  25184 72208 32766 21510 10267 20106 30194 40208 58009 91756 333 10272 20178 91015 555 92518;,,,,,,,,,,,,,,,,,,,,,,,,,,,,
72208013880,2008-04-25T16:56:00,FM-15,7,,SE,0.25,mi,"TEMP, PRECIP, SNOW",,,"MMTS, SRG, SNOWBOARD",,,WFO CHS,,,,,,,,,,,,,,,,,,,,,,,,,,,30.1,51,76,0,,,,42,30.1,,30.05,10,62,160,,13,,,,,,,,,,,,,,,,,,,,,,,,,,,,,,,,,,,,,MET09504/25/08 16:56:50 METAR KCHS 252156Z 16011KT 10SM CLR 24/11 A3010 RMK AO2 SLP193 T02440106 (WD),,,,,,,,,,,,,,,,,,,,,,,,,,,,
72208013880,2008-04-27T12:56:00,FM-15,7,,SE,0.25,mi,"TEMP, PRECIP, SNOW",,,"MMTS, SRG, SNOWBOARD",,,WFO CHS,,,,,,,,,,,,,,,,,,,,,,,,,,,30.05,60,81,0,,0.05,8,49,30.04,FEW:02 41 SCT:04 75,30,10,68,160,17,9,,,,,,,,,,,,,,,,,,,,,,,,,,,,,,,,,,,,,MET12904/27/08 12:56:51 METAR KCHS 271756Z 16008G15KT 10SM FEW041 SCT075 27/16 A3005 RMK AO2 SLP174 T02720156 10272 20194 58018 $ (WRB),,,,,,,,,,,,,,,,,,,,,,,,,,,,
72208013880,2008-04-27T13:00:00,FM-12,4,,SE,0.25,mi,"TEMP, PRECIP, SNOW",,,"MMTS, SRG, SNOWBOARD",,,WFO CHS,,,,,,,,,,,,,,,,,,,,,,,,,,,,60,81,,,0.05,8,49,30.04,,30,9.94,68,160,,9,,,,,,,,,,,,,,,,,,,,,,,,,,,,,,,,,,,,,SYN098AAXX  27184 72208 32666 41608 10272 20156 30160 40174 58018 91756 333 10272 20194 91015 555 92718;,,,,,,,,,,,,,,,,,,,,,,,,,,,,
72208013880,2008-04-30T15:56:00,FM-15,7,,SE,0.25,mi,"TEMP, PRECIP, SNOW",,,"MMTS, SRG, SNOWBOARD",,,WFO CHS,,,,,,,,,,,,,,,,,,,,,,,,,,,30.08,44,70,0,,0.04,6,39,30.08,,30.03,10,56,170,,16,,,,,,,,,,,,,,,,,,,,,,,,,,,,,,,,,,,,,MET10104/30/08 15:56:50 METAR KCHS 302056Z 17014KT 10SM CLR 21/07 A3008 RMK AO2 SLP186 T02110067 56012 (WD),,,,,,,,,,,,,,,,,,,,,,,,,,,,
72208013880,2008-04-30T16:00:00,FM-12,4,,SE,0.25,mi,"TEMP, PRECIP, SNOW",,,"MMTS, SRG, SNOWBOARD",,,WFO CHS,,,,,,,,,,,,,,,,,,,,,,,,,,,,44,70,,,0.04,6,39,30.08,CLR:00,30.03,9.94,56,170,,16,,,,,,,,,,,,,,,,,,,,,,,,,,,,,,,,,,,,,SYN076AAXX  30214 72208 32966 01714 10211 20067 30170 40186 56012 92056 555 93021;,,,,,,,,,,,,,,,,,,,,,,,,,,,,
72208013880,2008-04-30T16:12:00,FM-16,7,,SE,0.25,mi,"TEMP, PRECIP, SNOW",,,"MMTS, SRG, SNOWBOARD",,,WFO CHS,,,,,,,,,,,,,,,,,,,,,,,,,,,30.08,45,70,,,,,40,,,30.03,10,57,170,,10,,,,,,,,,,,,,,,,,,,,,,,,,,,,,,,,,,,,,MET08904/30/08 16:13:03 SPECI KCHS 302112Z 17009KT 10SM CLR 21/07 A3008 RMK AO2 WSHFT 2053 (WD),,,,,,,,,,,,,,,,,,,,,,,,,,,,
72208013880,2008-05-01T11:56:00,FM-15,7,,SE,0.25,mi,"TEMP, PRECIP, SNOW",,,"MMTS, SRG, SNOWBOARD",,,WFO CHS,,,,,,,,,,,,,,,,,,,,,,,,,,,30.2,50,74,0,,,,43,30.2,,30.15,10,60,160,,11,,,,,,,,,,,,,,,,,,,,,,,,,,,,,,,,,,,,,MET09605/01/08 11:56:50 METAR KCHS 011656Z 16010KT 10SM CLR 23/10 A3020 RMK AO2 SLP227 T02330100 (AWS),,,,,,,,,,,,,,,,,,,,,,,,,,,,
72208013880,2008-05-01T14:56:00,FM-15,7,,SE,0.25,mi,"TEMP, PRECIP, SNOW",,,"MMTS, SRG, SNOWBOARD",,,WFO CHS,,,,,,,,,,,,,,,,,,,,,,,,,,,30.15,45,75,0,,,,34,30.14,,30.1,10,59,150,20,13,,,,,,,,,,,,,,,,,,,,,,,,,,,,,,,,,,,,,MET09905/01/08 14:56:50 METAR KCHS 011956Z 15011G17KT 10SM CLR 24/07 A3015 RMK AO2 SLP207 T02390072 (AWS),,,,,,,,,,,,,,,,,,,,,,,,,,,,
72208013880,2008-05-01T15:56:00,FM-15,7,,SE,0.25,mi,"TEMP, PRECIP, SNOW",,,"MMTS, SRG, SNOWBOARD",,,WFO CHS,,,,,,,,,,,,,,,,,,,,,,,,,,,30.14,40,75,0,,0.04,6,28,30.14,,30.09,10,57,150,,15,,,,,,,,,,,,,,,,,,,,,,,,,,,,,,,,,,,,,MET10105/01/08 15:56:50 METAR KCHS 012056Z 15013KT 10SM CLR 24/04 A3014 RMK AO2 SLP206 T02390044 56014 (WD),,,,,,,,,,,,,,,,,,,,,,,,,,,,
72208013880,2008-05-01T16:00:00,FM-12,4,,SE,0.25,mi,"TEMP, PRECIP, SNOW",,,"MMTS, SRG, SNOWBOARD",,,WFO CHS,,,,,,,,,,,,,,,,,,,,,,,,,,,,40,75,,,0.04,6,28,30.14,CLR:00,30.09,9.94,57,150,,15,,,,,,,,,,,,,,,,,,,,,,,,,,,,,,,,,,,,,SYN076AAXX  01214 72208 32966 01513 10239 20044 30190 40206 56014 92056 555 90121;,,,,,,,,,,,,,,,,,,,,,,,,,,,,
72208013880,2008-05-01T16:56:00,FM-15,7,,SE,0.25,mi,"TEMP, PRECIP, SNOW",,,"MMTS, SRG, SNOWBOARD",,,WFO CHS,,,,,,,,,,,,,,,,,,,,,,,,,,,30.14,46,73,0,,,,38,30.14,,30.09,10,58,160,18,14,,,,,,,,,,,,,,,,,,,,,,,,,,,,,,,,,,,,,MET09805/01/08 16:56:50 METAR KCHS 012156Z 16012G16KT 10SM CLR 23/08 A3014 RMK AO2 SLP206 T02280078 (WD),,,,,,,,,,,,,,,,,,,,,,,,,,,,
72208013880,2008-05-01T17:56:00,FM-15,7,,SE,0.25,mi,"TEMP, PRECIP, SNOW",,,"MMTS, SRG, SNOWBOARD",,,WFO CHS,,,,,,,,,,,,,,,,,,,,,,,,,,,30.14,51,71,0,,,,49,30.14,,30.09,10,60,170,,11,,,,,,,,,,,,,,,,,,,,,,,,,,,,,,,,,,,,,MET09505/01/08 17:56:50 METAR KCHS 012256Z 17010KT 10SM CLR 22/11 A3014 RMK AO2 SLP205 T02170106 (WD),,,,,,,,,,,,,,,,,,,,,,,,,,,,
72208013880,2008-05-02T12:56:00,FM-15,7,,SE,0.25,mi,"TEMP, PRECIP, SNOW",,,"MMTS, SRG, SNOWBOARD",,,WFO CHS,,,,,,,,,,,,,,,,,,,,,,,,,,,30.14,55,78,0,,0.03,8,45,30.13,FEW:02 47,30.09,10,64,170,17,11,,,,,,,,,,,,,,,,,,,,,,,,,,,,,,,,,,,,,MET12005/02/08 12:56:51 METAR KCHS 021756Z 17010G15KT 10SM FEW047 26/13 A3014 RMK AO2 SLP204 T02560128 10261 20194 58009 (AWS),,,,,,,,,,,,,,,,,,,,,,,,,,,,
72208013880,2008-05-02T13:00:00,FM-12,4,,SE,0.25,mi,"TEMP, PRECIP, SNOW",,,"MMTS, SRG, SNOWBOARD",,,WFO CHS,,,,,,,,,,,,,,,,,,,,,,,,,,,,55,78,,,0.03,8,45,30.13,,30.09,9.94,64,170,,11,,,,,,,,,,,,,,,,,,,,,,,,,,,,,,,,,,,,,SYN098AAXX  02184 72208 32666 21710 10256 20128 30190 40204 58009 91756 333 10261 20194 91015 555 90218;,,,,,,,,,,,,,,,,,,,,,,,,,,,,
72208013880,2008-05-02T13:56:00,FM-15,7,,SE,0.25,mi,"TEMP, PRECIP, SNOW",,,"MMTS, SRG, SNOWBOARD",,,WFO CHS,,,,,,,,,,,,,,,,,,,,,,,,,,,30.11,55,78,0,,,,45,30.11,FEW:02 46,30.06,10,64,170,22,16,,,,,,,,,,,,,,,,,,,,,,,,,,,,,,,,,,,,,MET10205/02/08 13:56:50 METAR KCHS 021856Z 17014G19KT 10SM FEW046 26/13 A3011 RMK AO2 SLP196 T02560128 (AWS),,,,,,,,,,,,,,,,,,,,,,,,,,,,
72208013880,2008-05-02T14:56:00,FM-15,7,,SE,0.25,mi,"TEMP, PRECIP, SNOW",,,"MMTS, SRG, SNOWBOARD",,,WFO CHS,,,,,,,,,,,,,,,,,,,,,,,,,,,30.09,55,79,0,,,,44,30.09,FEW:02 46,30.04,10,65,170,,16,,,,,,,,,,,,,,,,,,,,,,,,,,,,,,,,,,,,,MET09905/02/08 14:56:50 METAR KCHS 021956Z 17014KT 10SM FEW046 26/13 A3009 RMK AO2 SLP190 T02610128 (AWS),,,,,,,,,,,,,,,,,,,,,,,,,,,,
72208013880,2008-05-07T10:56:00,FM-15,7,,SE,0.25,mi,"TEMP, PRECIP, SNOW",,,"MMTS, SRG, SNOWBOARD",,,WFO CHS,,,,,,,,,,,,,,,,,,,,,,,,,,,30.08,56,80,0,,,,44,30.07,FEW:02 50,30.03,10,65,160,,11,,,,,,,,,,,,,,,,,,,,,,,,,,,,,,,,,,,,,MET09905/07/08 10:56:50 METAR KCHS 071556Z 16010KT 10SM FEW050 27/13 A3008 RMK AO2 SLP184 T02670133 (AWS),,,,,,,,,,,,,,,,,,,,,,,,,,,,
72208013880,2008-05-07T11:56:00,FM-15,7,,SE,0.25,mi,"TEMP, PRECIP, SNOW",,,"MMTS, SRG, SNOWBOARD",,,WFO CHS,,,,,,,,,,,,,,,,,,,,,,,,,,,30.05,55,80,0,,,,42,30.05,FEW:02 50,30,10,65,170,,11,,,,,,,,,,,,,,,,,,,,,,,,,,,,,,,,,,,,,MET09905/07/08 11:56:50 METAR KCHS 071656Z 17010KT 10SM FEW050 27/13 A3005 RMK AO2 SLP176 T02670128 (AWS),,,,,,,,,,,,,,,,,,,,,,,,,,,,
72208013880,2008-05-07T13:56:00,FM-15,7,,SE,0.25,mi,"TEMP, PRECIP, SNOW",,,"MMTS, SRG, SNOWBOARD",,,WFO CHS,,,,,,,,,,,,,,,,,,,,,,,,,,,30.03,55,81,0,,,,41,30.02,FEW:02 55,29.98,10,65,160,,17,,,,,,,,,,,,,,,,,,,,,,,,,,,,,,,,,,,,,MET09905/07/08 13:56:50 METAR KCHS 071856Z 16015KT 10SM FEW055 27/13 A3003 RMK AO2 SLP167 T02720128 (AWS),,,,,,,,,,,,,,,,,,,,,,,,,,,,
72208013880,2008-05-07T14:56:00,FM-15,7,,SE,0.25,mi,"TEMP, PRECIP, SNOW",,,"MMTS, SRG, SNOWBOARD",,,WFO CHS,,,,,,,,,,,,,,,,,,,,,,,,,,,30.01,57,79,0,,,,47,30.01,SCT:04 60,29.96,10,66,150,,16,,,,,,,,,,,,,,,,,,,,,,,,,,,,,,,,,,,,,MET09905/07/08 14:56:50 METAR KCHS 071956Z 15014KT 10SM SCT060 26/14 A3001 RMK AO2 SLP162 T02610139 (AWS),,,,,,,,,,,,,,,,,,,,,,,,,,,,
72208013880,2008-05-07T15:56:00,FM-15,7,,SE,0.25,mi,"TEMP, PRECIP, SNOW",,,"MMTS, SRG, SNOWBOARD",,,WFO CHS,,,,,,,,,,,,,,,,,,,,,,,,,,,30,57,80,0,,0.04,6,45,30,SCT:04 46,29.95,10,66,160,,17,,,,,,,,,,,,,,,,,,,,,,,,,,,,,,,,,,,,,MET10405/07/08 15:56:50 METAR KCHS 072056Z 16015KT 10SM SCT046 27/14 A3000 RMK AO2 SLP159 T02670139 56014 (WD),,,,,,,,,,,,,,,,,,,,,,,,,,,,
72208013880,2008-05-07T16:00:00,FM-12,4,,SE,0.25,mi,"TEMP, PRECIP, SNOW",,,"MMTS, SRG, SNOWBOARD",,,WFO CHS,,,,,,,,,,,,,,,,,,,,,,,,,,,,57,80,,,0.04,6,45,30,,29.95,9.94,66,160,,17,,,,,,,,,,,,,,,,,,,,,,,,,,,,,,,,,,,,,SYN076AAXX  07214 72208 32666 41615 10267 20139 30143 40159 56014 92056 555 90721;,,,,,,,,,,,,,,,,,,,,,,,,,,,,
72208013880,2008-05-07T17:56:00,FM-15,7,,SE,0.25,mi,"TEMP, PRECIP, SNOW",,,"MMTS, SRG, SNOWBOARD",,,WFO CHS,,,,,,,,,,,,,,,,,,,,,,,,,,,29.99,61,77,0,,,,58,29.98,BKN:07 34 BKN:07 42,29.94,10,67,160,,15,,,,,,,,,,,,,,,,,,,,,,,,,,,,,,,,,,,,,MET10505/07/08 17:56:50 METAR KCHS 072256Z 16013KT 10SM BKN034 BKN042 25/16 A2999 RMK AO2 SLP154 T02500161 (WD),,,,,,,,,,,,,,,,,,,,,,,,,,,,
72208013880,2008-05-08T17:56:00,FM-15,7,,SE,0.25,mi,"TEMP, PRECIP, SNOW",,,"MMTS, SRG, SNOWBOARD",,,WFO CHS,,,,,,,,,,,,,,,,,,,,,,,,,,,29.83,66,77,0,,,,69,29.82,,29.78,10,70,160,,13,,,,,,,,,,,,,,,,,,,,,,,,,,,,,,,,,,,,,MET09505/08/08 17:56:50 METAR KCHS 082256Z 16011KT 10SM CLR 25/19 A2983 RMK AO2 SLP099 T02500189 (WD),,,,,,,,,,,,,,,,,,,,,,,,,,,,
72208013880,2008-05-14T10:56:00,FM-15,7,,SE,0.25,mi,"TEMP, PRECIP, SNOW",,,"MMTS, SRG, SNOWBOARD",,,WFO CHS,,,,,,,,,,,,,,,,,,,,,,,,,,,30.18,48,74,0,,,,40,30.18,FEW:02 55,30.13,10,60,160,,11,,,,,,,,,,,,,,,,,,,,,,,,,,,,,,,,,,,,,MET09305/14/08 10:56:00 METAR KCHS 141556Z 16010KT 10SM FEW055 23/09 A3018 RMK AO2 SLP220 T02330089,,,,,,,,,,,,,,,,,,,,,,,,,,,,
72208013880,2008-05-23T14:56:00,FM-15,7,,SE,0.25,mi,"TEMP, PRECIP, SNOW",,,"MMTS, SRG, SNOWBOARD",,,WFO CHS,,,,,,,,,,,,,,,,,,,,,,,,,,,29.94,69,77,0.04,TS:7 -RA:02 |RA TS |SHRA TS,,,77,29.93,FEW:02 23 BKN:07 37,29.89,5,72,160,,10,,,,,,,,,,,,,,,,,,,,,,,,,,,,,,,,,,,,,MET15005/23/08 14:56:00 METAR KCHS 231956Z 16009KT 5SM -TSRA FEW023 BKN037CB 25/21 A2994 RMK AO2 RAB49 SLP136 FRQ LTGCGCC W-N TS W-N MOV E P0004 T02500206 $,,,,,,,,,,,,,,,,,,,,,,,,,,,,
72208013880,2008-05-26T11:56:00,FM-15,7,,SE,0.25,mi,"TEMP, PRECIP, SNOW",,,"MMTS, SRG, SNOWBOARD",,,WFO CHS,,,,,,,,,,,,,,,,,,,,,,,,,,,30.13,58,78,0,,,,50,30.13,SCT:04 47,30.08,10,66,160,17,14,,,,,,,,,,,,,,,,,,,,,,,,,,,,,,,,,,,,,MET09605/26/08 11:56:00 METAR KCHS 261656Z 16012G15KT 10SM SCT047 26/14 A3013 RMK AO2 SLP203 T02560144,,,,,,,,,,,,,,,,,,,,,,,,,,,,
72208013880,2008-05-26T13:56:00,FM-15,7,,SE,0.25,mi,"TEMP, PRECIP, SNOW",,,"MMTS, SRG, SNOWBOARD",,,WFO CHS,,,,,,,,,,,,,,,,,,,,,,,,,,,30.11,58,79,0,,,,49,30.11,SCT:04 42,30.06,10,66,150,,10,,,,,,,,,,,,,,,,,,,,,,,,,,,,,,,,,,,,,MET09305/26/08 13:56:00 METAR KCHS 261856Z 15009KT 10SM SCT042 26/14 A3011 RMK AO2 SLP195 T02610144,,,,,,,,,,,,,,,,,,,,,,,,,,,,
72208013880,2008-05-26T16:56:00,FM-15,7,,SE,0.25,mi,"TEMP, PRECIP, SNOW",,,"MMTS, SRG, SNOWBOARD",,,WFO CHS,,,,,,,,,,,,,,,,,,,,,,,,,,,30.08,56,78,0,,,,47,30.08,FEW:02 50,30.03,10,65,170,,15,,,,,,,,,,,,,,,,,,,,,,,,,,,,,,,,,,,,,MET09305/26/08 16:56:00 METAR KCHS 262156Z 17013KT 10SM FEW050 26/13 A3008 RMK AO2 SLP185 T02560133,,,,,,,,,,,,,,,,,,,,,,,,,,,,
72208013880,2008-05-27T15:56:00,FM-15,7,,SE,0.25,mi,"TEMP, PRECIP, SNOW",,,"MMTS, SRG, SNOWBOARD",,,WFO CHS,,,,,,,,,,,,,,,,,,,,,,,,,,,30.04,56,82,0,,0.02,6,41,30.04,FEW:02 55,29.99,10,66,170,,10,,,,,,,,,,,,,,,,,,,,,,,,,,,,,,,,,,,,,MET09905/27/08 15:56:00 METAR KCHS 272056Z 17009KT 10SM FEW055 28/13 A3004 RMK AO2 SLP172 T02780133 56008,,,,,,,,,,,,,,,,,,,,,,,,,,,,
72208013880,2008-05-27T16:00:00,FM-12,4,,SE,0.25,mi,"TEMP, PRECIP, SNOW",,,"MMTS, SRG, SNOWBOARD",,,WFO CHS,,,,,,,,,,,,,,,,,,,,,,,,,,,,56,82,,,0.02,6,41,30.04,,29.99,9.94,66,170,,10,,,,,,,,,,,,,,,,,,,,,,,,,,,,,,,,,,,,,SYN076AAXX  27214 72208 32766 21709 10278 20133 30157 40172 56008 92056 555 92721;,,,,,,,,,,,,,,,,,,,,,,,,,,,,
72208013880,2008-05-28T16:56:00,FM-15,7,,SE,0.25,mi,"TEMP, PRECIP, SNOW",,,"MMTS, SRG, SNOWBOARD",,,WFO CHS,,,,,,,,,,,,,,,,,,,,,,,,,,,30.01,67,82,0,,,,60,30.01,FEW:02 40 SCT:04 65,29.96,10,72,170,,13,,,,,,,,,,,,,,,,,,,,,,,,,,,,,,,,,,,,,MET11005/28/08 16:56:00 METAR KCHS 282156Z 17011KT 10SM FEW040 SCT065 28/19 A3001 RMK AO2 SLP162 CB DSNT N T02780194,,,,,,,,,,,,,,,,,,,,,,,,,,,,
72208013880,2008-05-28T17:56:00,FM-15,7,,SE,0.25,mi,"TEMP, PRECIP, SNOW",,,"MMTS, SRG, SNOWBOARD",,,WFO CHS,,,,,,,,,,,,,,,,,,,,,,,,,,,30.02,66,80,0,,,,62,30.02,FEW:02 40 SCT:04 65,29.97,10,71,170,,10,,,,,,,,,,,,,,,,,,,,,,,,,,,,,,,,,,,,,MET11005/28/08 17:56:00 METAR KCHS 282256Z 17009KT 10SM FEW040 SCT065 27/19 A3002 RMK AO2 SLP166 CB DSNT N T02670189,,,,,,,,,,,,,,,,,,,,,,,,,,,,
72208013880,2008-05-30T16:56:00,FM-15,7,,SE,0.25,mi,"TEMP, PRECIP, SNOW",,,"MMTS, SRG, SNOWBOARD",,,WFO CHS,,,,,,,,,,,,,,,,,,,,,,,,,,,30.1,67,77,0,,,,71,30.1,FEW:02 47,30.05,10,70,160,,8,,,,,,,,,,,,,,,,,,,,,,,,,,,,,,,,,,,,,MET09805/30/08 16:56:50 METAR KCHS 302156Z 16007KT 10SM FEW047 25/19 A3010 RMK AO2 SLP193 T02500194 (WD),,,,,,,,,,,,,,,,,,,,,,,,,,,,
72208013880,2008-05-30T17:56:00,FM-15,7,,SE,0.25,mi,"TEMP, PRECIP, SNOW",,,"MMTS, SRG, SNOWBOARD",,,WFO CHS,,,,,,,,,,,,,,,,,,,,,,,,,,,30.1,67,77,0,,,,71,30.1,FEW:02 26,30.05,10,70,160,,9,,,,,,,,,,,,,,,,,,,,,,,,,,,,,,,,,,,,,MET09805/30/08 17:56:50 METAR KCHS 302256Z 16008KT 10SM FEW026 25/19 A3010 RMK AO2 SLP192 T02500194 (WD),,,,,,,,,,,,,,,,,,,,,,,,,,,,
72208013880,2008-06-03T11:56:00,FM-15,7,,SE,0.25,mi,"TEMP, PRECIP, SNOW",,,"MMTS, SRG, SNOWBOARD",,,WFO CHS,,,,,,,,,,,,,,,,,,,,,,,,,,,30.01,68,85,0,,,,57,30.01,FEW:02 33,29.96,10,74,160,,13,,,,,,,,,,,,,,,,,,,,,,,,,,,,,,,,,,,,,MET09906/03/08 11:56:50 METAR KCHS 031656Z 16011KT 10SM FEW033 29/20 A3001 RMK AO2 SLP162 T02940200 (JRS),,,,,,,,,,,,,,,,,,,,,,,,,,,,
72208013880,2008-06-03T12:56:00,FM-15,7,,SE,0.25,mi,"TEMP, PRECIP, SNOW",,,"MMTS, SRG, SNOWBOARD",,,WFO CHS,,,,,,,,,,,,,,,,,,,,,,,,,,,30,68,86,0,,0.03,8,55,30,FEW:02 38,29.95,10,74,160,,13,,,,,,,,,,,,,,,,,,,,,,,,,,,,,,,,,,,,,MET11706/03/08 12:56:51 METAR KCHS 031756Z 16011KT 10SM FEW038 30/20 A3000 RMK AO2 SLP158 T03000200 10300 20250 58009 (JRS),,,,,,,,,,,,,,,,,,,,,,,,,,,,
72208013880,2008-06-03T13:00:00,FM-12,4,,SE,0.25,mi,"TEMP, PRECIP, SNOW",,,"MMTS, SRG, SNOWBOARD",,,WFO CHS,,,,,,,,,,,,,,,,,,,,,,,,,,,,68,86,,,0.03,8,55,30,,29.95,9.94,74,160,,13,,,,,,,,,,,,,,,,,,,,,,,,,,,,,,,,,,,,,SYN092AAXX  03184 72208 32666 21611 10300 20200 30143 40158 58009 91756 333 10300 20250 555 90318;,,,,,,,,,,,,,,,,,,,,,,,,,,,,
72208013880,2008-06-03T14:56:00,FM-15,7,,SE,0.25,mi,"TEMP, PRECIP, SNOW",,,"MMTS, SRG, SNOWBOARD",,,WFO CHS,,,,,,,,,,,,,,,,,,,,,,,,,,,29.98,67,84,0,,,,57,29.97,FEW:02 40,29.93,10,73,150,,13,,,,,,,,,,,,,,,,,,,,,,,,,,,,,,,,,,,,,MET11006/03/08 14:56:50 METAR KCHS 031956Z 15011KT 10SM FEW040 29/19 A2998 RMK AO2 SLP150 CB DSNT NW T02890194 (JRS),,,,,,,,,,,,,,,,,,,,,,,,,,,,
72208013880,2008-06-04T14:56:00,FM-15,7,,SE,0.25,mi,"TEMP, PRECIP, SNOW",,,"MMTS, SRG, SNOWBOARD",,,WFO CHS,,,,,,,,,,,,,,,,,,,,,,,,,,,29.93,75,90,0,,,,62,29.92,SCT:04 30,29.88,10,79,170,,15,,,,,,,,,,,,,,,,,,,,,,,,,,,,,,,,,,,,,MET09906/04/08 14:56:50 METAR KCHS 041956Z 17013KT 10SM SCT030 32/24 A2993 RMK AO2 SLP133 T03220239 (AWS),,,,,,,,,,,,,,,,,,,,,,,,,,,,
72208013880,2008-06-04T17:56:00,FM-15,7,,SE,0.25,mi,"TEMP, PRECIP, SNOW",,,"MMTS, SRG, SNOWBOARD",,,WFO CHS,,,,,,,,,,,,,,,,,,,,,,,,,,,29.92,70,85,0,,,,61,29.92,,29.87,10,75,170,,11,,,,,,,,,,,,,,,,,,,,,,,,,,,,,,,,,,,,,MET09506/04/08 17:56:50 METAR KCHS 042256Z 17010KT 10SM CLR 29/21 A2992 RMK AO2 SLP132 T02940211 (WD),,,,,,,,,,,,,,,,,,,,,,,,,,,,
72208013880,2008-06-05T14:56:00,FM-15,7,,SE,0.25,mi,"TEMP, PRECIP, SNOW",,,"MMTS, SRG, SNOWBOARD",,,WFO CHS,,,,,,,,,,,,,,,,,,,,,,,,,,,30.07,76,91,0,,,,61,30.06,FEW:02 40,30.02,10,80,160,,14,,,,,,,,,,,,,,,,,,,,,,,,,,,,,,,,,,,,,MET09906/05/08 14:56:50 METAR KCHS 051956Z 16012KT 10SM FEW040 33/24 A3007 RMK AO2 SLP181 T03280244 (AWS),,,,,,,,,,,,,,,,,,,,,,,,,,,,
72208013880,2008-06-06T15:56:00,FM-15,7,,SE,0.25,mi,"TEMP, PRECIP, SNOW",,,"MMTS, SRG, SNOWBOARD",,,WFO CHS,,,,,,,,,,,,,,,,,,,,,,,,,,,30.15,73,88,0,,0.04,6,61,30.15,FEW:02 41 SCT:04 100,30.1,10,77,150,,15,,,,,,,,,,,,,,,,,,,,,,,,,,,,,,,,,,,,,MET11106/06/08 15:56:50 METAR KCHS 062056Z 15013KT 10SM FEW041 SCT100 31/23 A3015 RMK AO2 SLP209 T03110228 56015 (WD),,,,,,,,,,,,,,,,,,,,,,,,,,,,
72208013880,2008-06-06T16:00:00,FM-12,4,,SE,0.25,mi,"TEMP, PRECIP, SNOW",,,"MMTS, SRG, SNOWBOARD",,,WFO CHS,,,,,,,,,,,,,,,,,,,,,,,,,,,,73,88,,,0.04,6,61,30.15,,30.1,9.94,77,150,,15,,,,,,,,,,,,,,,,,,,,,,,,,,,,,,,,,,,,,SYN076AAXX  06214 72208 32666 41513 10311 20228 30194 40209 56015 92056 555 90621;,,,,,,,,,,,,,,,,,,,,,,,,,,,,
72208013880,2008-06-06T16:56:00,FM-15,7,,SE,0.25,mi,"TEMP, PRECIP, SNOW",,,"MMTS, SRG, SNOWBOARD",,,WFO CHS,,,,,,,,,,,,,,,,,,,,,,,,,,,30.15,72,87,0,,,,61,30.14,,30.1,10,77,150,,13,,,,,,,,,,,,,,,,,,,,,,,,,,,,,,,,,,,,,MET09506/06/08 16:56:50 METAR KCHS 062156Z 15011KT 10SM CLR 31/22 A3015 RMK AO2 SLP208 T03060222 (WD),,,,,,,,,,,,,,,,,,,,,,,,,,,,
72208013880,2008-06-09T13:56:00,FM-15,7,,SE,0.25,mi,"TEMP, PRECIP, SNOW",,,"MMTS, SRG, SNOWBOARD",,,WFO CHS,,,,,,,,,,,,,,,,,,,,,,,,,,,30,67,95,0,,,,40,30,,29.95,10,76,170,,8,,,,,,,,,,,,,,,,,,,,,,,,,,,,,,,,,,,,,MET09606/09/08 13:56:50 METAR KCHS 091856Z 17007KT 10SM CLR 35/19 A3000 RMK AO2 SLP158 T03500194 (AWS),,,,,,,,,,,,,,,,,,,,,,,,,,,,
72208013880,2008-06-10T14:56:00,FM-15,7,,SE,0.25,mi,"TEMP, PRECIP, SNOW",,,"MMTS, SRG, SNOWBOARD",,,WFO CHS,,,,,,,,,,,,,,,,,,,,,,,,,,,29.96,73,90,0,,,,58,29.96,FEW:02 45,29.91,10,78,160,,16,,,,,,,,,,,,,,,,,,,,,,,,,,,,,,,,,,,,,MET11106/10/08 14:56:51 METAR KCHS 101956Z 16014KT 10SM FEW045TCU 32/23 A2996 RMK AO2 SLP144 TCU W-NW T03220228 (JRS),,,,,,,,,,,,,,,,,,,,,,,,,,,,
72208013880,2008-06-10T15:56:00,FM-15,7,,SE,0.25,mi,"TEMP, PRECIP, SNOW",,,"MMTS, SRG, SNOWBOARD",,,WFO CHS,,,,,,,,,,,,,,,,,,,,,,,,,,,29.94,72,90,0,,0.04,6,56,29.94,FEW:02 45,29.89,10,77,160,,16,,,,,,,,,,,,,,,,,,,,,,,,,,,,,,,,,,,,,MET10406/10/08 15:56:50 METAR KCHS 102056Z 16014KT 10SM FEW045 32/22 A2994 RMK AO2 SLP139 T03220222 56014 (WD),,,,,,,,,,,,,,,,,,,,,,,,,,,,
72208013880,2008-06-10T16:00:00,FM-12,4,,SE,0.25,mi,"TEMP, PRECIP, SNOW",,,"MMTS, SRG, SNOWBOARD",,,WFO CHS,,,,,,,,,,,,,,,,,,,,,,,,,,,,72,90,,,0.04,6,56,29.94,,29.89,9.94,77,160,,16,,,,,,,,,,,,,,,,,,,,,,,,,,,,,,,,,,,,,SYN076AAXX  10214 72208 32666 21614 10322 20222 30123 40139 56014 92056 555 91021;,,,,,,,,,,,,,,,,,,,,,,,,,,,,
72208013880,2008-06-10T16:56:00,FM-15,7,,SE,0.25,mi,"TEMP, PRECIP, SNOW",,,"MMTS, SRG, SNOWBOARD",,,WFO CHS,,,,,,,,,,,,,,,,,,,,,,,,,,,29.95,69,88,0,,,,54,29.94,,29.9,10,75,170,,16,,,,,,,,,,,,,,,,,,,,,,,,,,,,,,,,,,,,,MET09506/10/08 16:56:50 METAR KCHS 102156Z 17014KT 10SM CLR 31/21 A2995 RMK AO2 SLP140 T03110206 (WD),,,,,,,,,,,,,,,,,,,,,,,,,,,,
72208013880,2008-06-10T17:56:00,FM-15,7,,SE,0.25,mi,"TEMP, PRECIP, SNOW",,,"MMTS, SRG, SNOWBOARD",,,WFO CHS,,,,,,,,,,,,,,,,,,,,,,,,,,,29.96,69,86,0,,,,57,29.96,,29.91,10,74,170,,13,,,,,,,,,,,,,,,,,,,,,,,,,,,,,,,,,,,,,MET09506/10/08 17:56:50 METAR KCHS 102256Z 17011KT 10SM CLR 30/21 A2996 RMK AO2 SLP145 T03000206 (WD),,,,,,,,,,,,,,,,,,,,,,,,,,,,
72208013880,2008-06-11T12:56:00,FM-15,7,,SE,0.25,mi,"TEMP, PRECIP, SNOW",,,"MMTS, SRG, SNOWBOARD",,,WFO CHS,,,,,,,,,,,,,,,,,,,,,,,,,,,30.02,70,90,0,,0.02,8,52,30.01,FEW:02 43,29.97,10,76,150,,10,,,,,,,,,,,,,,,,,,,,,,,,,,,,,,,,,,,,,MET11706/11/08 12:56:51 METAR KCHS 111756Z 15009KT 10SM FEW043 32/21 A3002 RMK AO2 SLP164 T03220211 10328 20250 58007 (AWS),,,,,,,,,,,,,,,,,,,,,,,,,,,,
72208013880,2008-06-11T13:00:00,FM-12,4,,SE,0.25,mi,"TEMP, PRECIP, SNOW",,,"MMTS, SRG, SNOWBOARD",,,WFO CHS,,,,,,,,,,,,,,,,,,,,,,,,,,,,70,90,,,0.02,8,52,30.01,,29.97,9.94,76,150,,10,,,,,,,,,,,,,,,,,,,,,,,,,,,,,,,,,,,,,SYN092AAXX  11184 72208 32666 21509 10322 20211 30150 40164 58007 91756 333 10328 20250 555 91118;,,,,,,,,,,,,,,,,,,,,,,,,,,,,
72208013880,2008-06-11T14:56:00,FM-15,7,,SE,0.25,mi,"TEMP, PRECIP, SNOW",,,"MMTS, SRG, SNOWBOARD",,,WFO CHS,,,,,,,,,,,,,,,,,,,,,,,,,,,29.99,66,89,0,,,,47,29.98,FEW:02 40,29.94,10,74,150,,8,,,,,,,,,,,,,,,,,,,,,,,,,,,,,,,,,,,,,MET09906/11/08 14:56:50 METAR KCHS 111956Z 15007KT 10SM FEW040 32/19 A2999 RMK AO2 SLP154 T03170189 (AWS),,,,,,,,,,,,,,,,,,,,,,,,,,,,
72208013880,2008-06-11T15:56:00,FM-15,7,,SE,0.25,mi,"TEMP, PRECIP, SNOW",,,"MMTS, SRG, SNOWBOARD",,,WFO CHS,,,,,,,,,,,,,,,,,,,,,,,,,,,29.99,66,89,0,,0.03,6,47,29.98,FEW:02 45,29.94,10,74,150,,13,,,,,,,,,,,,,,,,,,,,,,,,,,,,,,,,,,,,,MET11406/11/08 15:56:51 METAR KCHS 112056Z 15011KT 10SM FEW045 32/19 A2999 RMK AO2 SLP153 CB DNST N T03170189 56010 (WD),,,,,,,,,,,,,,,,,,,,,,,,,,,,
72208013880,2008-06-11T16:00:00,FM-12,4,,SE,0.25,mi,"TEMP, PRECIP, SNOW",,,"MMTS, SRG, SNOWBOARD",,,WFO CHS,,,,,,,,,,,,,,,,,,,,,,,,,,,,66,89,,,0.03,6,47,29.98,,29.94,9.94,74,150,,13,,,,,,,,,,,,,,,,,,,,,,,,,,,,,,,,,,,,,SYN076AAXX  11214 72208 32666 21511 10317 20189 30140 40153 56010 92056 555 91121;,,,,,,,,,,,,,,,,,,,,,,,,,,,,
72208013880,2008-06-13T16:56:00,FM-15,7,,SE,0.25,mi,"TEMP, PRECIP, SNOW",,,"MMTS, SRG, SNOWBOARD",,,WFO CHS,,,,,,,,,,,,,,,,,,,,,,,,,,,30.11,68,86,0,,,,55,30.11,SCT:04 35,30.06,10,74,150,,11,,,,,,,,,,,,,,,,,,,,,,,,,,,,,,,,,,,,,MET10806/13/08 16:56:50 METAR KCHS 132156Z 15010KT 10SM SCT035 30/20 A3011 RMK AO2 SLP196 CB DSNT N T03000200 (WD),,,,,,,,,,,,,,,,,,,,,,,,,,,,
72208013880,2008-06-14T13:56:00,FM-15,7,,SE,0.25,mi,"TEMP, PRECIP, SNOW",,,"MMTS, SRG, SNOWBOARD",,,WFO CHS,,,,,,,,,,,,,,,,,,,,,,,,,,,30.01,65,91,0,,,,42,30,FEW:02 50,29.96,10,74,170,,8,,,,,,,,,,,,,,,,,,,,,,,,,,,,,,,,,,,,,MET09906/14/08 13:56:50 METAR KCHS 141856Z 17007KT 10SM FEW050 33/18 A3001 RMK AO2 SLP160 T03280183 (JRS),,,,,,,,,,,,,,,,,,,,,,,,,,,,
72208013880,2008-06-14T14:56:00,FM-15,7,,SE,0.25,mi,"TEMP, PRECIP, SNOW",,,"MMTS, SRG, SNOWBOARD",,,WFO CHS,,,,,,,,,,,,,,,,,,,,,,,,,,,29.99,69,89,0,,,,52,29.98,FEW:02 46,29.94,10,75,150,,16,,,,,,,,,,,,,,,,,,,,,,,,,,,,,,,,,,,,,MET09906/14/08 14:56:50 METAR KCHS 141956Z 15014KT 10SM FEW046 32/21 A2999 RMK AO2 SLP154 T03170206 (JRS),,,,,,,,,,,,,,,,,,,,,,,,,,,,
72208013880,2008-06-14T16:56:00,FM-15,7,,SE,0.25,mi,"TEMP, PRECIP, SNOW",,,"MMTS, SRG, SNOWBOARD",,,WFO CHS,,,,,,,,,,,,,,,,,,,,,,,,,,,29.96,66,87,0,,,,50,29.95,FEW:02 50,29.91,10,73,150,,15,,,,,,,,,,,,,,,,,,,,,,,,,,,,,,,,,,,,,MET11606/14/08 16:56:51 METAR KCHS 142156Z 15013KT 10SM FEW050 31/19 A2996 RMK AO2 SLP143 CB DSNT N AND NE T03060189 (WRB),,,,,,,,,,,,,,,,,,,,,,,,,,,,
72208013880,2008-06-14T17:56:00,FM-15,7,,SE,0.25,mi,"TEMP, PRECIP, SNOW",,,"MMTS, SRG, SNOWBOARD",,,WFO CHS,,,,,,,,,,,,,,,,,,,,,,,,,,,29.96,66,84,0,,,,55,29.96,FEW:02 50,29.91,10,72,170,,13,,,,,,,,,,,,,,,,,,,,,,,,,,,,,,,,,,,,,MET11006/14/08 17:56:50 METAR KCHS 142256Z 17011KT 10SM FEW050 29/19 A2996 RMK AO2 SLP144 CB DSNT NE T02890189 (WRB),,,,,,,,,,,,,,,,,,,,,,,,,,,,
72208013880,2008-06-16T15:56:00,FM-15,7,,SE,0.25,mi,"TEMP, PRECIP, SNOW",,,"MMTS, SRG, SNOWBOARD",,,WFO CHS,,,,,,,,,,,,,,,,,,,,,,,,,,,29.86,71,87,0,,0.04,6,59,29.86,,29.81,10,76,170,,14,,,,,,,,,,,,,,,,,,,,,,,,,,,,,,,,,,,,,MET10506/16/08 15:58:13 METAR KCHS 162056Z 17012KT 10SM CLR 31/22 A2986 RMK AO2 SLP111 T03060217 56014 RTX (WD),,,,,,,,,,,,,,,,,,,,,,,,,,,,
72208013880,2008-06-16T16:00:00,FM-12,4,,SE,0.25,mi,"TEMP, PRECIP, SNOW",,,"MMTS, SRG, SNOWBOARD",,,WFO CHS,,,,,,,,,,,,,,,,,,,,,,,,,,,,71,87,,,0.04,6,59,29.86,CLR:00,29.81,9.94,76,170,,14,,,,,,,,,,,,,,,,,,,,,,,,,,,,,,,,,,,,,SYN076AAXX  16214 72208 32966 01712 10306 20217 30096 40111 56014 92056 555 91621;,,,,,,,,,,,,,,,,,,,,,,,,,,,,
72208013880,2008-06-16T16:56:00,FM-15,7,,SE,0.25,mi,"TEMP, PRECIP, SNOW",,,"MMTS, SRG, SNOWBOARD",,,WFO CHS,,,,,,,,,,,,,,,,,,,,,,,,,,,29.85,71,86,0,,,,61,29.84,FEW:02 45,29.8,10,76,170,,9,,,,,,,,,,,,,,,,,,,,,,,,,,,,,,,,,,,,,MET22206/16/08 17:01:25 METAR KCHS 162156Z 17008KT 10SM FEW045 30/22 A2985 RMK AO2 SLP106 T03000217 RTX (WD)                                                                                      AO2 SLP106 T03000217 RTX FIBI (WD),,,,,,,,,,,,,,,,,,,,,,,,,,,,
72208013880,2008-06-18T17:56:00,FM-15,7,,SE,0.25,mi,"TEMP, PRECIP, SNOW",,,"MMTS, SRG, SNOWBOARD",,,WFO CHS,,,,,,,,,,,,,,,,,,,,,,,,,,,29.79,65,80,0,,,,60,29.79,FEW:02 45,29.74,9,70,150,,10,,,,,,,,,,,,,,,,,,,,,,,,,,,,,,,,,,,,,MET09706/18/08 17:56:50 METAR KCHS 182256Z 15009KT 9SM FEW045 27/18 A2979 RMK AO2 SLP088 T02670183 (WD),,,,,,,,,,,,,,,,,,,,,,,,,,,,
72208013880,2008-06-20T10:56:00,FM-15,7,,SE,0.25,mi,"TEMP, PRECIP, SNOW",,,"MMTS, SRG, SNOWBOARD",,,WFO CHS,,,,,,,,,,,,,,,,,,,,,,,,,,,30.04,70,87,,,,,57,30.04,BKN:07 33,29.99,10,75,150,,10,,,,,,,,,,,,,,,,,,,,,,,,,,,,,,,,,,,,,MET09906/20/08 10:58:50 METAR KCHS 201556Z 15009KT 10SM BKN033 31/21 A3004 RMK AO2 SLP173 T03060211 (AWS),,,,,,,,,,,,,,,,,,,,,,,,,,,,
72208013880,2008-06-20T12:56:00,FM-15,7,,SE,0.25,mi,"TEMP, PRECIP, SNOW",,,"MMTS, SRG, SNOWBOARD",,,WFO CHS,,,,,,,,,,,,,,,,,,,,,,,,,,,30.01,70,87,T,,,,57,30.01,SCT:04 31 BKN:07 43,29.96,10,75,170,,16,,,,,,,,,,,,,,,,,,,,,,,,,,,,,,,,,,,,,MET12406/20/08 13:04:51 METAR KCHS 201756Z 17014KT 10SM SCT031 BKN043 31/21 A3001 RMK AO2 RAE02 SLP163 P0000 60000 T03060211 (AWS),,,,,,,,,,,,,,,,,,,,,,,,,,,,
72208013880,2008-06-20T13:00:00,FM-12,4,,SE,0.25,mi,"TEMP, PRECIP, SNOW",,,"MMTS, SRG, SNOWBOARD",,,WFO CHS,,,,,,,,,,,,,,,,,,,,,,,,,,,,70,87,,,,,57,30.01,,29.96,9.94,75,170,,16,,,,,,,,,,,,,,,,,,,,,,,,,,,,,,,,,,,,,SYN076AAXX  20184 72208 12566 61714 10306 20211 30146 40163 69901 91756 555 92018;,,,,,,,,,,,,,,,,,,,,,,,,,,,,
72208013880,2008-06-20T14:56:00,FM-15,7,,SE,0.25,mi,"TEMP, PRECIP, SNOW",,,"MMTS, SRG, SNOWBOARD",,,WFO CHS,,,,,,,,,,,,,,,,,,,,,,,,,,,30.01,71,83,0,,,,67,30.07,SCT:04 26 BKN:07 37,29.96,10,75,170,,15,,,,,,,,,,,,,,,,,,,,,,,,,,,,,,,,,,,,,MET10506/20/08 14:58:50 METAR KCHS 201956Z 17013KT 10SM SCT026 BKN037 28/22 A3001 RMK AO2 SLP182 T02830217 (WD),,,,,,,,,,,,,,,,,,,,,,,,,,,,
72208013880,2008-06-20T16:05:00,FM-16,7,,SE,0.25,mi,"TEMP, PRECIP, SNOW",,,"MMTS, SRG, SNOWBOARD",,,WFO CHS,,,,,,,,,,,,,,,,,,,,,,,,,,,30.02,66,79,T,TS:7 -RA:02 |RA TS |SHRA TS,,,65,,FEW:02 19 BKN:07 26 BKN:07 39,29.97,10,71,160,,15,,,,,,,,,,,,,,,,,,,,,,,,,,,,,,,,,,,,,MET10906/20/08 16:06:00 SPECI KCHS 202105Z 16013KT 10SM -TSRA FEW019 BKN026CB BKN039 26/19 A3002 RMK AO2 P0000 (WD),,,,,,,,,,,,,,,,,,,,,,,,,,,,
72208013880,2008-06-21T15:56:00,FM-15,7,,SE,0.25,mi,"TEMP, PRECIP, SNOW",,,"MMTS, SRG, SNOWBOARD",,,WFO CHS,,,,,,,,,,,,,,,,,,,,,,,,,,,30.05,68,71,0.47s,TS:7 RA:02 |RA TS |SHRA TS,-0.05,3,90,30.04,BKN:07 16 OVC:08 75,30,3,69,150,,8,,,,,,,,,,,,,,,,,,,,,,,,,,,,,,,,,,,,,MET16806/21/08 15:56:51 METAR KCHS 212056Z 15007KT 3SM TSRA BKN016CB OVC075 22/20 A3005 RMK AO2 RAB36 SLP173 OCNL LTGIC ALQDS TS ALQDS MOV E P0046 60046 T02170200 53016 (BBE),,,,,,,,,,,,,,,,,,,,,,,,,,,,
72208013880,2008-06-21T16:00:00,FM-12,4,,SE,0.25,mi,"TEMP, PRECIP, SNOW",,,"MMTS, SRG, SNOWBOARD",,,WFO CHS,,,,,,,,,,,,,,,,,,,,,,,,,,,,68,71,,||TS,-0.05,3,90,30.04,,30,2.98,69,150,,8,,,,,,,,,,,,,,,,,,,,,,,,,,,,,,,,,,,,,SYN088AAXX  21214 72208 11448 81507 10217 20200 30160 40173 53016 60127 795// 92056 555 92121;,,,,,,,,,,,,,,,,,,,,,,,,,,,,
72208013880,2008-06-22T11:56:00,FM-15,7,,SE,0.25,mi,"TEMP, PRECIP, SNOW",,,"MMTS, SRG, SNOWBOARD",,,WFO CHS,,,,,,,,,,,,,,,,,,,,,,,,,,,29.98,71,88,0,,,,57,29.98,SCT:04 34 SCT:04 80,29.93,10,76,170,,9,,,,,,,,,,,,,,,,,,,,,,,,,,,,,,,,,,,,,MET10606/22/08 11:56:50 METAR KCHS 221656Z 17008KT 10SM SCT034 SCT080 31/22 A2998 RMK AO2 SLP153 T03110217 (JRS),,,,,,,,,,,,,,,,,,,,,,,,,,,,
72208013880,2008-06-25T16:56:00,FM-15,7,,SE,0.25,mi,"TEMP, PRECIP, SNOW",,,"MMTS, SRG, SNOWBOARD",,,WFO CHS,,,,,,,,,,,,,,,,,,,,,,,,,,,30.15,72,86,0,,,,63,30.14,,30.1,10,76,150,,10,,,,,,,,,,,,,,,,,,,,,,,,,,,,,,,,,,,,,MET09506/25/08 16:56:50 METAR KCHS 252156Z 15009KT 10SM CLR 30/22 A3015 RMK AO2 SLP208 T03000222 (WD),,,,,,,,,,,,,,,,,,,,,,,,,,,,
72208013880,2008-06-29T12:56:00,FM-15,7,,SE,0.25,mi,"TEMP, PRECIP, SNOW",,,"MMTS, SRG, SNOWBOARD",,,WFO CHS,,,,,,,,,,,,,,,,,,,,,,,,,,,30.02,72,90,0,,0.07,8,56,30.01,FEW:02 46,29.97,10,77,170,,13,,,,,,,,,,,,,,,,,,,,,,,,,,,,,,,,,,,,,MET12906/29/08 12:56:51 METAR KCHS 291756Z 17011KT 10SM FEW046 32/22 A3002 RMK AO2 SLP164 CB DSNT W-N T03220222 10328 20244 58024 (JRS),,,,,,,,,,,,,,,,,,,,,,,,,,,,
72208013880,2008-06-29T13:00:00,FM-12,4,,SE,0.25,mi,"TEMP, PRECIP, SNOW",,,"MMTS, SRG, SNOWBOARD",,,WFO CHS,,,,,,,,,,,,,,,,,,,,,,,,,,,,72,90,,,0.07,8,56,30.01,,29.97,9.94,77,170,,13,,,,,,,,,,,,,,,,,,,,,,,,,,,,,,,,,,,,,SYN092AAXX  29184 72208 32666 21711 10322 20222 30150 40164 58024 91756 333 10328 20244 555 92918;,,,,,,,,,,,,,,,,,,,,,,,,,,,,
72208013880,2008-06-29T14:31:00,FM-16,7,,SE,0.25,mi,"TEMP, PRECIP, SNOW",,,"MMTS, SRG, SNOWBOARD",,,WFO CHS,,,,,,,,,,,,,,,,,,,,,,,,,,,30.01,72,75,0.08,TS:7 RA:02 BR:1 |RA TS |SHRA TS,,,89,,FEW:02 7 BKN:07 38 OVC:08 60,29.96,2,73,150,,13,,,,,,,,,,,,,,,,,,,,,,,,,,,,,,,,,,,,,MET15206/29/08 14:31:51 SPECI KCHS 291931Z 15011KT 2SM TSRA BR FEW007 BKN038CB OVC060 24/22 A3001 RMK AO2 RAB23 FRQ LTGCGIC SE-SW TS SE-SW MOV E P0008 $ (JRS),,,,,,,,,,,,,,,,,,,,,,,,,,,,
72208013880,2008-07-02T11:56:00,FM-15,7,,SE,0.25,mi,"TEMP, PRECIP, SNOW",,,"MMTS, SRG, SNOWBOARD",,,WFO CHS,,,,,,,,,,,,,,,,,,,,,,,,,,,30.13,62,88,0,,,,42,30.13,SCT:04 55,30.08,10,71,160,,11,,,,,,,,,,,,,,,,,,,,,,,,,,,,,,,,,,,,,MET09907/02/08 11:56:50 METAR KCHS 021656Z 16010KT 10SM SCT055 31/17 A3013 RMK AO2 SLP202 T03110167 (AWS),,,,,,,,,,,,,,,,,,,,,,,,,,,,
72208013880,2008-07-03T11:56:00,FM-15,7,,SE,0.25,mi,"TEMP, PRECIP, SNOW",,,"MMTS, SRG, SNOWBOARD",,,WFO CHS,,,,,,,,,,,,,,,,,,,,,,,,,,,30.13,71,88,0,,,,57,30.13,SCT:04 39 BKN:07 49,30.08,10,76,160,,15,,,,,,,,,,,,,,,,,,,,,,,,,,,,,,,,,,,,,MET10607/03/08 11:56:50 METAR KCHS 031656Z 16013KT 10SM SCT039 BKN049 31/22 A3013 RMK AO2 SLP202 T03110217 (AWS),,,,,,,,,,,,,,,,,,,,,,,,,,,,
72208013880,2008-07-03T12:56:00,FM-15,7,,SE,0.25,mi,"TEMP, PRECIP, SNOW",,,"MMTS, SRG, SNOWBOARD",,,WFO CHS,,,,,,,,,,,,,,,,,,,,,,,,,,,30.12,69,87,0,,0.02,7,55,30.12,SCT:04 38 SCT:04 90,30.07,10,75,170,,11,,,,,,,,,,,,,,,,,,,,,,,,,,,,,,,,,,,,,MET13707/03/08 12:56:51 METAR KCHS 031756Z 17010KT 10SM SCT038CB SCT090 31/21 A3012 RMK AO2 SLP199 CB N MOV N T03060206 10311 20244 57007 (AWS),,,,,,,,,,,,,,,,,,,,,,,,,,,,
72208013880,2008-07-03T13:00:00,FM-12,4,,SE,0.25,mi,"TEMP, PRECIP, SNOW",,,"MMTS, SRG, SNOWBOARD",,,WFO CHS,,,,,,,,,,,,,,,,,,,,,,,,,,,,69,87,,,0.02,7,55,30.12,,30.07,9.94,75,170,,11,,,,,,,,,,,,,,,,,,,,,,,,,,,,,,,,,,,,,SYN092AAXX  03184 72208 32666 41710 10306 20206 30184 40199 57007 91756 333 10311 20244 555 90318;,,,,,,,,,,,,,,,,,,,,,,,,,,,,
72208013880,2008-07-03T13:56:00,FM-15,7,,SE,0.25,mi,"TEMP, PRECIP, SNOW",,,"MMTS, SRG, SNOWBOARD",,,WFO CHS,,,,,,,,,,,,,,,,,,,,,,,,,,,30.1,67,87,0,,,,51,30.09,FEW:02 38 SCT:04 90,30.05,10,74,160,,10,,,,,,,,,,,,,,,,,,,,,,,,,,,,,,,,,,,,,MET10607/03/08 13:56:50 METAR KCHS 031856Z 16009KT 10SM FEW038 SCT090 31/19 A3010 RMK AO2 SLP191 T03060194 (AWS),,,,,,,,,,,,,,,,,,,,,,,,,,,,
72208013880,2008-07-03T14:56:00,FM-15,7,,SE,0.25,mi,"TEMP, PRECIP, SNOW",,,"MMTS, SRG, SNOWBOARD",,,WFO CHS,,,,,,,,,,,,,,,,,,,,,,,,,,,30.08,66,88,0,,,,48,30.07,SCT:04 40,30.03,10,73,170,17,13,,,,,,,,,,,,,,,,,,,,,,,,,,,,,,,,,,,,,MET10107/03/08 14:56:50 METAR KCHS 031956Z 17011G15KT 10SM SCT040 31/19 A3008 RMK AO2 SLP183 T03110189 (WD),,,,,,,,,,,,,,,,,,,,,,,,,,,,
72208013880,2008-07-03T15:56:00,FM-15,7,,SE,0.25,mi,"TEMP, PRECIP, SNOW",,,"MMTS, SRG, SNOWBOARD",,,WFO CHS,,,,,,,,,,,,,,,,,,,,,,,,,,,30.07,68,85,0,,0.05,6,57,30.06,FEW:02 80,30.02,10,74,170,,14,,,,,,,,,,,,,,,,,,,,,,,,,,,,,,,,,,,,,MET10407/03/08 15:56:50 METAR KCHS 032056Z 17012KT 10SM FEW080 29/20 A3007 RMK AO2 SLP181 T02940200 56018 (WD),,,,,,,,,,,,,,,,,,,,,,,,,,,,
72208013880,2008-07-03T16:00:00,FM-12,4,,SE,0.25,mi,"TEMP, PRECIP, SNOW",,,"MMTS, SRG, SNOWBOARD",,,WFO CHS,,,,,,,,,,,,,,,,,,,,,,,,,,,,68,85,,,0.05,6,57,30.06,,30.02,9.94,74,170,,14,,,,,,,,,,,,,,,,,,,,,,,,,,,,,,,,,,,,,SYN076AAXX  03214 72208 32866 21712 10294 20200 30167 40181 56018 92056 555 90321;,,,,,,,,,,,,,,,,,,,,,,,,,,,,
72208013880,2008-07-04T11:56:00,FM-15,7,,SE,0.25,mi,"TEMP, PRECIP, SNOW",,,"MMTS, SRG, SNOWBOARD",,,WFO CHS,,,,,,,,,,,,,,,,,,,,,,,,,,,30.09,71,89,0,,,,55,30.09,FEW:02 38,30.04,10,76,170,,10,,,,,,,,,,,,,,,,,,,,,,,,,,,,,,,,,,,,,MET09907/04/08 11:56:50 METAR KCHS 041656Z 17009KT 10SM FEW038 32/22 A3009 RMK AO2 SLP189 T03170217 (JRS),,,,,,,,,,,,,,,,,,,,,,,,,,,,
72208013880,2008-07-04T13:56:00,FM-15,7,,SE,0.25,mi,"TEMP, PRECIP, SNOW",,,"MMTS, SRG, SNOWBOARD",,,WFO CHS,,,,,,,,,,,,,,,,,,,,,,,,,,,30.05,70,89,0,,,,53,30.05,SCT:04 38,30,10,76,160,22,16,,,,,,,,,,,,,,,,,,,,,,,,,,,,,,,,,,,,,MET11607/04/08 13:56:51 METAR KCHS 041856Z 16014G19KT 10SM SCT038 32/21 A3005 RMK AO2 SLP176 TCU DSNT N-NE T03170211 (JRS),,,,,,,,,,,,,,,,,,,,,,,,,,,,
72208013880,2008-07-04T14:56:00,FM-15,7,,SE,0.25,mi,"TEMP, PRECIP, SNOW",,,"MMTS, SRG, SNOWBOARD",,,WFO CHS,,,,,,,,,,,,,,,,,,,,,,,,,,,30.04,71,87,0,,,,59,30.03,FEW:02 35 SCT:04 80,29.99,10,76,150,,16,,,,,,,,,,,,,,,,,,,,,,,,,,,,,,,,,,,,,MET11507/04/08 14:56:51 METAR KCHS 041956Z 15014KT 10SM FEW035 SCT080 31/22 A3004 RMK AO2 SLP170 CB DSNT N T03060217 (WD),,,,,,,,,,,,,,,,,,,,,,,,,,,,
72208013880,2008-07-04T15:56:00,FM-15,7,,SE,0.25,mi,"TEMP, PRECIP, SNOW",,,"MMTS, SRG, SNOWBOARD",,,WFO CHS,,,,,,,,,,,,,,,,,,,,,,,,,,,30.04,69,87,0,,0.04,5,55,30.03,FEW:02 35 SCT:04 100,29.99,10,75,170,,16,,,,,,,,,,,,,,,,,,,,,,,,,,,,,,,,,,,,,MET12107/04/08 15:56:51 METAR KCHS 042056Z 17014KT 10SM FEW035 SCT100 31/21 A3004 RMK AO2 SLP171 CB DSNT N T03060206 55013 (WD),,,,,,,,,,,,,,,,,,,,,,,,,,,,
72208013880,2008-07-04T16:00:00,FM-12,4,,SE,0.25,mi,"TEMP, PRECIP, SNOW",,,"MMTS, SRG, SNOWBOARD",,,WFO CHS,,,,,,,,,,,,,,,,,,,,,,,,,,,,69,87,,,0.04,5,55,30.03,,29.99,9.94,75,170,,16,,,,,,,,,,,,,,,,,,,,,,,,,,,,,,,,,,,,,SYN076AAXX  04214 72208 32666 41714 10306 20206 30157 40171 55013 92056 555 90421;,,,,,,,,,,,,,,,,,,,,,,,,,,,,
72208013880,2008-07-04T16:56:00,FM-15,7,,SE,0.25,mi,"TEMP, PRECIP, SNOW",,,"MMTS, SRG, SNOWBOARD",,,WFO CHS,,,,,,,,,,,,,,,,,,,,,,,,,,,30.03,70,83,0,,,,65,30.03,FEW:02 45 SCT:04 100,29.98,10,74,160,,14,,,,,,,,,,,,,,,,,,,,,,,,,,,,,,,,,,,,,MET10507/04/08 16:56:50 METAR KCHS 042156Z 16012KT 10SM FEW045 SCT100 28/21 A3003 RMK AO2 SLP168 T02830211 (WD),,,,,,,,,,,,,,,,,,,,,,,,,,,,
72208013880,2008-07-04T17:56:00,FM-15,7,,SE,0.25,mi,"TEMP, PRECIP, SNOW",,,"MMTS, SRG, SNOWBOARD",,,WFO CHS,,,,,,,,,,,,,,,,,,,,,,,,,,,30.02,69,82,0,,,,65,30.01,SCT:04 120,29.97,10,73,170,,14,,,,,,,,,,,,,,,,,,,,,,,,,,,,,,,,,,,,,MET09807/04/08 17:56:50 METAR KCHS 042256Z 17012KT 10SM SCT120 28/21 A3002 RMK AO2 SLP163 T02780206 (WD),,,,,,,,,,,,,,,,,,,,,,,,,,,,
72208013880,2008-07-06T14:56:00,FM-15,7,,SE,0.25,mi,"TEMP, PRECIP, SNOW",,,"MMTS, SRG, SNOWBOARD",,,WFO CHS,,,,,,,,,,,,,,,,,,,,,,,,,,,30.02,70,88,0,,,,55,30.02,FEW:02 37,29.97,10,76,170,,14,,,,,,,,,,,,,,,,,,,,,,,,,,,,,,,,,,,,,MET09907/06/08 14:56:50 METAR KCHS 061956Z 17012KT 10SM FEW037 31/21 A3002 RMK AO2 SLP165 T03110211 (JRS),,,,,,,,,,,,,,,,,,,,,,,,,,,,
72208013880,2008-07-06T15:56:00,FM-15,7,,SE,0.25,mi,"TEMP, PRECIP, SNOW",,,"MMTS, SRG, SNOWBOARD",,,WFO CHS,,,,,,,,,,,,,,,,,,,,,,,,,,,30.02,70,88,0,,0.05,6,55,30.01,FEW:02 37,29.97,10,76,170,,13,,,,,,,,,,,,,,,,,,,,,,,,,,,,,,,,,,,,,MET10507/06/08 15:57:50 METAR KCHS 062056Z 17011KT 10SM FEW037 31/21 A3002 RMK AO2 SLP164 T03110211 56016 (WRB),,,,,,,,,,,,,,,,,,,,,,,,,,,,
72208013880,2008-07-06T16:00:00,FM-12,4,,SE,0.25,mi,"TEMP, PRECIP, SNOW",,,"MMTS, SRG, SNOWBOARD",,,WFO CHS,,,,,,,,,,,,,,,,,,,,,,,,,,,,70,88,,,0.05,6,55,30.01,,29.97,9.94,76,170,,13,,,,,,,,,,,,,,,,,,,,,,,,,,,,,,,,,,,,,SYN076AAXX  06214 72208 32666 21711 10311 20211 30150 40164 56016 92056 555 90621;,,,,,,,,,,,,,,,,,,,,,,,,,,,,
72208013880,2008-07-08T12:56:00,FM-15,7,,SE,0.25,mi,"TEMP, PRECIP, SNOW",,,"MMTS, SRG, SNOWBOARD",,,WFO CHS,,,,,,,,,,,,,,,,,,,,,,,,,,,30.14,72,87,0,,0.02,6,61,30.14,SCT:04 39,30.09,10,77,170,,14,,,,,,,,,,,,,,,,,,,,,,,,,,,,,,,,,,,,,MET11907/08/08 12:56:51 METAR KCHS 081756Z 17012KT 10SM SCT039 31/22 A3014 RMK AO2 SLP205 T03060222 10317 20250 56007 $ (AWS),,,,,,,,,,,,,,,,,,,,,,,,,,,,
72208013880,2008-07-08T13:00:00,FM-12,4,,SE,0.25,mi,"TEMP, PRECIP, SNOW",,,"MMTS, SRG, SNOWBOARD",,,WFO CHS,,,,,,,,,,,,,,,,,,,,,,,,,,,,72,87,,,0.02,6,61,30.14,,30.09,9.94,77,170,,14,,,,,,,,,,,,,,,,,,,,,,,,,,,,,,,,,,,,,SYN092AAXX  08184 72208 32666 41712 10306 20222 30190 40205 56007 91756 333 10317 20250 555 90818;,,,,,,,,,,,,,,,,,,,,,,,,,,,,
72208013880,2008-07-08T16:56:00,FM-15,7,,SE,0.25,mi,"TEMP, PRECIP, SNOW",,,"MMTS, SRG, SNOWBOARD",,,WFO CHS,,,,,,,,,,,,,,,,,,,,,,,,,,,30.08,70,86,0,,,,59,30.07,FEW:02 23,30.03,10,75,170,,17,,,,,,,,,,,,,,,,,,,,,,,,,,,,,,,,,,,,,MET10007/08/08 16:56:50 METAR KCHS 082156Z 17015KT 10SM FEW023 30/21 A3008 RMK AO2 SLP184 T03000211 $ (WD),,,,,,,,,,,,,,,,,,,,,,,,,,,,
72208013880,2008-07-11T15:56:00,FM-15,7,,SE,0.25,mi,"TEMP, PRECIP, SNOW",,,"MMTS, SRG, SNOWBOARD",,,WFO CHS,,,,,,,,,,,,,,,,,,,,,,,,,,,30.07,72,74,0.9,TS:7 -RA:02 BR:1 |RA TS |SHRA TS,-0.04,3,94,30.06,FEW:02 2 OVC:08 32,30.02,6,73,170,,7,,,,,,,,,,,,,,,,,,,,,,,,,,,,,,,,,,,,,MET20307/11/08 15:56:51 METAR KCHS 112056Z 17006KT 6SM -TSRA BR FEW002 OVC032CB 23/22 A3007 RMK AO2 PK WND 36028/2020 WSHFT 2009 RAB07 SLP180 OCNL LTGICCG W-SE TS W-SE MOV SE P0090 60090 T02330222 53014 $ (WD),,,,,,,,,,,,,,,,,,,,,,,,,,,,
72208013880,2008-07-11T16:00:00,FM-12,4,,SE,0.25,mi,"TEMP, PRECIP, SNOW",,,"MMTS, SRG, SNOWBOARD",,,WFO CHS,,,,,,,,,,,,,,,,,,,,,,,,,,,,72,74,,,-0.04,3,94,30.06,,30.02,5.59,73,170,,7,,,,,,,,,,,,,,,,,,,,,,,,,,,,,,,,,,,,,SYN098AAXX  11214 72208 11159 81706 10233 20222 30167 40180 53014 60237 710// 92056 333 96010 555 91121;,,,,,,,,,,,,,,,,,,,,,,,,,,,,
72208013880,2008-07-13T13:56:00,FM-15,7,,SE,0.25,mi,"TEMP, PRECIP, SNOW",,,"MMTS, SRG, SNOWBOARD",,,WFO CHS,,,,,,,,,,,,,,,,,,,,,,,,,,,29.88,70,88,0,,,,55,29.87,FEW:02 55,29.83,10,76,150,,8,,,,,,,,,,,,,,,,,,,,,,,,,,,,,,,,,,,,,MET10007/13/08 13:56:50 METAR KCHS 131856Z 15007KT 10SM FEW055 31/21 A2988 RMK AO2 SLP116 T03110211 $ (WD),,,,,,,,,,,,,,,,,,,,,,,,,,,,
72208013880,2008-07-13T14:56:00,FM-15,7,,SE,0.25,mi,"TEMP, PRECIP, SNOW",,,"MMTS, SRG, SNOWBOARD",,,WFO CHS,,,,,,,,,,,,,,,,,,,,,,,,,,,29.86,68,88,0,,,,52,29.86,FEW:02 47,29.81,10,74,150,,8,,,,,,,,,,,,,,,,,,,,,,,,,,,,,,,,,,,,,MET10007/13/08 14:56:50 METAR KCHS 131956Z 15007KT 10SM FEW047 31/20 A2986 RMK AO2 SLP111 T03110200 $ (WD),,,,,,,,,,,,,,,,,,,,,,,,,,,,
72208013880,2008-07-13T16:56:00,FM-15,7,,SE,0.25,mi,"TEMP, PRECIP, SNOW",,,"MMTS, SRG, SNOWBOARD",,,WFO CHS,,,,,,,,,,,,,,,,,,,,,,,,,,,29.86,68,85,0,,,,57,29.86,FEW:02 49,29.81,10,74,150,,10,,,,,,,,,,,,,,,,,,,,,,,,,,,,,,,,,,,,,MET10107/13/08 16:56:50 METAR KCHS 132156Z 15009KT 10SM FEW049 29/20 A2986 RMK AO2 SLP111 T02940200 $ (WRB),,,,,,,,,,,,,,,,,,,,,,,,,,,,
72208013880,2008-07-14T12:56:00,FM-15,7,,SE,0.25,mi,"TEMP, PRECIP, SNOW",,,"MMTS, SRG, SNOWBOARD",,,WFO CHS,,,,,,,,,,,,,,,,,,,,,,,,,,,29.86,70,85,0,TS:7 |TS |TS,0.02,8,61,29.85,BKN:07 31 BKN:07 50,29.81,7,75,160,,9,,,,,,,,,,,,,,,,,,,,,,,,,,,,,,,,,,,,,MET16607/14/08 12:56:51 METAR KCHS 141756Z 16008KT 7SM TS BKN031CB BKN050 29/21 A2986 RMK AO2 TSB55 SLP110 OCNL LTGCG NE TS NE MOV STNRY T02940211 10311 20250 58008 $ (BBE),,,,,,,,,,,,,,,,,,,,,,,,,,,,
72208013880,2008-07-14T13:00:00,FM-12,4,,SE,0.25,mi,"TEMP, PRECIP, SNOW",,,"MMTS, SRG, SNOWBOARD",,,WFO CHS,,,,,,,,,,,,,,,,,,,,,,,,,,,,70,85,,||TS,0.02,8,61,29.85,,29.81,6.84,75,160,,9,,,,,,,,,,,,,,,,,,,,,,,,,,,,,,,,,,,,,SYN098AAXX  14184 72208 31561 61608 10294 20211 30096 40110 58008 795// 91756 333 10311 20250 555 91418;,,,,,,,,,,,,,,,,,,,,,,,,,,,,
72208013880,2008-07-26T13:00:00,FM-12,4,,SE,0.25,mi,"TEMP, PRECIP, SNOW",,,"MMTS, SRG, SNOWBOARD",,,WFO CHS,,,,,,,,,,,,,,,,,,,,,,,,,,,,71,88,,,0.05,8,57,30.02,,29.97,8.7,76,170,,10,,,,,,,,,,,,,,,,,,,,,,,,,,,,,,,,,,,,,SYN092AAXX  26184 72208 32664 41709 10311 20217 30150 40165 58016 91756 333 10317 20250 555 92618;,,,,,,,,,,,,,,,,,,,,,,,,,,,,
72208013880,2008-07-26T15:56:00,FM-15,7,,SE,0.25,mi,"TEMP, PRECIP, SNOW",,,"MMTS, SRG, SNOWBOARD",,,WFO CHS,,,,,,,,,,,,,,,,,,,,,,,,,,,29.96,71,84,0,,0.06,6,65,29.96,FEW:02 27 SCT:04 80 OVC:08 110,29.91,9,75,150,,11,,,,,,,,,,,,,,,,,,,,,,,,,,,,,,,,,,,,,MET13107/26/08 15:56:51 METAR KCHS 262056Z 15010KT 9SM FEW027 SCT080 OVC110 29/22 A2996 RMK AO2 SLP145 CB DSNT W-NW T02890217 56020 (WRB),,,,,,,,,,,,,,,,,,,,,,,,,,,,
72208013880,2008-07-26T16:00:00,FM-12,4,,SE,0.25,mi,"TEMP, PRECIP, SNOW",,,"MMTS, SRG, SNOWBOARD",,,WFO CHS,,,,,,,,,,,,,,,,,,,,,,,,,,,,71,84,,,0.06,6,65,29.96,,29.91,8.7,75,150,,11,,,,,,,,,,,,,,,,,,,,,,,,,,,,,,,,,,,,,SYN076AAXX  26214 72208 32564 81510 10289 20217 30129 40145 56020 92056 555 92621;,,,,,,,,,,,,,,,,,,,,,,,,,,,,
72208013880,2008-07-27T14:07:00,FM-16,7,,SE,0.25,mi,"TEMP, PRECIP, SNOW",,,"MMTS, SRG, SNOWBOARD",,,WFO CHS,,,,,,,,,,,,,,,,,,,,,,,,,,,29.89,75,88,,,,,66,,BKN:07 27,29.84,8,79,170,,14,,,,,,,,,,,,,,,,,,,,,,,,,,,,,,,,,,,,,MET09907/27/08 14:07:50 SPECI KCHS 271907Z 17012KT 8SM BKN027TCU 31/24 A2989 RMK AO2 TCU ALQDS VCSH (JRS),,,,,,,,,,,,,,,,,,,,,,,,,,,,
72208013880,2008-07-29T14:20:00,FM-16,7,,SE,0.25,mi,"TEMP, PRECIP, SNOW",,,"MMTS, SRG, SNOWBOARD",,,WFO CHS,,,,,,,,,,,,,,,,,,,,,,,,,,,29.92,75,91,T,TS:7 |TS |TS,,,59,,FEW:02 35 SCT:04 90,29.87,10,79,150,,14,,,,,,,,,,,,,,,,,,,,,,,,,,,,,,,,,,,,,MET14307/29/08 14:21:05 SPECI KCHS 291920Z 15012KT 10SM TS FEW035CB SCT090 33/24 A2992 RMK AO2 TSB15RAE1858 OCNL LTGCG SE TS SE MOV STNRY P0000 (AWS),,,,,,,,,,,,,,,,,,,,,,,,,,,,
72208013880,2008-07-29T14:56:00,FM-15,7,,SE,0.25,mi,"TEMP, PRECIP, SNOW",,,"MMTS, SRG, SNOWBOARD",,,WFO CHS,,,,,,,,,,,,,,,,,,,,,,,,,,,29.92,72,86,0,TS:7 |TS |TS,,,63,29.92,FEW:02 35 SCT:04 90,29.87,10,76,150,,14,,,,,,,,,,,,,,,,,,,,,,,,,,,,,,,,,,,,,MET15907/29/08 14:56:51 METAR KCHS 291956Z 15012KT 10SM TS FEW035CB SCT090 30/22 A2992 RMK AO2 TSB15RAE1858 SLP131 OCNL LTGCG SE-S TS S-SE STNRY P0000 T03000222 (WD),,,,,,,,,,,,,,,,,,,,,,,,,,,,
72208013880,2008-07-29T15:16:00,FM-16,7,,SE,0.25,mi,"TEMP, PRECIP, SNOW",,,"MMTS, SRG, SNOWBOARD",,,WFO CHS,,,,,,,,,,,,,,,,,,,,,,,,,,,29.93,68,81,,TS:7 HZ:7 |TS |HZ TS,,,66,,FEW:02 35,29.88,1.5,72,160,,16,,,,,,,,,,,,,,,,,,,,,,,,,,,,,,,,,,,,,MET17407/29/08 15:16:51 SPECI KCHS 292016Z 16014KT 1 1/2SM TS HZ FEW035CB 27/20 A2993 RMK AO2 PK WND 17028/2002 OCNL LTGICCG S AND W TS S AND W MOV STNRY VCSH S-W CB DSNT NE-E (WD),,,,,,,,,,,,,,,,,,,,,,,,,,,,
72208013880,2008-07-30T15:25:00,FM-16,7,,SE,0.25,mi,"TEMP, PRECIP, SNOW",,,"MMTS, SRG, SNOWBOARD",,,WFO CHS,,,,,,,,,,,,,,,,,,,,,,,,,,,29.86,75,82,T,TS:7 -RA:02 |RA TS |SHRA TS,,,79,,FEW:02 16 SCT:04 45 BKN:07 90,29.81,10,77,160,,11,,,,,,,,,,,,,,,,,,,,,,,,,,,,,,,,,,,,,MET15607/30/08 15:26:09 SPECI KCHS 302025Z 16010KT 10SM -TSRA FEW016 SCT045CB BKN090 28/24 A2986 RMK AO2 WSHFT 1950 TSB20RAB00 OCNL LTGIC S TS S MOV NE P0000 (WD),,,,,,,,,,,,,,,,,,,,,,,,,,,,
72208013880,2008-08-03T16:56:00,FM-15,7,,SE,0.25,mi,"TEMP, PRECIP, SNOW",,,"MMTS, SRG, SNOWBOARD",,,WFO CHS,,,,,,,,,,,,,,,,,,,,,,,,,,,29.9,74,89,0,,,,61,29.9,FEW:02 50,29.85,10,78,170,,10,,,,,,,,,,,,,,,,,,,,,,,,,,,,,,,,,,,,,MET09808/03/08 16:56:50 METAR KCHS 032156Z 17009KT 10SM FEW050 32/23 A2990 RMK AO2 SLP124 T03170233 (WD),,,,,,,,,,,,,,,,,,,,,,,,,,,,
72208013880,2008-08-03T17:56:00,FM-15,7,,SE,0.25,mi,"TEMP, PRECIP, SNOW",,,"MMTS, SRG, SNOWBOARD",,,WFO CHS,,,,,,,,,,,,,,,,,,,,,,,,,,,29.89,75,87,0,,,,67,29.89,,29.84,10,78,170,,13,,,,,,,,,,,,,,,,,,,,,,,,,,,,,,,,,,,,,MET09508/03/08 17:56:50 METAR KCHS 032256Z 17011KT 10SM CLR 31/24 A2989 RMK AO2 SLP121 T03060239 (WD),,,,,,,,,,,,,,,,,,,,,,,,,,,,
72208013880,2008-08-06T16:56:00,FM-15,7,,SE,0.25,mi,"TEMP, PRECIP, SNOW",,,"MMTS, SRG, SNOWBOARD",,,WFO CHS,,,,,,,,,,,,,,,,,,,,,,,,,,,29.9,74,94,0,,,,52,29.9,FEW:02 55,29.85,7,80,170,,13,,,,,,,,,,,,,,,,,,,,,,,,,,,,,,,,,,,,,MET09708/06/08 16:56:50 METAR KCHS 062156Z 17011KT 7SM FEW055 34/23 A2990 RMK AO2 SLP125 T03440233 (WD),,,,,,,,,,,,,,,,,,,,,,,,,,,,
72208013880,2008-08-07T15:56:00,FM-15,7,,SE,0.25,mi,"TEMP, PRECIP, SNOW",,,"MMTS, SRG, SNOWBOARD",,,WFO CHS,,,,,,,,,,,,,,,,,,,,,,,,,,,29.78,73,91,0,HZ:7 ||HZ,0.07,5,56,29.78,FEW:02 65,29.73,5,78,150,,15,,,,,,,,,,,,,,,,,,,,,,,,,,,,,,,,,,,,,MET10608/07/08 15:56:50 METAR KCHS 072056Z 15013KT 5SM HZ FEW065 33/23 A2978 RMK AO2 SLP085 T03280228 55023 (WD),,,,,,,,,,,,,,,,,,,,,,,,,,,,
72208013880,2008-08-07T16:00:00,FM-12,4,,SE,0.25,mi,"TEMP, PRECIP, SNOW",,,"MMTS, SRG, SNOWBOARD",,,WFO CHS,,,,,,,,,,,,,,,,,,,,,,,,,,,,73,91,,||HZ,0.07,5,56,29.78,,29.73,4.97,78,150,,15,,,,,,,,,,,,,,,,,,,,,,,,,,,,,,,,,,,,,SYN082AAXX  07214 72208 31758 21513 10328 20228 30069 40085 55023 705// 92056 555 90721;,,,,,,,,,,,,,,,,,,,,,,,,,,,,
72208013880,2008-08-09T15:56:00,FM-15,7,,SE,0.25,mi,"TEMP, PRECIP, SNOW",,,"MMTS, SRG, SNOWBOARD",,,WFO CHS,,,,,,,,,,,,,,,,,,,,,,,,,,,29.85,62,88,0,,0.02,6,42,29.85,SCT:04 70,29.8,10,71,150,,13,,,,,,,,,,,,,,,,,,,,,,,,,,,,,,,,,,,,,MET10508/09/08 15:56:50 METAR KCHS 092056Z 15011KT 10SM SCT070 31/17 A2985 RMK AO2 SLP109 T03110167 56007 (WRB),,,,,,,,,,,,,,,,,,,,,,,,,,,,
72208013880,2008-08-09T16:00:00,FM-12,4,,SE,0.25,mi,"TEMP, PRECIP, SNOW",,,"MMTS, SRG, SNOWBOARD",,,WFO CHS,,,,,,,,,,,,,,,,,,,,,,,,,,,,62,88,,,0.02,6,42,29.85,,29.8,9.94,71,150,,13,,,,,,,,,,,,,,,,,,,,,,,,,,,,,,,,,,,,,SYN076AAXX  09214 72208 32866 41511 10311 20167 30092 40109 56007 92056 555 90921;,,,,,,,,,,,,,,,,,,,,,,,,,,,,
72208013880,2008-08-09T16:56:00,FM-15,7,,SE,0.25,mi,"TEMP, PRECIP, SNOW",,,"MMTS, SRG, SNOWBOARD",,,WFO CHS,,,,,,,,,,,,,,,,,,,,,,,,,,,29.86,63,87,0,,,,45,29.86,FEW:02 75,29.81,10,71,160,,11,,,,,,,,,,,,,,,,,,,,,,,,,,,,,,,,,,,,,MET09908/09/08 16:56:50 METAR KCHS 092156Z 16010KT 10SM FEW075 31/17 A2986 RMK AO2 SLP111 T03060172 (WRB),,,,,,,,,,,,,,,,,,,,,,,,,,,,
72208013880,2008-08-10T12:56:00,FM-15,7,,SE,0.25,mi,"TEMP, PRECIP, SNOW",,,"MMTS, SRG, SNOWBOARD",,,WFO CHS,,,,,,,,,,,,,,,,,,,,,,,,,,,29.87,64,90,0,,0.05,8,42,29.87,FEW:02 40,29.82,10,73,170,18,13,,,,,,,,,,,,,,,,,,,,,,,,,,,,,,,,,,,,,MET11908/10/08 12:56:51 METAR KCHS 101756Z 17011G16KT 10SM FEW040 32/18 A2987 RMK AO2 SLP116 T03220178 10328 20244 58017 (WD),,,,,,,,,,,,,,,,,,,,,,,,,,,,
72208013880,2008-08-10T13:00:00,FM-12,4,,SE,0.25,mi,"TEMP, PRECIP, SNOW",,,"MMTS, SRG, SNOWBOARD",,,WFO CHS,,,,,,,,,,,,,,,,,,,,,,,,,,,,64,90,,,0.05,8,42,29.87,,29.82,9.94,73,170,,13,,,,,,,,,,,,,,,,,,,,,,,,,,,,,,,,,,,,,SYN098AAXX  10184 72208 32666 21711 10322 20178 30099 40116 58017 91756 333 10328 20244 91016 555 91018;,,,,,,,,,,,,,,,,,,,,,,,,,,,,
72208013880,2008-08-12T15:50:00,FM-16,7,,SE,0.25,mi,"TEMP, PRECIP, SNOW",,,"MMTS, SRG, SNOWBOARD",,,WFO CHS,,,,,,,,,,,,,,,,,,,,,,,,,,,29.81,72,81,,,,,74,,FEW:02 23 BKN:07 29 OVC:08 70,29.76,7,75,150,,8,,,,,,,,,,,,,,,,,,,,,,,,,,,,,,,,,,,,,MET09408/12/08 15:51:05 SPECI KCHS 122050Z 15007KT 7SM FEW023 BKN029 OVC070 27/22 A2981 RMK AO2 (WD),,,,,,,,,,,,,,,,,,,,,,,,,,,,
72208013880,2008-08-12T15:56:00,FM-15,7,,SE,0.25,mi,"TEMP, PRECIP, SNOW",,,"MMTS, SRG, SNOWBOARD",,,WFO CHS,,,,,,,,,,,,,,,,,,,,,,,,,,,29.81,72,82,0,,0.05,6,72,29.8,SCT:04 23 BKN:07 29 OVC:08 70,29.76,7,75,150,,7,,,,,,,,,,,,,,,,,,,,,,,,,,,,,,,,,,,,,MET11708/12/08 15:57:08 METAR KCHS 122056Z 15006KT 7SM SCT023 BKN029 OVC070 28/22 A2981 RMK AO2 SLP092 T02780222 56018 (WD),,,,,,,,,,,,,,,,,,,,,,,,,,,,
72208013880,2008-08-12T16:00:00,FM-12,4,,SE,0.25,mi,"TEMP, PRECIP, SNOW",,,"MMTS, SRG, SNOWBOARD",,,WFO CHS,,,,,,,,,,,,,,,,,,,,,,,,,,,,72,82,,,0.05,6,72,29.8,,29.76,6.84,75,150,,7,,,,,,,,,,,,,,,,,,,,,,,,,,,,,,,,,,,,,SYN076AAXX  12214 72208 32561 81506 10278 20222 30079 40092 56018 92056 555 91221;,,,,,,,,,,,,,,,,,,,,,,,,,,,,
72208013880,2008-08-12T16:12:00,FM-16,7,,SE,0.25,mi,"TEMP, PRECIP, SNOW",,,"MMTS, SRG, SNOWBOARD",,,WFO CHS,,,,,,,,,,,,,,,,,,,,,,,,,,,29.8,72,82,,,,,70,,FEW:02 23 SCT:04 33 BKN:07 70,29.75,7,75,160,,11,,,,,,,,,,,,,,,,,,,,,,,,,,,,,,,,,,,,,MET09408/12/08 16:13:03 SPECI KCHS 122112Z 16010KT 7SM FEW023 SCT033 BKN070 28/22 A2980 RMK AO2 (WD),,,,,,,,,,,,,,,,,,,,,,,,,,,,
72208013880,2008-08-12T16:54:00,FM-16,6,,SE,0.25,mi,"TEMP, PRECIP, SNOW",,,"MMTS, SRG, SNOWBOARD",,,WFO CHS,,,,,,,,,,,,,,,,,,,,,,,,,,,29.8,73,79,,RA:02 |RA |,,,84,,SCT:04 21 BKN:07 28 OVC:08 60,29.75,3,75,150,,7,,,,,,,,,,,,,,,,,,,,,,,,,,,,,,,,,,,,,MET11408/12/08 16:55:21 SPECI KCHS 122154Z 15006KT 3SM RA SCT021 BKN028 OVC060 26/23 A2980 RMK AO2 RAB36 P0001 FIBI (WD),,,,,,,,,,,,,,,,,,,,,,,,,,,,
72208013880,2008-08-15T10:56:00,FM-15,7,,SE,0.25,mi,"TEMP, PRECIP, SNOW",,,"MMTS, SRG, SNOWBOARD",,,WFO CHS,,,,,,,,,,,,,,,,,,,,,,,,,,,29.98,70,86,0,,,,59,29.97,FEW:02 30,29.93,9,75,170,,7,,,,,,,,,,,,,,,,,,,,,,,,,,,,,,,,,,,,,MET09808/15/08 10:56:50 METAR KCHS 151556Z 17006KT 9SM FEW030 30/21 A2998 RMK AO2 SLP150 T03000211 (AWS),,,,,,,,,,,,,,,,,,,,,,,,,,,,
72208013880,2008-08-15T13:56:00,FM-15,7,,SE,0.25,mi,"TEMP, PRECIP, SNOW",,,"MMTS, SRG, SNOWBOARD",,,WFO CHS,,,,,,,,,,,,,,,,,,,,,,,,,,,29.97,72,80,T,,,,76,29.97,SCT:04 35 BKN:07 70 OVC:08 95,29.92,8,75,160,,10,,,,,,,,,,,,,,,,,,,,,,,,,,,,,,,,,,,,,MET12708/15/08 13:56:51 METAR KCHS 151856Z 16009KT 8SM SCT035 BKN070 OVC095 27/22 A2997 RMK AO2 RAB36E56 SLP149 P0000 T02670222 (AWS),,,,,,,,,,,,,,,,,,,,,,,,,,,,
72208013880,2008-08-15T16:05:00,FM-16,7,,SE,0.25,mi,"TEMP, PRECIP, SNOW",,,"MMTS, SRG, SNOWBOARD",,,WFO CHS,,,,,,,,,,,,,,,,,,,,,,,,,,,29.96,73,82,,,,,74,,BKN:07 16 BKN:07 23,29.91,9,76,150,,11,,,,,,,,,,,,,,,,,,,,,,,,,,,,,,,,,,,,,MET08708/15/08 16:06:00 SPECI KCHS 152105Z 15010KT 9SM BKN016 BKN023 28/23 A2996 RMK AO2 (WD),,,,,,,,,,,,,,,,,,,,,,,,,,,,
72208013880,2008-08-15T16:54:00,FM-16,6,,SE,0.25,mi,"TEMP, PRECIP, SNOW",,,"MMTS, SRG, SNOWBOARD",,,WFO CHS,,,,,,,,,,,,,,,,,,,,,,,,,,,29.96,72,82,,,,,70,,FEW:02 21,29.91,9,75,150,,7,,,,,,,,,,,,,,,,,,,,,,,,,,,,,,,,,,,,,MET08508/15/08 16:55:21 SPECI KCHS 152154Z 15006KT 9SM FEW021 28/22 A2996 RMK AO2 FIBI (WD),,,,,,,,,,,,,,,,,,,,,,,,,,,,
72208013880,2008-08-15T17:42:00,FM-16,7,,SE,0.25,mi,"TEMP, PRECIP, SNOW",,,"MMTS, SRG, SNOWBOARD",,,WFO CHS,,,,,,,,,,,,,,,,,,,,,,,,,,,29.95,73,82,,,,,74,,FEW:02 25,29.9,9,76,150,,8,,,,,,,,,,,,,,,,,,,,,,,,,,,,,,,,,,,,,MET08008/15/08 17:43:02 SPECI KCHS 152242Z 15007KT 9SM FEW025 28/23 A2995 RMK AO2 (WD),,,,,,,,,,,,,,,,,,,,,,,,,,,,
72208013880,2008-08-15T17:56:00,FM-15,7,,SE,0.25,mi,"TEMP, PRECIP, SNOW",,,"MMTS, SRG, SNOWBOARD",,,WFO CHS,,,,,,,,,,,,,,,,,,,,,,,,,,,29.96,73,81,0,,,,77,29.96,FEW:02 19 SCT:04 24,29.91,9,75,150,,9,,,,,,,,,,,,,,,,,,,,,,,,,,,,,,,,,,,,,MET10408/15/08 17:56:50 METAR KCHS 152256Z 15008KT 9SM FEW019 SCT024 27/23 A2996 RMK AO2 SLP144 T02720228 (WD),,,,,,,,,,,,,,,,,,,,,,,,,,,,
72208013880,2008-08-16T16:41:00,FM-16,7,,SE,0.25,mi,"TEMP, PRECIP, SNOW",,,"MMTS, SRG, SNOWBOARD",,,WFO CHS,,,,,,,,,,,,,,,,,,,,,,,,,,,29.97,64,75,0.04,TS:7 |TS |TS,,,69,,FEW:02 13 SCT:04 25 BKN:07 55,29.92,7,68,170,,16,,,,,,,,,,,,,,,,,,,,,,,,,,,,,,,,,,,,,MET15908/16/08 16:42:10 SPECI KCHS 162141Z 17014KT 7SM TS FEW013 SCT025CB BKN055 24/18 A2997 RMK AO2 RAE13 FRQ LTGICCG E-SW TS E-SW MOV STNRY CB N MOV NE P0004 (WRB),,,,,,,,,,,,,,,,,,,,,,,,,,,,
72208013880,2008-08-16T16:56:00,FM-15,7,,SE,0.25,mi,"TEMP, PRECIP, SNOW",,,"MMTS, SRG, SNOWBOARD",,,WFO CHS,,,,,,,,,,,,,,,,,,,,,,,,,,,29.96,63,77,0.01,TS:7 |TS |TS,,,62,29.96,FEW:02 13 SCT:04 25 BKN:07 55,29.91,8,68,160,,13,,,,,,,,,,,,,,,,,,,,,,,,,,,,,,,,,,,,,MET17908/16/08 16:56:51 METAR KCHS 162156Z 16011KT 8SM TS FEW013 SCT025CB BKN055 25/17 A2996 RMK AO2 RAE13 SLP146 FRQ LTGICCG SE-SW TS SE-SW MOV STNRY CB DSNT N-NE P0004 T02500172 (WRB),,,,,,,,,,,,,,,,,,,,,,,,,,,,
72208013880,2008-08-18T15:07:00,FM-16,7,,SE,0.25,mi,"TEMP, PRECIP, SNOW",,,"MMTS, SRG, SNOWBOARD",,,WFO CHS,,,,,,,,,,,,,,,,,,,,,,,,,,,29.97,72,79,0.05,+RA:02 |RA |RA,,,79,,SCT:04 28 BKN:07 35 OVC:08 48,29.92,0.75,74,170,17,7,,,,,,,,,,,,,,,,,,,,,,,,,,,,,,,,,,,,,MET11808/18/08 15:07:51 SPECI KCHS 182007Z 17006G15KT 3/4SM +RA SCT028 BKN035 OVC048 26/22 A2997 RMK AO2 RAB1959 P0005 (BBE),,,,,,,,,,,,,,,,,,,,,,,,,,,,
72208013880,2008-08-25T12:56:00,FM-15,7,,SE,0.25,mi,"TEMP, PRECIP, SNOW",,,"MMTS, SRG, SNOWBOARD",,,WFO CHS,,,,,,,,,,,,,,,,,,,,,,,,,,,29.92,72,88,0,TS:7 |TS |TS,0.04,8,59,29.92,FEW:02 35 SCT:04 60,29.87,10,77,160,,10,,,,,,,,,,,,,,,,,,,,,,,,,,,,,,,,,,,,,MET18608/25/08 12:56:51 METAR KCHS 251756Z 16009KT 10SM TS FEW035CB SCT060 31/22 A2992 RMK AO2 TSB21 SLP131 OCNL LTGCG E TS E MOV STNRY CB DSNT W-N VCSH 60031 T03110222 10317 20256 58013 (AWS),,,,,,,,,,,,,,,,,,,,,,,,,,,,
72208013880,2008-08-25T13:00:00,FM-12,4,,SE,0.25,mi,"TEMP, PRECIP, SNOW",,,"MMTS, SRG, SNOWBOARD",,,WFO CHS,,,,,,,,,,,,,,,,,,,,,,,,,,,,72,88,,||TS,0.04,8,59,29.92,,29.87,9.94,77,160,,10,,,,,,,,,,,,,,,,,,,,,,,,,,,,,,,,,,,,,SYN104AAXX  25184 72208 11666 41609 10311 20222 30116 40131 58013 60081 795// 91756 333 10317 20250 555 92518;,,,,,,,,,,,,,,,,,,,,,,,,,,,,
72208013880,2008-08-25T13:30:00,FM-16,7,,SE,0.25,mi,"TEMP, PRECIP, SNOW",,,"MMTS, SRG, SNOWBOARD",,,WFO CHS,,,,,,,,,,,,,,,,,,,,,,,,,,,29.92,70,88,,,,,55,,FEW:02 34 SCT:04 47,29.87,10,76,170,,13,,,,,,,,,,,,,,,,,,,,,,,,,,,,,,,,,,,,,MET11408/25/08 13:30:57 SPECI KCHS 251830Z 17011KT 10SM FEW034CB SCT047 31/21 A2992 RMK AO2 TSE25 CB N-E MOV STNRY (AWS),,,,,,,,,,,,,,,,,,,,,,,,,,,,
72208013880,2008-08-25T13:56:00,FM-15,7,,SE,0.25,mi,"TEMP, PRECIP, SNOW",,,"MMTS, SRG, SNOWBOARD",,,WFO CHS,,,,,,,,,,,,,,,,,,,,,,,,,,,29.91,72,86,0,,,,63,29.91,SCT:04 34 BKN:07 43,29.86,10,76,160,,9,,,,,,,,,,,,,,,,,,,,,,,,,,,,,,,,,,,,,MET13808/25/08 13:56:51 METAR KCHS 251856Z 16008KT 10SM SCT034CB BKN043 30/22 A2991 RMK AO2 TSE25 SLP127 CB N MOV STNRY TS DSPTD T03000222 (AWS),,,,,,,,,,,,,,,,,,,,,,,,,,,,
72208013880,2008-08-25T14:56:00,FM-15,7,,SE,0.25,mi,"TEMP, PRECIP, SNOW",,,"MMTS, SRG, SNOWBOARD",,,WFO CHS,,,,,,,,,,,,,,,,,,,,,,,,,,,29.9,72,87,T,-RA:02 |RA |RA,,,61,29.89,SCT:04 34 BKN:07 41,29.85,10,77,150,,10,,,,,,,,,,,,,,,,,,,,,,,,,,,,,,,,,,,,,MET14908/25/08 14:56:51 METAR KCHS 251956Z 15009KT 10SM -RA SCT034CB BKN041 31/22 A2990 RMK AO2 RAB53 SLP123 CB N MOV STNRY CB DSNT W P0000 T03060222 (AWS),,,,,,,,,,,,,,,,,,,,,,,,,,,,
72208013880,2008-08-26T10:56:00,FM-15,7,,SE,0.25,mi,"TEMP, PRECIP, SNOW",,,"MMTS, SRG, SNOWBOARD",,,WFO CHS,,,,,,,,,,,,,,,,,,,,,,,,,,,29.92,73,87,0,,,,63,29.92,BKN:07 26,29.87,10,77,170,,9,,,,,,,,,,,,,,,,,,,,,,,,,,,,,,,,,,,,,MET09908/26/08 10:56:50 METAR KCHS 261556Z 17008KT 10SM BKN026 31/23 A2992 RMK AO2 SLP132 T03060228 (AWS),,,,,,,,,,,,,,,,,,,,,,,,,,,,
72208013880,2008-08-26T11:56:00,FM-15,7,,SE,0.25,mi,"TEMP, PRECIP, SNOW",,,"MMTS, SRG, SNOWBOARD",,,WFO CHS,,,,,,,,,,,,,,,,,,,,,,,,,,,29.92,74,88,0,,,,63,29.91,BKN:07 28,29.87,10,78,160,,10,,,,,,,,,,,,,,,,,,,,,,,,,,,,,,,,,,,,,MET09908/26/08 11:56:50 METAR KCHS 261656Z 16009KT 10SM BKN028 31/23 A2992 RMK AO2 SLP130 T03110233 (AWS),,,,,,,,,,,,,,,,,,,,,,,,,,,,
72208013880,2008-08-26T12:56:00,FM-15,7,,SE,0.25,mi,"TEMP, PRECIP, SNOW",,,"MMTS, SRG, SNOWBOARD",,,WFO CHS,,,,,,,,,,,,,,,,,,,,,,,,,,,29.91,74,88,0,,0.02,6,63,29.91,SCT:04 28,29.86,10,78,160,23,11,,,,,,,,,,,,,,,,,,,,,,,,,,,,,,,,,,,,,MET12008/26/08 12:56:51 METAR KCHS 261756Z 16010G20KT 10SM SCT028 31/23 A2991 RMK AO2 SLP127 T03110233 10317 20261 56007 (AWS),,,,,,,,,,,,,,,,,,,,,,,,,,,,
72208013880,2008-08-26T13:00:00,FM-12,4,,SE,0.25,mi,"TEMP, PRECIP, SNOW",,,"MMTS, SRG, SNOWBOARD",,,WFO CHS,,,,,,,,,,,,,,,,,,,,,,,,,,,,74,88,,,0.02,6,63,29.91,,29.86,9.94,78,160,,11,,,,,,,,,,,,,,,,,,,,,,,,,,,,,,,,,,,,,SYN098AAXX  26184 72208 32566 41610 10311 20233 30113 40127 56007 91756 333 10317 20261 91020 555 92618;,,,,,,,,,,,,,,,,,,,,,,,,,,,,
72208013880,2008-08-26T14:56:00,FM-15,7,,SE,0.25,mi,"TEMP, PRECIP, SNOW",,,"MMTS, SRG, SNOWBOARD",,,WFO CHS,,,,,,,,,,,,,,,,,,,,,,,,,,,29.88,73,86,0,,,,65,29.88,SCT:04 24,29.83,10,77,150,,13,,,,,,,,,,,,,,,,,,,,,,,,,,,,,,,,,,,,,MET09808/26/08 14:56:50 METAR KCHS 261956Z 15011KT 10SM SCT024 30/23 A2988 RMK AO2 SLP118 T03000228 (WD),,,,,,,,,,,,,,,,,,,,,,,,,,,,
72208013880,2008-08-26T15:56:00,FM-15,7,,SE,0.25,mi,"TEMP, PRECIP, SNOW",,,"MMTS, SRG, SNOWBOARD",,,WFO CHS,,,,,,,,,,,,,,,,,,,,,,,,,,,29.88,73,85,0,,0.03,6,68,29.88,FEW:02 26,29.83,9,77,160,,13,,,,,,,,,,,,,,,,,,,,,,,,,,,,,,,,,,,,,MET10308/26/08 15:56:50 METAR KCHS 262056Z 16011KT 9SM FEW026 29/23 A2988 RMK AO2 SLP117 T02940228 56010 (WD),,,,,,,,,,,,,,,,,,,,,,,,,,,,
72208013880,2008-08-26T16:00:00,FM-12,4,,SE,0.25,mi,"TEMP, PRECIP, SNOW",,,"MMTS, SRG, SNOWBOARD",,,WFO CHS,,,,,,,,,,,,,,,,,,,,,,,,,,,,73,85,,,0.03,6,68,29.88,,29.83,8.7,77,160,,13,,,,,,,,,,,,,,,,,,,,,,,,,,,,,,,,,,,,,SYN076AAXX  26214 72208 32564 21611 10294 20228 30102 40117 56010 92056 555 92621;,,,,,,,,,,,,,,,,,,,,,,,,,,,,
72208013880,2008-08-26T16:56:00,FM-15,7,,SE,0.25,mi,"TEMP, PRECIP, SNOW",,,"MMTS, SRG, SNOWBOARD",,,WFO CHS,,,,,,,,,,,,,,,,,,,,,,,,,,,29.87,73,85,0,,,,68,29.87,FEW:02 23,29.82,9,77,160,,14,,,,,,,,,,,,,,,,,,,,,,,,,,,,,,,,,,,,,MET09708/26/08 17:14:50 METAR KCHS 262156Z 16012KT 9SM FEW023 29/23 A2987 RMK AO2 SLP114 T02940228 (WD),,,,,,,,,,,,,,,,,,,,,,,,,,,,
72208013880,2008-08-26T17:56:00,FM-15,7,,SE,0.25,mi,"TEMP, PRECIP, SNOW",,,"MMTS, SRG, SNOWBOARD",,,WFO CHS,,,,,,,,,,,,,,,,,,,,,,,,,,,29.87,73,83,0,,,,72,29.87,FEW:02 25,29.82,9,76,150,,15,,,,,,,,,,,,,,,,,,,,,,,,,,,,,,,,,,,,,MET09708/26/08 17:56:50 METAR KCHS 262256Z 15013KT 9SM FEW025 28/23 A2987 RMK AO2 SLP114 T02830228 (WD),,,,,,,,,,,,,,,,,,,,,,,,,,,,
72208013880,2008-08-29T12:56:00,FM-15,7,,SE,0.25,mi,"TEMP, PRECIP, SNOW",,,"MMTS, SRG, SNOWBOARD",,,WFO CHS,,,,,,,,,,,,,,,,,,,,,,,,,,,29.9,76,88,0,,0.03,8,68,29.9,FEW:02 42 SCT:04 95,29.85,7,79,160,,13,,,,,,,,,,,,,,,,,,,,,,,,,,,,,,,,,,,,,MET14208/29/08 12:56:51 METAR KCHS 291756Z 16011KT 7SM FEW042TCU SCT095 31/24 A2990 RMK AO2 SLP124 TCU N-E AND S-W T03110244 10328 20256 58010 (AWS),,,,,,,,,,,,,,,,,,,,,,,,,,,,
72208013880,2008-08-29T13:00:00,FM-12,4,,SE,0.25,mi,"TEMP, PRECIP, SNOW",,,"MMTS, SRG, SNOWBOARD",,,WFO CHS,,,,,,,,,,,,,,,,,,,,,,,,,,,,76,88,,,0.03,8,68,29.9,,29.85,6.84,79,160,,13,,,,,,,,,,,,,,,,,,,,,,,,,,,,,,,,,,,,,SYN092AAXX  29184 72208 32661 41611 10311 20244 30109 40124 58010 91756 333 10328 20256 555 92918;,,,,,,,,,,,,,,,,,,,,,,,,,,,,
72208013880,2008-08-29T15:54:00,FM-16,6,,SE,0.25,mi,"TEMP, PRECIP, SNOW",,,"MMTS, SRG, SNOWBOARD",,,WFO CHS,,,,,,,,,,,,,,,,,,,,,,,,,,,29.89,75,84,,,,,74,,FEW:02 30 SCT:04 55,29.84,7,78,170,,10,,,,,,,,,,,,,,,,,,,,,,,,,,,,,,,,,,,,,MET10608/29/08 15:55:21 SPECI KCHS 292054Z 17009KT 7SM FEW030 SCT055 29/24 A2989 RMK AO2 TCU NE AND SW FIBI (WD),,,,,,,,,,,,,,,,,,,,,,,,,,,,
72208013880,2008-08-29T15:56:00,FM-15,7,,SE,0.25,mi,"TEMP, PRECIP, SNOW",,,"MMTS, SRG, SNOWBOARD",,,WFO CHS,,,,,,,,,,,,,,,,,,,,,,,,,,,29.89,75,83,0,,0.01,8,77,29.89,FEW:02 30 SCT:04 55,29.84,7,77,170,,13,,,,,,,,,,,,,,,,,,,,,,,,,,,,,,,,,,,,,MET12408/29/08 15:56:51 METAR KCHS 292056Z 17011KT 7SM FEW030 SCT055 28/24 A2989 RMK AO2 SLP122 TCU NE AND SW T02830239 58002 (WD),,,,,,,,,,,,,,,,,,,,,,,,,,,,
72208013880,2008-08-29T16:00:00,FM-12,4,,SE,0.25,mi,"TEMP, PRECIP, SNOW",,,"MMTS, SRG, SNOWBOARD",,,WFO CHS,,,,,,,,,,,,,,,,,,,,,,,,,,,,75,83,,,0.01,8,77,29.89,,29.84,6.84,77,170,,13,,,,,,,,,,,,,,,,,,,,,,,,,,,,,,,,,,,,,SYN076AAXX  29214 72208 32561 41711 10283 20239 30106 40122 58002 92056 555 92921;,,,,,,,,,,,,,,,,,,,,,,,,,,,,
72208013880,2008-08-29T17:56:00,FM-15,7,,SE,0.25,mi,"TEMP, PRECIP, SNOW",,,"MMTS, SRG, SNOWBOARD",,,WFO CHS,,,,,,,,,,,,,,,,,,,,,,,,,,,29.9,73,83,0,,,,72,29.89,,29.85,8,76,150,,10,,,,,,,,,,,,,,,,,,,,,,,,,,,,,,,,,,,,,MET09408/29/08 17:56:50 METAR KCHS 292256Z 15009KT 8SM CLR 28/23 A2990 RMK AO2 SLP123 T02830228 (WD),,,,,,,,,,,,,,,,,,,,,,,,,,,,
72208013880,2008-09-07T13:56:00,FM-15,7,,SE,0.25,mi,"TEMP, PRECIP, SNOW",,,"MMTS, SRG, SNOWBOARD",,,WFO CHS,,,,,,,,,,,,,,,,,,,,,,,,,,,30.02,71,90,0,,,,54,30.01,SCT:04 50 BKN:07 60,29.97,8,77,160,,11,,,,,,,,,,,,,,,,,,,,,,,,,,,,,,,,,,,,,MET10709/07/08 13:56:50 METAR KCHS 071856Z 16010KT 8SM SCT050 BKN060 32/22 A3002 RMK AO2 SLP164 T03220217 $ (BBE),,,,,,,,,,,,,,,,,,,,,,,,,,,,
72208013880,2008-09-09T10:56:00,FM-15,7,,SE,0.25,mi,"TEMP, PRECIP, SNOW",,,"MMTS, SRG, SNOWBOARD",,,WFO CHS,,,,,,,,,,,,,,,,,,,,,,,,,,,30.06,73,88,0.01,,,,61,30.06,BKN:07 32,30.01,10,77,150,,10,,,,,,,,,,,,,,,,,,,,,,,,,,,,,,,,,,,,,MET11109/09/08 10:56:51 METAR KCHS 091556Z 15009KT 10SM BKN032 31/23 A3006 RMK AO2 RAE13 SLP180 P0003 T03110228 (AWS),,,,,,,,,,,,,,,,,,,,,,,,,,,,
72208013880,2008-09-09T12:56:00,FM-15,7,,SE,0.25,mi,"TEMP, PRECIP, SNOW",,,"MMTS, SRG, SNOWBOARD",,,WFO CHS,,,,,,,,,,,,,,,,,,,,,,,,,,,30.04,73,88,0,,0.04,8,61,30.03,SCT:04 34 SCT:04 45,29.99,9,77,170,,11,,,,,,,,,,,,,,,,,,,,,,,,,,,,,,,,,,,,,MET12909/09/08 12:56:51 METAR KCHS 091756Z 17010KT 9SM SCT034 SCT045 31/23 A3004 RMK AO2 SLP170 60003 T03110228 10322 20250 58013 (AWS),,,,,,,,,,,,,,,,,,,,,,,,,,,,
72208013880,2008-09-09T13:00:00,FM-12,4,,SE,0.25,mi,"TEMP, PRECIP, SNOW",,,"MMTS, SRG, SNOWBOARD",,,WFO CHS,,,,,,,,,,,,,,,,,,,,,,,,,,,,73,88,,,0.04,8,61,30.03,,29.99,8.7,77,170,,11,,,,,,,,,,,,,,,,,,,,,,,,,,,,,,,,,,,,,SYN098AAXX  09184 72208 12664 41710 10311 20228 30157 40170 58013 69981 91756 333 10322 20250 555 90918;,,,,,,,,,,,,,,,,,,,,,,,,,,,,
72208013880,2008-09-09T14:56:00,FM-15,7,,SE,0.25,mi,"TEMP, PRECIP, SNOW",,,"MMTS, SRG, SNOWBOARD",,,WFO CHS,,,,,,,,,,,,,,,,,,,,,,,,,,,30.01,72,87,0,,,,61,30,FEW:02 39,29.96,9,77,160,,13,,,,,,,,,,,,,,,,,,,,,,,,,,,,,,,,,,,,,MET09709/09/08 14:56:50 METAR KCHS 091956Z 16011KT 9SM FEW039 31/22 A3001 RMK AO2 SLP160 T03060222 (WD),,,,,,,,,,,,,,,,,,,,,,,,,,,,
72208013880,2008-09-09T15:56:00,FM-15,7,,SE,0.25,mi,"TEMP, PRECIP, SNOW",,,"MMTS, SRG, SNOWBOARD",,,WFO CHS,,,,,,,,,,,,,,,,,,,,,,,,,,,29.99,69,87,0,,0.04,6,55,29.99,FEW:02 25 SCT:04 45,29.94,9,75,170,,15,,,,,,,,,,,,,,,,,,,,,,,,,,,,,,,,,,,,,MET11009/09/08 15:56:50 METAR KCHS 092056Z 17013KT 9SM FEW025 SCT045 31/21 A2999 RMK AO2 SLP156 T03060206 56014 (WD),,,,,,,,,,,,,,,,,,,,,,,,,,,,
72208013880,2008-09-09T16:00:00,FM-12,4,,SE,0.25,mi,"TEMP, PRECIP, SNOW",,,"MMTS, SRG, SNOWBOARD",,,WFO CHS,,,,,,,,,,,,,,,,,,,,,,,,,,,,69,87,,,0.04,6,55,29.99,,29.94,8.7,75,170,,15,,,,,,,,,,,,,,,,,,,,,,,,,,,,,,,,,,,,,SYN076AAXX  09214 72208 32564 41713 10306 20206 30140 40156 56014 92056 555 90921;,,,,,,,,,,,,,,,,,,,,,,,,,,,,
72208013880,2008-09-09T17:56:00,FM-15,7,,SE,0.25,mi,"TEMP, PRECIP, SNOW",,,"MMTS, SRG, SNOWBOARD",,,WFO CHS,,,,,,,,,,,,,,,,,,,,,,,,,,,29.98,72,83,0,,,,70,29.98,FEW:02 35,29.93,9,75,160,,10,,,,,,,,,,,,,,,,,,,,,,,,,,,,,,,,,,,,,MET09709/09/08 17:56:50 METAR KCHS 092256Z 16009KT 9SM FEW035 28/22 A2998 RMK AO2 SLP153 T02830222 (WD),,,,,,,,,,,,,,,,,,,,,,,,,,,,
72208013880,2008-09-10T10:56:00,FM-15,7,,SE,0.25,mi,"TEMP, PRECIP, SNOW",,,"MMTS, SRG, SNOWBOARD",,,WFO CHS,,,,,,,,,,,,,,,,,,,,,,,,,,,30.1,71,85,T,,,,63,30.09,SCT:04 33 BKN:07 90,30.05,10,75,150,,9,,,,,,,,,,,,,,,,,,,,,,,,,,,,,,,,,,,,,MET15009/10/08 10:56:51 METAR KCHS 101556Z 15008KT 10SM SCT033CB BKN090 29/22 A3010 RMK AO2 RAB1458E01 SLP191 CB W-N MOV STNRY TCU OHD P0000 T02940217 (AWS),,,,,,,,,,,,,,,,,,,,,,,,,,,,
72208013880,2008-09-26T15:56:00,FM-15,7,,SE,0.25,mi,"TEMP, PRECIP, SNOW",,,"MMTS, SRG, SNOWBOARD",,,WFO CHS,,,,,,,,,,,,,,,,,,,,,,,,,,,29.84,62,74,0,,0,5,67,29.84,BKN:07 26 OVC:08 34,29.79,10,67,170,,10,,,,,,,,,,,,,,,,,,,,,,,,,,,,,,,,,,,,,MET11709/26/08 15:56:51 METAR KCHS 262056Z 17009KT 10SM BKN026 OVC034 23/17 A2984 RMK AO2 SLP104 60000 T02330167 55001 (WD),,,,,,,,,,,,,,,,,,,,,,,,,,,,
72208013880,2008-09-26T16:00:00,FM-12,4,,SE,0.25,mi,"TEMP, PRECIP, SNOW",,,"MMTS, SRG, SNOWBOARD",,,WFO CHS,,,,,,,,,,,,,,,,,,,,,,,,,,,,62,74,,,0,5,67,29.84,,29.79,9.94,67,170,,10,,,,,,,,,,,,,,,,,,,,,,,,,,,,,,,,,,,,,SYN082AAXX  26214 72208 12566 81709 10233 20167 30089 40104 55001 69907 92056 555 92621;,,,,,,,,,,,,,,,,,,,,,,,,,,,,
72208013880,2008-09-29T15:56:00,FM-15,7,,SE,0.25,mi,"TEMP, PRECIP, SNOW",,,"MMTS, SRG, SNOWBOARD",,,WFO CHS,,,,,,,,,,,,,,,,,,,,,,,,,,,29.94,67,80,0,,0.03,6,64,29.94,FEW:02 95 SCT:04 110,29.89,8,71,150,,7,,,,,,,,,,,,,,,,,,,,,,,,,,,,,,,,,,,,,MET10509/29/08 15:56:00 METAR KCHS 292056Z 15006KT 8SM FEW095 SCT110 27/19 A2994 RMK AO2 SLP139 T02670194 56010,,,,,,,,,,,,,,,,,,,,,,,,,,,,
72208013880,2008-09-29T16:00:00,FM-12,4,,SE,0.25,mi,"TEMP, PRECIP, SNOW",,,"MMTS, SRG, SNOWBOARD",,,WFO CHS,,,,,,,,,,,,,,,,,,,,,,,,,,,,67,80,,,0.03,6,64,29.94,,29.89,7.46,71,150,,7,,,,,,,,,,,,,,,,,,,,,,,,,,,,,,,,,,,,,SYN076AAXX  29214 72208 32962 41506 10267 20194 30123 40139 56010 92056 555 92921;,,,,,,,,,,,,,,,,,,,,,,,,,,,,
72208013880,2008-09-30T16:56:00,FM-15,7,,SE,0.25,mi,"TEMP, PRECIP, SNOW",,,"MMTS, SRG, SNOWBOARD",,,WFO CHS,,,,,,,,,,,,,,,,,,,,,,,,,,,29.82,67,77,0,,,,71,29.82,,29.77,8,70,170,,7,,,,,,,,,,,,,,,,,,,,,,,,,,,,,,,,,,,,,MET08909/30/08 16:56:00 METAR KCHS 302156Z 17006KT 8SM CLR 25/19 A2982 RMK AO2 SLP099 T02500194,,,,,,,,,,,,,,,,,,,,,,,,,,,,
72208013880,2008-10-04T14:56:00,FM-15,7,,SE,0.25,mi,"TEMP, PRECIP, SNOW",,,"MMTS, SRG, SNOWBOARD",,,WFO CHS,,,,,,,,,,,,,,,,,,,,,,,,,,,30.14,59,77,0,,,,54,30.14,SCT:04 55,30.09,10,66,150,,11,,,,,,,,,,,,,,,,,,,,,,,,,,,,,,,,,,,,,MET09310/04/08 14:56:00 METAR KCHS 041956Z 15010KT 10SM SCT055 25/15 A3014 RMK AO2 SLP207 T02500150,,,,,,,,,,,,,,,,,,,,,,,,,,,,
72208013880,2008-10-04T17:56:00,FM-15,7,,SE,0.25,mi,"TEMP, PRECIP, SNOW",,,"MMTS, SRG, SNOWBOARD",,,WFO CHS,,,,,,,,,,,,,,,,,,,,,,,,,,,30.17,59,71,0,,,,66,30.16,FEW:02 80,30.12,10,64,150,,8,,,,,,,,,,,,,,,,,,,,,,,,,,,,,,,,,,,,,MET09310/04/08 17:56:00 METAR KCHS 042256Z 15007KT 10SM FEW080 22/15 A3017 RMK AO2 SLP214 T02170150,,,,,,,,,,,,,,,,,,,,,,,,,,,,
72208013880,2008-10-24T17:56:00,FM-15,7,,SE,0.25,mi,"TEMP, PRECIP, SNOW",,,"MMTS, SRG, SNOWBOARD",,,WFO CHS,,,,,,,,,,,,,,,,,,,,,,,,,,,29.99,67,68,1.54,+RA:02 BR:1 |RA |RA,,,96,29.99,BKN:07 6 BKN:07 12 OVC:08 24,29.94,1,67,170,,11,,,,,,,,,,,,,,,,,,,,,,,,,,,,,,,,,,,,,MET15110/24/08 17:56:00 METAR KCHS 242256Z 17010KT 1SM +RA BR BKN006 BKN012 OVC024 20/19 A2999 RMK AO2 PK WND 15027/2244 SFC VIS 1 1/2 SLP155 P0153 T02000194,,,,,,,,,,,,,,,,,,,,,,,,,,,,
72208013880,2008-11-24T15:56:00,FM-15,7,,SE,0.25,mi,"TEMP, PRECIP, SNOW",,,"MMTS, SRG, SNOWBOARD",,,WFO CHS,,,,,,,,,,,,,,,,,,,,,,,,,,,30.18,44,63,0,,0.05,6,50,30.17,,30.13,10,53,170,,10,,,,,,,,,,,,,,,,,,,,,,,,,,,,,,,,,,,,,MET09611/24/08 15:56:00 METAR KCHS 242056Z 17009KT 10SM CLR 17/07 A3018 RMK AO2 SLP218 T01720067 56018,,,,,,,,,,,,,,,,,,,,,,,,,,,,
72208013880,2008-11-24T16:00:00,FM-12,4,,SE,0.25,mi,"TEMP, PRECIP, SNOW",,,"MMTS, SRG, SNOWBOARD",,,WFO CHS,,,,,,,,,,,,,,,,,,,,,,,,,,,,44,63,,,0.05,6,50,30.17,CLR:00,30.13,9.94,53,170,,10,,,,,,,,,,,,,,,,,,,,,,,,,,,,,,,,,,,,,SYN076AAXX  24214 72208 32966 01709 10172 20067 30204 40218 56018 92056 555 92421;,,,,,,,,,,,,,,,,,,,,,,,,,,,,
72208013880,2008-11-29T16:53:00,FM-16,7,,SE,0.25,mi,"TEMP, PRECIP, SNOW",,,"MMTS, SRG, SNOWBOARD",,,WFO CHS,,,,,,,,,,,,,,,,,,,,,,,,,,,29.77,57,61,T,-RA:02 |RA |RA,,,88,,SCT:04 24 BKN:07 90,29.72,8,59,170,,8,,,,,,,,,,,,,,,,,,,,,,,,,,,,,,,,,,,,,MET10411/29/08 16:53:55 SPECI KCHS 292153Z 17007KT 8SM -RA SCT024 BKN090 16/14 A2977 RMK AO2 RAB43 P0000 (WRB),,,,,,,,,,,,,,,,,,,,,,,,,,,,
72208013880,2008-11-29T16:56:00,FM-15,7,,SE,0.25,mi,"TEMP, PRECIP, SNOW",,,"MMTS, SRG, SNOWBOARD",,,WFO CHS,,,,,,,,,,,,,,,,,,,,,,,,,,,29.77,58,61,T,,,,90,29.77,SCT:04 24 BKN:07 90,29.72,8,59,170,,9,,,,,,,,,,,,,,,,,,,,,,,,,,,,,,,,,,,,,MET11411/29/08 16:56:00 METAR KCHS 292156Z 17008KT 8SM SCT024 BKN090 16/14 A2977 RMK AO2 RAB43E55 SLP081 P0000 T01610144,,,,,,,,,,,,,,,,,,,,,,,,,,,,
72208013880,2008-12-09T14:56:00,FM-15,7,,SE,0.25,mi,"TEMP, PRECIP, SNOW",,,"MMTS, SRG, SNOWBOARD",,,WFO CHS,,,,,,,,,,,,,,,,,,,,,,,,,,,30.17,56,72,0,,,,57,30.16,SCT:04 70 BKN:07 85,30.12,10,63,150,24,15,,,,,,,,,,,,,,,,,,,,,,,,,,,,,,,,,,,,,MET10312/09/08 14:56:00 METAR KCHS 091956Z 15013G21KT 10SM SCT070 BKN085 22/13 A3017 RMK AO2 SLP215 T02220133,,,,,,,,,,,,,,,,,,,,,,,,,,,,
72208013880,2008-12-11T10:56:00,FM-15,7,,SE,0.25,mi,"TEMP, PRECIP, SNOW",,,"MMTS, SRG, SNOWBOARD",,,WFO CHS,,,,,,,,,,,,,,,,,,,,,,,,,,,29.77,67,71,0,BR:1 ||,,,87,29.76,SCT:04 33 BKN:07 50 BKN:07 75,29.72,6,68,170,,17,,,,,,,,,,,,,,,,,,,,,,,,,,,,,,,,,,,,,MET10912/11/08 10:56:00 METAR KCHS 111556Z 17015KT 6SM BR SCT033 BKN050 BKN075 22/19 A2977 RMK AO2 SLP079 T02170194,,,,,,,,,,,,,,,,,,,,,,,,,,,,
72208013880,2008-12-11T11:50:00,FM-16,7,,SE,0.25,mi,"TEMP, PRECIP, SNOW",,,"MMTS, SRG, SNOWBOARD",,,WFO CHS,,,,,,,,,,,,,,,,,,,,,,,,,,,29.72,70,73,,,,,89,,FEW:02 14 SCT:04 19 BKN:07 27,29.67,7,71,170,,15,,,,,,,,,,,,,,,,,,,,,,,,,,,,,,,,,,,,,MET09512/11/08 11:50:50 SPECI KCHS 111650Z 17013KT 7SM FEW014 SCT019 BKN027 23/21 A2972 RMK AO2 (AWS),,,,,,,,,,,,,,,,,,,,,,,,,,,,
72208013880,2008-12-11T11:56:00,FM-15,7,,SE,0.25,mi,"TEMP, PRECIP, SNOW",,,"MMTS, SRG, SNOWBOARD",,,WFO CHS,,,,,,,,,,,,,,,,,,,,,,,,,,,29.72,68,73,0,,,,84,29.71,BKN:07 16 BKN:07 27,29.67,7,70,170,,17,,,,,,,,,,,,,,,,,,,,,,,,,,,,,,,,,,,,,MET09912/11/08 11:56:00 METAR KCHS 111656Z 17015KT 7SM BKN016 BKN027 23/20 A2972 RMK AO2 SLP062 T02280200,,,,,,,,,,,,,,,,,,,,,,,,,,,,
72208013880,2008-12-15T13:56:00,FM-15,7,,SE,0.25,mi,"TEMP, PRECIP, SNOW",,,"MMTS, SRG, SNOWBOARD",,,WFO CHS,,,,,,,,,,,,,,,,,,,,,,,,,,,30.33,57,73,0,,,,57,30.32,BKN:07 75,30.28,10,63,160,,13,,,,,,,,,,,,,,,,,,,,,,,,,,,,,,,,,,,,,MET09312/15/08 13:56:00 METAR KCHS 151856Z 16011KT 10SM BKN075 23/14 A3033 RMK AO2 SLP269 T02280139,,,,,,,,,,,,,,,,,,,,,,,,,,,,
72208013880,2008-12-15T15:56:00,FM-15,7,,SE,0.25,mi,"TEMP, PRECIP, SNOW",,,"MMTS, SRG, SNOWBOARD",,,WFO CHS,,,,,,,,,,,,,,,,,,,,,,,,,,,30.31,58,72,0,,0.04,6,61,30.31,BKN:07 85,30.26,10,64,170,,7,,,,,,,,,,,,,,,,,,,,,,,,,,,,,,,,,,,,,MET09912/15/08 15:56:00 METAR KCHS 152056Z 17006KT 10SM BKN085 22/14 A3031 RMK AO2 SLP265 T02220144 56014,,,,,,,,,,,,,,,,,,,,,,,,,,,,
72208013880,2008-12-15T16:00:00,FM-12,4,,SE,0.25,mi,"TEMP, PRECIP, SNOW",,,"MMTS, SRG, SNOWBOARD",,,WFO CHS,,,,,,,,,,,,,,,,,,,,,,,,,,,,58,72,,,0.04,6,61,30.31,,30.26,9.94,64,170,,7,,,,,,,,,,,,,,,,,,,,,,,,,,,,,,,,,,,,,SYN076AAXX  15214 72208 32966 61706 10222 20144 30248 40265 56014 92056 555 91521;,,,,,,,,,,,,,,,,,,,,,,,,,,,,
72208013880,2008-12-27T14:56:00,FM-15,7,,SE,0.25,mi,"TEMP, PRECIP, SNOW",,,"MMTS, SRG, SNOWBOARD",,,WFO CHS,,,,,,,,,,,,,,,,,,,,,,,,,,,30.28,63,74,0,,,,69,30.28,FEW:02 30 SCT:04 45,30.23,10,67,160,,8,,,,,,,,,,,,,,,,,,,,,,,,,,,,,,,,,,,,,MET10012/27/08 14:56:00 METAR KCHS 271956Z 16007KT 10SM FEW030 SCT045 23/17 A3028 RMK AO2 SLP253 T02330172,,,,,,,,,,,,,,,,,,,,,,,,,,,,
72208013880,2008-12-27T15:56:00,FM-15,7,,SE,0.25,mi,"TEMP, PRECIP, SNOW",,,"MMTS, SRG, SNOWBOARD",,,WFO CHS,,,,,,,,,,,,,,,,,,,,,,,,,,,30.28,64,73,0,,0.04,6,74,30.27,FEW:02 30 SCT:04 50,30.23,10,67,160,,9,,,,,,,,,,,,,,,,,,,,,,,,,,,,,,,,,,,,,MET10612/27/08 15:56:00 METAR KCHS 272056Z 16008KT 10SM FEW030 SCT050 23/18 A3028 RMK AO2 SLP251 T02280178 56012,,,,,,,,,,,,,,,,,,,,,,,,,,,,
72208013880,2008-12-27T16:00:00,FM-12,4,,SE,0.25,mi,"TEMP, PRECIP, SNOW",,,"MMTS, SRG, SNOWBOARD",,,WFO CHS,,,,,,,,,,,,,,,,,,,,,,,,,,,,64,73,,,0.04,6,74,30.27,,30.23,9.94,67,160,,9,,,,,,,,,,,,,,,,,,,,,,,,,,,,,,,,,,,,,SYN076AAXX  27214 72208 32566 41608 10228 20178 30238 40251 56012 92056 555 92721;,,,,,,,,,,,,,,,,,,,,,,,,,,,,
72208013880,2009-01-05T16:56:00,FM-15,7,,SE,0.25,mi,"TEMP, PRECIP, SNOW",,,"MMTS, SRG, SNOWBOARD",,,WFO CHS,,,,,,,,,,,,,,,,,,,,,,,,,,,29.99,58,70,0,,,,66,29.99,FEW:02 50,29.94,10,63,170,,11,,,,,,,,,,,,,,,,,,,,,,,,,,,,,,,,,,,,,MET09301/05/09 16:56:00 METAR KCHS 052156Z 17010KT 10SM FEW050 21/14 A2999 RMK AO2 SLP155 T02110144,,,,,,,,,,,,,,,,,,,,,,,,,,,,
72208013880,2009-01-09T17:56:00,FM-15,7,,SE,0.25,mi,"TEMP, PRECIP, SNOW",,,"MMTS, SRG, SNOWBOARD",,,WFO CHS,,,,,,,,,,,,,,,,,,,,,,,,,,,30.24,30,46,0,,,,54,30.24,,30.19,10,39,160,,8,,,,,,,,,,,,,,,,,,,,,,,,,,,,,,,,,,,,,MET09101/09/09 17:56:00 METAR KCHS 092256Z 16007KT 10SM CLR 08/M01 A3024 RMK AO2 SLP239 T00781011,,,,,,,,,,,,,,,,,,,,,,,,,,,,
72208013880,2009-01-22T16:56:00,FM-15,7,,SE,0.25,mi,"TEMP, PRECIP, SNOW",,,"MMTS, SRG, SNOWBOARD",,,WFO CHS,,,,,,,,,,,,,,,,,,,,,,,,,,,30.19,27,50,0,,,,41,30.19,,30.14,10,41,170,,11,,,,,,,,,,,,,,,,,,,,,,,,,,,,,,,,,,,,,MET09101/22/09 16:56:00 METAR KCHS 222156Z 17010KT 10SM CLR 10/M03 A3019 RMK AO2 SLP224 T01001028,,,,,,,,,,,,,,,,,,,,,,,,,,,,
72208013880,2009-01-27T14:56:00,FM-15,7,,SE,0.25,mi,"TEMP, PRECIP, SNOW",,,"MMTS, SRG, SNOWBOARD",,,WFO CHS,,,,,,,,,,,,,,,,,,,,,,,,,,,30.28,48,59,0,HZ:7 ||HZ,,,67,30.28,,30.23,5,53,150,,8,,,,,,,,,,,,,,,,,,,,,,,,,,,,,,,,,,,,,MET09801/27/09 14:56:03 METAR KCHS 271956Z 15007KT 5SM HZ CLR 15/09 A3028 RMK AO2 SLP254 T01500089 (AWS),,,,,,,,,,,,,,,,,,,,,,,,,,,,
72208013880,2009-01-27T15:56:00,FM-15,7,,SE,0.25,mi,"TEMP, PRECIP, SNOW",,,"MMTS, SRG, SNOWBOARD",,,WFO CHS,,,,,,,,,,,,,,,,,,,,,,,,,,,30.29,47,56,0,,0.05,5,72,30.29,,30.24,8,51,150,,11,,,,,,,,,,,,,,,,,,,,,,,,,,,,,,,,,,,,,MET10101/27/09 15:56:03 METAR KCHS 272056Z 15010KT 8SM CLR 13/08 A3029 RMK AO2 SLP256 T01330083 55016 (AWS),,,,,,,,,,,,,,,,,,,,,,,,,,,,
72208013880,2009-01-27T16:00:00,FM-12,4,,SE,0.25,mi,"TEMP, PRECIP, SNOW",,,"MMTS, SRG, SNOWBOARD",,,WFO CHS,,,,,,,,,,,,,,,,,,,,,,,,,,,,47,56,,,0.05,5,72,30.29,CLR:00,30.24,7.46,51,150,,11,,,,,,,,,,,,,,,,,,,,,,,,,,,,,,,,,,,,,SYN076AAXX  27214 72208 32962 01510 10133 20083 30241 40256 55016 92056 555 92721;,,,,,,,,,,,,,,,,,,,,,,,,,,,,
72208013880,2009-01-27T16:56:00,FM-15,7,,SE,0.25,mi,"TEMP, PRECIP, SNOW",,,"MMTS, SRG, SNOWBOARD",,,WFO CHS,,,,,,,,,,,,,,,,,,,,,,,,,,,30.29,47,54,0,,,,77,30.28,,30.24,8,50,150,,9,,,,,,,,,,,,,,,,,,,,,,,,,,,,,,,,,,,,,MET09401/27/09 16:56:03 METAR KCHS 272156Z 15008KT 8SM CLR 12/08 A3029 RMK AO2 SLP255 T01220083 (WD),,,,,,,,,,,,,,,,,,,,,,,,,,,,
72208013880,2009-02-02T12:56:00,FM-15,7,,SE,0.25,mi,"TEMP, PRECIP, SNOW",,,"MMTS, SRG, SNOWBOARD",,,WFO CHS,,,,,,,,,,,,,,,,,,,,,,,,,,,29.99,40,60,0,,0.09,6,47,29.99,BKN:07 80,29.94,10,50,170,,8,,,,,,,,,,,,,,,,,,,,,,,,,,,,,,,,,,,,,MET11102/02/09 12:56:01 METAR KCHS 021756Z 17007KT 10SM BKN080 16/04 A2999 RMK AO2 SLP156 T01560044 10161 20028 56029,,,,,,,,,,,,,,,,,,,,,,,,,,,,
72208013880,2009-02-02T13:00:00,FM-12,4,,SE,0.25,mi,"TEMP, PRECIP, SNOW",,,"MMTS, SRG, SNOWBOARD",,,WFO CHS,,,,,,,,,,,,,,,,,,,,,,,,,,,,40,60,,,0.09,6,47,29.99,,29.94,9.94,50,170,,8,,,,,,,,,,,,,,,,,,,,,,,,,,,,,,,,,,,,,SYN092AAXX  02184 72208 32866 61707 10156 20044 30140 40156 56029 91756 333 10161 20028 555 90218;,,,,,,,,,,,,,,,,,,,,,,,,,,,,
72208013880,2009-02-10T16:56:00,FM-15,7,,SE,0.25,mi,"TEMP, PRECIP, SNOW",,,"MMTS, SRG, SNOWBOARD",,,WFO CHS,,,,,,,,,,,,,,,,,,,,,,,,,,,30.24,53,69,0,,,,57,30.23,BKN:07 49,30.19,10,60,160,,11,,,,,,,,,,,,,,,,,,,,,,,,,,,,,,,,,,,,,MET09802/10/09 16:56:02 METAR KCHS 102156Z 16010KT 10SM BKN049 21/12 A3024 RMK AO2 SLP238 T02060117 (WD),,,,,,,,,,,,,,,,,,,,,,,,,,,,
72208013880,2009-02-10T17:56:00,FM-15,7,,SE,0.25,mi,"TEMP, PRECIP, SNOW",,,"MMTS, SRG, SNOWBOARD",,,WFO CHS,,,,,,,,,,,,,,,,,,,,,,,,,,,30.24,53,64,0,,,,68,30.23,BKN:07 50,30.19,10,58,160,,8,,,,,,,,,,,,,,,,,,,,,,,,,,,,,,,,,,,,,MET09802/10/09 17:56:02 METAR KCHS 102256Z 16007KT 10SM BKN050 18/12 A3024 RMK AO2 SLP238 T01780117 (WD),,,,,,,,,,,,,,,,,,,,,,,,,,,,
72208013880,2009-02-13T14:56:00,FM-15,7,,SE,0.25,mi,"TEMP, PRECIP, SNOW",,,"MMTS, SRG, SNOWBOARD",,,WFO CHS,,,,,,,,,,,,,,,,,,,,,,,,,,,30.08,34,71,0,,,,26,30.08,,30.03,10,53,160,,13,,,,,,,,,,,,,,,,,,,,,,,,,,,,,,,,,,,,,MET09802/13/09 14:56:02 METAR KCHS 131956Z 16011KT 10SM CLR 22/01 A3008 RMK AO2 SLP185 T02170011 $ (AWS),,,,,,,,,,,,,,,,,,,,,,,,,,,,
72208013880,2009-02-17T16:56:00,FM-15,7,,SE,0.25,mi,"TEMP, PRECIP, SNOW",,,"MMTS, SRG, SNOWBOARD",,,WFO CHS,,,,,,,,,,,,,,,,,,,,,,,,,,,30.24,29,51,0,,,,43,30.24,,30.19,10,42,160,,10,,,,,,,,,,,,,,,,,,,,,,,,,,,,,,,,,,,,,MET09602/17/09 16:56:02 METAR KCHS 172156Z 16009KT 10SM CLR 11/M02 A3024 RMK AO2 SLP240 T01061017 (WD),,,,,,,,,,,,,,,,,,,,,,,,,,,,
72208013880,2009-02-21T12:56:00,FM-15,7,,SE,0.25,mi,"TEMP, PRECIP, SNOW",,,"MMTS, SRG, SNOWBOARD",,,WFO CHS,,,,,,,,,,,,,,,,,,,,,,,,,,,30.31,15,56,0,,0.05,8,20,30.3,,30.26,10,41,170,18,13,,,,,,,,,,,,,,,,,,,,,,,,,,,,,,,,,,,,,MET11802/21/09 12:56:02 METAR KCHS 211756Z 17011G16KT 10SM CLR 13/M09 A3031 RMK AO2 SLP262 T01331094 10139 21033 58016 (JRS),,,,,,,,,,,,,,,,,,,,,,,,,,,,
72208013880,2009-02-21T13:00:00,FM-12,4,,SE,0.25,mi,"TEMP, PRECIP, SNOW",,,"MMTS, SRG, SNOWBOARD",,,WFO CHS,,,,,,,,,,,,,,,,,,,,,,,,,,,,15,56,,,0.05,8,20,30.3,CLR:00,30.26,9.94,41,170,18,13,,,,,,,,,,,,,,,,,,,,,,,,,,,,,,,,,,,,,SYN098AAXX  21184 72208 32966 01711 10133 21094 30248 40262 58016 91756 333 10139 21033 91016 555 92118;,,,,,,,,,,,,,,,,,,,,,,,,,,,,
72208013880,2009-02-21T13:56:00,FM-15,7,,SE,0.25,mi,"TEMP, PRECIP, SNOW",,,"MMTS, SRG, SNOWBOARD",,,WFO CHS,,,,,,,,,,,,,,,,,,,,,,,,,,,30.28,17,58,0,,,,20,30.28,,30.23,10,42,160,,14,,,,,,,,,,,,,,,,,,,,,,,,,,,,,,,,,,,,,MET09702/21/09 13:56:02 METAR KCHS 211856Z 16012KT 10SM CLR 14/M08 A3028 RMK AO2 SLP253 T01441083 (JRS),,,,,,,,,,,,,,,,,,,,,,,,,,,,
72208013880,2009-02-21T15:56:00,FM-15,7,,SE,0.25,mi,"TEMP, PRECIP, SNOW",,,"MMTS, SRG, SNOWBOARD",,,WFO CHS,,,,,,,,,,,,,,,,,,,,,,,,,,,30.26,29,57,0,,0.05,6,34,30.25,,30.21,10,45,150,,16,,,,,,,,,,,,,,,,,,,,,,,,,,,,,,,,,,,,,MET10302/21/09 15:56:02 METAR KCHS 212056Z 15014KT 10SM CLR 14/M02 A3026 RMK AO2 SLP245 T01391017 56017 (JRS),,,,,,,,,,,,,,,,,,,,,,,,,,,,
72208013880,2009-02-21T16:00:00,FM-12,4,,SE,0.25,mi,"TEMP, PRECIP, SNOW",,,"MMTS, SRG, SNOWBOARD",,,WFO CHS,,,,,,,,,,,,,,,,,,,,,,,,,,,,29,57,,,0.05,6,34,30.25,CLR:00,30.21,9.94,45,150,,16,,,,,,,,,,,,,,,,,,,,,,,,,,,,,,,,,,,,,SYN076AAXX  21214 72208 32966 01514 10139 21017 30231 40245 56017 92056 555 92121;,,,,,,,,,,,,,,,,,,,,,,,,,,,,
72208013880,2009-02-25T15:56:00,FM-15,7,,SE,0.25,mi,"TEMP, PRECIP, SNOW",,,"MMTS, SRG, SNOWBOARD",,,WFO CHS,,,,,,,,,,,,,,,,,,,,,,,,,,,30.37,41,60,0,,0.05,6,50,30.37,FEW:02 47,30.32,10,51,160,,8,,,,,,,,,,,,,,,,,,,,,,,,,,,,,,,,,,,,,MET10502/25/09 15:56:02 METAR KCHS 252056Z 16007KT 10SM FEW047 16/05 A3037 RMK AO2 SLP284 T01560050 56016 (AWS),,,,,,,,,,,,,,,,,,,,,,,,,,,,
72208013880,2009-02-25T16:00:00,FM-12,4,,SE,0.25,mi,"TEMP, PRECIP, SNOW",,,"MMTS, SRG, SNOWBOARD",,,WFO CHS,,,,,,,,,,,,,,,,,,,,,,,,,,,,41,60,,,0.05,6,50,30.37,,30.32,9.94,51,160,,8,,,,,,,,,,,,,,,,,,,,,,,,,,,,,,,,,,,,,SYN076AAXX  25214 72208 32666 21607 10156 20050 30268 40284 56016 92056 555 92521;,,,,,,,,,,,,,,,,,,,,,,,,,,,,
72208013880,2009-02-25T16:56:00,FM-15,7,,SE,0.25,mi,"TEMP, PRECIP, SNOW",,,"MMTS, SRG, SNOWBOARD",,,WFO CHS,,,,,,,,,,,,,,,,,,,,,,,,,,,30.37,41,57,0,,,,55,30.37,,30.32,10,49,150,,10,,,,,,,,,,,,,,,,,,,,,,,,,,,,,,,,,,,,,MET09502/25/09 16:56:02 METAR KCHS 252156Z 15009KT 10SM CLR 14/05 A3037 RMK AO2 SLP283 T01390050 (WD),,,,,,,,,,,,,,,,,,,,,,,,,,,,
72208013880,2009-02-26T15:56:00,FM-15,7,,SE,0.25,mi,"TEMP, PRECIP, SNOW",,,"MMTS, SRG, SNOWBOARD",,,WFO CHS,,,,,,,,,,,,,,,,,,,,,,,,,,,30.3,47,65,0,,0.05,6,52,30.29,BKN:07 60,30.25,10,55,150,,11,,,,,,,,,,,,,,,,,,,,,,,,,,,,,,,,,,,,,MET10402/26/09 15:56:02 METAR KCHS 262056Z 15010KT 10SM BKN060 18/08 A3030 RMK AO2 SLP259 T01830083 56018 (WD),,,,,,,,,,,,,,,,,,,,,,,,,,,,
72208013880,2009-02-26T16:00:00,FM-12,4,,SE,0.25,mi,"TEMP, PRECIP, SNOW",,,"MMTS, SRG, SNOWBOARD",,,WFO CHS,,,,,,,,,,,,,,,,,,,,,,,,,,,,47,65,,,0.05,6,52,30.29,,30.25,9.94,55,150,,11,,,,,,,,,,,,,,,,,,,,,,,,,,,,,,,,,,,,,SYN076AAXX  26214 72208 32766 61510 10183 20083 30244 40259 56018 92056 555 92621;,,,,,,,,,,,,,,,,,,,,,,,,,,,,
72208013880,2009-03-04T16:56:00,FM-15,7,,SE,0.25,mi,"TEMP, PRECIP, SNOW",,,"MMTS, SRG, SNOWBOARD",,,WFO CHS,,,,,,,,,,,,,,,,,,,,,,,,,,,30.42,28,46,0,,,,50,30.42,,30.37,10,39,150,,11,,,,,,,,,,,,,,,,,,,,,,,,,,,,,,,,,,,,,MET09603/04/09 16:56:02 METAR KCHS 042156Z 15010KT 10SM CLR 08/M02 A3042 RMK AO2 SLP300 T00781022 (WD),,,,,,,,,,,,,,,,,,,,,,,,,,,,
72208013880,2009-03-05T13:56:00,FM-15,7,,SE,0.25,mi,"TEMP, PRECIP, SNOW",,,"MMTS, SRG, SNOWBOARD",,,WFO CHS,,,,,,,,,,,,,,,,,,,,,,,,,,,30.43,32,62,0,,,,32,30.43,,30.38,10,48,160,,10,,,,,,,,,,,,,,,,,,,,,,,,,,,,,,,,,,,,,MET09803/05/09 13:56:02 METAR KCHS 051856Z 16009KT 10SM CLR 17/00 A3043 RMK AO2 SLP305 T01670000 $ (AWS),,,,,,,,,,,,,,,,,,,,,,,,,,,,
72208013880,2009-03-05T14:56:00,FM-15,7,,SE,0.25,mi,"TEMP, PRECIP, SNOW",,,"MMTS, SRG, SNOWBOARD",,,WFO CHS,,,,,,,,,,,,,,,,,,,,,,,,,,,30.43,34,62,,,,,35,30.42,,30.38,10,49,160,,11,,,,,,,,,,,,,,,,,,,,,,,,,,,,,,,,,,,,,MET09803/05/09 14:56:02 METAR KCHS 051956Z 16010KT 10SM CLR 17/01 A3043 RMK AO2 SLP303 T01670011 $ (AWS),,,,,,,,,,,,,,,,,,,,,,,,,,,,
72208013880,2009-03-05T16:56:00,FM-15,7,,SE,0.25,mi,"TEMP, PRECIP, SNOW",,,"MMTS, SRG, SNOWBOARD",,,WFO CHS,,,,,,,,,,,,,,,,,,,,,,,,,,,30.41,37,59,0,,,,44,30.4,,30.36,10,49,160,,13,,,,,,,,,,,,,,,,,,,,,,,,,,,,,,,,,,,,,MET09703/05/09 16:56:02 METAR KCHS 052156Z 16011KT 10SM CLR 15/03 A3041 RMK AO2 SLP296 T01500028 $ (WD),,,,,,,,,,,,,,,,,,,,,,,,,,,,
72208013880,2009-03-18T13:56:00,FM-15,7,,SE,0.25,mi,"TEMP, PRECIP, SNOW",,,"MMTS, SRG, SNOWBOARD",,,WFO CHS,,,,,,,,,,,,,,,,,,,,,,,,,,,30.22,48,66,0,,,,52,30.21,,30.17,10,56,160,,9,,,,,,,,,,,,,,,,,,,,,,,,,,,,,,,,,,,,,MET09603/18/09 13:56:02 METAR KCHS 181856Z 16008KT 10SM CLR 19/09 A3022 RMK AO2 SLP231 T01890089 (AWS),,,,,,,,,,,,,,,,,,,,,,,,,,,,
72208013880,2009-03-19T14:56:00,FM-15,7,,SE,0.25,mi,"TEMP, PRECIP, SNOW",,,"MMTS, SRG, SNOWBOARD",,,WFO CHS,,,,,,,,,,,,,,,,,,,,,,,,,,,30.05,55,71,0,,,,57,30.04,FEW:02 47,30,10,62,160,,9,,,,,,,,,,,,,,,,,,,,,,,,,,,,,,,,,,,,,MET09903/19/09 14:56:02 METAR KCHS 191956Z 16008KT 10SM FEW047 22/13 A3005 RMK AO2 SLP174 T02170128 (AWS),,,,,,,,,,,,,,,,,,,,,,,,,,,,
72208013880,2009-03-19T16:56:00,FM-15,7,,SE,0.25,mi,"TEMP, PRECIP, SNOW",,,"MMTS, SRG, SNOWBOARD",,,WFO CHS,,,,,,,,,,,,,,,,,,,,,,,,,,,30.02,56,72,0,,,,57,30.01,,29.97,10,63,150,,11,,,,,,,,,,,,,,,,,,,,,,,,,,,,,,,,,,,,,MET09503/19/09 16:56:02 METAR KCHS 192156Z 15010KT 10SM CLR 22/13 A3002 RMK AO2 SLP163 T02220133 (WD),,,,,,,,,,,,,,,,,,,,,,,,,,,,
72208013880,2009-03-19T17:56:00,FM-15,7,,SE,0.25,mi,"TEMP, PRECIP, SNOW",,,"MMTS, SRG, SNOWBOARD",,,WFO CHS,,,,,,,,,,,,,,,,,,,,,,,,,,,30.02,54,68,0,,,,61,30.02,,29.97,10,60,170,,9,,,,,,,,,,,,,,,,,,,,,,,,,,,,,,,,,,,,,MET09503/19/09 17:56:02 METAR KCHS 192256Z 17008KT 10SM CLR 20/12 A3002 RMK AO2 SLP165 T02000122 (WD),,,,,,,,,,,,,,,,,,,,,,,,,,,,
72208013880,2009-03-27T15:56:00,FM-15,7,,SE,0.25,mi,"TEMP, PRECIP, SNOW",,,"MMTS, SRG, SNOWBOARD",,,WFO CHS,,,,,,,,,,,,,,,,,,,,,,,,,,,29.84,59,71,0,,0.08,8,66,29.83,,29.79,10,64,160,24,14,,,,,,,,,,,,,,,,,,,,,,,,,,,,,,,,,,,,,MET11103/27/09 15:56:02 METAR KCHS 272056Z 16012G21KT 10SM CLR 22/15 A2984 RMK AO2 PRESFR SLP102 T02170150 58026 (WD),,,,,,,,,,,,,,,,,,,,,,,,,,,,
72208013880,2009-03-27T16:00:00,FM-12,4,,SE,0.25,mi,"TEMP, PRECIP, SNOW",,,"MMTS, SRG, SNOWBOARD",,,WFO CHS,,,,,,,,,,,,,,,,,,,,,,,,,,,,59,71,,,0.08,8,66,29.83,CLR:00,29.79,9.94,64,160,24,14,,,,,,,,,,,,,,,,,,,,,,,,,,,,,,,,,,,,,SYN086AAXX  27214 72208 32966 01612 10217 20150 30089 40102 58026 92056 333 91021 555 92721;,,,,,,,,,,,,,,,,,,,,,,,,,,,,
72208013880,2009-03-27T16:56:00,FM-15,7,,SE,0.25,mi,"TEMP, PRECIP, SNOW",,,"MMTS, SRG, SNOWBOARD",,,WFO CHS,,,,,,,,,,,,,,,,,,,,,,,,,,,29.83,59,70,0,,,,68,29.83,,29.78,10,63,170,,14,,,,,,,,,,,,,,,,,,,,,,,,,,,,,,,,,,,,,MET09503/27/09 16:56:02 METAR KCHS 272156Z 17012KT 10SM CLR 21/15 A2983 RMK AO2 SLP101 T02110150 (WD),,,,,,,,,,,,,,,,,,,,,,,,,,,,
72208013880,2009-03-30T14:56:00,FM-15,7,,SE,0.25,mi,"TEMP, PRECIP, SNOW",,,"MMTS, SRG, SNOWBOARD",,,WFO CHS,,,,,,,,,,,,,,,,,,,,,,,,,,,29.99,44,66,0,,,,45,29.99,,29.94,10,54,170,,13,,,,,,,,,,,,,,,,,,,,,,,,,,,,,,,,,,,,,MET09603/30/09 14:56:02 METAR KCHS 301956Z 17011KT 10SM CLR 19/07 A2999 RMK AO2 SLP155 T01890067 (AWS),,,,,,,,,,,,,,,,,,,,,,,,,,,,
72208013880,2009-03-30T16:56:00,FM-15,7,,SE,0.25,mi,"TEMP, PRECIP, SNOW",,,"MMTS, SRG, SNOWBOARD",,,WFO CHS,,,,,,,,,,,,,,,,,,,,,,,,,,,29.99,45,65,0,,,,49,29.99,,29.94,10,54,160,,10,,,,,,,,,,,,,,,,,,,,,,,,,,,,,,,,,,,,,MET09503/30/09 16:56:02 METAR KCHS 302156Z 16009KT 10SM CLR 18/07 A2999 RMK AO2 SLP156 T01830072 (WD),,,,,,,,,,,,,,,,,,,,,,,,,,,,
72208013880,2009-03-30T17:56:00,FM-15,7,,SE,0.25,mi,"TEMP, PRECIP, SNOW",,,"MMTS, SRG, SNOWBOARD",,,WFO CHS,,,,,,,,,,,,,,,,,,,,,,,,,,,30,46,63,0,,,,54,30,,29.95,10,54,170,,7,,,,,,,,,,,,,,,,,,,,,,,,,,,,,,,,,,,,,MET09503/30/09 17:56:02 METAR KCHS 302256Z 17006KT 10SM CLR 17/08 A3000 RMK AO2 SLP159 T01720078 (WD),,,,,,,,,,,,,,,,,,,,,,,,,,,,
72208013880,2009-03-31T13:56:00,FM-15,7,,SE,0.25,mi,"TEMP, PRECIP, SNOW",,,"MMTS, SRG, SNOWBOARD",,,WFO CHS,,,,,,,,,,,,,,,,,,,,,,,,,,,30.08,53,69,0,,,,57,30.08,,30.03,10,60,160,,10,,,,,,,,,,,,,,,,,,,,,,,,,,,,,,,,,,,,,MET09603/31/09 13:56:02 METAR KCHS 311856Z 16009KT 10SM CLR 21/12 A3008 RMK AO2 SLP186 T02060117 (AWS),,,,,,,,,,,,,,,,,,,,,,,,,,,,
72208013880,2009-04-01T11:56:00,FM-15,7,,SE,0.25,mi,"TEMP, PRECIP, SNOW",,,"MMTS, SRG, SNOWBOARD",,,WFO CHS,,,,,,,,,,,,,,,,,,,,,,,,,,,29.96,63,67,0,,,,87,29.95,OVC:08 9,29.91,10,65,160,,9,,,,,,,,,,,,,,,,,,,,,,,,,,,,,,,,,,,,,MET09904/01/09 11:56:02 METAR KCHS 011656Z 16008KT 10SM OVC009 19/17 A2996 RMK AO2 SLP143 T01940172 (AWS),,,,,,,,,,,,,,,,,,,,,,,,,,,,
72208013880,2009-04-01T14:56:00,FM-15,7,,SE,0.25,mi,"TEMP, PRECIP, SNOW",,,"MMTS, SRG, SNOWBOARD",,,WFO CHS,,,,,,,,,,,,,,,,,,,,,,,,,,,29.94,63,67,T,-RA:02 |RA |RA,,,87,29.93,OVC:08 11,29.89,10,65,160,,7,,,,,,,,,,,,,,,,,,,,,,,,,,,,,,,,,,,,,MET11504/01/09 14:56:02 METAR KCHS 011956Z 16006KT 10SM -RA OVC011 19/17 A2994 RMK AO2 RAB48 SLP136 P0000 T01940172 (AWS),,,,,,,,,,,,,,,,,,,,,,,,,,,,
72208013880,2009-04-04T15:56:00,FM-15,7,,SE,0.25,mi,"TEMP, PRECIP, SNOW",,,"MMTS, SRG, SNOWBOARD",,,WFO CHS,,,,,,,,,,,,,,,,,,,,,,,,,,,29.92,49,72,0,,0.04,6,44,29.92,,29.87,10,59,170,,14,,,,,,,,,,,,,,,,,,,,,,,,,,,,,,,,,,,,,MET10104/04/09 15:56:02 METAR KCHS 042056Z 17012KT 10SM CLR 22/09 A2992 RMK AO2 SLP132 T02220094 56013 (KL),,,,,,,,,,,,,,,,,,,,,,,,,,,,
72208013880,2009-04-04T16:00:00,FM-12,4,,SE,0.25,mi,"TEMP, PRECIP, SNOW",,,"MMTS, SRG, SNOWBOARD",,,WFO CHS,,,,,,,,,,,,,,,,,,,,,,,,,,,,49,72,,,0.04,6,44,29.92,CLR:00,29.87,9.94,59,170,,14,,,,,,,,,,,,,,,,,,,,,,,,,,,,,,,,,,,,,SYN076AAXX  04214 72208 32966 01712 10222 20094 30116 40132 56013 92056 555 90421;,,,,,,,,,,,,,,,,,,,,,,,,,,,,
72208013880,2009-04-13T16:56:00,FM-15,7,,SE,0.25,mi,"TEMP, PRECIP, SNOW",,,"MMTS, SRG, SNOWBOARD",,,WFO CHS,,,,,,,,,,,,,,,,,,,,,,,,,,,30.04,60,65,0.04,RA:02 |RA |RA,,,84,30.03,FEW:02 24 OVC:08 55,29.99,5,62,150,,10,,,,,,,,,,,,,,,,,,,,,,,,,,,,,,,,,,,,,MET11304/13/09 16:56:02 METAR KCHS 132156Z 15009KT 5SM RA FEW024 OVC055 18/16 A3004 RMK AO2 SLP170 P0003 T01830156 (WD),,,,,,,,,,,,,,,,,,,,,,,,,,,,
72208013880,2009-04-13T17:29:00,FM-16,7,,SE,0.25,mi,"TEMP, PRECIP, SNOW",,,"MMTS, SRG, SNOWBOARD",,,WFO CHS,,,,,,,,,,,,,,,,,,,,,,,,,,,30.04,61,63,0.11,RA:02 BR:1 |RA |RA,,,94,,BKN:07 24 OVC:08 50,29.99,3,62,150,,8,,,,,,,,,,,,,,,,,,,,,,,,,,,,,,,,,,,,,MET09904/13/09 17:29:02 SPECI KCHS 132229Z 15007KT 3SM RA BR BKN024 OVC050 17/16 A3004 RMK AO2 P0011 (WD),,,,,,,,,,,,,,,,,,,,,,,,,,,,
72208013880,2009-04-13T17:44:00,FM-16,7,,SE,0.25,mi,"TEMP, PRECIP, SNOW",,,"MMTS, SRG, SNOWBOARD",,,WFO CHS,,,,,,,,,,,,,,,,,,,,,,,,,,,30.05,61,63,0.18,RA:02 BR:1 |RA |RA,,,94,,SCT:04 24 BKN:07 40 OVC:08 47,30,3,62,170,,7,,,,,,,,,,,,,,,,,,,,,,,,,,,,,,,,,,,,,MET10604/13/09 17:44:02 SPECI KCHS 132244Z 17006KT 3SM RA BR SCT024 BKN040 OVC047 17/16 A3005 RMK AO2 P0018 (WD),,,,,,,,,,,,,,,,,,,,,,,,,,,,
72208013880,2009-04-18T14:56:00,FM-15,7,,SE,0.25,mi,"TEMP, PRECIP, SNOW",,,"MMTS, SRG, SNOWBOARD",,,WFO CHS,,,,,,,,,,,,,,,,,,,,,,,,,,,30.16,37,75,0,,,,25,30.15,,30.11,10,56,150,,9,,,,,,,,,,,,,,,,,,,,,,,,,,,,,,,,,,,,,MET09604/18/09 14:56:02 METAR KCHS 181956Z 15008KT 10SM CLR 24/03 A3016 RMK AO2 SLP211 T02390028 (JRS),,,,,,,,,,,,,,,,,,,,,,,,,,,,
72208013880,2009-04-18T15:56:00,FM-15,7,,SE,0.25,mi,"TEMP, PRECIP, SNOW",,,"MMTS, SRG, SNOWBOARD",,,WFO CHS,,,,,,,,,,,,,,,,,,,,,,,,,,,30.16,40,72,0,,0.05,6,31,30.15,,30.11,10,55,170,,14,,,,,,,,,,,,,,,,,,,,,,,,,,,,,,,,,,,,,MET10204/18/09 15:56:02 METAR KCHS 182056Z 17012KT 10SM CLR 22/04 A3016 RMK AO2 SLP210 T02220044 56017 (BBE),,,,,,,,,,,,,,,,,,,,,,,,,,,,
72208013880,2009-04-18T16:00:00,FM-12,4,,SE,0.25,mi,"TEMP, PRECIP, SNOW",,,"MMTS, SRG, SNOWBOARD",,,WFO CHS,,,,,,,,,,,,,,,,,,,,,,,,,,,,40,72,,,0.05,6,31,30.15,CLR:00,30.11,9.94,55,170,,14,,,,,,,,,,,,,,,,,,,,,,,,,,,,,,,,,,,,,SYN076AAXX  18214 72208 32966 01712 10222 20044 30197 40210 56017 92056 555 91821;,,,,,,,,,,,,,,,,,,,,,,,,,,,,
72208013880,2009-04-18T16:56:00,FM-15,7,,SE,0.25,mi,"TEMP, PRECIP, SNOW",,,"MMTS, SRG, SNOWBOARD",,,WFO CHS,,,,,,,,,,,,,,,,,,,,,,,,,,,30.15,48,67,0,,,,51,30.15,,30.1,10,57,150,,14,,,,,,,,,,,,,,,,,,,,,,,,,,,,,,,,,,,,,MET09604/18/09 16:56:02 METAR KCHS 182156Z 15012KT 10SM CLR 19/09 A3015 RMK AO2 SLP210 T01940089 (BBE),,,,,,,,,,,,,,,,,,,,,,,,,,,,
72208013880,2009-04-19T11:56:00,FM-15,7,,SE,0.25,mi,"TEMP, PRECIP, SNOW",,,"MMTS, SRG, SNOWBOARD",,,WFO CHS,,,,,,,,,,,,,,,,,,,,,,,,,,,30.08,55,74,0,,,,52,30.07,FEW:02 38,30.03,10,63,170,,11,,,,,,,,,,,,,,,,,,,,,,,,,,,,,,,,,,,,,MET10104/19/09 11:56:02 METAR KCHS 191656Z 17010KT 10SM FEW038 23/13 A3008 RMK AO2 SLP184 T02330128 $ (JRS),,,,,,,,,,,,,,,,,,,,,,,,,,,,
72208013880,2009-04-19T14:56:00,FM-15,7,,SE,0.25,mi,"TEMP, PRECIP, SNOW",,,"MMTS, SRG, SNOWBOARD",,,WFO CHS,,,,,,,,,,,,,,,,,,,,,,,,,,,30.02,53,73,0,,,,50,30.01,FEW:02 40,29.97,10,61,170,,10,,,,,,,,,,,,,,,,,,,,,,,,,,,,,,,,,,,,,MET10104/19/09 14:56:02 METAR KCHS 191956Z 17009KT 10SM FEW040 23/12 A3002 RMK AO2 SLP164 T02280117 $ (JRS),,,,,,,,,,,,,,,,,,,,,,,,,,,,
72208013880,2009-04-20T16:20:00,FM-16,7,,SE,0.25,mi,"TEMP, PRECIP, SNOW",,,"MMTS, SRG, SNOWBOARD",,,WFO CHS,,,,,,,,,,,,,,,,,,,,,,,,,,,29.8,63,66,0.02,,,,88,,FEW:02 4 BKN:07 28 BKN:07 85,29.75,10,64,160,,7,,,,,,,,,,,,,,,,,,,,,,,,,,,,,,,,,,,,,MET12404/20/09 16:20:02 SPECI KCHS 202120Z 16006KT 10SM FEW004 BKN028 BKN085 19/17 A2980 RMK AO2 TSE09RAE08 TS MOV NE P0002 $ (WD),,,,,,,,,,,,,,,,,,,,,,,,,,,,
72208013880,2009-04-20T17:56:00,FM-15,7,,SE,0.25,mi,"TEMP, PRECIP, SNOW",,,"MMTS, SRG, SNOWBOARD",,,WFO CHS,,,,,,,,,,,,,,,,,,,,,,,,,,,29.79,63,68,0.01,,,,84,29.79,SCT:04 80 BKN:07 90,29.74,10,65,150,,7,,,,,,,,,,,,,,,,,,,,,,,,,,,,,,,,,,,,,MET12304/20/09 17:56:02 METAR KCHS 202256Z 15006KT 10SM SCT080 BKN090 20/17 A2979 RMK AO2 RAE21B37E48 SLP088 P0001 T02000172 (WD),,,,,,,,,,,,,,,,,,,,,,,,,,,,
72208013880,2009-04-23T16:56:00,FM-15,7,,SE,0.25,mi,"TEMP, PRECIP, SNOW",,,"MMTS, SRG, SNOWBOARD",,,WFO CHS,,,,,,,,,,,,,,,,,,,,,,,,,,,30.1,63,80,0,,,,56,30.09,FEW:02 80,30.05,10,69,160,,11,,,,,,,,,,,,,,,,,,,,,,,,,,,,,,,,,,,,,MET09804/23/09 16:56:02 METAR KCHS 232156Z 16010KT 10SM FEW080 27/17 A3010 RMK AO2 SLP191 T02670172 (WD),,,,,,,,,,,,,,,,,,,,,,,,,,,,
72208013880,2009-04-23T17:56:00,FM-15,7,,SE,0.25,mi,"TEMP, PRECIP, SNOW",,,"MMTS, SRG, SNOWBOARD",,,WFO CHS,,,,,,,,,,,,,,,,,,,,,,,,,,,30.11,62,75,0,,,,64,30.11,FEW:02 80,30.06,10,67,160,,10,,,,,,,,,,,,,,,,,,,,,,,,,,,,,,,,,,,,,MET09804/23/09 17:56:02 METAR KCHS 232256Z 16009KT 10SM FEW080 24/17 A3011 RMK AO2 SLP196 T02390167 (WD),,,,,,,,,,,,,,,,,,,,,,,,,,,,
72208013880,2009-04-24T13:56:00,FM-15,7,,SE,0.25,mi,"TEMP, PRECIP, SNOW",,,"MMTS, SRG, SNOWBOARD",,,WFO CHS,,,,,,,,,,,,,,,,,,,,,,,,,,,30.26,63,87,0,,,,45,30.26,FEW:02 60,30.21,10,71,150,,14,,,,,,,,,,,,,,,,,,,,,,,,,,,,,,,,,,,,,MET09904/24/09 13:56:02 METAR KCHS 241856Z 15012KT 10SM FEW060 31/17 A3026 RMK AO2 SLP247 T03060172 (AWS),,,,,,,,,,,,,,,,,,,,,,,,,,,,
72208013880,2009-04-24T15:56:00,FM-15,7,,SE,0.25,mi,"TEMP, PRECIP, SNOW",,,"MMTS, SRG, SNOWBOARD",,,WFO CHS,,,,,,,,,,,,,,,,,,,,,,,,,,,30.25,61,83,0,,0.01,6,48,30.25,,30.2,10,69,150,,16,,,,,,,,,,,,,,,,,,,,,,,,,,,,,,,,,,,,,MET10104/24/09 15:56:02 METAR KCHS 242056Z 15014KT 10SM CLR 28/16 A3025 RMK AO2 SLP243 T02830161 56005 (WD),,,,,,,,,,,,,,,,,,,,,,,,,,,,
72208013880,2009-04-24T16:00:00,FM-12,4,,SE,0.25,mi,"TEMP, PRECIP, SNOW",,,"MMTS, SRG, SNOWBOARD",,,WFO CHS,,,,,,,,,,,,,,,,,,,,,,,,,,,,61,83,,,0.01,6,48,30.25,CLR:00,30.2,9.94,69,150,,16,,,,,,,,,,,,,,,,,,,,,,,,,,,,,,,,,,,,,SYN076AAXX  24214 72208 32966 01514 10283 20161 30228 40243 56005 92056 555 92421;,,,,,,,,,,,,,,,,,,,,,,,,,,,,
72208013880,2009-04-24T16:56:00,FM-15,7,,SE,0.25,mi,"TEMP, PRECIP, SNOW",,,"MMTS, SRG, SNOWBOARD",,,WFO CHS,,,,,,,,,,,,,,,,,,,,,,,,,,,30.26,63,81,0,,,,54,30.26,,30.21,10,69,160,,16,,,,,,,,,,,,,,,,,,,,,,,,,,,,,,,,,,,,,MET09504/24/09 16:56:02 METAR KCHS 242156Z 16014KT 10SM CLR 27/17 A3026 RMK AO2 SLP247 T02720172 (WD),,,,,,,,,,,,,,,,,,,,,,,,,,,,
72208013880,2009-04-24T17:56:00,FM-15,7,,SE,0.25,mi,"TEMP, PRECIP, SNOW",,,"MMTS, SRG, SNOWBOARD",,,WFO CHS,,,,,,,,,,,,,,,,,,,,,,,,,,,30.27,64,78,0,,,,62,30.27,,30.22,10,69,160,,15,,,,,,,,,,,,,,,,,,,,,,,,,,,,,,,,,,,,,MET09504/24/09 17:56:02 METAR KCHS 242256Z 16013KT 10SM CLR 26/18 A3027 RMK AO2 SLP250 T02560178 (WD),,,,,,,,,,,,,,,,,,,,,,,,,,,,
72208013880,2009-04-25T13:56:00,FM-15,7,,SE,0.25,mi,"TEMP, PRECIP, SNOW",,,"MMTS, SRG, SNOWBOARD",,,WFO CHS,,,,,,,,,,,,,,,,,,,,,,,,,,,30.36,62,83,0,,,,49,30.36,FEW:02 45,30.31,10,70,150,,9,,,,,,,,,,,,,,,,,,,,,,,,,,,,,,,,,,,,,MET09904/25/09 13:56:02 METAR KCHS 251856Z 15008KT 10SM FEW045 28/17 A3036 RMK AO2 SLP280 T02830167 (JRS),,,,,,,,,,,,,,,,,,,,,,,,,,,,
72208013880,2009-04-25T14:56:00,FM-15,7,,SE,0.25,mi,"TEMP, PRECIP, SNOW",,,"MMTS, SRG, SNOWBOARD",,,WFO CHS,,,,,,,,,,,,,,,,,,,,,,,,,,,30.34,56,82,0,,,,41,30.34,FEW:02 50,30.29,10,66,170,,9,,,,,,,,,,,,,,,,,,,,,,,,,,,,,,,,,,,,,MET09904/25/09 14:56:02 METAR KCHS 251956Z 17008KT 10SM FEW050 28/13 A3034 RMK AO2 SLP274 T02780133 (JRS),,,,,,,,,,,,,,,,,,,,,,,,,,,,
72208013880,2009-04-25T15:56:00,FM-15,7,,SE,0.25,mi,"TEMP, PRECIP, SNOW",,,"MMTS, SRG, SNOWBOARD",,,WFO CHS,,,,,,,,,,,,,,,,,,,,,,,,,,,30.34,60,81,0,,0.04,6,49,30.34,FEW:02 50,30.29,10,68,170,,10,,,,,,,,,,,,,,,,,,,,,,,,,,,,,,,,,,,,,MET10504/25/09 15:56:02 METAR KCHS 252056Z 17009KT 10SM FEW050 27/16 A3034 RMK AO2 SLP273 T02720156 56012 (WRB),,,,,,,,,,,,,,,,,,,,,,,,,,,,
72208013880,2009-04-25T16:00:00,FM-12,4,,SE,0.25,mi,"TEMP, PRECIP, SNOW",,,"MMTS, SRG, SNOWBOARD",,,WFO CHS,,,,,,,,,,,,,,,,,,,,,,,,,,,,60,81,,,0.04,6,49,30.34,,30.29,9.94,68,170,,10,,,,,,,,,,,,,,,,,,,,,,,,,,,,,,,,,,,,,SYN076AAXX  25214 72208 32766 21709 10272 20156 30258 40273 56012 92056 555 92521;,,,,,,,,,,,,,,,,,,,,,,,,,,,,
72208013880,2009-04-25T16:56:00,FM-15,7,,SE,0.25,mi,"TEMP, PRECIP, SNOW",,,"MMTS, SRG, SNOWBOARD",,,WFO CHS,,,,,,,,,,,,,,,,,,,,,,,,,,,30.34,58,80,0,,,,47,30.33,,30.29,10,66,160,,10,,,,,,,,,,,,,,,,,,,,,,,,,,,,,,,,,,,,,MET09604/25/09 16:56:02 METAR KCHS 252156Z 16009KT 10SM CLR 27/14 A3034 RMK AO2 SLP272 T02670144 (WRB),,,,,,,,,,,,,,,,,,,,,,,,,,,,
72208013880,2009-04-25T17:56:00,FM-15,7,,SE,0.25,mi,"TEMP, PRECIP, SNOW",,,"MMTS, SRG, SNOWBOARD",,,WFO CHS,,,,,,,,,,,,,,,,,,,,,,,,,,,30.34,59,77,0,,,,54,30.34,,30.29,10,66,170,,10,,,,,,,,,,,,,,,,,,,,,,,,,,,,,,,,,,,,,MET09604/25/09 17:56:02 METAR KCHS 252256Z 17009KT 10SM CLR 25/15 A3034 RMK AO2 SLP273 T02500150 (WRB),,,,,,,,,,,,,,,,,,,,,,,,,,,,
72208013880,2009-04-26T10:56:00,FM-15,7,,SE,0.25,mi,"TEMP, PRECIP, SNOW",,,"MMTS, SRG, SNOWBOARD",,,WFO CHS,,,,,,,,,,,,,,,,,,,,,,,,,,,30.42,61,79,0,,,,54,30.42,FEW:02 35,30.37,10,68,150,,8,,,,,,,,,,,,,,,,,,,,,,,,,,,,,,,,,,,,,MET09904/26/09 10:56:02 METAR KCHS 261556Z 15007KT 10SM FEW035 26/16 A3042 RMK AO2 SLP300 T02610161 (JRS),,,,,,,,,,,,,,,,,,,,,,,,,,,,
72208013880,2009-04-26T13:56:00,FM-15,7,,SE,0.25,mi,"TEMP, PRECIP, SNOW",,,"MMTS, SRG, SNOWBOARD",,,WFO CHS,,,,,,,,,,,,,,,,,,,,,,,,,,,30.38,62,80,0,,,,54,30.37,FEW:02 45,30.33,10,69,150,,13,,,,,,,,,,,,,,,,,,,,,,,,,,,,,,,,,,,,,MET09904/26/09 13:56:02 METAR KCHS 261856Z 15011KT 10SM FEW045 27/17 A3038 RMK AO2 SLP286 T02670167 (JRS),,,,,,,,,,,,,,,,,,,,,,,,,,,,
72208013880,2009-04-26T17:56:00,FM-15,7,,SE,0.25,mi,"TEMP, PRECIP, SNOW",,,"MMTS, SRG, SNOWBOARD",,,WFO CHS,,,,,,,,,,,,,,,,,,,,,,,,,,,30.37,61,74,0,,,,64,30.36,,30.32,10,66,150,,11,,,,,,,,,,,,,,,,,,,,,,,,,,,,,,,,,,,,,MET09604/26/09 17:56:02 METAR KCHS 262256Z 15010KT 10SM CLR 23/16 A3037 RMK AO2 SLP282 T02330161 (WRB),,,,,,,,,,,,,,,,,,,,,,,,,,,,
72208013880,2009-04-27T16:56:00,FM-15,7,,SE,0.25,mi,"TEMP, PRECIP, SNOW",,,"MMTS, SRG, SNOWBOARD",,,WFO CHS,,,,,,,,,,,,,,,,,,,,,,,,,,,30.4,57,75,0,,,,54,30.4,FEW:02 50,30.35,10,64,150,,11,,,,,,,,,,,,,,,,,,,,,,,,,,,,,,,,,,,,,MET10004/27/09 16:56:02 METAR KCHS 272156Z 15010KT 10SM FEW050 24/14 A3040 RMK AO2 SLP295 T02390139 $ (WD),,,,,,,,,,,,,,,,,,,,,,,,,,,,
72208013880,2009-04-28T17:56:00,FM-15,7,,SE,0.25,mi,"TEMP, PRECIP, SNOW",,,"MMTS, SRG, SNOWBOARD",,,WFO CHS,,,,,,,,,,,,,,,,,,,,,,,,,,,30.34,59,74,0,,,,60,30.33,,30.29,10,65,150,,9,,,,,,,,,,,,,,,,,,,,,,,,,,,,,,,,,,,,,MET09504/28/09 17:56:02 METAR KCHS 282256Z 15008KT 10SM CLR 23/15 A3034 RMK AO2 SLP272 T02330150 (WD),,,,,,,,,,,,,,,,,,,,,,,,,,,,
72208013880,2009-04-29T15:56:00,FM-15,7,,SE,0.25,mi,"TEMP, PRECIP, SNOW",,,"MMTS, SRG, SNOWBOARD",,,WFO CHS,,,,,,,,,,,,,,,,,,,,,,,,,,,30.24,57,81,0,,0.06,6,44,30.23,FEW:02 50,30.19,10,66,160,,7,,,,,,,,,,,,,,,,,,,,,,,,,,,,,,,,,,,,,MET10404/29/09 15:56:02 METAR KCHS 292056Z 16006KT 10SM FEW050 27/14 A3024 RMK AO2 SLP238 T02720139 56020 (WD),,,,,,,,,,,,,,,,,,,,,,,,,,,,
72208013880,2009-04-29T16:00:00,FM-12,4,,SE,0.25,mi,"TEMP, PRECIP, SNOW",,,"MMTS, SRG, SNOWBOARD",,,WFO CHS,,,,,,,,,,,,,,,,,,,,,,,,,,,,57,81,,,0.06,6,44,30.23,,30.19,9.94,66,160,,7,,,,,,,,,,,,,,,,,,,,,,,,,,,,,,,,,,,,,SYN076AAXX  29214 72208 32766 21606 10272 20139 30224 40238 56020 92056 555 92921;,,,,,,,,,,,,,,,,,,,,,,,,,,,,
72208013880,2009-04-30T11:56:00,FM-15,7,,SE,0.25,mi,"TEMP, PRECIP, SNOW",,,"MMTS, SRG, SNOWBOARD",,,WFO CHS,,,,,,,,,,,,,,,,,,,,,,,,,,,30.3,60,80,0,,,,51,30.3,,30.25,10,68,150,17,8,,,,,,,,,,,,,,,,,,,,,,,,,,,,,,,,,,,,,MET09904/30/09 11:56:02 METAR KCHS 301656Z 15007G15KT 10SM CLR 27/16 A3030 RMK AO2 SLP260 T02670156 (AWS),,,,,,,,,,,,,,,,,,,,,,,,,,,,
72208013880,2009-04-30T12:56:00,FM-15,7,,SE,0.25,mi,"TEMP, PRECIP, SNOW",,,"MMTS, SRG, SNOWBOARD",,,WFO CHS,,,,,,,,,,,,,,,,,,,,,,,,,,,30.29,62,78,0,,0.02,8,58,30.29,BKN:07 70,30.24,10,68,150,,14,,,,,,,,,,,,,,,,,,,,,,,,,,,,,,,,,,,,,MET11704/30/09 12:56:02 METAR KCHS 301756Z 15012KT 10SM BKN070 26/17 A3029 RMK AO2 SLP256 T02560167 10272 20200 58006 (AWS),,,,,,,,,,,,,,,,,,,,,,,,,,,,
72208013880,2009-04-30T13:00:00,FM-12,4,,SE,0.25,mi,"TEMP, PRECIP, SNOW",,,"MMTS, SRG, SNOWBOARD",,,WFO CHS,,,,,,,,,,,,,,,,,,,,,,,,,,,,62,78,,,0.02,8,58,30.29,,30.24,9.94,68,150,,14,,,,,,,,,,,,,,,,,,,,,,,,,,,,,,,,,,,,,SYN092AAXX  30184 72208 32866 61512 10256 20167 30241 40256 58006 91756 333 10272 20200 555 93018;,,,,,,,,,,,,,,,,,,,,,,,,,,,,
72208013880,2009-04-30T13:56:00,FM-15,7,,SE,0.25,mi,"TEMP, PRECIP, SNOW",,,"MMTS, SRG, SNOWBOARD",,,WFO CHS,,,,,,,,,,,,,,,,,,,,,,,,,,,30.27,63,79,0,,,,58,30.27,SCT:04 35,30.22,10,69,150,,10,,,,,,,,,,,,,,,,,,,,,,,,,,,,,,,,,,,,,MET09904/30/09 13:56:02 METAR KCHS 301856Z 15009KT 10SM SCT035 26/17 A3027 RMK AO2 SLP250 T02610172 (AWS),,,,,,,,,,,,,,,,,,,,,,,,,,,,
72208013880,2009-05-03T13:56:00,FM-15,7,,SE,0.25,mi,"TEMP, PRECIP, SNOW",,,"MMTS, SRG, SNOWBOARD",,,WFO CHS,,,,,,,,,,,,,,,,,,,,,,,,,,,29.98,61,85,0,,,,45,29.98,FEW:02 50,29.93,10,70,170,,13,,,,,,,,,,,,,,,,,,,,,,,,,,,,,,,,,,,,,MET09905/03/09 13:56:02 METAR KCHS 031856Z 17011KT 10SM FEW050 29/16 A2998 RMK AO2 SLP152 T02940161 (JRS),,,,,,,,,,,,,,,,,,,,,,,,,,,,
72208013880,2009-05-04T16:56:00,FM-15,7,,SE,0.25,mi,"TEMP, PRECIP, SNOW",,,"MMTS, SRG, SNOWBOARD",,,WFO CHS,,,,,,,,,,,,,,,,,,,,,,,,,,,29.99,68,78,0,,,,71,29.98,FEW:02 40 BKN:07 85,29.94,10,71,170,,14,,,,,,,,,,,,,,,,,,,,,,,,,,,,,,,,,,,,,MET10505/04/09 16:56:02 METAR KCHS 042156Z 17012KT 10SM FEW040 BKN085 26/20 A2999 RMK AO2 SLP154 T02560200 (WD),,,,,,,,,,,,,,,,,,,,,,,,,,,,
72208013880,2009-05-04T17:56:00,FM-15,7,,SE,0.25,mi,"TEMP, PRECIP, SNOW",,,"MMTS, SRG, SNOWBOARD",,,WFO CHS,,,,,,,,,,,,,,,,,,,,,,,,,,,29.99,68,75,0,,,,79,29.99,FEW:02 40 SCT:04 85,29.94,10,70,160,,13,,,,,,,,,,,,,,,,,,,,,,,,,,,,,,,,,,,,,MET10505/04/09 17:56:02 METAR KCHS 042256Z 16011KT 10SM FEW040 SCT085 24/20 A2999 RMK AO2 SLP155 T02390200 (WD),,,,,,,,,,,,,,,,,,,,,,,,,,,,
72208013880,2009-05-06T10:56:00,FM-15,7,,SE,0.25,mi,"TEMP, PRECIP, SNOW",,,"MMTS, SRG, SNOWBOARD",,,WFO CHS,,,,,,,,,,,,,,,,,,,,,,,,,,,30.08,67,82,0,,,,60,30.08,FEW:02 23,30.03,10,72,170,,17,,,,,,,,,,,,,,,,,,,,,,,,,,,,,,,,,,,,,MET09905/06/09 10:56:02 METAR KCHS 061556Z 17015KT 10SM FEW023 28/19 A3008 RMK AO2 SLP186 T02780194 (AWS),,,,,,,,,,,,,,,,,,,,,,,,,,,,
72208013880,2009-05-06T14:56:00,FM-15,7,,SE,0.25,mi,"TEMP, PRECIP, SNOW",,,"MMTS, SRG, SNOWBOARD",,,WFO CHS,,,,,,,,,,,,,,,,,,,,,,,,,,,30.03,65,83,0,,,,55,30.02,FEW:02 50,29.98,10,71,170,,17,,,,,,,,,,,,,,,,,,,,,,,,,,,,,,,,,,,,,MET09905/06/09 14:56:02 METAR KCHS 061956Z 17015KT 10SM FEW050 28/18 A3003 RMK AO2 SLP167 T02830183 (AWS),,,,,,,,,,,,,,,,,,,,,,,,,,,,
72208013880,2009-05-14T15:56:00,FM-15,7,,SE,0.25,mi,"TEMP, PRECIP, SNOW",,,"MMTS, SRG, SNOWBOARD",,,WFO CHS,,,,,,,,,,,,,,,,,,,,,,,,,,,30.14,71,80,0,,0.04,6,74,30.14,FEW:02 15 SCT:04 25 BKN:07 95,30.09,10,74,150,,10,,,,,,,,,,,,,,,,,,,,,,,,,,,,,,,,,,,,,MET12005/14/09 15:56:02 METAR KCHS 142056Z 15009KT 10SM FEW015 SCT025 BKN095 27/22 A3014 RMK AO2 SLP206 T02670217 56013 $ (WD),,,,,,,,,,,,,,,,,,,,,,,,,,,,
72208013880,2009-05-14T16:00:00,FM-12,4,,SE,0.25,mi,"TEMP, PRECIP, SNOW",,,"MMTS, SRG, SNOWBOARD",,,WFO CHS,,,,,,,,,,,,,,,,,,,,,,,,,,,,71,80,,,0.04,6,74,30.14,,30.09,9.94,74,150,,10,,,,,,,,,,,,,,,,,,,,,,,,,,,,,,,,,,,,,SYN076AAXX  14214 72208 32466 61509 10267 20217 30190 40206 56013 92056 555 91421;,,,,,,,,,,,,,,,,,,,,,,,,,,,,
72208013880,2009-05-14T16:56:00,FM-15,7,,SE,0.25,mi,"TEMP, PRECIP, SNOW",,,"MMTS, SRG, SNOWBOARD",,,WFO CHS,,,,,,,,,,,,,,,,,,,,,,,,,,,30.14,69,76,0,,,,79,30.13,FEW:02 25,30.09,10,71,150,,10,,,,,,,,,,,,,,,,,,,,,,,,,,,,,,,,,,,,,MET10005/14/09 16:56:02 METAR KCHS 142156Z 15009KT 10SM FEW025 24/21 A3014 RMK AO2 SLP204 T02440206 $ (WD),,,,,,,,,,,,,,,,,,,,,,,,,,,,
72208013880,2009-05-14T17:56:00,FM-15,7,,SE,0.25,mi,"TEMP, PRECIP, SNOW",,,"MMTS, SRG, SNOWBOARD",,,WFO CHS,,,,,,,,,,,,,,,,,,,,,,,,,,,30.13,69,77,0,,,,77,30.13,FEW:02 20 SCT:04 90,30.08,10,72,150,,11,,,,,,,,,,,,,,,,,,,,,,,,,,,,,,,,,,,,,MET10705/14/09 17:56:02 METAR KCHS 142256Z 15010KT 10SM FEW020 SCT090 25/21 A3013 RMK AO2 SLP203 T02500206 $ (WD),,,,,,,,,,,,,,,,,,,,,,,,,,,,
72208013880,2009-05-16T14:56:00,FM-15,7,,SE,0.25,mi,"TEMP, PRECIP, SNOW",,,"MMTS, SRG, SNOWBOARD",,,WFO CHS,,,,,,,,,,,,,,,,,,,,,,,,,,,30.05,66,84,0,,,,55,30.05,FEW:02 40,30,10,72,170,,11,,,,,,,,,,,,,,,,,,,,,,,,,,,,,,,,,,,,,MET09905/16/09 14:56:02 METAR KCHS 161956Z 17010KT 10SM FEW040 29/19 A3005 RMK AO2 SLP177 T02890189 (JRS),,,,,,,,,,,,,,,,,,,,,,,,,,,,
72208013880,2009-05-17T13:54:00,FM-16,6,,SE,0.25,mi,"TEMP, PRECIP, SNOW",,,"MMTS, SRG, SNOWBOARD",,,WFO CHS,,,,,,,,,,,,,,,,,,,,,,,,,,,29.96,68,72,,TS:7 RA:02 |RA TS |,,,88,,FEW:02 8 SCT:04 22 BKN:07 60,29.91,2,69,160,,15,,,,,,,,,,,,,,,,,,,,,,,,,,,,,,,,,,,,,MET15805/17/09 13:54:02 SPECI KCHS 171854Z 16013KT 2SM TSRA FEW008 SCT022CB BKN060 22/20 A2996 RMK AO2 TSB23RAB36 FRQ LTGCG ALQDS TS ALQDS MOV NE P0006 $ FIBI (JRS),,,,,,,,,,,,,,,,,,,,,,,,,,,,
72208013880,2009-05-17T13:56:00,FM-15,7,,SE,0.25,mi,"TEMP, PRECIP, SNOW",,,"MMTS, SRG, SNOWBOARD",,,WFO CHS,,,,,,,,,,,,,,,,,,,,,,,,,,,29.96,68,72,0.09,TS:7 -RA:02 |RA TS |SHRA TS,,,87,29.95,FEW:02 8 SCT:04 22 BKN:07 60,29.91,4,69,160,,13,,,,,,,,,,,,,,,,,,,,,,,,,,,,,,,,,,,,,MET17105/17/09 13:56:02 METAR KCHS 171856Z 16011KT 4SM -TSRA FEW008 SCT022CB BKN060 22/20 A2996 RMK AO2 TSB23RAB36 SLP143 FRQ LTGCG ALQDS TS ALQDS MOV NE P0006 T02220200 $ (JRS),,,,,,,,,,,,,,,,,,,,,,,,,,,,
72208013880,2009-05-24T11:56:00,FM-15,7,,SE,0.25,mi,"TEMP, PRECIP, SNOW",,,"MMTS, SRG, SNOWBOARD",,,WFO CHS,,,,,,,,,,,,,,,,,,,,,,,,,,,30.06,69,77,0,,,,77,30.06,FEW:02 12 BKN:07 20 OVC:08 50,30.01,10,72,150,,14,,,,,,,,,,,,,,,,,,,,,,,,,,,,,,,,,,,,,MET13705/24/09 11:56:02 METAR KCHS 241656Z 15012KT 10SM FEW012 BKN020CB OVC050 25/21 A3006 RMK AO2 SLP178 CB W-NW MOV N TCU S T02500206 $ (JRS),,,,,,,,,,,,,,,,,,,,,,,,,,,,
72208013880,2009-05-24T12:56:00,FM-15,7,,SE,0.25,mi,"TEMP, PRECIP, SNOW",,,"MMTS, SRG, SNOWBOARD",,,WFO CHS,,,,,,,,,,,,,,,,,,,,,,,,,,,30.05,71,77,0.12,,0.01,6,82,30.05,FEW:02 15 SCT:04 24 BKN:07 65,30,10,73,150,,10,,,,,,,,,,,,,,,,,,,,,,,,,,,,,,,,,,,,,MET17505/24/09 12:56:02 METAR KCHS 241756Z 15009KT 10SM FEW015 SCT024 BKN065 25/22 A3005 RMK AO2 WSHFT 1712 RAB00E38 SLP176 CB DSNT N P0012 60030 T02500217 10256 20206 56005 $ (JRS),,,,,,,,,,,,,,,,,,,,,,,,,,,,
72208013880,2009-05-24T13:00:00,FM-12,4,,SE,0.25,mi,"TEMP, PRECIP, SNOW",,,"MMTS, SRG, SNOWBOARD",,,WFO CHS,,,,,,,,,,,,,,,,,,,,,,,,,,,,71,77,,,0.01,6,82,30.05,,30,9.94,73,150,,10,,,,,,,,,,,,,,,,,,,,,,,,,,,,,,,,,,,,,SYN098AAXX  24184 72208 12466 61509 10250 20217 30160 40176 56005 60081 91756 333 10256 20206 555 92418;,,,,,,,,,,,,,,,,,,,,,,,,,,,,
72208013880,2009-05-25T11:13:00,FM-16,7,,SE,0.25,mi,"TEMP, PRECIP, SNOW",,,"MMTS, SRG, SNOWBOARD",,,WFO CHS,,,,,,,,,,,,,,,,,,,,,,,,,,,29.99,70,79,,,,,74,,BKN:07 26 BKN:07 37 BKN:07 55,29.94,10,73,160,,7,,,,,,,,,,,,,,,,,,,,,,,,,,,,,,,,,,,,,MET09805/25/09 11:13:02 SPECI KCHS 251613Z 16006KT 10SM BKN026 BKN037 BKN055 26/21 A2999 RMK AO2 $ (AWS),,,,,,,,,,,,,,,,,,,,,,,,,,,,
72208013880,2009-05-25T16:56:00,FM-15,7,,SE,0.25,mi,"TEMP, PRECIP, SNOW",,,"MMTS, SRG, SNOWBOARD",,,WFO CHS,,,,,,,,,,,,,,,,,,,,,,,,,,,29.92,68,79,0,,,,69,29.92,BKN:07 22,29.87,10,72,150,,10,,,,,,,,,,,,,,,,,,,,,,,,,,,,,,,,,,,,,MET10005/25/09 16:56:02 METAR KCHS 252156Z 15009KT 10SM BKN022 26/20 A2992 RMK AO2 SLP131 T02610200 $ (WD),,,,,,,,,,,,,,,,,,,,,,,,,,,,
72208013880,2009-05-26T10:56:00,FM-15,7,,SE,0.25,mi,"TEMP, PRECIP, SNOW",,,"MMTS, SRG, SNOWBOARD",,,WFO CHS,,,,,,,,,,,,,,,,,,,,,,,,,,,29.97,69,80,T,,,,69,29.96,SCT:04 29 BKN:07 41 BKN:07 60,29.92,10,73,150,,9,,,,,,,,,,,,,,,,,,,,,,,,,,,,,,,,,,,,,MET13705/26/09 10:56:02 METAR KCHS 261556Z 15008KT 10SM SCT029 BKN041 BKN060 27/21 A2997 RMK AO2 RAE14 SLP147 CB DSNT W-N P0000 T02670206 (AWS),,,,,,,,,,,,,,,,,,,,,,,,,,,,
72208013880,2009-05-26T14:56:00,FM-15,7,,SE,0.25,mi,"TEMP, PRECIP, SNOW",,,"MMTS, SRG, SNOWBOARD",,,WFO CHS,,,,,,,,,,,,,,,,,,,,,,,,,,,29.93,67,82,0,,,,60,29.92,SCT:04 29 BKN:07 37 BKN:07 45,29.88,10,72,150,,16,,,,,,,,,,,,,,,,,,,,,,,,,,,,,,,,,,,,,MET12305/26/09 14:56:02 METAR KCHS 261956Z 15014KT 10SM SCT029 BKN037 BKN045 28/19 A2993 RMK AO2 SLP133 CB DSNT NW T02780194 (WD),,,,,,,,,,,,,,,,,,,,,,,,,,,,
72208013880,2009-05-26T15:56:00,FM-15,7,,SE,0.25,mi,"TEMP, PRECIP, SNOW",,,"MMTS, SRG, SNOWBOARD",,,WFO CHS,,,,,,,,,,,,,,,,,,,,,,,,,,,29.92,66,79,0,,0.02,6,65,29.91,SCT:04 28,29.87,10,71,150,,15,,,,,,,,,,,,,,,,,,,,,,,,,,,,,,,,,,,,,MET10405/26/09 15:56:02 METAR KCHS 262056Z 15013KT 10SM SCT028 26/19 A2992 RMK AO2 SLP130 T02610189 56008 (WD),,,,,,,,,,,,,,,,,,,,,,,,,,,,
72208013880,2009-05-26T16:00:00,FM-12,4,,SE,0.25,mi,"TEMP, PRECIP, SNOW",,,"MMTS, SRG, SNOWBOARD",,,WFO CHS,,,,,,,,,,,,,,,,,,,,,,,,,,,,66,79,,,0.02,6,65,29.91,,29.87,9.94,71,150,,15,,,,,,,,,,,,,,,,,,,,,,,,,,,,,,,,,,,,,SYN076AAXX  26214 72208 32566 41513 10261 20189 30116 40130 56008 92056 555 92621;,,,,,,,,,,,,,,,,,,,,,,,,,,,,
72208013880,2009-05-29T15:21:00,FM-16,7,,SE,0.25,mi,"TEMP, PRECIP, SNOW",,,"MMTS, SRG, SNOWBOARD",,,WFO CHS,,,,,,,,,,,,,,,,,,,,,,,,,,,29.77,75,84,T,TS:7 |TS |TS,,,74,,FEW:02 28 SCT:04 42 BKN:07 65,29.72,10,78,160,,15,,,,,,,,,,,,,,,,,,,,,,,,,,,,,,,,,,,,,MET14905/29/09 15:21:02 SPECI KCHS 292021Z 16013KT 10SM TS FEW028 SCT042CB BKN065 29/24 A2977 RMK AO2 TSB16RAE1958 OCNL LTGIC OHD TS OHD MOV NE P0000 (AWS),,,,,,,,,,,,,,,,,,,,,,,,,,,,
72208013880,2009-05-29T16:44:00,FM-16,7,,SE,0.25,mi,"TEMP, PRECIP, SNOW",,,"MMTS, SRG, SNOWBOARD",,,WFO CHS,,,,,,,,,,,,,,,,,,,,,,,,,,,29.8,73,77,0.27,TS:7 +RA:02 BR:1 |RA TS |SHRA TS,,,89,,SCT:04 15 BKN:07 19 BKN:07 40,29.75,1,74,150,26,15,,,,,,,,,,,,,,,,,,,,,,,,,,,,,,,,,,,,,MET14205/29/09 16:44:02 SPECI KCHS 292144Z 15013G23KT 1SM +TSRA BR SCT015 BKN019CB BKN040 25/23 A2980 RMK AO2 TSB44 OCNL LTGICCG W TS W MOV NE P0027,,,,,,,,,,,,,,,,,,,,,,,,,,,,
72208013880,2009-06-01T14:56:00,FM-15,7,,SE,0.25,mi,"TEMP, PRECIP, SNOW",,,"MMTS, SRG, SNOWBOARD",,,WFO CHS,,,,,,,,,,,,,,,,,,,,,,,,,,,30.01,64,92,0,,,,40,30.01,SCT:04 70 SCT:04 90,29.96,10,73,170,,10,,,,,,,,,,,,,,,,,,,,,,,,,,,,,,,,,,,,,MET10606/01/09 14:56:02 METAR KCHS 011956Z 17009KT 10SM SCT070 SCT090 33/18 A3001 RMK AO2 SLP161 T03330178 (AWS),,,,,,,,,,,,,,,,,,,,,,,,,,,,
72208013880,2009-06-01T16:56:00,FM-15,7,,SE,0.25,mi,"TEMP, PRECIP, SNOW",,,"MMTS, SRG, SNOWBOARD",,,WFO CHS,,,,,,,,,,,,,,,,,,,,,,,,,,,30.02,70,86,0,,,,59,30.02,,29.97,10,75,160,,13,,,,,,,,,,,,,,,,,,,,,,,,,,,,,,,,,,,,,MET09506/01/09 16:56:02 METAR KCHS 012156Z 16011KT 10SM CLR 30/21 A3002 RMK AO2 SLP166 T03000211 (WD),,,,,,,,,,,,,,,,,,,,,,,,,,,,
72208013880,2009-06-01T17:56:00,FM-15,7,,SE,0.25,mi,"TEMP, PRECIP, SNOW",,,"MMTS, SRG, SNOWBOARD",,,WFO CHS,,,,,,,,,,,,,,,,,,,,,,,,,,,30.04,68,83,0,,,,61,30.04,,29.99,10,73,170,,9,,,,,,,,,,,,,,,,,,,,,,,,,,,,,,,,,,,,,MET09506/01/09 17:56:02 METAR KCHS 012256Z 17008KT 10SM CLR 28/20 A3004 RMK AO2 SLP172 T02830200 (WD),,,,,,,,,,,,,,,,,,,,,,,,,,,,
72208013880,2009-06-02T11:56:00,FM-15,7,,SE,0.25,mi,"TEMP, PRECIP, SNOW",,,"MMTS, SRG, SNOWBOARD",,,WFO CHS,,,,,,,,,,,,,,,,,,,,,,,,,,,30.11,71,86,0,,,,61,30.1,FEW:02 41,30.06,10,76,160,,8,,,,,,,,,,,,,,,,,,,,,,,,,,,,,,,,,,,,,MET09906/02/09 11:56:02 METAR KCHS 021656Z 16007KT 10SM FEW041 30/22 A3011 RMK AO2 SLP194 T03000217 (AWS),,,,,,,,,,,,,,,,,,,,,,,,,,,,
72208013880,2009-06-02T12:56:00,FM-15,7,,SE,0.25,mi,"TEMP, PRECIP, SNOW",,,"MMTS, SRG, SNOWBOARD",,,WFO CHS,,,,,,,,,,,,,,,,,,,,,,,,,,,30.09,68,86,0,,0.04,8,55,30.09,FEW:02 36,30.04,10,74,150,,9,,,,,,,,,,,,,,,,,,,,,,,,,,,,,,,,,,,,,MET11706/02/09 12:56:02 METAR KCHS 021756Z 15008KT 10SM FEW036 30/20 A3009 RMK AO2 SLP189 T03000200 10306 20239 58012 (AWS),,,,,,,,,,,,,,,,,,,,,,,,,,,,
72208013880,2009-06-02T13:00:00,FM-12,4,,SE,0.25,mi,"TEMP, PRECIP, SNOW",,,"MMTS, SRG, SNOWBOARD",,,WFO CHS,,,,,,,,,,,,,,,,,,,,,,,,,,,,68,86,,,0.04,8,55,30.09,,30.04,9.94,74,150,,9,,,,,,,,,,,,,,,,,,,,,,,,,,,,,,,,,,,,,SYN092AAXX  02184 72208 32666 21508 10300 20200 30173 40189 58012 91756 333 10306 20239 555 90218;,,,,,,,,,,,,,,,,,,,,,,,,,,,,
72208013880,2009-06-02T14:56:00,FM-15,7,,SE,0.25,mi,"TEMP, PRECIP, SNOW",,,"MMTS, SRG, SNOWBOARD",,,WFO CHS,,,,,,,,,,,,,,,,,,,,,,,,,,,30.08,60,87,0,,,,40,30.08,FEW:02 36,30.03,10,70,170,,9,,,,,,,,,,,,,,,,,,,,,,,,,,,,,,,,,,,,,MET09906/02/09 14:56:02 METAR KCHS 021956Z 17008KT 10SM FEW036 31/16 A3008 RMK AO2 SLP186 T03060156 (AWS),,,,,,,,,,,,,,,,,,,,,,,,,,,,
72208013880,2009-06-02T15:56:00,FM-15,7,,SE,0.25,mi,"TEMP, PRECIP, SNOW",,,"MMTS, SRG, SNOWBOARD",,,WFO CHS,,,,,,,,,,,,,,,,,,,,,,,,,,,30.07,64,86,0,,0.02,8,48,30.07,,30.02,10,72,150,,13,,,,,,,,,,,,,,,,,,,,,,,,,,,,,,,,,,,,,MET10106/02/09 15:56:02 METAR KCHS 022056Z 15011KT 10SM CLR 30/18 A3007 RMK AO2 SLP182 T03000178 58007 (WD),,,,,,,,,,,,,,,,,,,,,,,,,,,,
72208013880,2009-06-02T16:00:00,FM-12,4,,SE,0.25,mi,"TEMP, PRECIP, SNOW",,,"MMTS, SRG, SNOWBOARD",,,WFO CHS,,,,,,,,,,,,,,,,,,,,,,,,,,,,64,86,,,0.02,8,48,30.07,CLR:00,30.02,9.94,72,150,,13,,,,,,,,,,,,,,,,,,,,,,,,,,,,,,,,,,,,,SYN076AAXX  02214 72208 32966 01511 10300 20178 30167 40182 58007 92056 555 90221;,,,,,,,,,,,,,,,,,,,,,,,,,,,,
72208013880,2009-06-02T16:56:00,FM-15,7,,SE,0.25,mi,"TEMP, PRECIP, SNOW",,,"MMTS, SRG, SNOWBOARD",,,WFO CHS,,,,,,,,,,,,,,,,,,,,,,,,,,,30.07,65,83,0,,,,55,30.06,,30.02,10,71,160,,11,,,,,,,,,,,,,,,,,,,,,,,,,,,,,,,,,,,,,MET09506/02/09 16:56:02 METAR KCHS 022156Z 16010KT 10SM CLR 28/18 A3007 RMK AO2 SLP180 T02830183 (WD),,,,,,,,,,,,,,,,,,,,,,,,,,,,
72208013880,2009-06-02T17:56:00,FM-15,7,,SE,0.25,mi,"TEMP, PRECIP, SNOW",,,"MMTS, SRG, SNOWBOARD",,,WFO CHS,,,,,,,,,,,,,,,,,,,,,,,,,,,30.07,65,81,0,,,,58,30.06,,30.02,10,71,170,,10,,,,,,,,,,,,,,,,,,,,,,,,,,,,,,,,,,,,,MET09506/02/09 17:56:02 METAR KCHS 022256Z 17009KT 10SM CLR 27/18 A3007 RMK AO2 SLP180 T02720183 (WD),,,,,,,,,,,,,,,,,,,,,,,,,,,,
72208013880,2009-06-03T10:56:00,FM-15,7,,SE,0.25,mi,"TEMP, PRECIP, SNOW",,,"MMTS, SRG, SNOWBOARD",,,WFO CHS,,,,,,,,,,,,,,,,,,,,,,,,,,,30.08,66,86,0,,,,51,30.07,FEW:02 43,30.03,10,73,150,,8,,,,,,,,,,,,,,,,,,,,,,,,,,,,,,,,,,,,,MET09906/03/09 10:56:02 METAR KCHS 031556Z 15007KT 10SM FEW043 30/19 A3008 RMK AO2 SLP184 T03000189 (AWS),,,,,,,,,,,,,,,,,,,,,,,,,,,,
72208013880,2009-06-03T12:56:00,FM-15,7,,SE,0.25,mi,"TEMP, PRECIP, SNOW",,,"MMTS, SRG, SNOWBOARD",,,WFO CHS,,,,,,,,,,,,,,,,,,,,,,,,,,,30.04,69,85,0,,0.04,8,59,30.04,FEW:02 38,29.99,10,74,160,,11,,,,,,,,,,,,,,,,,,,,,,,,,,,,,,,,,,,,,MET11706/03/09 12:56:02 METAR KCHS 031756Z 16010KT 10SM FEW038 29/21 A3004 RMK AO2 SLP173 T02940206 10300 20239 58012 (AWS),,,,,,,,,,,,,,,,,,,,,,,,,,,,
72208013880,2009-06-03T13:00:00,FM-12,4,,SE,0.25,mi,"TEMP, PRECIP, SNOW",,,"MMTS, SRG, SNOWBOARD",,,WFO CHS,,,,,,,,,,,,,,,,,,,,,,,,,,,,69,85,,,0.04,8,59,30.04,,29.99,9.94,74,160,,11,,,,,,,,,,,,,,,,,,,,,,,,,,,,,,,,,,,,,SYN092AAXX  03184 72208 32666 21610 10294 20206 30157 40173 58012 91756 333 10300 20239 555 90318;,,,,,,,,,,,,,,,,,,,,,,,,,,,,
72208013880,2009-06-03T16:56:00,FM-15,7,,SE,0.25,mi,"TEMP, PRECIP, SNOW",,,"MMTS, SRG, SNOWBOARD",,,WFO CHS,,,,,,,,,,,,,,,,,,,,,,,,,,,29.97,69,83,0,,,,63,29.96,FEW:02 40,29.92,10,74,160,,11,,,,,,,,,,,,,,,,,,,,,,,,,,,,,,,,,,,,,MET09806/03/09 16:56:02 METAR KCHS 032156Z 16010KT 10SM FEW040 28/21 A2997 RMK AO2 SLP147 T02830206 (WD),,,,,,,,,,,,,,,,,,,,,,,,,,,,
72208013880,2009-06-03T17:56:00,FM-15,7,,SE,0.25,mi,"TEMP, PRECIP, SNOW",,,"MMTS, SRG, SNOWBOARD",,,WFO CHS,,,,,,,,,,,,,,,,,,,,,,,,,,,29.96,69,81,0,,,,67,29.96,FEW:02 30,29.91,10,73,150,,10,,,,,,,,,,,,,,,,,,,,,,,,,,,,,,,,,,,,,MET09806/03/09 17:56:02 METAR KCHS 032256Z 15009KT 10SM FEW030 27/21 A2996 RMK AO2 SLP145 T02720206 (WD),,,,,,,,,,,,,,,,,,,,,,,,,,,,
72208013880,2009-06-04T12:44:00,FM-16,7,,SE,0.25,mi,"TEMP, PRECIP, SNOW",,,"MMTS, SRG, SNOWBOARD",,,WFO CHS,,,,,,,,,,,,,,,,,,,,,,,,,,,29.95,70,73,0.04,-RA:02 |RA |RA,,,89,,BKN:07 85,29.9,10,71,150,,9,,,,,,,,,,,,,,,,,,,,,,,,,,,,,,,,,,,,,MET10706/04/09 12:44:02 SPECI KCHS 041744Z 15008KT 10SM -RA BKN085 23/21 A2995 RMK AO2 TSE20 TS DSPTD P0004 (AWS),,,,,,,,,,,,,,,,,,,,,,,,,,,,
72208013880,2009-06-04T12:56:00,FM-15,7,,SE,0.25,mi,"TEMP, PRECIP, SNOW",,,"MMTS, SRG, SNOWBOARD",,,WFO CHS,,,,,,,,,,,,,,,,,,,,,,,,,,,29.95,71,73,0.03,,0,8,94,29.94,FEW:02 22 BKN:07 80,29.9,10,72,160,,9,,,,,,,,,,,,,,,,,,,,,,,,,,,,,,,,,,,,,MET15606/04/09 12:56:02 METAR KCHS 041756Z 16008KT 10SM FEW022 BKN080 23/22 A2995 RMK AO2 TSE20RAE53 SLP140 TS DSPTD P0004 60033 T02280217 10261 20211 58001 (AWS),,,,,,,,,,,,,,,,,,,,,,,,,,,,
72208013880,2009-06-04T13:00:00,FM-12,4,,SE,0.25,mi,"TEMP, PRECIP, SNOW",,,"MMTS, SRG, SNOWBOARD",,,WFO CHS,,,,,,,,,,,,,,,,,,,,,,,,,,,,71,73,,,0,8,94,29.94,,29.9,9.94,72,160,,9,,,,,,,,,,,,,,,,,,,,,,,,,,,,,,,,,,,,,SYN098AAXX  04184 72208 12566 61608 10228 20217 30126 40140 58001 60081 91756 333 10261 20211 555 90418;,,,,,,,,,,,,,,,,,,,,,,,,,,,,
72208013880,2009-06-04T13:56:00,FM-15,7,,SE,0.25,mi,"TEMP, PRECIP, SNOW",,,"MMTS, SRG, SNOWBOARD",,,WFO CHS,,,,,,,,,,,,,,,,,,,,,,,,,,,29.91,68,76,T,,,,77,29.91,,29.86,10,71,150,,13,,,,,,,,,,,,,,,,,,,,,,,,,,,,,,,,,,,,,MET11106/04/09 13:56:02 METAR KCHS 041856Z 15011KT 10SM CLR 24/20 A2991 RMK AO2 RAB26E37 SLP129 P0000 T02440200 (AWS),,,,,,,,,,,,,,,,,,,,,,,,,,,,
72208013880,2009-06-04T14:56:00,FM-15,7,,SE,0.25,mi,"TEMP, PRECIP, SNOW",,,"MMTS, SRG, SNOWBOARD",,,WFO CHS,,,,,,,,,,,,,,,,,,,,,,,,,,,29.87,67,78,0,,,,69,29.87,FEW:02 24,29.82,10,71,170,23,14,,,,,,,,,,,,,,,,,,,,,,,,,,,,,,,,,,,,,MET10106/04/09 14:56:02 METAR KCHS 041956Z 17012G20KT 10SM FEW024 26/19 A2987 RMK AO2 SLP115 T02560194 (WD),,,,,,,,,,,,,,,,,,,,,,,,,,,,
72208013880,2009-06-04T15:56:00,FM-15,7,,SE,0.25,mi,"TEMP, PRECIP, SNOW",,,"MMTS, SRG, SNOWBOARD",,,WFO CHS,,,,,,,,,,,,,,,,,,,,,,,,,,,29.87,68,78,0,,0.08,6,71,29.86,FEW:02 21,29.82,10,71,160,,14,,,,,,,,,,,,,,,,,,,,,,,,,,,,,,,,,,,,,MET11006/04/09 15:56:02 METAR KCHS 042056Z 16012KT 10SM FEW021 26/20 A2987 RMK AO2 SLP113 60000 T02560200 56027 (WD),,,,,,,,,,,,,,,,,,,,,,,,,,,,
72208013880,2009-06-04T16:00:00,FM-12,4,,SE,0.25,mi,"TEMP, PRECIP, SNOW",,,"MMTS, SRG, SNOWBOARD",,,WFO CHS,,,,,,,,,,,,,,,,,,,,,,,,,,,,68,78,,,0.08,6,71,29.86,,29.82,9.94,71,160,,14,,,,,,,,,,,,,,,,,,,,,,,,,,,,,,,,,,,,,SYN082AAXX  04214 72208 12566 21612 10256 20200 30099 40113 56027 69907 92056 555 90421;,,,,,,,,,,,,,,,,,,,,,,,,,,,,
72208013880,2009-06-04T16:56:00,FM-15,7,,SE,0.25,mi,"TEMP, PRECIP, SNOW",,,"MMTS, SRG, SNOWBOARD",,,WFO CHS,,,,,,,,,,,,,,,,,,,,,,,,,,,29.86,68,77,0,,,,74,29.86,FEW:02 25,29.81,10,71,170,,14,,,,,,,,,,,,,,,,,,,,,,,,,,,,,,,,,,,,,MET10006/04/09 16:56:02 METAR KCHS 042156Z 17012KT 10SM FEW025 25/20 A2986 RMK AO2 SLP112 T02500200 $ (WD),,,,,,,,,,,,,,,,,,,,,,,,,,,,
72208013880,2009-06-04T17:56:00,FM-15,7,,SE,0.25,mi,"TEMP, PRECIP, SNOW",,,"MMTS, SRG, SNOWBOARD",,,WFO CHS,,,,,,,,,,,,,,,,,,,,,,,,,,,29.86,69,76,0,,,,79,29.86,FEW:02 44,29.81,10,71,170,,16,,,,,,,,,,,,,,,,,,,,,,,,,,,,,,,,,,,,,MET10006/04/09 17:56:02 METAR KCHS 042256Z 17014KT 10SM FEW044 24/21 A2986 RMK AO2 SLP111 T02440206 $ (WD),,,,,,,,,,,,,,,,,,,,,,,,,,,,
72208013880,2009-06-05T13:56:00,FM-15,7,,SE,0.25,mi,"TEMP, PRECIP, SNOW",,,"MMTS, SRG, SNOWBOARD",,,WFO CHS,,,,,,,,,,,,,,,,,,,,,,,,,,,29.75,74,81,T,-RA:02 |RA |RA,,,79,29.75,SCT:04 23 BKN:07 31 BKN:07 42,29.7,9,76,170,,17,,,,,,,,,,,,,,,,,,,,,,,,,,,,,,,,,,,,,MET14006/05/09 13:56:02 METAR KCHS 051856Z 17015KT 9SM -RA SCT023 BKN031 BKN042 27/23 A2975 RMK AO2 RAB46 SLP074 CB DSNT W-N P0000 T02720233 (BBE),,,,,,,,,,,,,,,,,,,,,,,,,,,,
72208013880,2009-06-07T13:56:00,FM-15,7,,SE,0.25,mi,"TEMP, PRECIP, SNOW",,,"MMTS, SRG, SNOWBOARD",,,WFO CHS,,,,,,,,,,,,,,,,,,,,,,,,,,,29.97,68,83,0,,,,61,29.96,FEW:02 20 SCT:04 27,29.92,10,73,160,,11,,,,,,,,,,,,,,,,,,,,,,,,,,,,,,,,,,,,,MET10806/07/09 13:56:02 METAR KCHS 071856Z 16010KT 10SM FEW020 SCT027 28/20 A2997 RMK AO2 SLP147 T02830200 $ (JRS),,,,,,,,,,,,,,,,,,,,,,,,,,,,
72208013880,2009-06-07T17:56:00,FM-15,7,,SE,0.25,mi,"TEMP, PRECIP, SNOW",,,"MMTS, SRG, SNOWBOARD",,,WFO CHS,,,,,,,,,,,,,,,,,,,,,,,,,,,29.97,69,79,0,,,,72,29.96,SCT:04 34 SCT:04 70,29.92,10,72,160,,10,,,,,,,,,,,,,,,,,,,,,,,,,,,,,,,,,,,,,MET11806/07/09 17:56:02 METAR KCHS 072256Z 16009KT 10SM SCT034 SCT070 26/21 A2997 RMK AO2 SLP146 CB DSNT W T02610206 $ (WRB),,,,,,,,,,,,,,,,,,,,,,,,,,,,
72208013880,2009-06-09T13:56:00,FM-15,7,,SE,0.25,mi,"TEMP, PRECIP, SNOW",,,"MMTS, SRG, SNOWBOARD",,,WFO CHS,,,,,,,,,,,,,,,,,,,,,,,,,,,29.93,75,87,0,,,,67,29.93,FEW:02 20,29.88,9,78,160,17,11,,,,,,,,,,,,,,,,,,,,,,,,,,,,,,,,,,,,,MET10106/09/09 13:56:02 METAR KCHS 091856Z 16010G15KT 9SM FEW020 31/24 A2993 RMK AO2 SLP134 T03060239 (AWS),,,,,,,,,,,,,,,,,,,,,,,,,,,,
72208013880,2009-06-09T14:56:00,FM-15,7,,SE,0.25,mi,"TEMP, PRECIP, SNOW",,,"MMTS, SRG, SNOWBOARD",,,WFO CHS,,,,,,,,,,,,,,,,,,,,,,,,,,,29.91,74,86,0,,,,67,29.91,FEW:02 20,29.86,10,78,160,,10,,,,,,,,,,,,,,,,,,,,,,,,,,,,,,,,,,,,,MET09806/09/09 14:56:02 METAR KCHS 091956Z 16009KT 10SM FEW020 30/23 A2991 RMK AO2 SLP127 T03000233 (WD),,,,,,,,,,,,,,,,,,,,,,,,,,,,
72208013880,2009-06-09T15:56:00,FM-15,7,,SE,0.25,mi,"TEMP, PRECIP, SNOW",,,"MMTS, SRG, SNOWBOARD",,,WFO CHS,,,,,,,,,,,,,,,,,,,,,,,,,,,29.89,72,86,0,,0.06,6,63,29.89,FEW:02 25,29.84,10,76,170,,7,,,,,,,,,,,,,,,,,,,,,,,,,,,,,,,,,,,,,MET10606/09/09 15:56:02 METAR KCHS 092056Z 17006KT 10SM FEW025 30/22 A2989 RMK AO2 SLP121 T03000222 56019 $ (WD),,,,,,,,,,,,,,,,,,,,,,,,,,,,
72208013880,2009-06-09T16:00:00,FM-12,4,,SE,0.25,mi,"TEMP, PRECIP, SNOW",,,"MMTS, SRG, SNOWBOARD",,,WFO CHS,,,,,,,,,,,,,,,,,,,,,,,,,,,,72,86,,,0.06,6,63,29.89,,29.84,9.94,76,170,,7,,,,,,,,,,,,,,,,,,,,,,,,,,,,,,,,,,,,,SYN076AAXX  09214 72208 32566 21706 10300 20222 30106 40121 56019 92056 555 90921;,,,,,,,,,,,,,,,,,,,,,,,,,,,,
72208013880,2009-06-10T14:56:00,FM-15,7,,SE,0.25,mi,"TEMP, PRECIP, SNOW",,,"MMTS, SRG, SNOWBOARD",,,WFO CHS,,,,,,,,,,,,,,,,,,,,,,,,,,,29.89,72,85,0,,,,65,29.89,,29.84,10,76,160,,11,,,,,,,,,,,,,,,,,,,,,,,,,,,,,,,,,,,,,MET09806/10/09 14:56:02 METAR KCHS 101956Z 16010KT 10SM CLR 29/22 A2989 RMK AO2 SLP121 T02940222 $ (AWS),,,,,,,,,,,,,,,,,,,,,,,,,,,,
72208013880,2009-06-10T15:56:00,FM-15,7,,SE,0.25,mi,"TEMP, PRECIP, SNOW",,,"MMTS, SRG, SNOWBOARD",,,WFO CHS,,,,,,,,,,,,,,,,,,,,,,,,,,,29.89,70,84,0,,0.01,6,63,29.89,,29.84,10,74,150,,10,,,,,,,,,,,,,,,,,,,,,,,,,,,,,,,,,,,,,MET10306/10/09 15:56:02 METAR KCHS 102056Z 15009KT 10SM CLR 29/21 A2989 RMK AO2 SLP121 T02890211 56002 $ (WD),,,,,,,,,,,,,,,,,,,,,,,,,,,,
72208013880,2009-06-10T16:00:00,FM-12,4,,SE,0.25,mi,"TEMP, PRECIP, SNOW",,,"MMTS, SRG, SNOWBOARD",,,WFO CHS,,,,,,,,,,,,,,,,,,,,,,,,,,,,70,84,,,0.01,6,63,29.89,CLR:00,29.84,9.94,74,150,,10,,,,,,,,,,,,,,,,,,,,,,,,,,,,,,,,,,,,,SYN076AAXX  10214 72208 32966 01509 10289 20211 30106 40121 56002 92056 555 91021;,,,,,,,,,,,,,,,,,,,,,,,,,,,,
72208013880,2009-06-10T16:39:00,FM-16,7,,SE,0.25,mi,"TEMP, PRECIP, SNOW",,,"MMTS, SRG, SNOWBOARD",,,WFO CHS,,,,,,,,,,,,,,,,,,,,,,,,,,,29.89,72,84,,,,,66,,,29.84,10,76,150,,10,,,,,,,,,,,,,,,,,,,,,,,,,,,,,,,,,,,,,MET08006/10/09 16:39:02 SPECI KCHS 102139Z 15009KT 10SM CLR 29/22 A2989 RMK AO2 $ (WD),,,,,,,,,,,,,,,,,,,,,,,,,,,,
72208013880,2009-06-10T16:53:00,FM-16,7,,SE,0.25,mi,"TEMP, PRECIP, SNOW",,,"MMTS, SRG, SNOWBOARD",,,WFO CHS,,,,,,,,,,,,,,,,,,,,,,,,,,,29.88,72,84,,,,,66,,,29.83,10,76,150,,9,,,,,,,,,,,,,,,,,,,,,,,,,,,,,,,,,,,,,MET08006/10/09 16:53:02 SPECI KCHS 102153Z 15008KT 10SM CLR 29/22 A2988 RMK AO2 $ (WD),,,,,,,,,,,,,,,,,,,,,,,,,,,,
72208013880,2009-06-10T16:56:00,FM-15,7,,SE,0.25,mi,"TEMP, PRECIP, SNOW",,,"MMTS, SRG, SNOWBOARD",,,WFO CHS,,,,,,,,,,,,,,,,,,,,,,,,,,,29.89,71,83,0,,,,67,29.88,,29.84,10,75,150,,9,,,,,,,,,,,,,,,,,,,,,,,,,,,,,,,,,,,,,MET09206/10/09 16:56:02 METAR KCHS 102156Z 15008KT 10SM CLR 28/22 A2989 RMK AO2 SLP120 T02830217 $,,,,,,,,,,,,,,,,,,,,,,,,,,,,
72208013880,2009-06-13T16:56:00,FM-15,7,,SE,0.25,mi,"TEMP, PRECIP, SNOW",,,"MMTS, SRG, SNOWBOARD",,,WFO CHS,,,,,,,,,,,,,,,,,,,,,,,,,,,29.85,69,84,0,,,,61,29.85,FEW:02 44 SCT:04 80 BKN:07 110,29.8,10,74,150,,7,,,,,,,,,,,,,,,,,,,,,,,,,,,,,,,,,,,,,MET14206/13/09 16:56:02 METAR KCHS 132156Z 15006KT 10SM FEW044 SCT080 BKN110 29/21 A2985 RMK AO2 TSE43 SLP108 TS MOV E CB DSNT N-E T02890206 $ (WRB),,,,,,,,,,,,,,,,,,,,,,,,,,,,
72208013880,2009-06-15T12:56:00,FM-15,7,,SE,0.25,mi,"TEMP, PRECIP, SNOW",,,"MMTS, SRG, SNOWBOARD",,,WFO CHS,,,,,,,,,,,,,,,,,,,,,,,,,,,29.95,71,90,0,,0.01,8,54,29.95,SCT:04 46 BKN:07 60 BKN:07 75,29.9,10,77,150,,10,,,,,,,,,,,,,,,,,,,,,,,,,,,,,,,,,,,,,MET13306/15/09 12:56:02 METAR KCHS 151756Z 15009KT 10SM SCT046 BKN060 BKN075 32/22 A2995 RMK AO2 SLP141 T03220217 10322 20250 58004 $ (AWS),,,,,,,,,,,,,,,,,,,,,,,,,,,,
72208013880,2009-06-15T13:00:00,FM-12,4,,SE,0.25,mi,"TEMP, PRECIP, SNOW",,,"MMTS, SRG, SNOWBOARD",,,WFO CHS,,,,,,,,,,,,,,,,,,,,,,,,,,,,71,90,,,0.01,8,54,29.95,,29.9,9.94,77,150,,10,,,,,,,,,,,,,,,,,,,,,,,,,,,,,,,,,,,,,SYN092AAXX  15184 72208 32666 61509 10322 20217 30126 40141 58004 91756 333 10322 20250 555 91518;,,,,,,,,,,,,,,,,,,,,,,,,,,,,
72208013880,2009-06-15T14:38:00,FM-16,7,,SE,0.25,mi,"TEMP, PRECIP, SNOW",,,"MMTS, SRG, SNOWBOARD",,,WFO CHS,,,,,,,,,,,,,,,,,,,,,,,,,,,29.94,73,84,,TS:7 |TS |TS,,,70,,FEW:02 40 SCT:04 60,29.89,9,76,160,,10,,,,,,,,,,,,,,,,,,,,,,,,,,,,,,,,,,,,,MET13506/15/09 14:38:02 SPECI KCHS 151938Z 16009KT 9SM TS FEW040CB SCT060 29/23 A2994 RMK AO2 TSB33 OCNL LTGCG SW TS SW MOV STNRY CB NE (AWS),,,,,,,,,,,,,,,,,,,,,,,,,,,,
72208013880,2009-06-16T12:56:00,FM-15,7,,SE,0.25,mi,"TEMP, PRECIP, SNOW",,,"MMTS, SRG, SNOWBOARD",,,WFO CHS,,,,,,,,,,,,,,,,,,,,,,,,,,,29.96,74,91,0,,0.01,8,57,29.95,SCT:04 43 SCT:04 70 SCT:04 95,29.91,10,79,150,,7,,,,,,,,,,,,,,,,,,,,,,,,,,,,,,,,,,,,,MET13106/16/09 12:56:02 METAR KCHS 161756Z 15006KT 10SM SCT043 SCT070 SCT095 33/23 A2996 RMK AO2 SLP143 T03280233 10333 20239 58003 (AWS),,,,,,,,,,,,,,,,,,,,,,,,,,,,
72208013880,2009-06-16T13:00:00,FM-12,4,,SE,0.25,mi,"TEMP, PRECIP, SNOW",,,"MMTS, SRG, SNOWBOARD",,,WFO CHS,,,,,,,,,,,,,,,,,,,,,,,,,,,,74,91,,,0.01,8,57,29.95,,29.91,9.94,79,150,,7,,,,,,,,,,,,,,,,,,,,,,,,,,,,,,,,,,,,,SYN092AAXX  16184 72208 32666 41506 10328 20233 30129 40143 58003 91756 333 10333 20233 555 91618;,,,,,,,,,,,,,,,,,,,,,,,,,,,,
72208013880,2009-06-18T16:56:00,FM-15,7,,SE,0.25,mi,"TEMP, PRECIP, SNOW",,,"MMTS, SRG, SNOWBOARD",,,WFO CHS,,,,,,,,,,,,,,,,,,,,,,,,,,,29.88,76,87,0,,,,70,29.87,SCT:04 45,29.83,10,79,160,,9,,,,,,,,,,,,,,,,,,,,,,,,,,,,,,,,,,,,,MET10006/18/09 16:56:02 METAR KCHS 182156Z 16008KT 10SM SCT045 31/24 A2988 RMK AO2 SLP116 T03060244 $ (WD),,,,,,,,,,,,,,,,,,,,,,,,,,,,
72208013880,2009-06-23T14:56:00,FM-15,7,,SE,0.25,mi,"TEMP, PRECIP, SNOW",,,"MMTS, SRG, SNOWBOARD",,,WFO CHS,,,,,,,,,,,,,,,,,,,,,,,,,,,29.73,68,86,,,,,54,29.73,BKN:07 60,29.68,10,74,150,,8,,,,,,,,,,,,,,,,,,,,,,,,,,,,,,,,,,,,,MET08906/23/09 14:56:02 METAR KCHS 231956Z 15007KT 10SM BKN060 30/20 A2973 RMK SLP067 T03020199,,,,,,,,,,,,,,,,,,,,,,,,,,,,
72208013880,2009-06-23T17:56:00,FM-15,7,,SE,0.25,mi,"TEMP, PRECIP, SNOW",,,"MMTS, SRG, SNOWBOARD",,,WFO CHS,,,,,,,,,,,,,,,,,,,,,,,,,,,29.74,67,78,0,,,,69,29.73,FEW:02 60,29.69,10,71,150,,7,,,,,,,,,,,,,,,,,,,,,,,,,,,,,,,,,,,,,MET09806/23/09 17:56:02 METAR KCHS 232256Z 15006KT 10SM FEW060 26/19 A2974 RMK AO2 SLP067 T02560194 (WD),,,,,,,,,,,,,,,,,,,,,,,,,,,,
72208013880,2009-06-24T10:56:00,FM-15,7,,SE,0.25,mi,"TEMP, PRECIP, SNOW",,,"MMTS, SRG, SNOWBOARD",,,WFO CHS,,,,,,,,,,,,,,,,,,,,,,,,,,,29.85,71,87,,,,,59,29.84,FEW:02 39 SCT:04 65 BKN:07 85,29.8,10,76,150,,8,,,,,,,,,,,,,,,,,,,,,,,,,,,,,,,,,,,,,MET11306/24/09 10:56:02 METAR KCHS 241556Z 15007KT 10SM FEW039 SCT065 BKN085 31/22 A2985 RMK AO2 SLP106 T03060217 (AWS),,,,,,,,,,,,,,,,,,,,,,,,,,,,
72208013880,2009-06-25T17:27:00,FM-16,7,,SE,0.25,mi,"TEMP, PRECIP, SNOW",,,"MMTS, SRG, SNOWBOARD",,,WFO CHS,,,,,,,,,,,,,,,,,,,,,,,,,,,29.83,70,86,,,,,59,,SCT:04 47 BKN:07 75,29.78,8,75,150,,13,,,,,,,,,,,,,,,,,,,,,,,,,,,,,,,,,,,,,MET11206/25/09 17:27:02 SPECI KCHS 252227Z 15011KT 8SM SCT047CB BKN075 30/21 A2983 RMK AO2 WSHFT 2208 CB SE MOV S (WD),,,,,,,,,,,,,,,,,,,,,,,,,,,,
72208013880,2009-06-25T17:56:00,FM-15,7,,SE,0.25,mi,"TEMP, PRECIP, SNOW",,,"MMTS, SRG, SNOWBOARD",,,WFO CHS,,,,,,,,,,,,,,,,,,,,,,,,,,,29.83,70,85,0,,,,61,29.83,FEW:02 47,29.78,10,75,160,,10,,,,,,,,,,,,,,,,,,,,,,,,,,,,,,,,,,,,,MET10906/25/09 17:56:02 METAR KCHS 252256Z 16009KT 10SM FEW047 29/21 A2983 RMK AO2 WSHFT 2208 SLP101 T02940211 (WD),,,,,,,,,,,,,,,,,,,,,,,,,,,,
72208013880,2009-07-03T16:56:00,FM-15,7,,SE,0.25,mi,"TEMP, PRECIP, SNOW",,,"MMTS, SRG, SNOWBOARD",,,WFO CHS,,,,,,,,,,,,,,,,,,,,,,,,,,,29.95,70,85,0,,,,61,29.95,SCT:04 60 SCT:04 70 BKN:07 85,29.9,10,75,160,,7,,,,,,,,,,,,,,,,,,,,,,,,,,,,,,,,,,,,,MET11207/03/09 16:56:02 METAR KCHS 032156Z 16006KT 10SM SCT060 SCT070 BKN085 29/21 A2995 RMK AO2 SLP141 T02940211 (WD),,,,,,,,,,,,,,,,,,,,,,,,,,,,
72208013880,2009-07-04T15:56:00,FM-15,7,,SE,0.25,mi,"TEMP, PRECIP, SNOW",,,"MMTS, SRG, SNOWBOARD",,,WFO CHS,,,,,,,,,,,,,,,,,,,,,,,,,,,29.98,68,88,0,,0.05,6,52,29.98,FEW:02 47 SCT:04 75,29.93,10,74,150,,13,,,,,,,,,,,,,,,,,,,,,,,,,,,,,,,,,,,,,MET11207/04/09 15:56:02 METAR KCHS 042056Z 15011KT 10SM FEW047 SCT075 31/20 A2998 RMK AO2 SLP152 T03110200 56018 (WRB),,,,,,,,,,,,,,,,,,,,,,,,,,,,
72208013880,2009-07-04T16:00:00,FM-12,4,,SE,0.25,mi,"TEMP, PRECIP, SNOW",,,"MMTS, SRG, SNOWBOARD",,,WFO CHS,,,,,,,,,,,,,,,,,,,,,,,,,,,,68,88,,,0.05,6,52,29.98,,29.93,9.94,74,150,,13,,,,,,,,,,,,,,,,,,,,,,,,,,,,,,,,,,,,,SYN076AAXX  04214 72208 32666 41511 10311 20200 30136 40152 56018 92056 555 90421;,,,,,,,,,,,,,,,,,,,,,,,,,,,,
72208013880,2009-07-04T17:56:00,FM-15,7,,SE,0.25,mi,"TEMP, PRECIP, SNOW",,,"MMTS, SRG, SNOWBOARD",,,WFO CHS,,,,,,,,,,,,,,,,,,,,,,,,,,,29.97,70,84,0,,,,63,29.97,FEW:02 40,29.92,10,74,150,,9,,,,,,,,,,,,,,,,,,,,,,,,,,,,,,,,,,,,,MET09907/04/09 17:56:02 METAR KCHS 042256Z 15008KT 10SM FEW040 29/21 A2997 RMK AO2 SLP149 T02890211 (WRB),,,,,,,,,,,,,,,,,,,,,,,,,,,,
72208013880,2009-07-11T14:56:00,FM-15,7,,SE,0.25,mi,"TEMP, PRECIP, SNOW",,,"MMTS, SRG, SNOWBOARD",,,WFO CHS,,,,,,,,,,,,,,,,,,,,,,,,,,,30.2,66,84,0,,,,55,30.19,FEW:02 40,30.15,10,72,160,,8,,,,,,,,,,,,,,,,,,,,,,,,,,,,,,,,,,,,,MET10107/11/09 14:56:02 METAR KCHS 111956Z 16007KT 10SM FEW040 29/19 A3020 RMK AO2 SLP225 T02890189 $ (JRS),,,,,,,,,,,,,,,,,,,,,,,,,,,,
72208013880,2009-07-11T15:56:00,SY-MT,7,,SE,0.25,mi,"TEMP, PRECIP, SNOW",,,"MMTS, SRG, SNOWBOARD",,,WFO CHS,,,,,,,,,,,,,,,,,,,,,,,,,,,30.18,64,84,0,,0.05,6,51,30.18,FEW:02 40 SCT:04 90,30.13,10,71,160,,9,,,,,,,,,,,,,,,,,,,,,,,,,,,,,,,,,,,,,SYN076AAXX  11214 72208 32666 41608 10289 20178 30204 40220 56017 92056 555 91121;MET11407/11/09 15:56:02 METAR KCHS 112056Z 16008KT 10SM FEW040 SCT090 29/18 A3018 RMK AO2 SLP220 T02890178 56017 $ (WRB),,,,,,,,,,,,,,,,,,,,,,,,,,,,
72208013880,2009-07-11T16:56:00,FM-15,7,,SE,0.25,mi,"TEMP, PRECIP, SNOW",,,"MMTS, SRG, SNOWBOARD",,,WFO CHS,,,,,,,,,,,,,,,,,,,,,,,,,,,30.18,63,83,0,,,,51,30.17,,30.13,10,70,160,,9,,,,,,,,,,,,,,,,,,,,,,,,,,,,,,,,,,,,,MET09807/11/09 16:56:02 METAR KCHS 112156Z 16008KT 10SM CLR 28/17 A3018 RMK AO2 SLP218 T02830172 $ (WRB),,,,,,,,,,,,,,,,,,,,,,,,,,,,
72208013880,2009-07-15T16:56:00,FM-15,7,,SE,0.25,mi,"TEMP, PRECIP, SNOW",,,"MMTS, SRG, SNOWBOARD",,,WFO CHS,,,,,,,,,,,,,,,,,,,,,,,,,,,30.1,66,85,0,,,,53,30.09,,30.05,10,72,150,,10,,,,,,,,,,,,,,,,,,,,,,,,,,,,,,,,,,,,,MET09707/15/09 16:56:02 METAR KCHS 152156Z 15009KT 10SM CLR 29/19 A3010 RMK AO2 SLP191 T02940189 $ (WD),,,,,,,,,,,,,,,,,,,,,,,,,,,,
72208013880,2009-07-15T17:56:00,FM-15,7,,SE,0.25,mi,"TEMP, PRECIP, SNOW",,,"MMTS, SRG, SNOWBOARD",,,WFO CHS,,,,,,,,,,,,,,,,,,,,,,,,,,,30.11,68,83,0,,,,61,30.1,,30.06,10,73,150,,8,,,,,,,,,,,,,,,,,,,,,,,,,,,,,,,,,,,,,MET09707/15/09 17:56:02 METAR KCHS 152256Z 15007KT 10SM CLR 28/20 A3011 RMK AO2 SLP194 T02830200 $ (WD),,,,,,,,,,,,,,,,,,,,,,,,,,,,
72208013880,2009-07-19T15:56:00,SY-MT,7,,SE,0.25,mi,"TEMP, PRECIP, SNOW",,,"MMTS, SRG, SNOWBOARD",,,WFO CHS,,,,,,,,,,,,,,,,,,,,,,,,,,,30.01,66,87,0,,0.02,6,50,30.01,SCT:04 65,29.96,10,73,150,,8,,,,,,,,,,,,,,,,,,,,,,,,,,,,,,,,,,,,,SYN076AAXX  19214 72208 32766 41507 10306 20189 30146 40162 56007 92056 555 91921;MET10507/19/09 15:56:02 METAR KCHS 192056Z 15007KT 10SM SCT065 31/19 A3001 RMK AO2 SLP162 T03060189 56007 (WRB),,,,,,,,,,,,,,,,,,,,,,,,,,,,
72208013880,2009-07-20T14:56:00,FM-15,7,,SE,0.25,mi,"TEMP, PRECIP, SNOW",,,"MMTS, SRG, SNOWBOARD",,,WFO CHS,,,,,,,,,,,,,,,,,,,,,,,,,,,30.01,65,84,0,,,,53,30.01,FEW:02 50,29.96,10,72,160,,7,,,,,,,,,,,,,,,,,,,,,,,,,,,,,,,,,,,,,MET09907/20/09 14:56:02 METAR KCHS 201956Z 16006KT 10SM FEW050 29/18 A3001 RMK AO2 SLP162 T02890183 (AWS),,,,,,,,,,,,,,,,,,,,,,,,,,,,
72208013880,2009-07-22T11:54:00,FM-16,6,,SE,0.25,mi,"TEMP, PRECIP, SNOW",,,"MMTS, SRG, SNOWBOARD",,,WFO CHS,,,,,,,,,,,,,,,,,,,,,,,,,,,30.08,72,82,,-RA:02 |RA |,,,70,,SCT:04 70 BKN:07 95,30.03,2,75,160,,14,,,,,,,,,,,,,,,,,,,,,,,,,,,,,,,,,,,,,MET11207/22/09 11:54:02 SPECI KCHS 221654Z 16012KT 2SM -RA SCT070 BKN095 28/22 A3008 RMK AO2 RAE03B52 P0000 FIBI (AWS),,,,,,,,,,,,,,,,,,,,,,,,,,,,
72208013880,2009-07-22T11:56:00,FM-15,7,,SE,0.25,mi,"TEMP, PRECIP, SNOW",,,"MMTS, SRG, SNOWBOARD",,,WFO CHS,,,,,,,,,,,,,,,,,,,,,,,,,,,30.08,73,80,0.02,+RA:02 |RA |RA,,,79,30.08,SCT:04 70 BKN:07 95,30.03,2,75,150,,15,,,,,,,,,,,,,,,,,,,,,,,,,,,,,,,,,,,,,MET14307/22/09 11:56:02 METAR KCHS 221656Z 15013KT 2SM +RA SCT070CB BKN095 27/23 A3008 RMK AO2 RAE03B52 SLP185 CB OHD MOV STNRY P0000 T02670228 (AWS),,,,,,,,,,,,,,,,,,,,,,,,,,,,
72208013880,2009-07-22T13:56:00,FM-15,7,,SE,0.25,mi,"TEMP, PRECIP, SNOW",,,"MMTS, SRG, SNOWBOARD",,,WFO CHS,,,,,,,,,,,,,,,,,,,,,,,,,,,30.04,70,87,0,,,,57,30.03,SCT:04 39 SCT:04 65,29.99,10,75,160,,10,,,,,,,,,,,,,,,,,,,,,,,,,,,,,,,,,,,,,MET10607/22/09 13:56:02 METAR KCHS 221856Z 16009KT 10SM SCT039 SCT065 31/21 A3004 RMK AO2 SLP171 T03060211 (AWS),,,,,,,,,,,,,,,,,,,,,,,,,,,,
72208013880,2009-07-22T14:56:00,FM-15,7,,SE,0.25,mi,"TEMP, PRECIP, SNOW",,,"MMTS, SRG, SNOWBOARD",,,WFO CHS,,,,,,,,,,,,,,,,,,,,,,,,,,,30.01,71,87,0,,,,59,30.01,FEW:02 38,29.96,10,76,150,,8,,,,,,,,,,,,,,,,,,,,,,,,,,,,,,,,,,,,,MET09907/22/09 14:56:02 METAR KCHS 221956Z 15007KT 10SM FEW038 31/22 A3001 RMK AO2 SLP162 T03060217 (AWS),,,,,,,,,,,,,,,,,,,,,,,,,,,,
72208013880,2009-07-22T16:56:00,FM-15,7,,SE,0.25,mi,"TEMP, PRECIP, SNOW",,,"MMTS, SRG, SNOWBOARD",,,WFO CHS,,,,,,,,,,,,,,,,,,,,,,,,,,,29.99,71,86,0,,,,61,29.98,FEW:02 32,29.94,10,76,160,,11,,,,,,,,,,,,,,,,,,,,,,,,,,,,,,,,,,,,,MET09807/22/09 16:56:02 METAR KCHS 222156Z 16010KT 10SM FEW032 30/22 A2999 RMK AO2 SLP154 T03000217 (WD),,,,,,,,,,,,,,,,,,,,,,,,,,,,
72208013880,2009-08-04T14:56:00,FM-15,7,,SE,0.25,mi,"TEMP, PRECIP, SNOW",,,"MMTS, SRG, SNOWBOARD",,,WFO CHS,,,,,,,,,,,,,,,,,,,,,,,,,,,30,74,88,0,,,,63,30,SCT:04 36 SCT:04 49 BKN:07 75,29.95,10,78,170,22,17,,,,,,,,,,,,,,,,,,,,,,,,,,,,,,,,,,,,,MET12908/04/09 14:56:02 METAR KCHS 041956Z 17015G19KT 10SM SCT036CB SCT049 BKN075 31/23 A3000 RMK AO2 SLP158 CB E MOV E T03110233 (AWS),,,,,,,,,,,,,,,,,,,,,,,,,,,,
72208013880,2009-08-14T13:56:00,FM-15,7,,SE,0.25,mi,"TEMP, PRECIP, SNOW",,,"MMTS, SRG, SNOWBOARD",,,WFO CHS,,,,,,,,,,,,,,,,,,,,,,,,,,,30.11,71,82,0,,,,69,30.11,FEW:02 27,30.06,10,75,150,,10,,,,,,,,,,,,,,,,,,,,,,,,,,,,,,,,,,,,,MET09908/14/09 13:56:02 METAR KCHS 141856Z 15009KT 10SM FEW027 28/22 A3011 RMK AO2 SLP196 T02780217 (AWS),,,,,,,,,,,,,,,,,,,,,,,,,,,,
72208013880,2009-08-14T14:56:00,FM-15,7,,SE,0.25,mi,"TEMP, PRECIP, SNOW",,,"MMTS, SRG, SNOWBOARD",,,WFO CHS,,,,,,,,,,,,,,,,,,,,,,,,,,,30.09,71,83,0,,,,67,30.09,FEW:02 24,30.04,10,75,160,,13,,,,,,,,,,,,,,,,,,,,,,,,,,,,,,,,,,,,,MET09808/14/09 14:56:02 METAR KCHS 141956Z 16011KT 10SM FEW024 28/22 A3009 RMK AO2 SLP189 T02830217 (WD),,,,,,,,,,,,,,,,,,,,,,,,,,,,
72208013880,2009-08-16T13:56:00,FM-15,7,,SE,0.25,mi,"TEMP, PRECIP, SNOW",,,"MMTS, SRG, SNOWBOARD",,,WFO CHS,,,,,,,,,,,,,,,,,,,,,,,,,,,30.17,74,88,0,,,,63,30.16,FEW:02 22 SCT:04 30,30.12,10,78,150,,9,,,,,,,,,,,,,,,,,,,,,,,,,,,,,,,,,,,,,MET12408/16/09 13:56:02 METAR KCHS 161856Z 15008KT 10SM FEW022 SCT030TCU 31/23 A3017 RMK AO2 SLP214 TCU NE-E AND W T03110233 (JRS),,,,,,,,,,,,,,,,,,,,,,,,,,,,
72208013880,2009-08-16T14:56:00,FM-15,7,,SE,0.25,mi,"TEMP, PRECIP, SNOW",,,"MMTS, SRG, SNOWBOARD",,,WFO CHS,,,,,,,,,,,,,,,,,,,,,,,,,,,30.15,74,87,0,,,,65,30.14,FEW:02 23 SCT:04 30,30.1,10,78,150,,10,,,,,,,,,,,,,,,,,,,,,,,,,,,,,,,,,,,,,MET12008/16/09 14:56:02 METAR KCHS 161956Z 15009KT 10SM FEW023 SCT030CB 31/23 A3015 RMK AO2 SLP208 CB NW MOV N T03060233 (JRS),,,,,,,,,,,,,,,,,,,,,,,,,,,,
72208013880,2009-08-16T16:56:00,FM-15,7,,SE,0.25,mi,"TEMP, PRECIP, SNOW",,,"MMTS, SRG, SNOWBOARD",,,WFO CHS,,,,,,,,,,,,,,,,,,,,,,,,,,,30.15,74,83,0,,,,74,30.15,SCT:04 21,30.1,10,77,150,,7,,,,,,,,,,,,,,,,,,,,,,,,,,,,,,,,,,,,,MET09908/16/09 16:56:02 METAR KCHS 162156Z 15006KT 10SM SCT021 28/23 A3015 RMK AO2 SLP209 T02830233 (WRB),,,,,,,,,,,,,,,,,,,,,,,,,,,,
72208013880,2009-08-17T13:56:00,FM-15,7,,SE,0.25,mi,"TEMP, PRECIP, SNOW",,,"MMTS, SRG, SNOWBOARD",,,WFO CHS,,,,,,,,,,,,,,,,,,,,,,,,,,,30.2,72,89,0,,,,57,30.2,FEW:02 35,30.15,10,77,150,,8,,,,,,,,,,,,,,,,,,,,,,,,,,,,,,,,,,,,,MET09908/17/09 13:56:02 METAR KCHS 171856Z 15007KT 10SM FEW035 32/22 A3020 RMK AO2 SLP226 T03170222 (AWS),,,,,,,,,,,,,,,,,,,,,,,,,,,,
72208013880,2009-08-18T13:56:00,FM-15,7,,SE,0.25,mi,"TEMP, PRECIP, SNOW",,,"MMTS, SRG, SNOWBOARD",,,WFO CHS,,,,,,,,,,,,,,,,,,,,,,,,,,,30.14,72,88,0,,,,59,30.13,FEW:02 37,30.09,10,77,160,,10,,,,,,,,,,,,,,,,,,,,,,,,,,,,,,,,,,,,,MET09908/18/09 13:56:02 METAR KCHS 181856Z 16009KT 10SM FEW037 31/22 A3014 RMK AO2 SLP204 T03110222 (AWS),,,,,,,,,,,,,,,,,,,,,,,,,,,,
72208013880,2009-08-18T14:56:00,FM-15,7,,SE,0.25,mi,"TEMP, PRECIP, SNOW",,,"MMTS, SRG, SNOWBOARD",,,WFO CHS,,,,,,,,,,,,,,,,,,,,,,,,,,,30.12,73,89,0,,,,59,30.12,FEW:02 35,30.07,10,78,150,,11,,,,,,,,,,,,,,,,,,,,,,,,,,,,,,,,,,,,,MET09908/18/09 14:56:02 METAR KCHS 181956Z 15010KT 10SM FEW035 32/23 A3012 RMK AO2 SLP200 T03170228 (AWS),,,,,,,,,,,,,,,,,,,,,,,,,,,,
72208013880,2009-08-18T15:56:00,SY-MT,7,,SE,0.25,mi,"TEMP, PRECIP, SNOW",,,"MMTS, SRG, SNOWBOARD",,,WFO CHS,,,,,,,,,,,,,,,,,,,,,,,,,,,30.11,74,88,0,,0.04,6,63,30.11,,30.06,10,78,160,,10,,,,,,,,,,,,,,,,,,,,,,,,,,,,,,,,,,,,,SYN076AAXX  18214 72208 32966 01609 10311 20233 30180 40197 56014 92056 555 91821;MET10108/18/09 15:56:02 METAR KCHS 182056Z 16009KT 10SM CLR 31/23 A3011 RMK AO2 SLP197 T03110233 56014 (WD),,,,,,,,,,,,,,,,,,,,,,,,,,,,
72208013880,2009-08-18T16:56:00,FM-15,7,,SE,0.25,mi,"TEMP, PRECIP, SNOW",,,"MMTS, SRG, SNOWBOARD",,,WFO CHS,,,,,,,,,,,,,,,,,,,,,,,,,,,30.11,74,87,0,,,,65,30.11,FEW:02 29,30.06,10,78,160,,11,,,,,,,,,,,,,,,,,,,,,,,,,,,,,,,,,,,,,MET09808/18/09 16:56:02 METAR KCHS 182156Z 16010KT 10SM FEW029 31/23 A3011 RMK AO2 SLP195 T03060233 (WD),,,,,,,,,,,,,,,,,,,,,,,,,,,,
72208013880,2009-08-19T14:56:00,FM-15,7,,SE,0.25,mi,"TEMP, PRECIP, SNOW",,,"MMTS, SRG, SNOWBOARD",,,WFO CHS,,,,,,,,,,,,,,,,,,,,,,,,,,,30.05,70,91,0,,,,50,30.04,FEW:02 42,30,10,76,160,,10,,,,,,,,,,,,,,,,,,,,,,,,,,,,,,,,,,,,,MET11008/19/09 14:56:02 METAR KCHS 191956Z 16009KT 10SM FEW042 33/21 A3005 RMK AO2 SLP174 CB DSNT NW T03280211 (AWS),,,,,,,,,,,,,,,,,,,,,,,,,,,,
72208013880,2009-08-19T15:56:00,SY-MT,7,,SE,0.25,mi,"TEMP, PRECIP, SNOW",,,"MMTS, SRG, SNOWBOARD",,,WFO CHS,,,,,,,,,,,,,,,,,,,,,,,,,,,30.04,73,88,0,,0.04,6,61,30.03,FEW:02 45,29.99,10,77,170,,14,,,,,,,,,,,,,,,,,,,,,,,,,,,,,,,,,,,,,SYN076AAXX  19214 72208 32666 21712 10311 20228 30157 40171 56013 92056 555 91921;MET11908/19/09 15:56:02 METAR KCHS 192056Z 17012KT 10SM FEW045 31/23 A3004 RMK AO2 SLP171 TCU DSNT NW-NE T03110228 56013 (WD),,,,,,,,,,,,,,,,,,,,,,,,,,,,
72208013880,2009-08-24T12:56:00,SY-MT,7,,SE,0.25,mi,"TEMP, PRECIP, SNOW",,,"MMTS, SRG, SNOWBOARD",,,WFO CHS,,,,,,,,,,,,,,,,,,,,,,,,,,,30.03,65,89,0,,0,5,45,30.03,FEW:02 55,29.98,10,73,150,,9,,,,,,,,,,,,,,,,,,,,,,,,,,,,,,,,,,,,,SYN092AAXX  24184 72208 32766 21508 10317 20183 30153 40169 55001 91756 333 10317 20233 555 92418;MET11608/24/09 12:56:02 METAR KCHS 241756Z 15008KT 10SM FEW055 32/18 A3003 RMK AO2 SLP169 T03170183 10317 20233 55001 (WD),,,,,,,,,,,,,,,,,,,,,,,,,,,,
72208013880,2009-08-24T13:56:00,FM-15,7,,SE,0.25,mi,"TEMP, PRECIP, SNOW",,,"MMTS, SRG, SNOWBOARD",,,WFO CHS,,,,,,,,,,,,,,,,,,,,,,,,,,,30.03,65,88,0,,,,46,30.03,FEW:02 60,29.98,10,73,150,,11,,,,,,,,,,,,,,,,,,,,,,,,,,,,,,,,,,,,,MET09808/24/09 13:56:02 METAR KCHS 241856Z 15010KT 10SM FEW060 31/18 A3003 RMK AO2 SLP168 T03110183 (WD),,,,,,,,,,,,,,,,,,,,,,,,,,,,
72208013880,2009-08-24T14:56:00,FM-15,7,,SE,0.25,mi,"TEMP, PRECIP, SNOW",,,"MMTS, SRG, SNOWBOARD",,,WFO CHS,,,,,,,,,,,,,,,,,,,,,,,,,,,30.01,67,88,0,,,,50,30.01,FEW:02 65,29.96,10,74,160,17,11,,,,,,,,,,,,,,,,,,,,,,,,,,,,,,,,,,,,,MET10108/24/09 14:56:02 METAR KCHS 241956Z 16010G15KT 10SM FEW065 31/19 A3001 RMK AO2 SLP163 T03110194 (WD),,,,,,,,,,,,,,,,,,,,,,,,,,,,
72208013880,2009-08-25T13:56:00,FM-15,7,,SE,0.25,mi,"TEMP, PRECIP, SNOW",,,"MMTS, SRG, SNOWBOARD",,,WFO CHS,,,,,,,,,,,,,,,,,,,,,,,,,,,30.08,73,88,0,,,,61,30.08,FEW:02 28 BKN:07 70,30.03,10,77,150,20,14,,,,,,,,,,,,,,,,,,,,,,,,,,,,,,,,,,,,,MET13208/25/09 13:56:02 METAR KCHS 251856Z 15012G17KT 10SM FEW028TCU BKN070 31/23 A3008 RMK AO2 SLP186 TCU OHD-SW CB DSNT N T03110228 (WD),,,,,,,,,,,,,,,,,,,,,,,,,,,,
72208013880,2009-08-25T16:56:00,FM-15,7,,SE,0.25,mi,"TEMP, PRECIP, SNOW",,,"MMTS, SRG, SNOWBOARD",,,WFO CHS,,,,,,,,,,,,,,,,,,,,,,,,,,,30.05,71,84,0,,,,65,30.05,FEW:02 30,30,10,75,150,,9,,,,,,,,,,,,,,,,,,,,,,,,,,,,,,,,,,,,,MET11008/25/09 16:56:02 METAR KCHS 252156Z 15008KT 10SM FEW030 29/22 A3005 RMK AO2 SLP175 CB DSNT NW T02890217 (AWS),,,,,,,,,,,,,,,,,,,,,,,,,,,,
72208013880,2009-08-26T16:56:00,FM-15,7,,SE,0.25,mi,"TEMP, PRECIP, SNOW",,,"MMTS, SRG, SNOWBOARD",,,WFO CHS,,,,,,,,,,,,,,,,,,,,,,,,,,,30.07,72,83,0,,,,70,30.06,FEW:02 26,30.02,10,75,150,,11,,,,,,,,,,,,,,,,,,,,,,,,,,,,,,,,,,,,,MET09908/26/09 16:56:02 METAR KCHS 262156Z 15010KT 10SM FEW026 28/22 A3007 RMK AO2 SLP180 T02830222 (AWS),,,,,,,,,,,,,,,,,,,,,,,,,,,,
72208013880,2009-08-26T17:56:00,FM-15,7,,SE,0.25,mi,"TEMP, PRECIP, SNOW",,,"MMTS, SRG, SNOWBOARD",,,WFO CHS,,,,,,,,,,,,,,,,,,,,,,,,,,,30.07,73,82,0,,,,74,30.06,FEW:02 26,30.02,8,76,150,,11,,,,,,,,,,,,,,,,,,,,,,,,,,,,,,,,,,,,,MET09808/26/09 17:56:02 METAR KCHS 262256Z 15010KT 8SM FEW026 28/23 A3007 RMK AO2 SLP180 T02780228 (AWS),,,,,,,,,,,,,,,,,,,,,,,,,,,,
72208013880,2009-09-12T13:56:00,FM-15,7,,SE,0.25,mi,"TEMP, PRECIP, SNOW",,,"MMTS, SRG, SNOWBOARD",,,WFO CHS,,,,,,,,,,,,,,,,,,,,,,,,,,,29.96,64,84,0,,,,51,29.95,FEW:02 45,29.91,10,71,150,,9,,,,,,,,,,,,,,,,,,,,,,,,,,,,,,,,,,,,,MET09909/12/09 13:56:02 METAR KCHS 121856Z 15008KT 10SM FEW045 29/18 A2996 RMK AO2 SLP143 T02890178 (JRS),,,,,,,,,,,,,,,,,,,,,,,,,,,,
72208013880,2009-09-15T16:56:00,FM-15,7,,SE,0.25,mi,"TEMP, PRECIP, SNOW",,,"MMTS, SRG, SNOWBOARD",,,WFO CHS,,,,,,,,,,,,,,,,,,,,,,,,,,,29.96,64,82,0,,,,55,29.96,,29.91,10,70,150,,11,,,,,,,,,,,,,,,,,,,,,,,,,,,,,,,,,,,,,MET09609/15/09 16:56:02 METAR KCHS 152156Z 15010KT 10SM CLR 28/18 A2996 RMK AO2 SLP145 T02780178 (AWS),,,,,,,,,,,,,,,,,,,,,,,,,,,,
72208013880,2009-09-15T17:56:00,FM-15,7,,SE,0.25,mi,"TEMP, PRECIP, SNOW",,,"MMTS, SRG, SNOWBOARD",,,WFO CHS,,,,,,,,,,,,,,,,,,,,,,,,,,,29.96,65,79,0,,,,62,29.96,,29.91,10,70,150,,10,,,,,,,,,,,,,,,,,,,,,,,,,,,,,,,,,,,,,MET09609/15/09 17:56:02 METAR KCHS 152256Z 15009KT 10SM CLR 26/18 A2996 RMK AO2 SLP146 T02610183 (AWS),,,,,,,,,,,,,,,,,,,,,,,,,,,,
72208013880,2009-09-17T11:56:00,FM-15,7,,SE,0.25,mi,"TEMP, PRECIP, SNOW",,,"MMTS, SRG, SNOWBOARD",,,WFO CHS,,,,,,,,,,,,,,,,,,,,,,,,,,,30.06,68,85,0,,,,57,30.06,SCT:04 39,30.01,10,74,150,,7,,,,,,,,,,,,,,,,,,,,,,,,,,,,,,,,,,,,,MET10009/17/09 11:56:02 METAR KCHS 171656Z 15006KT 10SM SCT039 29/20 A3006 RMK AO2 SLP178 T02940200 $ (WD),,,,,,,,,,,,,,,,,,,,,,,,,,,,
72208013880,2009-09-24T13:56:00,FM-15,7,,SE,0.25,mi,"TEMP, PRECIP, SNOW",,,"MMTS, SRG, SNOWBOARD",,,WFO CHS,,,,,,,,,,,,,,,,,,,,,,,,,,,30.05,71,88,0,,,,57,30.05,SCT:04 41 BKN:07 60,30,10,76,160,,10,,,,,,,,,,,,,,,,,,,,,,,,,,,,,,,,,,,,,MET11709/24/09 13:56:02 METAR KCHS 241856Z 16009KT 10SM SCT041TCU BKN060 31/22 A3005 RMK AO2 SLP176 TCU W-NE T03110217 (WD),,,,,,,,,,,,,,,,,,,,,,,,,,,,
72208013880,2009-09-24T14:56:00,FM-15,7,,SE,0.25,mi,"TEMP, PRECIP, SNOW",,,"MMTS, SRG, SNOWBOARD",,,WFO CHS,,,,,,,,,,,,,,,,,,,,,,,,,,,30.04,69,87,0,,,,55,30.04,FEW:02 45,29.99,10,75,170,,9,,,,,,,,,,,,,,,,,,,,,,,,,,,,,,,,,,,,,MET11009/24/09 14:56:02 METAR KCHS 241956Z 17008KT 10SM FEW045TCU 31/21 A3004 RMK AO2 SLP172 TCU N-NW T03060206 (WD),,,,,,,,,,,,,,,,,,,,,,,,,,,,
72208013880,2009-09-24T15:56:00,FM-15,7,,SE,0.25,mi,"TEMP, PRECIP, SNOW",,,"MMTS, SRG, SNOWBOARD",,,WFO CHS,,,,,,,,,,,,,,,,,,,,,,,,,,,30.04,68,85,0,,0.03,6,57,30.03,FEW:02 45 SCT:04 110,29.99,10,74,160,,10,,,,,,,,,,,,,,,,,,,,,,,,,,,,,,,,,,,,,MET11209/24/09 15:56:02 METAR KCHS 242056Z 16009KT 10SM FEW045 SCT110 29/20 A3004 RMK AO2 SLP170 T02940200 56011 (AWS),,,,,,,,,,,,,,,,,,,,,,,,,,,,
72208013880,2009-09-24T16:00:00,FM-12,4,,SE,0.25,mi,"TEMP, PRECIP, SNOW",,,"MMTS, SRG, SNOWBOARD",,,WFO CHS,,,,,,,,,,,,,,,,,,,,,,,,,,,,68,85,,,0.03,6,57,30.03,,29.99,9.94,74,160,,10,,,,,,,,,,,,,,,,,,,,,,,,,,,,,,,,,,,,,SYN076AAXX  24214 72208 32666 41609 10294 20200 30157 40170 56011 92056 555 92421;,,,,,,,,,,,,,,,,,,,,,,,,,,,,
72208013880,2009-09-24T16:56:00,FM-15,7,,SE,0.25,mi,"TEMP, PRECIP, SNOW",,,"MMTS, SRG, SNOWBOARD",,,WFO CHS,,,,,,,,,,,,,,,,,,,,,,,,,,,30.04,69,85,0,,,,59,30.03,FEW:02 45 BKN:07 110,29.99,10,74,150,,9,,,,,,,,,,,,,,,,,,,,,,,,,,,,,,,,,,,,,MET10609/24/09 16:56:02 METAR KCHS 242156Z 15008KT 10SM FEW045 BKN110 29/21 A3004 RMK AO2 SLP171 T02940206 (AWS),,,,,,,,,,,,,,,,,,,,,,,,,,,,
72208013880,2009-09-24T17:56:00,FM-15,7,,SE,0.25,mi,"TEMP, PRECIP, SNOW",,,"MMTS, SRG, SNOWBOARD",,,WFO CHS,,,,,,,,,,,,,,,,,,,,,,,,,,,30.04,71,82,0,,,,69,30.04,FEW:02 120,29.99,10,74,160,,7,,,,,,,,,,,,,,,,,,,,,,,,,,,,,,,,,,,,,MET09909/24/09 17:56:02 METAR KCHS 242256Z 16006KT 10SM FEW120 28/22 A3004 RMK AO2 SLP172 T02780217 (AWS),,,,,,,,,,,,,,,,,,,,,,,,,,,,
72208013880,2009-10-01T15:56:00,FM-15,7,,SE,0.25,mi,"TEMP, PRECIP, SNOW",,,"MMTS, SRG, SNOWBOARD",,,WFO CHS,,,,,,,,,,,,,,,,,,,,,,,,,,,29.97,57,78,0,,0.05,6,48,29.97,FEW:02 55,29.92,10,65,150,,8,,,,,,,,,,,,,,,,,,,,,,,,,,,,,,,,,,,,,MET10510/01/09 15:56:02 METAR KCHS 012056Z 15007KT 10SM FEW055 26/14 A2997 RMK AO2 SLP148 T02560139 56018 (AWS),,,,,,,,,,,,,,,,,,,,,,,,,,,,
72208013880,2009-10-01T16:00:00,FM-12,4,,SE,0.25,mi,"TEMP, PRECIP, SNOW",,,"MMTS, SRG, SNOWBOARD",,,WFO CHS,,,,,,,,,,,,,,,,,,,,,,,,,,,,57,78,,,0.05,6,48,29.97,,29.92,9.94,65,150,,8,,,,,,,,,,,,,,,,,,,,,,,,,,,,,,,,,,,,,SYN076AAXX  01214 72208 32766 21507 10256 20139 30133 40148 56018 92056 555 90121;,,,,,,,,,,,,,,,,,,,,,,,,,,,,
72208013880,2009-10-01T16:56:00,FM-15,7,,SE,0.25,mi,"TEMP, PRECIP, SNOW",,,"MMTS, SRG, SNOWBOARD",,,WFO CHS,,,,,,,,,,,,,,,,,,,,,,,,,,,29.98,57,76,0,,,,52,29.98,FEW:02 55,29.93,10,65,150,,9,,,,,,,,,,,,,,,,,,,,,,,,,,,,,,,,,,,,,MET09910/01/09 16:56:02 METAR KCHS 012156Z 15008KT 10SM FEW055 24/14 A2998 RMK AO2 SLP151 T02440139 (AWS),,,,,,,,,,,,,,,,,,,,,,,,,,,,
72208013880,2009-10-01T17:56:00,FM-15,7,,SE,0.25,mi,"TEMP, PRECIP, SNOW",,,"MMTS, SRG, SNOWBOARD",,,WFO CHS,,,,,,,,,,,,,,,,,,,,,,,,,,,29.99,57,71,0,,,,61,29.98,,29.94,10,63,160,,8,,,,,,,,,,,,,,,,,,,,,,,,,,,,,,,,,,,,,MET09610/01/09 17:56:02 METAR KCHS 012256Z 16007KT 10SM CLR 22/14 A2999 RMK AO2 SLP154 T02170139 (AWS),,,,,,,,,,,,,,,,,,,,,,,,,,,,
72208013880,2009-10-23T11:56:00,FM-15,7,,SE,0.25,mi,"TEMP, PRECIP, SNOW",,,"MMTS, SRG, SNOWBOARD",,,WFO CHS,,,,,,,,,,,,,,,,,,,,,,,,,,,29.96,66,81,0,,,,61,29.96,FEW:02 35 SCT:04 50 OVC:08 60,29.91,10,71,170,,14,,,,,,,,,,,,,,,,,,,,,,,,,,,,,,,,,,,,,MET11210/23/09 11:56:02 METAR KCHS 231656Z 17012KT 10SM FEW035 SCT050 OVC060 27/19 A2996 RMK AO2 SLP144 T02720189 (WD),,,,,,,,,,,,,,,,,,,,,,,,,,,,
72208013880,2009-10-23T17:56:00,FM-15,7,,SE,0.25,mi,"TEMP, PRECIP, SNOW",,,"MMTS, SRG, SNOWBOARD",,,WFO CHS,,,,,,,,,,,,,,,,,,,,,,,,,,,29.91,67,72,0,,,,84,29.9,FEW:02 29 SCT:04 65,29.86,10,69,160,,9,,,,,,,,,,,,,,,,,,,,,,,,,,,,,,,,,,,,,MET10610/23/09 17:56:02 METAR KCHS 232256Z 16008KT 10SM FEW029 SCT065 22/19 A2991 RMK AO2 SLP126 T02220194 (AWS),,,,,,,,,,,,,,,,,,,,,,,,,,,,
72208013880,2009-11-10T13:56:00,FM-15,7,,SE,0.25,mi,"TEMP, PRECIP, SNOW",,,"MMTS, SRG, SNOWBOARD",,,WFO CHS,,,,,,,,,,,,,,,,,,,,,,,,,,,30.03,67,78,0,,,,69,30.03,SCT:04 35 BKN:07 55,29.98,10,71,150,,11,,,,,,,,,,,,,,,,,,,,,,,,,,,,,,,,,,,,,MET10711/10/09 13:56:02 METAR KCHS 101856Z 15010KT 10SM SCT035 BKN055 26/19 A3003 RMK AO2 SLP169 T02560194 $ (WD),,,,,,,,,,,,,,,,,,,,,,,,,,,,
72208013880,2009-11-16T15:56:00,FM-15,7,,SE,0.25,mi,"TEMP, PRECIP, SNOW",,,"MMTS, SRG, SNOWBOARD",,,WFO CHS,,,,,,,,,,,,,,,,,,,,,,,,,,,30.01,56,73,0,,0.01,5,55,30,,29.96,10,63,150,,9,,,,,,,,,,,,,,,,,,,,,,,,,,,,,,,,,,,,,MET10111/16/09 15:56:02 METAR KCHS 162056Z 15008KT 10SM CLR 23/13 A3001 RMK AO2 SLP160 T02280133 55004 (WD),,,,,,,,,,,,,,,,,,,,,,,,,,,,
72208013880,2009-11-16T16:00:00,FM-12,4,,SE,0.25,mi,"TEMP, PRECIP, SNOW",,,"MMTS, SRG, SNOWBOARD",,,WFO CHS,,,,,,,,,,,,,,,,,,,,,,,,,,,,56,73,,,0.01,5,55,30,CLR:00,29.96,9.94,63,150,,9,,,,,,,,,,,,,,,,,,,,,,,,,,,,,,,,,,,,,SYN076AAXX  16214 72208 32966 01508 10228 20133 30146 40160 55004 92056 555 91621;,,,,,,,,,,,,,,,,,,,,,,,,,,,,
72208013880,2009-11-16T16:56:00,FM-15,7,,SE,0.25,mi,"TEMP, PRECIP, SNOW",,,"MMTS, SRG, SNOWBOARD",,,WFO CHS,,,,,,,,,,,,,,,,,,,,,,,,,,,30.01,56,68,0,,,,65,30.01,,29.96,10,61,160,,7,,,,,,,,,,,,,,,,,,,,,,,,,,,,,,,,,,,,,MET09611/16/09 16:56:02 METAR KCHS 162156Z 16006KT 10SM CLR 20/13 A3001 RMK AO2 SLP162 T02000133 (AWS),,,,,,,,,,,,,,,,,,,,,,,,,,,,
72208013880,2009-12-02T13:56:00,FM-15,7,,SE,0.25,mi,"TEMP, PRECIP, SNOW",,,"MMTS, SRG, SNOWBOARD",,,WFO CHS,,,,,,,,,,,,,,,,,,,,,,,,,,,29.74,64,67,0,,,,91,29.74,FEW:02 40,29.69,7,65,160,,8,,,,,,,,,,,,,,,,,,,,,,,,,,,,,,,,,,,,,MET09712/02/09 13:56:02 METAR KCHS 021856Z 16007KT 7SM FEW040 19/18 A2974 RMK AO2 SLP070 T01940178 (WD),,,,,,,,,,,,,,,,,,,,,,,,,,,,
72208013880,2009-12-02T14:56:00,FM-15,7,,SE,0.25,mi,"TEMP, PRECIP, SNOW",,,"MMTS, SRG, SNOWBOARD",,,WFO CHS,,,,,,,,,,,,,,,,,,,,,,,,,,,29.72,66,71,0,,,,84,29.72,SCT:04 50,29.67,7,68,170,,15,,,,,,,,,,,,,,,,,,,,,,,,,,,,,,,,,,,,,MET09712/02/09 14:56:02 METAR KCHS 021956Z 17013KT 7SM SCT050 22/19 A2972 RMK AO2 SLP064 T02170189 (WD),,,,,,,,,,,,,,,,,,,,,,,,,,,,
72208013880,2009-12-25T12:56:00,FM-15,7,,SE,0.25,mi,"TEMP, PRECIP, SNOW",,,"MMTS, SRG, SNOWBOARD",,,WFO CHS,,,,,,,,,,,,,,,,,,,,,,,,,,,29.79,66,69,0.01,BR:1 ||,0.05,6,90,29.78,SCT:04 9 BKN:07 13 OVC:08 25,29.74,6,67,170,29,17,,,,,,,,,,,,,,,,,,,,,,,,,,,,,,,,,,,,,MET17712/25/09 12:56:02 METAR KCHS 251756Z 17015G25KT 6SM BR SCT009 BKN013 OVC025 21/19 A2979 RMK AO2 PK WND 16028/1724 RAB1659E20 SLP086 P0001 60032 T02060189 10206 20183 56018 (JRS),,,,,,,,,,,,,,,,,,,,,,,,,,,,
72208013880,2009-12-25T13:00:00,FM-12,4,,SE,0.25,mi,"TEMP, PRECIP, SNOW",,,"MMTS, SRG, SNOWBOARD",,,WFO CHS,,,,,,,,,,,,,,,,,,,,,,,,,,,,66,69,,,0.05,6,90,29.78,,29.74,5.59,67,170,29,17,,,,,,,,,,,,,,,,,,,,,,,,,,,,,,,,,,,,,SYN110AAXX  25184 72208 11359 81715 10206 20189 30072 40086 56018 60081 710// 91756 333 10206 20117 91025 555 92518;,,,,,,,,,,,,,,,,,,,,,,,,,,,,
72208013880,2009-12-25T14:05:00,FM-16,7,,SE,0.25,mi,"TEMP, PRECIP, SNOW",,,"MMTS, SRG, SNOWBOARD",,,WFO CHS,,,,,,,,,,,,,,,,,,,,,,,,,,,29.76,66,68,,BR:1 ||,,,94,,SCT:04 8 BKN:07 11 OVC:08 33,29.71,6,67,170,23,16,,,,,,,,,,,,,,,,,,,,,,,,,,,,,,,,,,,,,MET10112/25/09 14:05:02 SPECI KCHS 251905Z 17014G20KT 6SM BR SCT008 BKN011 OVC033 20/19 A2976 RMK AO2 (JRS),,,,,,,,,,,,,,,,,,,,,,,,,,,,
