STATION,DATE,REPORT_TYPE,SOURCE,AWND,BackupDirection,BackupDistance,BackupDistanceUnit,BackupElements,BackupElevation,BackupElevationUnit,BackupEquipment,BackupLatitude,BackupLongitude,BackupName,CDSD,CLDD,DSNW,DailyAverageDewPointTemperature,DailyAverageDryBulbTemperature,DailyAverageRelativeHumidity,DailyAverageSeaLevelPressure,DailyAverageStationPressure,DailyAverageWetBulbTemperature,DailyAverageWindSpeed,DailyCoolingDegreeDays,DailyDepartureFromNormalAverageTemperature,DailyHeatingDegreeDays,DailyMaximumDryBulbTemperature,DailyMinimumDryBulbTemperature,DailyPeakWindDirection,DailyPeakWindSpeed,DailyPrecipitation,DailySnowDepth,DailySnowfall,DailySustainedWindDirection,DailySustainedWindSpeed,DailyWeather,HDSD,HTDD,HeavyFog,HourlyAltimeterSetting,HourlyDewPointTemperature,HourlyDryBulbTemperature,HourlyPrecipitation,HourlyPresentWeatherType,HourlyPressureChange,HourlyPressureTendency,HourlyRelativeHumidity,HourlySeaLevelPressure,HourlySkyConditions,HourlyStationPressure,HourlyVisibility,HourlyWetBulbTemperature,HourlyWindDirection,HourlyWindGustSpeed,HourlyWindSpeed,MonthlyAverageRH,MonthlyDaysWithGT001Precip,MonthlyDaysWithGT010Precip,MonthlyDaysWithGT32Temp,MonthlyDaysWithGT90Temp,MonthlyDaysWithLT0Temp,MonthlyDaysWithLT32Temp,MonthlyDepartureFromNormalAverageTemperature,MonthlyDepartureFromNormalCoolingDegreeDays,MonthlyDepartureFromNormalHeatingDegreeDays,MonthlyDepartureFromNormalMaximumTemperature,MonthlyDepartureFromNormalMinimumTemperature,MonthlyDepartureFromNormalPrecipitation,MonthlyDewpointTemperature,MonthlyGreatestPrecip,MonthlyGreatestPrecipDate,MonthlyGreatestSnowDepth,MonthlyGreatestSnowDepthDate,MonthlyGreatestSnowfall,MonthlyGreatestSnowfallDate,MonthlyMaxSeaLevelPressureValue,MonthlyMaxSeaLevelPressureValueDate,MonthlyMaxSeaLevelPressureValueTime,MonthlyMaximumTemperature,MonthlyMeanTemperature,MonthlyMinSeaLevelPressureValue,MonthlyMinSeaLevelPressureValueDate,MonthlyMinSeaLevelPressureValueTime,MonthlyMinimumTemperature,MonthlySeaLevelPressure,MonthlyStationPressure,MonthlyTotalLiquidPrecipitation,MonthlyTotalSnowfall,MonthlyWetBulb,NormalsCoolingDegreeDay,NormalsHeatingDegreeDay,REM,ShortDurationEndDate005,ShortDurationEndDate010,ShortDurationEndDate015,ShortDurationEndDate020,ShortDurationEndDate030,ShortDurationEndDate045,ShortDurationEndDate060,ShortDurationEndDate080,ShortDurationEndDate100,ShortDurationEndDate120,ShortDurationEndDate150,ShortDurationEndDate180,ShortDurationPrecipitationValue005,ShortDurationPrecipitationValue010,ShortDurationPrecipitationValue015,ShortDurationPrecipitationValue020,ShortDurationPrecipitationValue030,ShortDurationPrecipitationValue045,ShortDurationPrecipitationValue060,ShortDurationPrecipitationValue080,ShortDurationPrecipitationValue100,ShortDurationPrecipitationValue120,ShortDurationPrecipitationValue150,ShortDurationPrecipitationValue180,Sunrise,Sunset,TStorms,WindEquipmentChangeDate
72208013880,2010-01-07T14:56:00,FM-15,7,,SE,0.25,mi,"TEMP, PRECIP, SNOW",,,"MMTS, SRG, SNOWBOARD",,,WFO CHS,,,,,,,,,,,,,,,,,,,,,,,,,,,30.07,19,52,0.00,,,,27,30.07,,30.02,10.00,39,170,,8,,,,,,,,,,,,,,,,,,,,,,,,,,,,,,,,,,,,,MET09601/07/10 14:56:02 METAR KCHS 071956Z 17007KT 10SM CLR 11/M07 A3007 RMK AO2 SLP182 T01111072 (WD),,,,,,,,,,,,,,,,,,,,,,,,,,,,
72208013880,2010-01-13T17:56:00,FM-15,7,,SE,0.25,mi,"TEMP, PRECIP, SNOW",,,"MMTS, SRG, SNOWBOARD",,,WFO CHS,,,,,,,,,,,,,,,,,,,,,,,,,,,30.30,24,40,0.00,,,,53,30.30,,30.25,10.00,34,160,,8,,,,,,,,,,,,,,,,,,,,,,,,,,,,,,,,,,,,,MET09701/13/10 17:56:02 METAR KCHS 132256Z 16007KT 10SM CLR 04/M04 A3030 RMK AO2 SLP261 T00441044 (AWS),,,,,,,,,,,,,,,,,,,,,,,,,,,,
72208013880,2010-01-14T17:56:00,FM-15,7,,SE,0.25,mi,"TEMP, PRECIP, SNOW",,,"MMTS, SRG, SNOWBOARD",,,WFO CHS,,,,,,,,,,,,,,,,,,,,,,,,,,,30.28,30,45,0.00,,,,56,30.28,,30.23,10.00,39,150,,7,,,,,,,,,,,,,,,,,,,,,,,,,,,,,,,,,,,,,MET09701/14/10 17:56:02 METAR KCHS 142256Z 15006KT 10SM CLR 07/M01 A3028 RMK AO2 SLP254 T00721011 (BBE),,,,,,,,,,,,,,,,,,,,,,,,,,,,
72208013880,2010-01-15T15:56:00,FM-15,7,,SE,0.25,mi,"TEMP, PRECIP, SNOW",,,"MMTS, SRG, SNOWBOARD",,,WFO CHS,,,,,,,,,,,,,,,,,,,,,,,,,,,30.27,37,65,0.00,,+0.03,5,36,30.27,,30.22,9.00,51,150,,8,,,,,,,,,,,,,,,,,,,,,,,,,,,,,,,,,,,,,MET10001/15/10 15:56:02 METAR KCHS 152056Z 15007KT 9SM CLR 18/03 A3027 RMK AO2 SLP249 T01830028 55010 (WD),,,,,,,,,,,,,,,,,,,,,,,,,,,,
72208013880,2010-01-15T16:00:00,FM-12,4,,SE,0.25,mi,"TEMP, PRECIP, SNOW",,,"MMTS, SRG, SNOWBOARD",,,WFO CHS,,,,,,,,,,,,,,,,,,,,,,,,,,,,37,65,,,+0.03,5,36,30.27,CLR:00,30.22,8.70,51,150,,8,,,,,,,,,,,,,,,,,,,,,,,,,,,,,,,,,,,,,SYN076AAXX  15214 72208 32964 01507 10183 20028 30234 40249 55010 92056 555 91521;,,,,,,,,,,,,,,,,,,,,,,,,,,,,
72208013880,2010-01-15T16:56:00,FM-15,7,,SE,0.25,mi,"TEMP, PRECIP, SNOW",,,"MMTS, SRG, SNOWBOARD",,,WFO CHS,,,,,,,,,,,,,,,,,,,,,,,,,,,30.27,36,60,0.00,,,,41,30.27,,30.22,9.00,49,150,,8,,,,,,,,,,,,,,,,,,,,,,,,,,,,,,,,,,,,,MET09501/15/10 16:56:02 METAR KCHS 152156Z 15007KT 9SM CLR 16/02 A3027 RMK AO2 SLP251 T01560022 (AWS),,,,,,,,,,,,,,,,,,,,,,,,,,,,
72208013880,2010-01-15T17:56:00,FM-15,7,,SE,0.25,mi,"TEMP, PRECIP, SNOW",,,"MMTS, SRG, SNOWBOARD",,,WFO CHS,,,,,,,,,,,,,,,,,,,,,,,,,,,30.27,34,51,0.00,,,,52,30.27,,30.22,9.00,43,150,,8,,,,,,,,,,,,,,,,,,,,,,,,,,,,,,,,,,,,,MET09501/15/10 17:56:02 METAR KCHS 152256Z 15007KT 9SM CLR 11/01 A3027 RMK AO2 SLP249 T01060011 (AWS),,,,,,,,,,,,,,,,,,,,,,,,,,,,
72208013880,2010-01-24T10:56:00,FM-15,7,,SE,0.25,mi,"TEMP, PRECIP, SNOW",,,"MMTS, SRG, SNOWBOARD",,,WFO CHS,,,,,,,,,,,,,,,,,,,,,,,,,,,29.94,61,65,0.01,-RA:02 BR:1 |RA |RA,,,87,29.93,FEW:02 18 SCT:04 28 OVC:08 40,29.89,5.00,63,170,24,16,,,,,,,,,,,,,,,,,,,,,,,,,,,,,,,,,,,,,MET13401/24/10 10:56:02 METAR KCHS 241556Z 17014G21KT 5SM -RA BR FEW018 SCT028 OVC040 18/16 A2994 RMK AO2 RAB38 SLP137 P0001 T01830161 (JRS),,,,,,,,,,,,,,,,,,,,,,,,,,,,
72208013880,2010-01-24T11:49:00,FM-16,7,,SE,0.25,mi,"TEMP, PRECIP, SNOW",,,"MMTS, SRG, SNOWBOARD",,,WFO CHS,,,,,,,,,,,,,,,,,,,,,,,,,,,29.91,63,66,0.01,-RA:02 BR:1 |RA |RA,,,88,,FEW:02 16 BKN:07 28 OVC:08 35,29.86,6.00,64,170,24,17,,,,,,,,,,,,,,,,,,,,,,,,,,,,,,,,,,,,,MET12001/24/10 11:49:02 SPECI KCHS 241649Z 17015G21KT 6SM -RA BR FEW016 BKN028 OVC035 19/17 A2991 RMK AO2 RAE05B41 P0001 (JRS),,,,,,,,,,,,,,,,,,,,,,,,,,,,
72208013880,2010-01-24T11:56:00,FM-15,7,,SE,0.25,mi,"TEMP, PRECIP, SNOW",,,"MMTS, SRG, SNOWBOARD",,,WFO CHS,,,,,,,,,,,,,,,,,,,,,,,,,,,29.90,63,67,0.01,-RA:02 |RA |RA,,,87,29.90,SCT:04 16 BKN:07 25 OVC:08 33,29.85,8.00,65,160,,11,,,,,,,,,,,,,,,,,,,,,,,,,,,,,,,,,,,,,MET13101/24/10 11:56:02 METAR KCHS 241656Z 16010KT 8SM -RA SCT016 BKN025 OVC033 19/17 A2990 RMK AO2 RAE05B41 SLP125 P0001 T01940172 (JRS),,,,,,,,,,,,,,,,,,,,,,,,,,,,
72208013880,2010-01-24T17:47:00,FM-16,7,,SE,0.25,mi,"TEMP, PRECIP, SNOW",,,"MMTS, SRG, SNOWBOARD",,,WFO CHS,,,,,,,,,,,,,,,,,,,,,,,,,,,29.75,63,68,,,,,83,,BKN:07 26 BKN:07 31 OVC:08 60,29.70,7.00,65,170,,17,,,,,,,,,,,,,,,,,,,,,,,,,,,,,,,,,,,,,MET09501/24/10 17:47:02 SPECI KCHS 242247Z 17015KT 7SM BKN026 BKN031 OVC060 20/17 A2975 RMK AO2 (WRB),,,,,,,,,,,,,,,,,,,,,,,,,,,,
72208013880,2010-02-04T12:56:00,FM-15,7,,SE,0.25,mi,"TEMP, PRECIP, SNOW",,,"MMTS, SRG, SNOWBOARD",,,WFO CHS,,,,,,,,,,,,,,,,,,,,,,,,,,,30.31,41,53,0.00,,+0.01,5,64,30.31,FEW:02 25 SCT:04 95,30.26,9.00,47,170,18,9,,,,,,,,,,,,,,,,,,,,,,,,,,,,,,,,,,,,,MET12502/04/10 12:56:02 METAR KCHS 041756Z 17008G16KT 9SM FEW025 SCT095 12/05 A3031 RMK AO2 SLP264 T01170050 10117 20033 55005 (WD),,,,,,,,,,,,,,,,,,,,,,,,,,,,
72208013880,2010-02-04T13:00:00,FM-12,4,,SE,0.25,mi,"TEMP, PRECIP, SNOW",,,"MMTS, SRG, SNOWBOARD",,,WFO CHS,,,,,,,,,,,,,,,,,,,,,,,,,,,,41,53,,,+0.01,5,64,30.31,,30.26,8.70,47,170,18,9,,,,,,,,,,,,,,,,,,,,,,,,,,,,,,,,,,,,,SYN098AAXX  04184 72208 32564 41708 10117 20050 30248 40264 55005 91756 333 10117 20033 91016 555 90418;,,,,,,,,,,,,,,,,,,,,,,,,,,,,
72208013880,2010-02-05T14:20:00,FM-16,7,,SE,0.25,mi,"TEMP, PRECIP, SNOW",,,"MMTS, SRG, SNOWBOARD",,,WFO CHS,,,,,,,,,,,,,,,,,,,,,,,,,,,29.71,63,63,0.04,RA:02 BR:1 |RA |RA,,,100,,BKN:07 10 OVC:08 15,29.66,2.00,63,160,26,17,,,,,,,,,,,,,,,,,,,,,,,,,,,,,,,,,,,,,MET13202/05/10 14:20:02 SPECI KCHS 051920Z 16015G23KT 2SM RA BR BKN010 OVC015 17/17 A2971 RMK AO2 PK WND 15027/1909 CIG 007V013 P0004 (WD),,,,,,,,,,,,,,,,,,,,,,,,,,,,
72208013880,2010-02-08T13:56:00,FM-15,7,,SE,0.25,mi,"TEMP, PRECIP, SNOW",,,"MMTS, SRG, SNOWBOARD",,,WFO CHS,,,,,,,,,,,,,,,,,,,,,,,,,,,30.10,33,54,0.00,,,,45,30.10,,30.05,10.00,45,150,,7,,,,,,,,,,,,,,,,,,,,,,,,,,,,,,,,,,,,,MET09502/08/10 13:56:02 METAR KCHS 081856Z 15006KT 10SM CLR 12/01 A3010 RMK AO2 SLP193 T01220006 (WD),,,,,,,,,,,,,,,,,,,,,,,,,,,,
72208013880,2010-02-19T15:56:00,FM-15,7,,SE,0.25,mi,"TEMP, PRECIP, SNOW",,,"MMTS, SRG, SNOWBOARD",,,WFO CHS,,,,,,,,,,,,,,,,,,,,,,,,,,,30.09,34,58,0.00,,+0.02,5,41,30.08,,30.04,10.00,47,160,,10,,,,,,,,,,,,,,,,,,,,,,,,,,,,,,,,,,,,,MET10102/19/10 15:56:02 METAR KCHS 192056Z 16009KT 10SM CLR 14/01 A3009 RMK AO2 SLP187 T01440011 55008 (WD),,,,,,,,,,,,,,,,,,,,,,,,,,,,
72208013880,2010-02-19T16:00:00,FM-12,4,,SE,0.25,mi,"TEMP, PRECIP, SNOW",,,"MMTS, SRG, SNOWBOARD",,,WFO CHS,,,,,,,,,,,,,,,,,,,,,,,,,,,,34,58,,,+0.02,5,41,30.08,CLR:00,30.04,9.94,47,160,,10,,,,,,,,,,,,,,,,,,,,,,,,,,,,,,,,,,,,,SYN076AAXX  19214 72208 32966 01609 10144 20011 30173 40187 55008 92056 555 91921;,,,,,,,,,,,,,,,,,,,,,,,,,,,,
72208013880,2010-02-19T17:56:00,FM-15,7,,SE,0.25,mi,"TEMP, PRECIP, SNOW",,,"MMTS, SRG, SNOWBOARD",,,WFO CHS,,,,,,,,,,,,,,,,,,,,,,,,,,,30.09,37,52,0.00,,,,57,30.09,,30.04,10.00,45,150,,7,,,,,,,,,,,,,,,,,,,,,,,,,,,,,,,,,,,,,MET09502/19/10 17:56:02 METAR KCHS 192256Z 15006KT 10SM CLR 11/03 A3009 RMK AO2 SLP189 T01110028 (WD),,,,,,,,,,,,,,,,,,,,,,,,,,,,
72208013880,2010-02-20T13:56:00,FM-15,7,,SE,0.25,mi,"TEMP, PRECIP, SNOW",,,"MMTS, SRG, SNOWBOARD",,,WFO CHS,,,,,,,,,,,,,,,,,,,,,,,,,,,30.15,35,63,0.00,,,,35,30.14,FEW:02 50,30.10,10.00,50,170,,10,,,,,,,,,,,,,,,,,,,,,,,,,,,,,,,,,,,,,MET09902/20/10 13:56:02 METAR KCHS 201856Z 17009KT 10SM FEW050 17/02 A3015 RMK AO2 SLP207 T01720017 (JRS),,,,,,,,,,,,,,,,,,,,,,,,,,,,
72208013880,2010-02-20T14:56:00,FM-15,7,,SE,0.25,mi,"TEMP, PRECIP, SNOW",,,"MMTS, SRG, SNOWBOARD",,,WFO CHS,,,,,,,,,,,,,,,,,,,,,,,,,,,30.13,35,63,0.00,,,,35,30.13,FEW:02 55,30.08,10.00,50,150,,10,,,,,,,,,,,,,,,,,,,,,,,,,,,,,,,,,,,,,MET09902/20/10 14:56:02 METAR KCHS 201956Z 15009KT 10SM FEW055 17/02 A3013 RMK AO2 SLP202 T01720017 (JRS),,,,,,,,,,,,,,,,,,,,,,,,,,,,
72208013880,2010-02-20T17:56:00,FM-15,7,,SE,0.25,mi,"TEMP, PRECIP, SNOW",,,"MMTS, SRG, SNOWBOARD",,,WFO CHS,,,,,,,,,,,,,,,,,,,,,,,,,,,30.12,37,54,0.00,,,,53,30.12,,30.07,10.00,46,160,,9,,,,,,,,,,,,,,,,,,,,,,,,,,,,,,,,,,,,,MET09602/20/10 17:56:02 METAR KCHS 202256Z 16008KT 10SM CLR 12/03 A3012 RMK AO2 SLP199 T01220028 (WRB),,,,,,,,,,,,,,,,,,,,,,,,,,,,
72208013880,2010-02-21T13:56:00,FM-15,7,,SE,0.25,mi,"TEMP, PRECIP, SNOW",,,"MMTS, SRG, SNOWBOARD",,,WFO CHS,,,,,,,,,,,,,,,,,,,,,,,,,,,30.08,33,66,0.00,,,,29,30.07,,30.03,10.00,50,150,,13,,,,,,,,,,,,,,,,,,,,,,,,,,,,,,,,,,,,,MET09602/21/10 13:56:02 METAR KCHS 211856Z 15011KT 10SM CLR 19/01 A3008 RMK AO2 SLP184 T01890006 (JRS),,,,,,,,,,,,,,,,,,,,,,,,,,,,
72208013880,2010-02-21T14:56:00,FM-15,7,,SE,0.25,mi,"TEMP, PRECIP, SNOW",,,"MMTS, SRG, SNOWBOARD",,,WFO CHS,,,,,,,,,,,,,,,,,,,,,,,,,,,30.06,35,65,0.00,,,,33,30.06,,30.01,10.00,51,160,,10,,,,,,,,,,,,,,,,,,,,,,,,,,,,,,,,,,,,,MET09602/21/10 14:56:02 METAR KCHS 211956Z 16009KT 10SM CLR 18/02 A3006 RMK AO2 SLP178 T01830017 (JRS),,,,,,,,,,,,,,,,,,,,,,,,,,,,
72208013880,2010-02-21T15:56:00,FM-15,7,,SE,0.25,mi,"TEMP, PRECIP, SNOW",,,"MMTS, SRG, SNOWBOARD",,,WFO CHS,,,,,,,,,,,,,,,,,,,,,,,,,,,30.05,36,64,0.00,,+0.06,6,35,30.05,,30.00,10.00,50,160,,13,,,,,,,,,,,,,,,,,,,,,,,,,,,,,,,,,,,,,MET10202/21/10 15:56:02 METAR KCHS 212056Z 16011KT 10SM CLR 18/02 A3005 RMK AO2 SLP175 T01780022 56019 (JRS),,,,,,,,,,,,,,,,,,,,,,,,,,,,
72208013880,2010-02-21T16:00:00,FM-12,4,,SE,0.25,mi,"TEMP, PRECIP, SNOW",,,"MMTS, SRG, SNOWBOARD",,,WFO CHS,,,,,,,,,,,,,,,,,,,,,,,,,,,,36,64,,,+0.06,6,35,30.05,CLR:00,30.00,9.94,50,160,,13,,,,,,,,,,,,,,,,,,,,,,,,,,,,,,,,,,,,,SYN076AAXX  21214 72208 32966 01611 10178 20022 30160 40175 56019 92056 555 92121;,,,,,,,,,,,,,,,,,,,,,,,,,,,,
72208013880,2010-02-21T16:56:00,FM-15,7,,SE,0.25,mi,"TEMP, PRECIP, SNOW",,,"MMTS, SRG, SNOWBOARD",,,WFO CHS,,,,,,,,,,,,,,,,,,,,,,,,,,,30.04,35,61,0.00,,,,38,30.03,,29.99,10.00,49,150,,10,,,,,,,,,,,,,,,,,,,,,,,,,,,,,,,,,,,,,MET09602/21/10 16:56:02 METAR KCHS 212156Z 15009KT 10SM CLR 16/02 A3004 RMK AO2 SLP171 T01610017 (WRB),,,,,,,,,,,,,,,,,,,,,,,,,,,,
72208013880,2010-02-21T17:56:00,FM-15,7,,SE,0.25,mi,"TEMP, PRECIP, SNOW",,,"MMTS, SRG, SNOWBOARD",,,WFO CHS,,,,,,,,,,,,,,,,,,,,,,,,,,,30.05,38,56,0.00,,,,51,30.04,FEW:02 60,30.00,10.00,47,160,,7,,,,,,,,,,,,,,,,,,,,,,,,,,,,,,,,,,,,,MET09902/21/10 17:56:02 METAR KCHS 212256Z 16006KT 10SM FEW060 13/03 A3005 RMK AO2 SLP174 T01330033 (WRB),,,,,,,,,,,,,,,,,,,,,,,,,,,,
72208013880,2010-03-01T16:56:00,FM-15,7,,SE,0.25,mi,"TEMP, PRECIP, SNOW",,,"MMTS, SRG, SNOWBOARD",,,WFO CHS,,,,,,,,,,,,,,,,,,,,,,,,,,,29.96,33,57,0.00,,,,41,29.96,,29.91,10.00,46,170,,9,,,,,,,,,,,,,,,,,,,,,,,,,,,,,,,,,,,,,MET09603/01/10 16:56:02 METAR KCHS 012156Z 17008KT 10SM CLR 14/01 A2996 RMK AO2 SLP144 T01390006 (AWS),,,,,,,,,,,,,,,,,,,,,,,,,,,,
72208013880,2010-03-01T17:56:00,FM-15,7,,SE,0.25,mi,"TEMP, PRECIP, SNOW",,,"MMTS, SRG, SNOWBOARD",,,WFO CHS,,,,,,,,,,,,,,,,,,,,,,,,,,,29.96,34,52,0.00,,,,50,29.96,,29.91,10.00,44,170,,8,,,,,,,,,,,,,,,,,,,,,,,,,,,,,,,,,,,,,MET09603/01/10 17:56:02 METAR KCHS 012256Z 17007KT 10SM CLR 11/01 A2996 RMK AO2 SLP145 T01110011 (AWS),,,,,,,,,,,,,,,,,,,,,,,,,,,,
72208013880,2010-03-10T16:56:00,FM-15,7,,SE,0.25,mi,"TEMP, PRECIP, SNOW",,,"MMTS, SRG, SNOWBOARD",,,WFO CHS,,,,,,,,,,,,,,,,,,,,,,,,,,,29.95,49,68,T,,,,51,29.94,BKN:07 90,29.90,10.00,58,170,,8,,,,,,,,,,,,,,,,,,,,,,,,,,,,,,,,,,,,,MET09903/10/10 16:56:02 METAR KCHS 102156Z 17007KT 10SM BKN090 20/09 A2995 RMK AO2 SLP140 T02000094 (AWS),,,,,,,,,,,,,,,,,,,,,,,,,,,,
72208013880,2010-03-12T16:56:00,FM-15,7,,SE,0.25,mi,"TEMP, PRECIP, SNOW",,,"MMTS, SRG, SNOWBOARD",,,WFO CHS,,,,,,,,,,,,,,,,,,,,,,,,,,,29.57,58,63,0.00,,,,84,29.56,OVC:08 31,29.52,10.00,60,150,,14,,,,,,,,,,,,,,,,,,,,,,,,,,,,,,,,,,,,,MET09903/12/10 16:56:02 METAR KCHS 122156Z 15012KT 10SM OVC031 17/14 A2957 RMK AO2 SLP011 T01720144 (AWS),,,,,,,,,,,,,,,,,,,,,,,,,,,,
72208013880,2010-03-12T17:54:00,FM-16,6,,SE,0.25,mi,"TEMP, PRECIP, SNOW",,,"MMTS, SRG, SNOWBOARD",,,WFO CHS,,,,,,,,,,,,,,,,,,,,,,,,,,,29.56,57,63,,BR:1 ||,,,83,,FEW:02 12 BKN:07 25 OVC:08 30,29.51,6.00,60,160,,11,,,,,,,,,,,,,,,,,,,,,,,,,,,,,,,,,,,,,MET10303/12/10 17:54:02 SPECI KCHS 122254Z 16010KT 6SM BR FEW012 BKN025 OVC030 17/14 A2956 RMK AO2 FIBI (AWS),,,,,,,,,,,,,,,,,,,,,,,,,,,,
72208013880,2010-03-12T17:56:00,FM-15,7,,SE,0.25,mi,"TEMP, PRECIP, SNOW",,,"MMTS, SRG, SNOWBOARD",,,WFO CHS,,,,,,,,,,,,,,,,,,,,,,,,,,,29.56,58,61,T,BR:1 ||,,,90,29.55,FEW:02 12 BKN:07 25 OVC:08 30,29.51,5.00,59,150,,11,,,,,,,,,,,,,,,,,,,,,,,,,,,,,,,,,,,,,MET11503/12/10 17:56:02 METAR KCHS 122256Z 15010KT 5SM BR FEW012 BKN025 OVC030 16/14 A2956 RMK AO2 SLP008 T01610144 (AWS),,,,,,,,,,,,,,,,,,,,,,,,,,,,
72208013880,2010-03-19T17:56:00,FM-15,7,,SE,0.25,mi,"TEMP, PRECIP, SNOW",,,"MMTS, SRG, SNOWBOARD",,,WFO CHS,,,,,,,,,,,,,,,,,,,,,,,,,,,29.98,43,69,0.00,,,,39,29.98,,29.93,10.00,55,160,,9,,,,,,,,,,,,,,,,,,,,,,,,,,,,,,,,,,,,,MET09603/19/10 17:56:02 METAR KCHS 192256Z 16008KT 10SM CLR 21/06 A2998 RMK AO2 SLP152 T02060061 (AWS),,,,,,,,,,,,,,,,,,,,,,,,,,,,
72208013880,2010-03-21T15:08:00,FM-16,7,,SE,0.25,mi,"TEMP, PRECIP, SNOW",,,"MMTS, SRG, SNOWBOARD",,,WFO CHS,,,,,,,,,,,,,,,,,,,,,,,,,,,29.96,61,63,T,-RA:02 BR:1 |RA |RA,,,94,,FEW:02 5 BKN:07 30 OVC:08 65,29.91,6.00,62,150,,9,,,,,,,,,,,,,,,,,,,,,,,,,,,,,,,,,,,,,MET10803/21/10 15:08:02 SPECI KCHS 212008Z 15008KT 6SM -RA BR FEW005 BKN030 OVC065 17/16 A2996 RMK AO2 P0000 (WRB),,,,,,,,,,,,,,,,,,,,,,,,,,,,
72208013880,2010-03-21T15:56:00,FM-15,7,,SE,0.25,mi,"TEMP, PRECIP, SNOW",,,"MMTS, SRG, SNOWBOARD",,,WFO CHS,,,,,,,,,,,,,,,,,,,,,,,,,,,29.94,61,63,0.01,-RA:02 BR:1 |RA |RA,+0.08,6,93,29.94,FEW:02 5 SCT:04 35 OVC:08 48,29.89,6.00,62,150,,9,,,,,,,,,,,,,,,,,,,,,,,,,,,,,,,,,,,,,MET13703/21/10 15:56:02 METAR KCHS 212056Z 15008KT 6SM -RA BR FEW005 SCT035 OVC048 17/16 A2994 RMK AO2 SLP139 P0001 60014 T01720161 56026 (WRB),,,,,,,,,,,,,,,,,,,,,,,,,,,,
72208013880,2010-03-21T16:00:00,FM-12,4,,SE,0.25,mi,"TEMP, PRECIP, SNOW",,,"MMTS, SRG, SNOWBOARD",,,WFO CHS,,,,,,,,,,,,,,,,,,,,,,,,,,,,61,63,,||RA,+0.08,6,93,29.94,,29.89,5.59,62,150,,9,,,,,,,,,,,,,,,,,,,,,,,,,,,,,,,,,,,,,SYN098AAXX  21214 72208 11259 81508 10172 20161 30123 40139 56026 60047 761// 92056 333 96010 555 92121;,,,,,,,,,,,,,,,,,,,,,,,,,,,,
72208013880,2010-03-24T13:56:00,FM-15,7,,SE,0.25,mi,"TEMP, PRECIP, SNOW",,,"MMTS, SRG, SNOWBOARD",,,WFO CHS,,,,,,,,,,,,,,,,,,,,,,,,,,,30.08,40,73,0.00,,,,30,30.07,,30.03,10.00,56,150,,8,,,,,,,,,,,,,,,,,,,,,,,,,,,,,,,,,,,,,MET09503/24/10 13:56:02 METAR KCHS 241856Z 15007KT 10SM CLR 23/04 A3008 RMK AO2 SLP184 T02280044 (WD),,,,,,,,,,,,,,,,,,,,,,,,,,,,
72208013880,2010-03-24T14:56:00,FM-15,7,,SE,0.25,mi,"TEMP, PRECIP, SNOW",,,"MMTS, SRG, SNOWBOARD",,,WFO CHS,,,,,,,,,,,,,,,,,,,,,,,,,,,30.06,31,72,0.00,,,,22,30.06,,30.01,10.00,52,160,,11,,,,,,,,,,,,,,,,,,,,,,,,,,,,,,,,,,,,,MET09603/24/10 14:56:02 METAR KCHS 241956Z 16010KT 10SM CLR 22/M01 A3006 RMK AO2 SLP178 T02221006 (WD),,,,,,,,,,,,,,,,,,,,,,,,,,,,
72208013880,2010-03-24T16:56:00,FM-15,7,,SE,0.25,mi,"TEMP, PRECIP, SNOW",,,"MMTS, SRG, SNOWBOARD",,,WFO CHS,,,,,,,,,,,,,,,,,,,,,,,,,,,30.07,43,68,0.00,,,,40,30.06,,30.02,10.00,55,170,,9,,,,,,,,,,,,,,,,,,,,,,,,,,,,,,,,,,,,,MET09603/24/10 16:56:02 METAR KCHS 242156Z 17008KT 10SM CLR 20/06 A3007 RMK AO2 SLP181 T02000061 (AWS),,,,,,,,,,,,,,,,,,,,,,,,,,,,
72208013880,2010-03-28T10:56:00,FM-15,7,,SE,0.25,mi,"TEMP, PRECIP, SNOW",,,"MMTS, SRG, SNOWBOARD",,,WFO CHS,,,,,,,,,,,,,,,,,,,,,,,,,,,30.05,59,70,T,HZ:7 ||HZ,,,68,30.04,FEW:02 26 BKN:07 50,30.00,6.00,63,150,,13,,,,,,,,,,,,,,,,,,,,,,,,,,,,,,,,,,,,,MET10803/28/10 10:56:02 METAR KCHS 281556Z 15011KT 6SM HZ FEW026 BKN050 21/15 A3005 RMK AO2 SLP174 T02110150 (JRS),,,,,,,,,,,,,,,,,,,,,,,,,,,,
72208013880,2010-03-29T15:56:00,FM-15,7,,SE,0.25,mi,"TEMP, PRECIP, SNOW",,,"MMTS, SRG, SNOWBOARD",,,WFO CHS,,,,,,,,,,,,,,,,,,,,,,,,,,,29.58,55,68,0.00,,+0.05,6,63,29.58,FEW:02 60 BKN:07 100,29.53,10.00,60,160,,9,,,,,,,,,,,,,,,,,,,,,,,,,,,,,,,,,,,,,MET11103/29/10 15:56:02 METAR KCHS 292056Z 16008KT 10SM FEW060 BKN100 20/13 A2958 RMK AO2 SLP016 T02000128 56017 (WD),,,,,,,,,,,,,,,,,,,,,,,,,,,,
72208013880,2010-03-29T16:00:00,FM-12,4,,SE,0.25,mi,"TEMP, PRECIP, SNOW",,,"MMTS, SRG, SNOWBOARD",,,WFO CHS,,,,,,,,,,,,,,,,,,,,,,,,,,,,55,68,,,+0.05,6,63,29.58,,29.53,9.94,60,160,,9,,,,,,,,,,,,,,,,,,,,,,,,,,,,,,,,,,,,,SYN076AAXX  29214 72208 32766 61608 10200 20128 30001 40016 56017 92056 555 92921;,,,,,,,,,,,,,,,,,,,,,,,,,,,,
72208013880,2010-04-02T12:56:00,FM-15,7,,SE,0.25,mi,"TEMP, PRECIP, SNOW",,,"MMTS, SRG, SNOWBOARD",,,WFO CHS,,,,,,,,,,,,,,,,,,,,,,,,,,,30.12,48,83,0.00,,+0.02,8,30,30.12,,30.07,9.00,63,160,,8,,,,,,,,,,,,,,,,,,,,,,,,,,,,,,,,,,,,,MET11204/02/10 12:56:02 METAR KCHS 021756Z 16007KT 9SM CLR 28/09 A3012 RMK AO2 SLP199 T02830089 10283 20133 58008 (WD),,,,,,,,,,,,,,,,,,,,,,,,,,,,
72208013880,2010-04-02T13:00:00,FM-12,4,,SE,0.25,mi,"TEMP, PRECIP, SNOW",,,"MMTS, SRG, SNOWBOARD",,,WFO CHS,,,,,,,,,,,,,,,,,,,,,,,,,,,,48,83,,,+0.02,8,30,30.12,CLR:00,30.07,8.70,63,160,,8,,,,,,,,,,,,,,,,,,,,,,,,,,,,,,,,,,,,,SYN092AAXX  02184 72208 32964 01607 10283 20089 30184 40199 58008 91756 333 10283 20133 555 90218;,,,,,,,,,,,,,,,,,,,,,,,,,,,,
72208013880,2010-04-03T16:56:00,FM-15,7,,SE,0.25,mi,"TEMP, PRECIP, SNOW",,,"MMTS, SRG, SNOWBOARD",,,WFO CHS,,,,,,,,,,,,,,,,,,,,,,,,,,,30.07,56,76,0.00,,,,50,30.07,FEW:02 100,30.02,10.00,64,170,,13,,,,,,,,,,,,,,,,,,,,,,,,,,,,,,,,,,,,,MET09904/03/10 16:56:02 METAR KCHS 032156Z 17011KT 10SM FEW100 24/13 A3007 RMK AO2 SLP182 T02440133 (WRB),,,,,,,,,,,,,,,,,,,,,,,,,,,,
72208013880,2010-04-04T12:56:00,FM-15,7,,SE,0.25,mi,"TEMP, PRECIP, SNOW",,,"MMTS, SRG, SNOWBOARD",,,WFO CHS,,,,,,,,,,,,,,,,,,,,,,,,,,,30.16,61,83,0.00,,+0.05,8,48,30.16,FEW:02 50,30.11,10.00,69,170,,11,,,,,,,,,,,,,,,,,,,,,,,,,,,,,,,,,,,,,MET11704/04/10 12:56:02 METAR KCHS 041756Z 17010KT 10SM FEW050 28/16 A3016 RMK AO2 SLP213 T02830161 10283 20161 58016 (JRS),,,,,,,,,,,,,,,,,,,,,,,,,,,,
72208013880,2010-04-04T13:00:00,FM-12,4,,SE,0.25,mi,"TEMP, PRECIP, SNOW",,,"MMTS, SRG, SNOWBOARD",,,WFO CHS,,,,,,,,,,,,,,,,,,,,,,,,,,,,61,83,,,+0.05,8,48,30.16,,30.11,9.94,69,170,,11,,,,,,,,,,,,,,,,,,,,,,,,,,,,,,,,,,,,,SYN092AAXX  04184 72208 32766 21710 10283 20161 30197 40213 58016 91756 333 10283 20161 555 90418;,,,,,,,,,,,,,,,,,,,,,,,,,,,,
72208013880,2010-04-04T13:56:00,FM-15,7,,SE,0.25,mi,"TEMP, PRECIP, SNOW",,,"MMTS, SRG, SNOWBOARD",,,WFO CHS,,,,,,,,,,,,,,,,,,,,,,,,,,,30.13,60,83,0.00,,,,46,30.13,FEW:02 50,30.08,10.00,68,150,,14,,,,,,,,,,,,,,,,,,,,,,,,,,,,,,,,,,,,,MET09904/04/10 13:56:02 METAR KCHS 041856Z 15012KT 10SM FEW050 28/16 A3013 RMK AO2 SLP203 T02830156 (JRS),,,,,,,,,,,,,,,,,,,,,,,,,,,,
72208013880,2010-04-04T15:56:00,FM-15,7,,SE,0.25,mi,"TEMP, PRECIP, SNOW",,,"MMTS, SRG, SNOWBOARD",,,WFO CHS,,,,,,,,,,,,,,,,,,,,,,,,,,,30.12,57,81,0.00,,+0.04,5,44,30.11,FEW:02 55,30.07,10.00,66,170,,14,,,,,,,,,,,,,,,,,,,,,,,,,,,,,,,,,,,,,MET10504/04/10 15:56:02 METAR KCHS 042056Z 17012KT 10SM FEW055 27/14 A3012 RMK AO2 SLP198 T02720139 55015 (WRB),,,,,,,,,,,,,,,,,,,,,,,,,,,,
72208013880,2010-04-04T16:00:00,FM-12,4,,SE,0.25,mi,"TEMP, PRECIP, SNOW",,,"MMTS, SRG, SNOWBOARD",,,WFO CHS,,,,,,,,,,,,,,,,,,,,,,,,,,,,57,81,,,+0.04,5,44,30.11,,30.07,9.94,66,170,,14,,,,,,,,,,,,,,,,,,,,,,,,,,,,,,,,,,,,,SYN076AAXX  04214 72208 32766 21712 10272 20139 30184 40198 55015 92056 555 90421;,,,,,,,,,,,,,,,,,,,,,,,,,,,,
72208013880,2010-04-05T13:00:00,FM-12,4,,SE,0.25,mi,"TEMP, PRECIP, SNOW",,,"MMTS, SRG, SNOWBOARD",,,WFO CHS,,,,,,,,,,,,,,,,,,,,,,,,,,,,58,86,,,+0.06,8,39,30.18,CLR:00,30.14,9.94,68,170,,10,,,,,,,,,,,,,,,,,,,,,,,,,,,,,,,,,,,,,SYN092AAXX  05184 72208 32966 01709 10300 20144 30207 40221 58020 91756 333 10300 20178 555 90518;,,,,,,,,,,,,,,,,,,,,,,,,,,,,
72208013880,2010-04-05T13:56:00,FM-15,7,,SE,0.25,mi,"TEMP, PRECIP, SNOW",,,"MMTS, SRG, SNOWBOARD",,,WFO CHS,,,,,,,,,,,,,,,,,,,,,,,,,,,30.17,60,87,0.00,,,,40,30.16,,30.12,10.00,70,170,,11,,,,,,,,,,,,,,,,,,,,,,,,,,,,,,,,,,,,,MET09604/05/10 13:56:02 METAR KCHS 051856Z 17010KT 10SM CLR 31/16 A3017 RMK AO2 SLP215 T03060156 (KPL),,,,,,,,,,,,,,,,,,,,,,,,,,,,
72208013880,2010-04-07T13:56:00,FM-15,7,,SE,0.25,mi,"TEMP, PRECIP, SNOW",,,"MMTS, SRG, SNOWBOARD",,,WFO CHS,,,,,,,,,,,,,,,,,,,,,,,,,,,30.03,63,81,0.00,,,,54,30.03,FEW:02 38,29.98,10.00,69,170,18,13,,,,,,,,,,,,,,,,,,,,,,,,,,,,,,,,,,,,,MET10204/07/10 13:56:02 METAR KCHS 071856Z 17011G16KT 10SM FEW038 27/17 A3003 RMK AO2 SLP168 T02720172 (JRS),,,,,,,,,,,,,,,,,,,,,,,,,,,,
72208013880,2010-04-07T14:56:00,FM-15,7,,SE,0.25,mi,"TEMP, PRECIP, SNOW",,,"MMTS, SRG, SNOWBOARD",,,WFO CHS,,,,,,,,,,,,,,,,,,,,,,,,,,,30.02,61,78,0.00,,,,56,30.01,FEW:02 45,29.97,10.00,67,170,,15,,,,,,,,,,,,,,,,,,,,,,,,,,,,,,,,,,,,,MET09904/07/10 14:56:02 METAR KCHS 071956Z 17013KT 10SM FEW045 26/16 A3002 RMK AO2 SLP163 T02560161 (JRS),,,,,,,,,,,,,,,,,,,,,,,,,,,,
72208013880,2010-04-10T15:56:00,FM-15,7,,SE,0.25,mi,"TEMP, PRECIP, SNOW",,,"MMTS, SRG, SNOWBOARD",,,WFO CHS,,,,,,,,,,,,,,,,,,,,,,,,,,,30.32,38,70,0.00,,+0.03,6,31,30.31,,30.27,10.00,54,170,,14,,,,,,,,,,,,,,,,,,,,,,,,,,,,,,,,,,,,,MET10204/10/10 15:56:02 METAR KCHS 102056Z 17012KT 10SM CLR 21/03 A3032 RMK AO2 SLP265 T02110033 56009 (WRB),,,,,,,,,,,,,,,,,,,,,,,,,,,,
72208013880,2010-04-10T16:00:00,FM-12,4,,SE,0.25,mi,"TEMP, PRECIP, SNOW",,,"MMTS, SRG, SNOWBOARD",,,WFO CHS,,,,,,,,,,,,,,,,,,,,,,,,,,,,38,70,,,+0.03,6,31,30.31,CLR:00,30.27,9.94,54,170,,14,,,,,,,,,,,,,,,,,,,,,,,,,,,,,,,,,,,,,SYN076AAXX  10214 72208 32966 01712 10211 20033 30251 40265 56009 92056 555 91021;,,,,,,,,,,,,,,,,,,,,,,,,,,,,
72208013880,2010-04-11T14:56:00,FM-15,7,,SE,0.25,mi,"TEMP, PRECIP, SNOW",,,"MMTS, SRG, SNOWBOARD",,,WFO CHS,,,,,,,,,,,,,,,,,,,,,,,,,,,30.25,49,73,0.00,,,,43,30.24,FEW:02 45,30.20,10.00,60,170,,14,,,,,,,,,,,,,,,,,,,,,,,,,,,,,,,,,,,,,MET09904/11/10 14:56:02 METAR KCHS 111956Z 17012KT 10SM FEW045 23/09 A3025 RMK AO2 SLP242 T02280094 (JRS),,,,,,,,,,,,,,,,,,,,,,,,,,,,
72208013880,2010-04-11T15:56:00,SY-MT,7,,SE,0.25,mi,"TEMP, PRECIP, SNOW",,,"MMTS, SRG, SNOWBOARD",,,WFO CHS,,,,,,,,,,,,,,,,,,,,,,,,,,,30.24,52,71,0.00,,+0.05,6,51,30.24,FEW:02 47,30.19,10.00,60,170,,14,,,,,,,,,,,,,,,,,,,,,,,,,,,,,,,,,,,,,SYN076AAXX  11214 72208 32666 21712 10217 20111 30224 40240 56017 92056 555 91121;MET10504/11/10 15:56:02 METAR KCHS 112056Z 17012KT 10SM FEW047 22/11 A3024 RMK AO2 SLP240 T02170111 56017 (WRB),,,,,,,,,,,,,,,,,,,,,,,,,,,,
72208013880,2010-04-15T15:56:00,SY-MT,7,,SE,0.25,mi,"TEMP, PRECIP, SNOW",,,"MMTS, SRG, SNOWBOARD",,,WFO CHS,,,,,,,,,,,,,,,,,,,,,,,,,,,30.31,52,72,0.00,,+0.07,6,50,30.31,,30.26,10.00,61,150,,8,,,,,,,,,,,,,,,,,,,,,,,,,,,,,,,,,,,,,SYN076AAXX  15214 72208 32966 01507 10222 20111 30248 40263 56025 92056 555 91521;MET10204/15/10 15:56:02 METAR KCHS 152056Z 15007KT 10SM CLR 22/11 A3031 RMK AO2 SLP263 T02220111 56025 (AWS),,,,,,,,,,,,,,,,,,,,,,,,,,,,
72208013880,2010-04-15T16:56:00,FM-15,7,,SE,0.25,mi,"TEMP, PRECIP, SNOW",,,"MMTS, SRG, SNOWBOARD",,,WFO CHS,,,,,,,,,,,,,,,,,,,,,,,,,,,30.31,51,71,0.00,,,,49,30.31,,30.26,10.00,60,150,,7,,,,,,,,,,,,,,,,,,,,,,,,,,,,,,,,,,,,,MET09604/15/10 16:56:02 METAR KCHS 152156Z 15006KT 10SM CLR 22/11 A3031 RMK AO2 SLP263 T02170106 (AWS),,,,,,,,,,,,,,,,,,,,,,,,,,,,
72208013880,2010-04-15T17:56:00,FM-15,7,,SE,0.25,mi,"TEMP, PRECIP, SNOW",,,"MMTS, SRG, SNOWBOARD",,,WFO CHS,,,,,,,,,,,,,,,,,,,,,,,,,,,30.30,49,67,0.00,,,,53,30.30,,30.25,10.00,57,170,,9,,,,,,,,,,,,,,,,,,,,,,,,,,,,,,,,,,,,,MET09604/15/10 17:56:02 METAR KCHS 152256Z 17008KT 10SM CLR 19/09 A3030 RMK AO2 SLP261 T01940094 (AWS),,,,,,,,,,,,,,,,,,,,,,,,,,,,
72208013880,2010-04-19T11:56:00,FM-15,7,,SE,0.25,mi,"TEMP, PRECIP, SNOW",,,"MMTS, SRG, SNOWBOARD",,,WFO CHS,,,,,,,,,,,,,,,,,,,,,,,,,,,30.06,42,69,0.00,,,,38,30.05,FEW:02 50,30.01,10.00,55,160,,7,,,,,,,,,,,,,,,,,,,,,,,,,,,,,,,,,,,,,MET09904/19/10 11:56:02 METAR KCHS 191656Z 16006KT 10SM FEW050 21/06 A3006 RMK AO2 SLP177 T02060056 (KPL),,,,,,,,,,,,,,,,,,,,,,,,,,,,
72208013880,2010-04-19T16:56:00,FM-15,7,,SE,0.25,mi,"TEMP, PRECIP, SNOW",,,"MMTS, SRG, SNOWBOARD",,,WFO CHS,,,,,,,,,,,,,,,,,,,,,,,,,,,30.00,47,67,0.00,,,,49,29.99,FEW:02 60,29.95,10.00,56,150,,8,,,,,,,,,,,,,,,,,,,,,,,,,,,,,,,,,,,,,MET09904/19/10 16:56:02 METAR KCHS 192156Z 15007KT 10SM FEW060 19/08 A3000 RMK AO2 SLP157 T01940083 (AWS),,,,,,,,,,,,,,,,,,,,,,,,,,,,
72208013880,2010-04-19T17:56:00,FM-15,7,,SE,0.25,mi,"TEMP, PRECIP, SNOW",,,"MMTS, SRG, SNOWBOARD",,,WFO CHS,,,,,,,,,,,,,,,,,,,,,,,,,,,30.00,47,64,0.00,,,,54,30.00,,29.95,10.00,55,150,,7,,,,,,,,,,,,,,,,,,,,,,,,,,,,,,,,,,,,,MET09604/19/10 17:56:02 METAR KCHS 192256Z 15006KT 10SM CLR 18/08 A3000 RMK AO2 SLP158 T01780083 (AWS),,,,,,,,,,,,,,,,,,,,,,,,,,,,
72208013880,2010-04-20T14:56:00,FM-15,7,,SE,0.25,mi,"TEMP, PRECIP, SNOW",,,"MMTS, SRG, SNOWBOARD",,,WFO CHS,,,,,,,,,,,,,,,,,,,,,,,,,,,29.96,46,74,0.00,,,,37,29.96,FEW:02 55,29.91,10.00,59,160,16,10,,,,,,,,,,,,,,,,,,,,,,,,,,,,,,,,,,,,,MET10204/20/10 14:56:02 METAR KCHS 201956Z 16009G14KT 10SM FEW055 23/08 A2996 RMK AO2 SLP145 T02330078 (AWS),,,,,,,,,,,,,,,,,,,,,,,,,,,,
72208013880,2010-04-20T15:56:00,FM-15,7,,SE,0.25,mi,"TEMP, PRECIP, SNOW",,,"MMTS, SRG, SNOWBOARD",,,WFO CHS,,,,,,,,,,,,,,,,,,,,,,,,,,,29.96,43,70,0.00,,+0.04,6,38,29.96,,29.91,10.00,56,150,,10,,,,,,,,,,,,,,,,,,,,,,,,,,,,,,,,,,,,,MET10204/20/10 15:56:02 METAR KCHS 202056Z 15009KT 10SM CLR 21/06 A2996 RMK AO2 SLP144 T02110061 56013 (AWS),,,,,,,,,,,,,,,,,,,,,,,,,,,,
72208013880,2010-04-20T16:00:00,FM-12,4,,SE,0.25,mi,"TEMP, PRECIP, SNOW",,,"MMTS, SRG, SNOWBOARD",,,WFO CHS,,,,,,,,,,,,,,,,,,,,,,,,,,,,43,70,,,+0.04,6,38,29.96,CLR:00,29.91,9.94,56,150,,10,,,,,,,,,,,,,,,,,,,,,,,,,,,,,,,,,,,,,SYN076AAXX  20214 72208 32966 01509 10211 20061 30129 40144 56013 92056 555 92021;,,,,,,,,,,,,,,,,,,,,,,,,,,,,
72208013880,2010-04-20T16:56:00,FM-15,7,,SE,0.25,mi,"TEMP, PRECIP, SNOW",,,"MMTS, SRG, SNOWBOARD",,,WFO CHS,,,,,,,,,,,,,,,,,,,,,,,,,,,29.96,42,69,0.00,,,,38,29.95,SCT:04 110,29.91,10.00,55,150,,13,,,,,,,,,,,,,,,,,,,,,,,,,,,,,,,,,,,,,MET10904/20/10 16:56:02 METAR KCHS 202156Z 15011KT 10SM SCT110 21/06 A2996 RMK AO2 SLP143 VIRGA OHD T02060056 (AWS),,,,,,,,,,,,,,,,,,,,,,,,,,,,
72208013880,2010-04-20T17:56:00,FM-15,7,,SE,0.25,mi,"TEMP, PRECIP, SNOW",,,"MMTS, SRG, SNOWBOARD",,,WFO CHS,,,,,,,,,,,,,,,,,,,,,,,,,,,29.95,47,67,0.00,,,,49,29.94,SCT:04 110,29.90,10.00,56,150,,14,,,,,,,,,,,,,,,,,,,,,,,,,,,,,,,,,,,,,MET09904/20/10 17:56:02 METAR KCHS 202256Z 15012KT 10SM SCT110 19/08 A2995 RMK AO2 SLP140 T01940083 (AWS),,,,,,,,,,,,,,,,,,,,,,,,,,,,
72208013880,2010-05-03T11:56:00,FM-15,7,,SE,0.25,mi,"TEMP, PRECIP, SNOW",,,"MMTS, SRG, SNOWBOARD",,,WFO CHS,,,,,,,,,,,,,,,,,,,,,,,,,,,30.04,72,82,0.00,,,,72,30.04,BKN:07 16,29.99,8.00,75,170,,11,,,,,,,,,,,,,,,,,,,,,,,,,,,,,,,,,,,,,MET09805/03/10 11:56:02 METAR KCHS 031656Z 17010KT 8SM BKN016 28/22 A3004 RMK AO2 SLP173 T02780222 (AWS),,,,,,,,,,,,,,,,,,,,,,,,,,,,
72208013880,2010-05-03T13:56:00,FM-15,7,,SE,0.25,mi,"TEMP, PRECIP, SNOW",,,"MMTS, SRG, SNOWBOARD",,,WFO CHS,,,,,,,,,,,,,,,,,,,,,,,,,,,30.02,72,83,0.00,,,,70,30.02,FEW:02 16,29.97,7.00,75,160,,15,,,,,,,,,,,,,,,,,,,,,,,,,,,,,,,,,,,,,MET09805/03/10 13:56:02 METAR KCHS 031856Z 16013KT 7SM FEW016 28/22 A3002 RMK AO2 SLP165 T02830222 (AWS),,,,,,,,,,,,,,,,,,,,,,,,,,,,
72208013880,2010-05-04T15:56:00,FM-15,7,,SE,0.25,mi,"TEMP, PRECIP, SNOW",,,"MMTS, SRG, SNOWBOARD",,,WFO CHS,,,,,,,,,,,,,,,,,,,,,,,,,,,29.93,67,70,T,-RA:02 |RA |RA,+0.03,5,90,29.93,SCT:04 25 BKN:07 110,29.88,8.00,68,160,,11,,,,,,,,,,,,,,,,,,,,,,,,,,,,,,,,,,,,,MET13305/04/10 15:56:02 METAR KCHS 042056Z 16010KT 8SM -RA SCT025 BKN110 21/19 A2993 RMK AO2 RAB40 SLP136 P0000 60010 T02110194 55011 (AWS),,,,,,,,,,,,,,,,,,,,,,,,,,,,
72208013880,2010-05-04T16:00:00,FM-12,4,,SE,0.25,mi,"TEMP, PRECIP, SNOW",,,"MMTS, SRG, SNOWBOARD",,,WFO CHS,,,,,,,,,,,,,,,,,,,,,,,,,,,,67,70,,||RA,+0.03,5,90,29.93,,29.88,7.46,68,160,,11,,,,,,,,,,,,,,,,,,,,,,,,,,,,,,,,,,,,,SYN088AAXX  04214 72208 11562 61610 10211 20194 30119 40136 55011 60037 761// 92056 555 90421;,,,,,,,,,,,,,,,,,,,,,,,,,,,,
72208013880,2010-05-05T14:41:00,FM-16,7,,SE,0.25,mi,"TEMP, PRECIP, SNOW",,,"MMTS, SRG, SNOWBOARD",,,WFO CHS,,,,,,,,,,,,,,,,,,,,,,,,,,,29.96,66,81,,,,,62,,SCT:04 29 BKN:07 36,29.91,10.00,71,160,,10,,,,,,,,,,,,,,,,,,,,,,,,,,,,,,,,,,,,,MET08905/05/10 14:41:02 SPECI KCHS 051941Z 16009KT 10SM SCT029 BKN036 27/19 A2996 RMK AO2 (KPL),,,,,,,,,,,,,,,,,,,,,,,,,,,,
72208013880,2010-05-05T14:54:00,FM-16,6,,SE,0.25,mi,"TEMP, PRECIP, SNOW",,,"MMTS, SRG, SNOWBOARD",,,WFO CHS,,,,,,,,,,,,,,,,,,,,,,,,,,,29.95,66,82,,,,,58,,SCT:04 29 BKN:07 36,29.90,10.00,71,170,,13,,,,,,,,,,,,,,,,,,,,,,,,,,,,,,,,,,,,,MET09405/05/10 14:54:02 SPECI KCHS 051954Z 17011KT 10SM SCT029 BKN036 28/19 A2995 RMK AO2 FIBI (KPL),,,,,,,,,,,,,,,,,,,,,,,,,,,,
72208013880,2010-05-05T14:56:00,FM-15,7,,SE,0.25,mi,"TEMP, PRECIP, SNOW",,,"MMTS, SRG, SNOWBOARD",,,WFO CHS,,,,,,,,,,,,,,,,,,,,,,,,,,,29.95,68,83,0.00,,,,61,29.95,SCT:04 29 BKN:07 36,29.90,10.00,73,160,,11,,,,,,,,,,,,,,,,,,,,,,,,,,,,,,,,,,,,,MET10605/05/10 14:56:02 METAR KCHS 051956Z 16010KT 10SM SCT029 BKN036 28/20 A2995 RMK AO2 SLP143 T02830200 (KPL),,,,,,,,,,,,,,,,,,,,,,,,,,,,
72208013880,2010-05-05T15:03:00,FM-16,7,,SE,0.25,mi,"TEMP, PRECIP, SNOW",,,"MMTS, SRG, SNOWBOARD",,,WFO CHS,,,,,,,,,,,,,,,,,,,,,,,,,,,29.95,66,82,,,,,58,,BKN:07 29 BKN:07 36,29.90,10.00,71,160,,13,,,,,,,,,,,,,,,,,,,,,,,,,,,,,,,,,,,,,MET08905/05/10 15:03:02 SPECI KCHS 052003Z 16011KT 10SM BKN029 BKN036 28/19 A2995 RMK AO2 (KPL),,,,,,,,,,,,,,,,,,,,,,,,,,,,
72208013880,2010-05-05T15:34:00,FM-16,7,,SE,0.25,mi,"TEMP, PRECIP, SNOW",,,"MMTS, SRG, SNOWBOARD",,,WFO CHS,,,,,,,,,,,,,,,,,,,,,,,,,,,29.95,66,82,,,,,58,,SCT:04 29 SCT:04 36,29.90,10.00,71,160,,14,,,,,,,,,,,,,,,,,,,,,,,,,,,,,,,,,,,,,MET08905/05/10 15:34:02 SPECI KCHS 052034Z 16012KT 10SM SCT029 SCT036 28/19 A2995 RMK AO2 (BBE),,,,,,,,,,,,,,,,,,,,,,,,,,,,
72208013880,2010-05-05T15:56:00,FM-15,7,,SE,0.25,mi,"TEMP, PRECIP, SNOW",,,"MMTS, SRG, SNOWBOARD",,,WFO CHS,,,,,,,,,,,,,,,,,,,,,,,,,,,29.95,67,81,0.00,,+0.02,6,62,29.94,SCT:04 30,29.90,10.00,72,160,,13,,,,,,,,,,,,,,,,,,,,,,,,,,,,,,,,,,,,,MET10505/05/10 15:56:02 METAR KCHS 052056Z 16011KT 10SM SCT030 27/19 A2995 RMK AO2 SLP140 T02720194 56006 (BBE),,,,,,,,,,,,,,,,,,,,,,,,,,,,
72208013880,2010-05-05T16:00:00,FM-12,4,,SE,0.25,mi,"TEMP, PRECIP, SNOW",,,"MMTS, SRG, SNOWBOARD",,,WFO CHS,,,,,,,,,,,,,,,,,,,,,,,,,,,,67,81,,,+0.02,6,62,29.94,,29.90,9.94,72,160,,13,,,,,,,,,,,,,,,,,,,,,,,,,,,,,,,,,,,,,SYN076AAXX  05214 72208 32566 41611 10272 20194 30126 40140 56006 92056 555 90521;,,,,,,,,,,,,,,,,,,,,,,,,,,,,
72208013880,2010-05-05T16:56:00,FM-15,7,,SE,0.25,mi,"TEMP, PRECIP, SNOW",,,"MMTS, SRG, SNOWBOARD",,,WFO CHS,,,,,,,,,,,,,,,,,,,,,,,,,,,29.95,67,80,0.00,,,,64,29.94,SCT:04 29,29.90,10.00,71,160,,9,,,,,,,,,,,,,,,,,,,,,,,,,,,,,,,,,,,,,MET09905/05/10 16:56:02 METAR KCHS 052156Z 16008KT 10SM SCT029 27/19 A2995 RMK AO2 SLP140 T02670194 (BBE),,,,,,,,,,,,,,,,,,,,,,,,,,,,
72208013880,2010-05-06T15:56:00,FM-15,7,,SE,0.25,mi,"TEMP, PRECIP, SNOW",,,"MMTS, SRG, SNOWBOARD",,,WFO CHS,,,,,,,,,,,,,,,,,,,,,,,,,,,29.92,68,85,0.00,,+0.03,5,57,29.91,FEW:02 50,29.87,10.00,74,160,,13,,,,,,,,,,,,,,,,,,,,,,,,,,,,,,,,,,,,,MET10505/06/10 15:56:02 METAR KCHS 062056Z 16011KT 10SM FEW050 29/20 A2992 RMK AO2 SLP130 T02940200 55011 (BBE),,,,,,,,,,,,,,,,,,,,,,,,,,,,
72208013880,2010-05-06T16:00:00,FM-12,4,,SE,0.25,mi,"TEMP, PRECIP, SNOW",,,"MMTS, SRG, SNOWBOARD",,,WFO CHS,,,,,,,,,,,,,,,,,,,,,,,,,,,,68,85,,,+0.03,5,57,29.91,,29.87,9.94,74,160,,13,,,,,,,,,,,,,,,,,,,,,,,,,,,,,,,,,,,,,SYN076AAXX  06214 72208 32766 21611 10294 20200 30116 40130 55011 92056 555 90621;,,,,,,,,,,,,,,,,,,,,,,,,,,,,
72208013880,2010-05-11T11:56:00,FM-15,7,,SE,0.25,mi,"TEMP, PRECIP, SNOW",,,"MMTS, SRG, SNOWBOARD",,,WFO CHS,,,,,,,,,,,,,,,,,,,,,,,,,,,30.32,60,74,0.00,,,,62,30.31,FEW:02 32 BKN:07 42 OVC:08 55,30.27,10.00,65,150,,11,,,,,,,,,,,,,,,,,,,,,,,,,,,,,,,,,,,,,MET11305/11/10 11:56:02 METAR KCHS 111656Z 15010KT 10SM FEW032 BKN042 OVC055 23/16 A3032 RMK AO2 SLP265 T02330156 (AWS),,,,,,,,,,,,,,,,,,,,,,,,,,,,
72208013880,2010-05-11T12:56:00,FM-15,7,,SE,0.25,mi,"TEMP, PRECIP, SNOW",,,"MMTS, SRG, SNOWBOARD",,,WFO CHS,,,,,,,,,,,,,,,,,,,,,,,,,,,30.31,60,73,0.00,,-0.00,0,64,30.31,SCT:04 37 OVC:08 46,30.26,10.00,65,160,,8,,,,,,,,,,,,,,,,,,,,,,,,,,,,,,,,,,,,,MET12405/11/10 12:56:02 METAR KCHS 111756Z 16007KT 10SM SCT037 OVC046 23/16 A3031 RMK AO2 SLP263 T02280156 10239 20206 50001 (AWS),,,,,,,,,,,,,,,,,,,,,,,,,,,,
72208013880,2010-05-11T13:00:00,FM-12,4,,SE,0.25,mi,"TEMP, PRECIP, SNOW",,,"MMTS, SRG, SNOWBOARD",,,WFO CHS,,,,,,,,,,,,,,,,,,,,,,,,,,,,60,73,,,-0.00,0,64,30.31,,30.26,9.94,65,160,,8,,,,,,,,,,,,,,,,,,,,,,,,,,,,,,,,,,,,,SYN092AAXX  11184 72208 32666 81607 10228 20156 30248 40263 50001 91756 333 10239 20194 555 91118;,,,,,,,,,,,,,,,,,,,,,,,,,,,,
72208013880,2010-05-11T13:56:00,FM-15,7,,SE,0.25,mi,"TEMP, PRECIP, SNOW",,,"MMTS, SRG, SNOWBOARD",,,WFO CHS,,,,,,,,,,,,,,,,,,,,,,,,,,,30.29,57,75,0.00,,,,54,30.29,FEW:02 47 OVC:08 60,30.24,10.00,64,170,,11,,,,,,,,,,,,,,,,,,,,,,,,,,,,,,,,,,,,,MET10605/11/10 13:56:02 METAR KCHS 111856Z 17010KT 10SM FEW047 OVC060 24/14 A3029 RMK AO2 SLP257 T02390139 (AWS),,,,,,,,,,,,,,,,,,,,,,,,,,,,
72208013880,2010-05-11T14:56:00,FM-15,7,,SE,0.25,mi,"TEMP, PRECIP, SNOW",,,"MMTS, SRG, SNOWBOARD",,,WFO CHS,,,,,,,,,,,,,,,,,,,,,,,,,,,30.25,58,77,0.00,,,,52,30.25,SCT:04 47 OVC:08 65,30.20,10.00,65,170,,14,,,,,,,,,,,,,,,,,,,,,,,,,,,,,,,,,,,,,MET11305/11/10 14:56:02 METAR KCHS 111956Z 17012KT 10SM SCT047 OVC065 25/14 A3025 RMK AO2 PRESFR SLP244 T02500144 (AWS),,,,,,,,,,,,,,,,,,,,,,,,,,,,
72208013880,2010-05-13T11:56:00,FM-15,7,,SE,0.25,mi,"TEMP, PRECIP, SNOW",,,"MMTS, SRG, SNOWBOARD",,,WFO CHS,,,,,,,,,,,,,,,,,,,,,,,,,,,30.25,67,84,0.00,,,,57,30.24,FEW:02 35,30.20,10.00,73,170,,7,,,,,,,,,,,,,,,,,,,,,,,,,,,,,,,,,,,,,MET09905/13/10 11:56:02 METAR KCHS 131656Z 17006KT 10SM FEW035 29/19 A3025 RMK AO2 SLP242 T02890194 (AWS),,,,,,,,,,,,,,,,,,,,,,,,,,,,
72208013880,2010-05-13T14:56:00,FM-15,7,,SE,0.25,mi,"TEMP, PRECIP, SNOW",,,"MMTS, SRG, SNOWBOARD",,,WFO CHS,,,,,,,,,,,,,,,,,,,,,,,,,,,30.22,66,85,0.00,,,,53,30.22,FEW:02 36,30.17,10.00,72,150,,11,,,,,,,,,,,,,,,,,,,,,,,,,,,,,,,,,,,,,MET09905/13/10 14:56:02 METAR KCHS 131956Z 15010KT 10SM FEW036 29/19 A3022 RMK AO2 SLP232 T02940189 (AWS),,,,,,,,,,,,,,,,,,,,,,,,,,,,
72208013880,2010-05-13T15:56:00,FM-15,7,,SE,0.25,mi,"TEMP, PRECIP, SNOW",,,"MMTS, SRG, SNOWBOARD",,,WFO CHS,,,,,,,,,,,,,,,,,,,,,,,,,,,30.22,65,84,0.00,,+0.02,6,53,30.22,FEW:02 35,30.17,10.00,72,170,,10,,,,,,,,,,,,,,,,,,,,,,,,,,,,,,,,,,,,,MET10505/13/10 15:56:02 METAR KCHS 132056Z 17009KT 10SM FEW035 29/18 A3022 RMK AO2 SLP232 T02890183 56007 (BBE),,,,,,,,,,,,,,,,,,,,,,,,,,,,
72208013880,2010-05-13T16:00:00,FM-12,4,,SE,0.25,mi,"TEMP, PRECIP, SNOW",,,"MMTS, SRG, SNOWBOARD",,,WFO CHS,,,,,,,,,,,,,,,,,,,,,,,,,,,,65,84,,,+0.02,6,53,30.22,,30.17,9.94,72,170,,10,,,,,,,,,,,,,,,,,,,,,,,,,,,,,,,,,,,,,SYN076AAXX  13214 72208 32666 21709 10289 20183 30217 40232 56007 92056 555 91321;,,,,,,,,,,,,,,,,,,,,,,,,,,,,
72208013880,2010-05-14T12:56:00,SY-MT,7,,SE,0.25,mi,"TEMP, PRECIP, SNOW",,,"MMTS, SRG, SNOWBOARD",,,WFO CHS,,,,,,,,,,,,,,,,,,,,,,,,,,,30.30,64,84,0.00,,+0.03,6,51,30.30,FEW:02 39,30.25,10.00,71,160,,8,,,,,,,,,,,,,,,,,,,,,,,,,,,,,,,,,,,,,SYN092AAXX  14184 72208 32666 21607 10289 20178 30244 40260 56009 91756 333 10294 20222 555 91418;MET11705/14/10 12:56:02 METAR KCHS 141756Z 16007KT 10SM FEW039 29/18 A3030 RMK AO2 SLP260 T02890178 10294 20222 56009 (AWS),,,,,,,,,,,,,,,,,,,,,,,,,,,,
72208013880,2010-05-16T14:56:00,FM-15,7,,SE,0.25,mi,"TEMP, PRECIP, SNOW",,,"MMTS, SRG, SNOWBOARD",,,WFO CHS,,,,,,,,,,,,,,,,,,,,,,,,,,,30.03,70,85,0.00,,,,61,30.02,FEW:02 34,29.98,10.00,75,170,,16,,,,,,,,,,,,,,,,,,,,,,,,,,,,,,,,,,,,,MET09905/16/10 14:56:02 METAR KCHS 161956Z 17014KT 10SM FEW034 29/21 A3003 RMK AO2 SLP167 T02940211 (JRS),,,,,,,,,,,,,,,,,,,,,,,,,,,,
72208013880,2010-05-16T16:56:00,FM-15,7,,SE,0.25,mi,"TEMP, PRECIP, SNOW",,,"MMTS, SRG, SNOWBOARD",,,WFO CHS,,,,,,,,,,,,,,,,,,,,,,,,,,,30.00,69,81,0.00,,,,67,29.99,FEW:02 15 SCT:04 40,29.95,10.00,73,170,,14,,,,,,,,,,,,,,,,,,,,,,,,,,,,,,,,,,,,,MET11705/16/10 16:56:02 METAR KCHS 162156Z 17012KT 10SM FEW015 SCT040 27/21 A3000 RMK AO2 SLP156 CB DSNT NW T02720206 (WRB),,,,,,,,,,,,,,,,,,,,,,,,,,,,
72208013880,2010-05-22T11:56:00,FM-15,7,,SE,0.25,mi,"TEMP, PRECIP, SNOW",,,"MMTS, SRG, SNOWBOARD",,,WFO CHS,,,,,,,,,,,,,,,,,,,,,,,,,,,30.10,68,84,0.00,,,,59,30.09,SCT:04 33,30.05,10.00,73,150,,11,,,,,,,,,,,,,,,,,,,,,,,,,,,,,,,,,,,,,MET09905/22/10 11:56:02 METAR KCHS 221656Z 15010KT 10SM SCT033 29/20 A3010 RMK AO2 SLP190 T02890200 (JRS),,,,,,,,,,,,,,,,,,,,,,,,,,,,
72208013880,2010-05-22T12:56:00,FM-15,7,,SE,0.25,mi,"TEMP, PRECIP, SNOW",,,"MMTS, SRG, SNOWBOARD",,,WFO CHS,,,,,,,,,,,,,,,,,,,,,,,,,,,30.09,67,82,0.00,,+0.03,6,60,30.09,SCT:04 35 BKN:07 45,30.04,10.00,72,160,,13,,,,,,,,,,,,,,,,,,,,,,,,,,,,,,,,,,,,,MET13505/22/10 12:56:02 METAR KCHS 221756Z 16011KT 10SM SCT035TCU BKN045 28/19 A3009 RMK AO2 SLP188 TCU W-N T02780194 10300 20239 56011 (JRS),,,,,,,,,,,,,,,,,,,,,,,,,,,,
72208013880,2010-05-22T13:00:00,FM-12,4,,SE,0.25,mi,"TEMP, PRECIP, SNOW",,,"MMTS, SRG, SNOWBOARD",,,WFO CHS,,,,,,,,,,,,,,,,,,,,,,,,,,,,67,82,,,+0.03,6,60,30.09,,30.04,9.94,72,160,,13,,,,,,,,,,,,,,,,,,,,,,,,,,,,,,,,,,,,,SYN092AAXX  22184 72208 32666 61611 10278 20194 30173 40188 56011 91756 333 10300 20239 555 92218;,,,,,,,,,,,,,,,,,,,,,,,,,,,,
72208013880,2010-05-22T14:56:00,FM-15,7,,SE,0.25,mi,"TEMP, PRECIP, SNOW",,,"MMTS, SRG, SNOWBOARD",,,WFO CHS,,,,,,,,,,,,,,,,,,,,,,,,,,,30.06,69,79,T,-RA:02 |RA |RA,,,72,30.06,FEW:02 25 SCT:04 40 BKN:07 100,30.01,10.00,72,170,,8,,,,,,,,,,,,,,,,,,,,,,,,,,,,,,,,,,,,,MET12905/22/10 14:56:02 METAR KCHS 221956Z 17007KT 10SM -RA FEW025 SCT040 BKN100 26/21 A3006 RMK AO2 RAB16 SLP179 P0000 T02610206 (JRS),,,,,,,,,,,,,,,,,,,,,,,,,,,,
72208013880,2010-05-22T15:56:00,FM-15,7,,SE,0.25,mi,"TEMP, PRECIP, SNOW",,,"MMTS, SRG, SNOWBOARD",,,WFO CHS,,,,,,,,,,,,,,,,,,,,,,,,,,,30.05,67,82,T,,+0.04,6,60,30.05,FEW:02 18 SCT:04 40 SCT:04 100,30.00,10.00,72,150,,9,,,,,,,,,,,,,,,,,,,,,,,,,,,,,,,,,,,,,MET15605/22/10 15:56:02 METAR KCHS 222056Z 15008KT 10SM FEW018 SCT040 SCT100 28/19 A3005 RMK AO2 RAE03 SLP175 CB DSNT N AND SW-W P0000 60005 T02780194 56013 (WRB),,,,,,,,,,,,,,,,,,,,,,,,,,,,
72208013880,2010-05-22T16:00:00,FM-12,4,,SE,0.25,mi,"TEMP, PRECIP, SNOW",,,"MMTS, SRG, SNOWBOARD",,,WFO CHS,,,,,,,,,,,,,,,,,,,,,,,,,,,,67,82,,,+0.04,6,60,30.05,,30.00,9.94,72,150,,9,,,,,,,,,,,,,,,,,,,,,,,,,,,,,,,,,,,,,SYN082AAXX  22214 72208 12466 41508 10278 20194 30160 40175 56013 60017 92056 555 92221;,,,,,,,,,,,,,,,,,,,,,,,,,,,,
72208013880,2010-05-23T13:56:00,FM-15,7,,SE,0.25,mi,"TEMP, PRECIP, SNOW",,,"MMTS, SRG, SNOWBOARD",,,WFO CHS,,,,,,,,,,,,,,,,,,,,,,,,,,,30.02,71,84,0.00,,,,65,30.01,SCT:04 37,29.97,10.00,75,160,,9,,,,,,,,,,,,,,,,,,,,,,,,,,,,,,,,,,,,,MET09905/23/10 13:56:02 METAR KCHS 231856Z 16008KT 10SM SCT037 29/22 A3002 RMK AO2 SLP163 T02890217 (JRS),,,,,,,,,,,,,,,,,,,,,,,,,,,,
72208013880,2010-05-23T14:56:00,FM-15,7,,SE,0.25,mi,"TEMP, PRECIP, SNOW",,,"MMTS, SRG, SNOWBOARD",,,WFO CHS,,,,,,,,,,,,,,,,,,,,,,,,,,,30.00,71,85,0.00,,,,63,30.00,FEW:02 40 SCT:04 47,29.95,10.00,75,150,,13,,,,,,,,,,,,,,,,,,,,,,,,,,,,,,,,,,,,,MET11805/23/10 14:56:02 METAR KCHS 231956Z 15011KT 10SM FEW040 SCT047 29/22 A3000 RMK AO2 SLP158 CB DSNT N-E T02940217 (JRS),,,,,,,,,,,,,,,,,,,,,,,,,,,,
72208013880,2010-05-23T17:39:00,FM-16,7,,SE,0.25,mi,"TEMP, PRECIP, SNOW",,,"MMTS, SRG, SNOWBOARD",,,WFO CHS,,,,,,,,,,,,,,,,,,,,,,,,,,,30.00,70,72,0.95,TS:7 -RA:02 BR:1 |RA TS |SHRA TS,,,94,,FEW:02 12 BKN:07 30 BKN:07 70,29.95,4.00,71,160,,10,,,,,,,,,,,,,,,,,,,,,,,,,,,,,,,,,,,,,MET14805/23/10 17:39:02 SPECI KCHS 232239Z 16009KT 4SM -TSRA BR FEW012 BKN030CB BKN070 22/21 A3000 RMK AO2 WSHFT 2143 FRQ LTGICCG S TS S MOV S P0095 (WRB),,,,,,,,,,,,,,,,,,,,,,,,,,,,
72208013880,2010-05-23T17:56:00,FM-15,7,,SE,0.25,mi,"TEMP, PRECIP, SNOW",,,"MMTS, SRG, SNOWBOARD",,,WFO CHS,,,,,,,,,,,,,,,,,,,,,,,,,,,29.99,69,71,0.86,TS:7 -RA:02 |RA TS |SHRA TS,,,94,29.99,SCT:04 28 SCT:04 46 BKN:07 80,29.94,7.00,70,170,,10,,,,,,,,,,,,,,,,,,,,,,,,,,,,,,,,,,,,,MET16005/23/10 17:56:02 METAR KCHS 232256Z 17009KT 7SM -TSRA SCT028CB SCT046 BKN080 22/21 A2999 RMK AO2 WSHFT 2143 SLP155 FRQ LTGIC S TS S MOV S P0096 T02170206 (WRB),,,,,,,,,,,,,,,,,,,,,,,,,,,,
72208013880,2010-05-28T16:56:00,FM-15,7,,SE,0.25,mi,"TEMP, PRECIP, SNOW",,,"MMTS, SRG, SNOWBOARD",,,WFO CHS,,,,,,,,,,,,,,,,,,,,,,,,,,,29.81,66,82,0.00,,,,58,29.81,,29.76,10.00,71,160,,15,,,,,,,,,,,,,,,,,,,,,,,,,,,,,,,,,,,,,MET09605/28/10 16:56:02 METAR KCHS 282156Z 16013KT 10SM CLR 28/19 A2981 RMK AO2 SLP095 T02780189 (AWS),,,,,,,,,,,,,,,,,,,,,,,,,,,,
72208013880,2010-05-29T12:56:00,FM-15,7,,SE,0.25,mi,"TEMP, PRECIP, SNOW",,,"MMTS, SRG, SNOWBOARD",,,WFO CHS,,,,,,,,,,,,,,,,,,,,,,,,,,,29.93,69,85,0.00,,-0.00,0,59,29.93,SCT:04 34,29.88,10.00,74,170,,14,,,,,,,,,,,,,,,,,,,,,,,,,,,,,,,,,,,,,MET11705/29/10 12:56:02 METAR KCHS 291756Z 17012KT 10SM SCT034 29/21 A2993 RMK AO2 SLP135 T02940206 10294 20233 50000 (JRS),,,,,,,,,,,,,,,,,,,,,,,,,,,,
72208013880,2010-05-29T13:00:00,FM-12,4,,SE,0.25,mi,"TEMP, PRECIP, SNOW",,,"MMTS, SRG, SNOWBOARD",,,WFO CHS,,,,,,,,,,,,,,,,,,,,,,,,,,,,69,85,,,-0.00,0,59,29.93,,29.88,9.94,74,170,,14,,,,,,,,,,,,,,,,,,,,,,,,,,,,,,,,,,,,,SYN092AAXX  29184 72208 32666 41712 10294 20206 30119 40135 50000 91756 333 10294 20233 555 92918;,,,,,,,,,,,,,,,,,,,,,,,,,,,,
72208013880,2010-05-29T13:56:00,FM-15,7,,SE,0.25,mi,"TEMP, PRECIP, SNOW",,,"MMTS, SRG, SNOWBOARD",,,WFO CHS,,,,,,,,,,,,,,,,,,,,,,,,,,,29.93,68,85,0.00,,,,57,29.92,FEW:02 34,29.88,10.00,74,160,21,15,,,,,,,,,,,,,,,,,,,,,,,,,,,,,,,,,,,,,MET10205/29/10 13:56:02 METAR KCHS 291856Z 16013G18KT 10SM FEW034 29/20 A2993 RMK AO2 SLP133 T02940200 (JRS),,,,,,,,,,,,,,,,,,,,,,,,,,,,
72208013880,2010-05-29T14:56:00,FM-15,7,,SE,0.25,mi,"TEMP, PRECIP, SNOW",,,"MMTS, SRG, SNOWBOARD",,,WFO CHS,,,,,,,,,,,,,,,,,,,,,,,,,,,29.92,68,84,0.00,,,,59,29.91,SCT:04 37,29.87,10.00,73,150,,16,,,,,,,,,,,,,,,,,,,,,,,,,,,,,,,,,,,,,MET09905/29/10 14:56:02 METAR KCHS 291956Z 15014KT 10SM SCT037 29/20 A2992 RMK AO2 SLP130 T02890200 (JRS),,,,,,,,,,,,,,,,,,,,,,,,,,,,
72208013880,2010-05-30T10:56:00,FM-15,7,,SE,0.25,mi,"TEMP, PRECIP, SNOW",,,"MMTS, SRG, SNOWBOARD",,,WFO CHS,,,,,,,,,,,,,,,,,,,,,,,,,,,30.04,66,85,0.00,,,,53,30.04,SCT:04 35,29.99,10.00,72,150,,14,,,,,,,,,,,,,,,,,,,,,,,,,,,,,,,,,,,,,MET09905/30/10 10:56:02 METAR KCHS 301556Z 15012KT 10SM SCT035 29/19 A3004 RMK AO2 SLP172 T02940189 (JRS),,,,,,,,,,,,,,,,,,,,,,,,,,,,
72208013880,2010-05-30T15:56:00,SY-MT,7,,SE,0.25,mi,"TEMP, PRECIP, SNOW",,,"MMTS, SRG, SNOWBOARD",,,WFO CHS,,,,,,,,,,,,,,,,,,,,,,,,,,,30.02,68,84,0.00,,+0.02,5,59,30.02,SCT:04 34,29.97,10.00,73,150,18,14,,,,,,,,,,,,,,,,,,,,,,,,,,,,,,,,,,,,,SYN086AAXX  30214 72208 32666 41512 10289 20200 30150 40165 55006 92056 333 91016 555 93021;MET10805/30/10 15:56:02 METAR KCHS 302056Z 15012G16KT 10SM SCT034 29/20 A3002 RMK AO2 SLP165 T02890200 55006 (WRB),,,,,,,,,,,,,,,,,,,,,,,,,,,,
72208013880,2010-05-30T16:56:00,FM-15,7,,SE,0.25,mi,"TEMP, PRECIP, SNOW",,,"MMTS, SRG, SNOWBOARD",,,WFO CHS,,,,,,,,,,,,,,,,,,,,,,,,,,,30.01,69,83,0.00,,,,63,30.01,SCT:04 32,29.96,10.00,74,150,,11,,,,,,,,,,,,,,,,,,,,,,,,,,,,,,,,,,,,,MET09905/30/10 16:56:02 METAR KCHS 302156Z 15010KT 10SM SCT032 28/21 A3001 RMK AO2 SLP163 T02830206 (WRB),,,,,,,,,,,,,,,,,,,,,,,,,,,,
72208013880,2010-05-30T17:56:00,FM-15,7,,SE,0.25,mi,"TEMP, PRECIP, SNOW",,,"MMTS, SRG, SNOWBOARD",,,WFO CHS,,,,,,,,,,,,,,,,,,,,,,,,,,,30.01,66,81,0.00,,,,61,30.01,SCT:04 32,29.96,10.00,71,170,,11,,,,,,,,,,,,,,,,,,,,,,,,,,,,,,,,,,,,,MET10305/30/10 17:56:02 METAR KCHS 302256Z 17010KT 10SM SCT032 27/19 A3001 RMK AO2 SLP162 T02720189 RTX (WRB),,,,,,,,,,,,,,,,,,,,,,,,,,,,
72208013880,2010-05-31T10:56:00,FM-15,7,,SE,0.25,mi,"TEMP, PRECIP, SNOW",,,"MMTS, SRG, SNOWBOARD",,,WFO CHS,,,,,,,,,,,,,,,,,,,,,,,,,,,30.10,71,81,0.00,,,,72,30.10,FEW:02 25 SCT:04 29 SCT:04 38,30.05,10.00,74,150,,14,,,,,,,,,,,,,,,,,,,,,,,,,,,,,,,,,,,,,MET11205/31/10 10:56:02 METAR KCHS 311556Z 15012KT 10SM FEW025 SCT029 SCT038 27/22 A3010 RMK AO2 SLP193 T02720217 (WD),,,,,,,,,,,,,,,,,,,,,,,,,,,,
72208013880,2010-05-31T11:35:00,FM-16,7,,SE,0.25,mi,"TEMP, PRECIP, SNOW",,,"MMTS, SRG, SNOWBOARD",,,WFO CHS,,,,,,,,,,,,,,,,,,,,,,,,,,,30.08,72,84,,,,,66,,BKN:07 25 BKN:07 42 BKN:07 50,30.03,10.00,76,170,,15,,,,,,,,,,,,,,,,,,,,,,,,,,,,,,,,,,,,,MET09505/31/10 11:35:02 SPECI KCHS 311635Z 17013KT 10SM BKN025 BKN042 BKN050 29/22 A3008 RMK AO2 (WD),,,,,,,,,,,,,,,,,,,,,,,,,,,,
72208013880,2010-05-31T11:41:00,FM-16,7,,SE,0.25,mi,"TEMP, PRECIP, SNOW",,,"MMTS, SRG, SNOWBOARD",,,WFO CHS,,,,,,,,,,,,,,,,,,,,,,,,,,,30.08,72,84,,,,,66,,SCT:04 25,30.03,10.00,76,160,24,16,,,,,,,,,,,,,,,,,,,,,,,,,,,,,,,,,,,,,MET08405/31/10 11:41:02 SPECI KCHS 311641Z 16014G21KT 10SM SCT025 29/22 A3008 RMK AO2 (WD),,,,,,,,,,,,,,,,,,,,,,,,,,,,
72208013880,2010-05-31T11:56:00,FM-15,7,,SE,0.25,mi,"TEMP, PRECIP, SNOW",,,"MMTS, SRG, SNOWBOARD",,,WFO CHS,,,,,,,,,,,,,,,,,,,,,,,,,,,30.09,70,82,0.00,,,,67,30.08,FEW:02 25 SCT:04 29 BKN:07 44,30.04,10.00,74,160,,16,,,,,,,,,,,,,,,,,,,,,,,,,,,,,,,,,,,,,MET11205/31/10 11:56:02 METAR KCHS 311656Z 16014KT 10SM FEW025 SCT029 BKN044 28/21 A3009 RMK AO2 SLP187 T02780211 (WD),,,,,,,,,,,,,,,,,,,,,,,,,,,,
72208013880,2010-05-31T12:11:00,FM-16,7,,SE,0.25,mi,"TEMP, PRECIP, SNOW",,,"MMTS, SRG, SNOWBOARD",,,WFO CHS,,,,,,,,,,,,,,,,,,,,,,,,,,,30.08,70,82,,,,,66,,BKN:07 27 BKN:07 37,30.03,10.00,74,170,22,15,,,,,,,,,,,,,,,,,,,,,,,,,,,,,,,,,,,,,MET09105/31/10 12:11:02 SPECI KCHS 311711Z 17013G19KT 10SM BKN027 BKN037 28/21 A3008 RMK AO2 (WD),,,,,,,,,,,,,,,,,,,,,,,,,,,,
72208013880,2010-05-31T12:56:00,FM-15,7,,SE,0.25,mi,"TEMP, PRECIP, SNOW",,,"MMTS, SRG, SNOWBOARD",,,WFO CHS,,,,,,,,,,,,,,,,,,,,,,,,,,,30.07,70,83,0.00,,+0.04,8,65,30.06,SCT:04 28 SCT:04 36 BKN:07 46,30.02,10.00,74,170,22,13,,,,,,,,,,,,,,,,,,,,,,,,,,,,,,,,,,,,,MET13305/31/10 12:56:02 METAR KCHS 311756Z 17011G19KT 10SM SCT028 SCT036 BKN046 28/21 A3007 RMK AO2 SLP181 T02830211 10294 20244 58014 (WD),,,,,,,,,,,,,,,,,,,,,,,,,,,,
72208013880,2010-05-31T13:00:00,FM-12,4,,SE,0.25,mi,"TEMP, PRECIP, SNOW",,,"MMTS, SRG, SNOWBOARD",,,WFO CHS,,,,,,,,,,,,,,,,,,,,,,,,,,,,70,83,,,+0.04,8,65,30.06,,30.02,9.94,74,170,22,13,,,,,,,,,,,,,,,,,,,,,,,,,,,,,,,,,,,,,SYN098AAXX  31184 72208 32566 61711 10283 20211 30167 40181 58014 91756 333 10294 20244 91019 555 93118;,,,,,,,,,,,,,,,,,,,,,,,,,,,,
72208013880,2010-05-31T13:16:00,FM-16,7,,SE,0.25,mi,"TEMP, PRECIP, SNOW",,,"MMTS, SRG, SNOWBOARD",,,WFO CHS,,,,,,,,,,,,,,,,,,,,,,,,,,,30.06,70,82,,,,,66,,BKN:07 26 BKN:07 37 BKN:07 44,30.01,10.00,74,160,21,17,,,,,,,,,,,,,,,,,,,,,,,,,,,,,,,,,,,,,MET09805/31/10 13:16:02 SPECI KCHS 311816Z 16015G18KT 10SM BKN026 BKN037 BKN044 28/21 A3006 RMK AO2 (WD),,,,,,,,,,,,,,,,,,,,,,,,,,,,
72208013880,2010-05-31T13:56:00,FM-15,7,,SE,0.25,mi,"TEMP, PRECIP, SNOW",,,"MMTS, SRG, SNOWBOARD",,,WFO CHS,,,,,,,,,,,,,,,,,,,,,,,,,,,30.06,70,83,0.00,,,,65,30.06,FEW:02 26 SCT:04 46,30.01,10.00,74,160,22,15,,,,,,,,,,,,,,,,,,,,,,,,,,,,,,,,,,,,,MET10805/31/10 13:56:02 METAR KCHS 311856Z 16013G19KT 10SM FEW026 SCT046 28/21 A3006 RMK AO2 SLP179 T02830211 (WD),,,,,,,,,,,,,,,,,,,,,,,,,,,,
72208013880,2010-05-31T14:11:00,FM-16,7,,SE,0.25,mi,"TEMP, PRECIP, SNOW",,,"MMTS, SRG, SNOWBOARD",,,WFO CHS,,,,,,,,,,,,,,,,,,,,,,,,,,,30.06,70,82,,,,,66,,BKN:07 26 BKN:07 42,30.01,10.00,74,160,,14,,,,,,,,,,,,,,,,,,,,,,,,,,,,,,,,,,,,,MET08805/31/10 14:11:02 SPECI KCHS 311911Z 16012KT 10SM BKN026 BKN042 28/21 A3006 RMK AO2 (WD),,,,,,,,,,,,,,,,,,,,,,,,,,,,
72208013880,2010-05-31T14:28:00,FM-16,7,,SE,0.25,mi,"TEMP, PRECIP, SNOW",,,"MMTS, SRG, SNOWBOARD",,,WFO CHS,,,,,,,,,,,,,,,,,,,,,,,,,,,30.06,70,82,,,,,66,,SCT:04 26 BKN:07 36,30.01,10.00,74,170,,15,,,,,,,,,,,,,,,,,,,,,,,,,,,,,,,,,,,,,MET08805/31/10 14:28:02 SPECI KCHS 311928Z 17013KT 10SM SCT026 BKN036 28/21 A3006 RMK AO2 (WD),,,,,,,,,,,,,,,,,,,,,,,,,,,,
72208013880,2010-05-31T15:56:00,SY-MT,7,,SE,0.25,mi,"TEMP, PRECIP, SNOW",,,"MMTS, SRG, SNOWBOARD",,,WFO CHS,,,,,,,,,,,,,,,,,,,,,,,,,,,30.06,70,81,0.00,,+0.01,8,69,30.06,FEW:02 26 SCT:04 36,30.01,10.00,74,170,,11,,,,,,,,,,,,,,,,,,,,,,,,,,,,,,,,,,,,,SYN076AAXX  31214 72208 32566 41710 10272 20211 30163 40178 58003 92056 555 93121;MET11205/31/10 15:56:02 METAR KCHS 312056Z 17010KT 10SM FEW026 SCT036 27/21 A3006 RMK AO2 SLP178 T02720211 58003 (AWS),,,,,,,,,,,,,,,,,,,,,,,,,,,,
72208013880,2010-05-31T16:56:00,FM-15,7,,SE,0.25,mi,"TEMP, PRECIP, SNOW",,,"MMTS, SRG, SNOWBOARD",,,WFO CHS,,,,,,,,,,,,,,,,,,,,,,,,,,,30.06,69,80,0.00,,,,69,30.06,SCT:04 26,30.01,10.00,73,160,,15,,,,,,,,,,,,,,,,,,,,,,,,,,,,,,,,,,,,,MET09905/31/10 16:56:02 METAR KCHS 312156Z 16013KT 10SM SCT026 27/21 A3006 RMK AO2 SLP178 T02670206 (AWS),,,,,,,,,,,,,,,,,,,,,,,,,,,,
72208013880,2010-05-31T17:56:00,FM-15,7,,SE,0.25,mi,"TEMP, PRECIP, SNOW",,,"MMTS, SRG, SNOWBOARD",,,WFO CHS,,,,,,,,,,,,,,,,,,,,,,,,,,,30.06,70,79,0.00,,,,74,30.05,SCT:04 23 SCT:04 33 BKN:07 44,30.01,10.00,73,170,,14,,,,,,,,,,,,,,,,,,,,,,,,,,,,,,,,,,,,,MET11305/31/10 17:56:02 METAR KCHS 312256Z 17012KT 10SM SCT023 SCT033 BKN044 26/21 A3006 RMK AO2 SLP177 T02610211 (AWS),,,,,,,,,,,,,,,,,,,,,,,,,,,,
72208013880,2010-06-01T17:56:00,FM-15,7,,SE,0.25,mi,"TEMP, PRECIP, SNOW",,,"MMTS, SRG, SNOWBOARD",,,WFO CHS,,,,,,,,,,,,,,,,,,,,,,,,,,,29.93,73,81,0.00,,,,77,29.92,FEW:02 19,29.88,9.00,75,160,,9,,,,,,,,,,,,,,,,,,,,,,,,,,,,,,,,,,,,,MET09806/01/10 17:56:02 METAR KCHS 012256Z 16008KT 9SM FEW019 27/23 A2993 RMK AO2 SLP133 T02720228 (AWS),,,,,,,,,,,,,,,,,,,,,,,,,,,,
72208013880,2010-06-04T13:56:00,FM-15,7,,SE,0.25,mi,"TEMP, PRECIP, SNOW",,,"MMTS, SRG, SNOWBOARD",,,WFO CHS,,,,,,,,,,,,,,,,,,,,,,,,,,,29.92,75,87,T,,,,67,29.91,FEW:02 47,29.87,9.00,78,170,,7,,,,,,,,,,,,,,,,,,,,,,,,,,,,,,,,,,,,,MET11506/04/10 13:56:02 METAR KCHS 041856Z 17006KT 9SM FEW047CB 31/24 A2992 RMK AO2 SLP130 CB E MOV NE T03060239 RTX (WD),,,,,,,,,,,,,,,,,,,,,,,,,,,,
72208013880,2010-06-04T14:56:00,FM-15,7,,SE,0.25,mi,"TEMP, PRECIP, SNOW",,,"MMTS, SRG, SNOWBOARD",,,WFO CHS,,,,,,,,,,,,,,,,,,,,,,,,,,,29.92,72,82,0.10,,,,72,29.92,BKN:07 26 BKN:07 32 BKN:07 44,29.87,10.00,75,150,,9,,,,,,,,,,,,,,,,,,,,,,,,,,,,,,,,,,,,,MET15306/04/10 14:56:02 METAR KCHS 041956Z 15008KT 10SM BKN026 BKN032CB BKN044 28/22 A2992 RMK AO2 TSB12E53RAB1859E37 SLP131 TS MOV NE P0010 T02780222 RTX (WD),,,,,,,,,,,,,,,,,,,,,,,,,,,,
72208013880,2010-06-04T15:43:00,FM-16,7,,SE,0.25,mi,"TEMP, PRECIP, SNOW",,,"MMTS, SRG, SNOWBOARD",,,WFO CHS,,,,,,,,,,,,,,,,,,,,,,,,,,,29.92,73,84,,TS:7 |TS |TS,,,70,,FEW:02 26 SCT:04 42,29.87,9.00,76,170,,8,,,,,,,,,,,,,,,,,,,,,,,,,,,,,,,,,,,,,MET13006/04/10 15:43:02 SPECI KCHS 042043Z 17007KT 9SM TS FEW026CB SCT042 29/23 A2992 RMK AO2 TSB07 OCNL LTGCGIC N TS N MOV NE RTX (AWS),,,,,,,,,,,,,,,,,,,,,,,,,,,,
72208013880,2010-06-08T13:56:00,FM-15,7,,SE,0.25,mi,"TEMP, PRECIP, SNOW",,,"MMTS, SRG, SNOWBOARD",,,WFO CHS,,,,,,,,,,,,,,,,,,,,,,,,,,,30.09,63,85,0.00,,,,48,30.09,BKN:07 80,30.04,10.00,71,170,,10,,,,,,,,,,,,,,,,,,,,,,,,,,,,,,,,,,,,,MET10206/08/10 13:56:02 METAR KCHS 081856Z 17009KT 10SM BKN080 29/17 A3009 RMK AO2 SLP189 T02940172 RTX (WD),,,,,,,,,,,,,,,,,,,,,,,,,,,,
72208013880,2010-06-08T15:56:00,FM-15,7,,SE,0.25,mi,"TEMP, PRECIP, SNOW",,,"MMTS, SRG, SNOWBOARD",,,WFO CHS,,,,,,,,,,,,,,,,,,,,,,,,,,,30.09,62,86,0.00,,+0.01,5,45,30.09,BKN:07 65,30.04,10.00,70,170,,10,,,,,,,,,,,,,,,,,,,,,,,,,,,,,,,,,,,,,MET10906/08/10 15:56:02 METAR KCHS 082056Z 17009KT 10SM BKN065 30/17 A3009 RMK AO2 SLP188 T03000167 55004 RTX (AWS),,,,,,,,,,,,,,,,,,,,,,,,,,,,
72208013880,2010-06-08T16:00:00,FM-12,4,,SE,0.25,mi,"TEMP, PRECIP, SNOW",,,"MMTS, SRG, SNOWBOARD",,,WFO CHS,,,,,,,,,,,,,,,,,,,,,,,,,,,,62,86,,,+0.01,5,45,30.09,,30.04,9.94,70,170,,10,,,,,,,,,,,,,,,,,,,,,,,,,,,,,,,,,,,,,SYN076AAXX  08214 72208 32766 61709 10300 20167 30173 40188 55004 92056 555 90821;,,,,,,,,,,,,,,,,,,,,,,,,,,,,
72208013880,2010-06-08T16:56:00,FM-15,7,,SE,0.25,mi,"TEMP, PRECIP, SNOW",,,"MMTS, SRG, SNOWBOARD",,,WFO CHS,,,,,,,,,,,,,,,,,,,,,,,,,,,30.09,59,83,0.00,,,,44,30.08,BKN:07 70,30.04,10.00,68,170,,10,,,,,,,,,,,,,,,,,,,,,,,,,,,,,,,,,,,,,MET10306/08/10 16:56:02 METAR KCHS 082156Z 17009KT 10SM BKN070 28/15 A3009 RMK AO2 SLP187 T02830150 RTX (AWS),,,,,,,,,,,,,,,,,,,,,,,,,,,,
72208013880,2010-06-12T15:56:00,SY-MT,7,,SE,0.25,mi,"TEMP, PRECIP, SNOW",,,"MMTS, SRG, SNOWBOARD",,,WFO CHS,,,,,,,,,,,,,,,,,,,,,,,,,,,30.08,75,91,0.00,,+0.04,6,59,30.08,FEW:02 55,30.03,8.00,80,160,,11,,,,,,,,,,,,,,,,,,,,,,,,,,,,,,,,,,,,,SYN076AAXX  12214 72208 32762 21610 10328 20239 30170 40186 56013 92056 555 91221;MET10406/12/10 15:56:02 METAR KCHS 122056Z 16010KT 8SM FEW055 33/24 A3008 RMK AO2 SLP186 T03280239 56013 (WRB),,,,,,,,,,,,,,,,,,,,,,,,,,,,
72208013880,2010-06-12T17:56:00,FM-15,7,,SE,0.25,mi,"TEMP, PRECIP, SNOW",,,"MMTS, SRG, SNOWBOARD",,,WFO CHS,,,,,,,,,,,,,,,,,,,,,,,,,,,30.08,72,88,0.00,,,,59,30.07,,30.03,8.00,77,150,,8,,,,,,,,,,,,,,,,,,,,,,,,,,,,,,,,,,,,,MET09506/12/10 17:56:02 METAR KCHS 122256Z 15007KT 8SM CLR 31/22 A3008 RMK AO2 SLP184 T03110222 (WRB),,,,,,,,,,,,,,,,,,,,,,,,,,,,
72208013880,2010-06-15T12:56:00,SY-MT,7,,SE,0.25,mi,"TEMP, PRECIP, SNOW",,,"MMTS, SRG, SNOWBOARD",,,WFO CHS,,,,,,,,,,,,,,,,,,,,,,,,,,,29.99,77,91,0.00,TS:7 HZ:7 |TS |HZ TS TS,+0.00,5,64,29.99,BKN:07 49 OVC:08 60,29.94,6.00,81,170,16,9,,,,,,,,,,,,,,,,,,,,,,,,,,,,,,,,,,,,,SYN110AAXX  15184 72208 31659 81708 10328 20250 30140 40155 55000 795// 91756 333 10361 20294 91014 96005 555 91518;MET16206/15/10 12:56:02 METAR KCHS 151756Z 17008G14KT 6SM TS HZ BKN049CB OVC060 33/25 A2999 RMK AO2 TSB29 SLP155 OCNL LTGICCG SW MOV NE T03280250 10361 20294 55000 (WD),,,,,,,,,,,,,,,,,,,,,,,,,,,,
72208013880,2010-06-15T13:56:00,FM-15,7,,SE,0.25,mi,"TEMP, PRECIP, SNOW",,,"MMTS, SRG, SNOWBOARD",,,WFO CHS,,,,,,,,,,,,,,,,,,,,,,,,,,,29.98,69,81,0.03,TS:7 |TS |TS,,,67,29.98,FEW:02 38 BKN:07 75,29.93,10.00,73,160,,13,,,,,,,,,,,,,,,,,,,,,,,,,,,,,,,,,,,,,MET17206/15/10 13:56:02 METAR KCHS 151856Z 16011KT 10SM TS FEW038CB BKN075 27/21 A2998 RMK AO2 PK WND 15028/1837 RAB04E54 SLP153 0CNL LTGICCG SE TS SE MOV NW P0003 T02720206 (WD),,,,,,,,,,,,,,,,,,,,,,,,,,,,
72208013880,2010-06-18T12:21:00,FM-16,7,,SE,0.25,mi,"TEMP, PRECIP, SNOW",,,"MMTS, SRG, SNOWBOARD",,,WFO CHS,,,,,,,,,,,,,,,,,,,,,,,,,,,30.04,72,77,0.51,TS:7 +RA:02 |RA TS |SHRA TS,,,83,,SCT:04 18 OVC:08 38,29.99,1.50,74,150,23,11,,,,,,,,,,,,,,,,,,,,,,,,,,,,,,,,,,,,,MET16106/18/10 12:21:02 SPECI KCHS 181721Z 15010G20KT 1 1/2SM +TSRA SCT018 OVC038CB 25/22 A3004 RMK AO2 PK WND 11027/1700 OCNL LTGCG SW TS NE-OHD-SW MOV NW P0051 (JRS),,,,,,,,,,,,,,,,,,,,,,,,,,,,
72208013880,2010-06-20T13:56:00,FM-15,7,,SE,0.25,mi,"TEMP, PRECIP, SNOW",,,"MMTS, SRG, SNOWBOARD",,,WFO CHS,,,,,,,,,,,,,,,,,,,,,,,,,,,29.98,76,91,0.00,TS:7 |TS |TS,,,61,29.97,SCT:04 35 BKN:07 80,29.93,8.00,80,170,,10,,,,,,,,,,,,,,,,,,,,,,,,,,,,,,,,,,,,,MET15306/20/10 13:56:02 METAR KCHS 201856Z 17009KT 8SM TS SCT035CB BKN080 33/24 A2998 RMK AO2 TSB00 SLP150 OCNL LTGCGIC N-E TS N-E STNRY TCU SE T03280244 (JRS),,,,,,,,,,,,,,,,,,,,,,,,,,,,
72208013880,2010-06-21T11:56:00,FM-15,7,,SE,0.25,mi,"TEMP, PRECIP, SNOW",,,"MMTS, SRG, SNOWBOARD",,,WFO CHS,,,,,,,,,,,,,,,,,,,,,,,,,,,30.09,75,87,0.00,,,,67,30.09,BKN:07 35,30.04,9.00,78,160,,9,,,,,,,,,,,,,,,,,,,,,,,,,,,,,,,,,,,,,MET09706/21/10 11:56:02 METAR KCHS 211656Z 16008KT 9SM BKN035 31/24 A3009 RMK AO2 SLP189 T03060239 (WD),,,,,,,,,,,,,,,,,,,,,,,,,,,,
72208013880,2010-06-21T12:56:00,FM-15,7,,SE,0.25,mi,"TEMP, PRECIP, SNOW",,,"MMTS, SRG, SNOWBOARD",,,WFO CHS,,,,,,,,,,,,,,,,,,,,,,,,,,,30.08,75,85,0.00,,+0.01,8,72,30.08,SCT:04 37 SCT:04 43 BKN:07 55,30.03,10.00,78,160,,8,,,,,,,,,,,,,,,,,,,,,,,,,,,,,,,,,,,,,MET14706/21/10 12:56:02 METAR KCHS 211756Z 16007KT 10SM SCT037CB SCT043 BKN055 29/24 A3008 RMK AO2 SLP185 CB NE-N MOV NE T02940239 10322 20261 58004 (WD),,,,,,,,,,,,,,,,,,,,,,,,,,,,
72208013880,2010-06-21T13:00:00,FM-12,4,,SE,0.25,mi,"TEMP, PRECIP, SNOW",,,"MMTS, SRG, SNOWBOARD",,,WFO CHS,,,,,,,,,,,,,,,,,,,,,,,,,,,,75,85,,,+0.01,8,72,30.08,,30.03,9.94,78,160,,8,,,,,,,,,,,,,,,,,,,,,,,,,,,,,,,,,,,,,SYN092AAXX  21184 72208 32666 61607 10294 20239 30170 40185 58004 91756 333 10322 20228 555 92118;,,,,,,,,,,,,,,,,,,,,,,,,,,,,
72208013880,2010-06-22T14:54:00,FM-16,6,,SE,0.25,mi,"TEMP, PRECIP, SNOW",,,"MMTS, SRG, SNOWBOARD",,,WFO CHS,,,,,,,,,,,,,,,,,,,,,,,,,,,30.13,75,88,,TS:7 |TS |,,,66,,BKN:07 47,30.08,10.00,79,160,21,15,,,,,,,,,,,,,,,,,,,,,,,,,,,,,,,,,,,,,MET13406/22/10 14:54:02 SPECI KCHS 221954Z 16013G18KT 10SM TS BKN047CB 31/24 A3013 RMK AO2 TSB49 OCNL LTGCG SE TS SE MOV STNRY RTX FIBI (WD),,,,,,,,,,,,,,,,,,,,,,,,,,,,
72208013880,2010-06-22T14:56:00,FM-15,7,,SE,0.25,mi,"TEMP, PRECIP, SNOW",,,"MMTS, SRG, SNOWBOARD",,,WFO CHS,,,,,,,,,,,,,,,,,,,,,,,,,,,30.13,74,87,0.00,TS:7 |TS |TS,,,65,30.13,BKN:07 47,30.08,10.00,78,160,21,11,,,,,,,,,,,,,,,,,,,,,,,,,,,,,,,,,,,,,MET14606/22/10 14:56:02 METAR KCHS 221956Z 16010G18KT 10SM TS BKN047CB 31/23 A3013 RMK AO2 TSB49 SLP202 OCNL LTGCG SE TS SE MOV STNRY T03060233 RTX (WD),,,,,,,,,,,,,,,,,,,,,,,,,,,,
72208013880,2010-06-25T13:56:00,FM-15,7,,SE,0.25,mi,"TEMP, PRECIP, SNOW",,,"MMTS, SRG, SNOWBOARD",,,WFO CHS,,,,,,,,,,,,,,,,,,,,,,,,,,,30.00,78,95,0.00,,,,58,30.00,SCT:04 42 SCT:04 60,29.95,9.00,82,170,,11,,,,,,,,,,,,,,,,,,,,,,,,,,,,,,,,,,,,,MET10406/25/10 13:56:02 METAR KCHS 251856Z 17010KT 9SM SCT042 SCT060 35/26 A3000 RMK AO2 SLP158 T03500256 (WD),,,,,,,,,,,,,,,,,,,,,,,,,,,,
72208013880,2010-07-01T11:56:00,FM-15,7,,SE,0.25,mi,"TEMP, PRECIP, SNOW",,,"MMTS, SRG, SNOWBOARD",,,WFO CHS,,,,,,,,,,,,,,,,,,,,,,,,,,,30.12,75,78,0.00,,,,90,30.12,SCT:04 16 OVC:08 47,30.07,8.00,76,150,,8,,,,,,,,,,,,,,,,,,,,,,,,,,,,,,,,,,,,,MET10407/01/10 11:56:02 METAR KCHS 011656Z 15007KT 8SM SCT016 OVC047 26/24 A3012 RMK AO2 SLP199 T02560239 (WD),,,,,,,,,,,,,,,,,,,,,,,,,,,,
72208013880,2010-07-04T14:56:00,FM-15,7,,SE,0.25,mi,"TEMP, PRECIP, SNOW",,,"MMTS, SRG, SNOWBOARD",,,WFO CHS,,,,,,,,,,,,,,,,,,,,,,,,,,,30.09,64,86,0.00,,,,48,30.08,FEW:02 50,30.04,10.00,72,150,,9,,,,,,,,,,,,,,,,,,,,,,,,,,,,,,,,,,,,,MET10107/04/10 14:56:02 METAR KCHS 041956Z 15008KT 10SM FEW050 30/18 A3009 RMK AO2 SLP187 T03000178 $ (JRS),,,,,,,,,,,,,,,,,,,,,,,,,,,,
72208013880,2010-07-06T10:56:00,FM-15,7,,SE,0.25,mi,"TEMP, PRECIP, SNOW",,,"MMTS, SRG, SNOWBOARD",,,WFO CHS,,,,,,,,,,,,,,,,,,,,,,,,,,,30.12,70,89,0.00,,,,53,30.11,BKN:07 41,30.07,10.00,76,160,,8,,,,,,,,,,,,,,,,,,,,,,,,,,,,,,,,,,,,,MET09807/06/10 10:56:02 METAR KCHS 061556Z 16007KT 10SM BKN041 32/21 A3012 RMK AO2 SLP198 T03170211 (WD),,,,,,,,,,,,,,,,,,,,,,,,,,,,
72208013880,2010-07-06T16:56:00,FM-15,7,,SE,0.25,mi,"TEMP, PRECIP, SNOW",,,"MMTS, SRG, SNOWBOARD",,,WFO CHS,,,,,,,,,,,,,,,,,,,,,,,,,,,30.07,69,87,0.00,,,,55,30.07,FEW:02 40,30.02,10.00,75,160,,10,,,,,,,,,,,,,,,,,,,,,,,,,,,,,,,,,,,,,MET09907/06/10 16:56:02 METAR KCHS 062156Z 16009KT 10SM FEW040 31/21 A3007 RMK AO2 SLP182 T03060206 (BBE),,,,,,,,,,,,,,,,,,,,,,,,,,,,
72208013880,2010-07-06T17:56:00,FM-15,7,,SE,0.25,mi,"TEMP, PRECIP, SNOW",,,"MMTS, SRG, SNOWBOARD",,,WFO CHS,,,,,,,,,,,,,,,,,,,,,,,,,,,30.07,69,85,0.00,,,,59,30.06,,30.02,10.00,74,150,,8,,,,,,,,,,,,,,,,,,,,,,,,,,,,,,,,,,,,,MET09607/06/10 17:56:02 METAR KCHS 062256Z 15007KT 10SM CLR 29/21 A3007 RMK AO2 SLP181 T02940206 (BBE),,,,,,,,,,,,,,,,,,,,,,,,,,,,
72208013880,2010-07-08T14:56:00,FM-15,7,,SE,0.25,mi,"TEMP, PRECIP, SNOW",,,"MMTS, SRG, SNOWBOARD",,,WFO CHS,,,,,,,,,,,,,,,,,,,,,,,,,,,29.91,73,95,0.00,HZ:7 ||HZ,,,49,29.91,SCT:04 65,29.86,6.00,79,150,,8,,,,,,,,,,,,,,,,,,,,,,,,,,,,,,,,,,,,,MET10107/08/10 14:56:02 METAR KCHS 081956Z 15007KT 6SM HZ SCT065 35/23 A2991 RMK AO2 SLP128 T03500228 (AWS),,,,,,,,,,,,,,,,,,,,,,,,,,,,
72208013880,2010-07-09T11:56:00,FM-15,7,,SE,0.25,mi,"TEMP, PRECIP, SNOW",,,"MMTS, SRG, SNOWBOARD",,,WFO CHS,,,,,,,,,,,,,,,,,,,,,,,,,,,29.93,71,89,0.00,,,,55,29.93,,29.88,7.00,76,170,,8,,,,,,,,,,,,,,,,,,,,,,,,,,,,,,,,,,,,,MET09507/09/10 11:56:02 METAR KCHS 091656Z 17007KT 7SM CLR 32/22 A2993 RMK AO2 SLP135 T03170217 (JRS),,,,,,,,,,,,,,,,,,,,,,,,,,,,
72208013880,2010-07-11T16:56:00,FM-15,7,,SE,0.25,mi,"TEMP, PRECIP, SNOW",,,"MMTS, SRG, SNOWBOARD",,,WFO CHS,,,,,,,,,,,,,,,,,,,,,,,,,,,29.87,76,86,0.00,,,,72,29.87,FEW:02 32,29.82,7.00,79,170,,11,,,,,,,,,,,,,,,,,,,,,,,,,,,,,,,,,,,,,MET09807/11/10 16:56:02 METAR KCHS 112156Z 17010KT 7SM FEW032 30/24 A2987 RMK AO2 SLP115 T03000244 (WRB),,,,,,,,,,,,,,,,,,,,,,,,,,,,
72208013880,2010-07-12T12:56:00,SY-MT,7,,SE,0.25,mi,"TEMP, PRECIP, SNOW",,,"MMTS, SRG, SNOWBOARD",,,WFO CHS,,,,,,,,,,,,,,,,,,,,,,,,,,,29.88,77,90,0.00,,+0.02,8,66,29.88,FEW:02 35,29.83,9.00,81,170,,10,,,,,,,,,,,,,,,,,,,,,,,,,,,,,,,,,,,,,SYN092AAXX  12184 72208 32664 21709 10322 20250 30102 40118 58007 91756 333 10328 20272 555 91218;MET11507/12/10 12:56:02 METAR KCHS 121756Z 17009KT 9SM FEW035 32/25 A2988 RMK AO2 SLP118 T03220250 10328 20272 58007 (WD),,,,,,,,,,,,,,,,,,,,,,,,,,,,
72208013880,2010-07-12T13:56:00,FM-15,7,,SE,0.25,mi,"TEMP, PRECIP, SNOW",,,"MMTS, SRG, SNOWBOARD",,,WFO CHS,,,,,,,,,,,,,,,,,,,,,,,,,,,29.86,77,90,0.00,,,,66,29.85,FEW:02 31,29.81,10.00,81,160,,11,,,,,,,,,,,,,,,,,,,,,,,,,,,,,,,,,,,,,MET09807/12/10 13:56:02 METAR KCHS 121856Z 16010KT 10SM FEW031 32/25 A2986 RMK AO2 SLP109 T03220250 (WD),,,,,,,,,,,,,,,,,,,,,,,,,,,,
72208013880,2010-07-13T12:12:00,FM-16,7,,SE,0.25,mi,"TEMP, PRECIP, SNOW",,,"MMTS, SRG, SNOWBOARD",,,WFO CHS,,,,,,,,,,,,,,,,,,,,,,,,,,,29.96,81,84,0.02,+RA:02 |RA |RA,,,89,,FEW:02 29 SCT:04 34 SCT:04 42,29.91,1.75,82,160,,16,,,,,,,,,,,,,,,,,,,,,,,,,,,,,,,,,,,,,MET12807/13/10 12:12:02 SPECI KCHS 131712Z 16014KT 1 3/4SM +RA FEW029CB SCT034 SCT042 29/27 A2996 RMK AO2 RAB08 CB E MOV NE P0002 (WD),,,,,,,,,,,,,,,,,,,,,,,,,,,,
72208013880,2010-07-13T12:14:00,FM-16,7,,SE,0.25,mi,"TEMP, PRECIP, SNOW",,,"MMTS, SRG, SNOWBOARD",,,WFO CHS,,,,,,,,,,,,,,,,,,,,,,,,,,,29.96,81,84,0.07,TS:7 +RA:02 BR:1 |RA TS |SHRA TS,,,89,,FEW:02 29 SCT:04 34 SCT:04 42,29.91,1.25,82,150,,13,,,,,,,,,,,,,,,,,,,,,,,,,,,,,,,,,,,,,MET15207/13/10 12:14:02 SPECI KCHS 131714Z 15011KT 1 1/4SM +TSRA BR FEW029CB SCT034 SCT042 29/27 A2996 RMK AO2 TSB14RAB08 OCNL LTGICCG S TS S MOV N P0007 (WD),,,,,,,,,,,,,,,,,,,,,,,,,,,,
72208013880,2010-07-13T13:08:00,FM-16,7,,SE,0.25,mi,"TEMP, PRECIP, SNOW",,,"MMTS, SRG, SNOWBOARD",,,WFO CHS,,,,,,,,,,,,,,,,,,,,,,,,,,,29.97,77,81,,,,,89,,SCT:04 16 BKN:07 60,29.92,8.00,78,150,,8,,,,,,,,,,,,,,,,,,,,,,,,,,,,,,,,,,,,,MET10307/13/10 13:08:02 SPECI KCHS 131808Z 15007KT 8SM SCT016 BKN060 27/25 A2997 RMK AO2 TSE03 TS MOV NE (WD),,,,,,,,,,,,,,,,,,,,,,,,,,,,
72208013880,2010-07-14T15:56:00,SY-MT,7,,SE,0.25,mi,"TEMP, PRECIP, SNOW",,,"MMTS, SRG, SNOWBOARD",,,WFO CHS,,,,,,,,,,,,,,,,,,,,,,,,,,,29.99,80,89,T,-RA:02 |RA |RA,+0.01,5,75,29.98,SCT:04 23 BKN:07 37,29.94,8.00,82,170,,10,,,,,,,,,,,,,,,,,,,,,,,,,,,,,,,,,,,,,SYN088AAXX  14214 72208 11562 61709 10317 20267 30140 40154 55005 69907 761// 92056 555 91421;MET16907/14/10 15:56:02 METAR KCHS 142056Z 17009KT 8SM -RA SCT023CB BKN037 32/27 A2999 RMK AO2 TSB09E32RAB50 SLP154 CB N-E MOV STNRY TS DSPTD P0000 60000 T03170267 55005 (AWS),,,,,,,,,,,,,,,,,,,,,,,,,,,,
72208013880,2010-07-20T14:38:00,FM-16,7,,SE,0.25,mi,"TEMP, PRECIP, SNOW",,,"MMTS, SRG, SNOWBOARD",,,WFO CHS,,,,,,,,,,,,,,,,,,,,,,,,,,,30.13,75,84,0.12,-RA:02 |RA |RA,,,74,,FEW:02 13 BKN:07 33 BKN:07 44,30.08,3.00,78,150,24,8,,,,,,,,,,,,,,,,,,,,,,,,,,,,,,,,,,,,,MET11407/20/10 14:38:02 SPECI KCHS 201938Z 15007G21KT 3SM -RA FEW013 BKN033 BKN044 29/24 A3013 RMK AO2 RAB29 P0012 (KPL),,,,,,,,,,,,,,,,,,,,,,,,,,,,
72208013880,2010-07-23T13:56:00,FM-15,7,,SE,0.25,mi,"TEMP, PRECIP, SNOW",,,"MMTS, SRG, SNOWBOARD",,,WFO CHS,,,,,,,,,,,,,,,,,,,,,,,,,,,30.09,76,91,0.00,,,,61,30.08,,30.04,8.00,80,160,,9,,,,,,,,,,,,,,,,,,,,,,,,,,,,,,,,,,,,,MET09407/23/10 13:56:02 METAR KCHS 231856Z 16008KT 8SM CLR 33/24 A3009 RMK AO2 SLP187 T03280244 (WD),,,,,,,,,,,,,,,,,,,,,,,,,,,,
72208013880,2010-07-24T12:56:00,SY-MT,7,,SE,0.25,mi,"TEMP, PRECIP, SNOW",,,"MMTS, SRG, SNOWBOARD",,,WFO CHS,,,,,,,,,,,,,,,,,,,,,,,,,,,30.11,77,91,0.00,,+0.03,6,64,30.11,SCT:04 36,30.06,10.00,81,170,,15,,,,,,,,,,,,,,,,,,,,,,,,,,,,,,,,,,,,,SYN092AAXX  24184 72208 32666 41713 10328 20250 30180 40196 56010 91756 333 10339 20267 555 92418;MET11707/24/10 12:56:02 METAR KCHS 241756Z 17013KT 10SM SCT036 33/25 A3011 RMK AO2 SLP196 T03280250 10339 20267 56010 (JRS),,,,,,,,,,,,,,,,,,,,,,,,,,,,
72208013880,2010-07-27T13:44:00,FM-16,7,,SE,0.25,mi,"TEMP, PRECIP, SNOW",,,"MMTS, SRG, SNOWBOARD",,,WFO CHS,,,,,,,,,,,,,,,,,,,,,,,,,,,30.06,79,90,,TS:7 |TS |TS,,,71,,SCT:04 29,30.01,10.00,82,160,,10,,,,,,,,,,,,,,,,,,,,,,,,,,,,,,,,,,,,,MET11807/27/10 13:44:02 SPECI KCHS 271844Z 16009KT 10SM TS SCT029CB 32/26 A3006 RMK AO2 TSB39 OCNL LTGICCG S TS S STNRY (WD),,,,,,,,,,,,,,,,,,,,,,,,,,,,
72208013880,2010-07-30T14:56:00,FM-15,7,,SE,0.25,mi,"TEMP, PRECIP, SNOW",,,"MMTS, SRG, SNOWBOARD",,,WFO CHS,,,,,,,,,,,,,,,,,,,,,,,,,,,29.85,77,89,0.00,,,,68,29.85,OVC:08 35,29.80,9.00,80,150,,10,,,,,,,,,,,,,,,,,,,,,,,,,,,,,,,,,,,,,MET09807/30/10 14:56:02 METAR KCHS 301956Z 15009KT 9SM OVC035 32/25 A2985 RMK AO2 SLP107 T03170250 (AWS),,,,,,,,,,,,,,,,,,,,,,,,,,,,
72208013880,2010-07-31T17:56:00,FM-15,7,,SE,0.25,mi,"TEMP, PRECIP, SNOW",,,"MMTS, SRG, SNOWBOARD",,,WFO CHS,,,,,,,,,,,,,,,,,,,,,,,,,,,29.89,73,83,0.00,,,,72,29.88,SCT:04 27,29.84,9.00,76,150,,10,,,,,,,,,,,,,,,,,,,,,,,,,,,,,,,,,,,,,MET09807/31/10 17:56:02 METAR KCHS 312256Z 15009KT 9SM SCT027 28/23 A2989 RMK AO2 SLP120 T02830228 (WRB),,,,,,,,,,,,,,,,,,,,,,,,,,,,
72208013880,2010-08-02T13:05:00,FM-16,7,,SE,0.25,mi,"TEMP, PRECIP, SNOW",,,"MMTS, SRG, SNOWBOARD",,,WFO CHS,,,,,,,,,,,,,,,,,,,,,,,,,,,30.04,75,88,,,,,66,,SCT:04 24 SCT:04 29 BKN:07 39,29.99,10.00,79,150,,9,,,,,,,,,,,,,,,,,,,,,,,,,,,,,,,,,,,,,MET09008/02/10 13:05:02 SPECI KCHS 021805Z 15008KT 10SM SCT024 SCT029 BKN039 31/24 A3004 RMK AO2,,,,,,,,,,,,,,,,,,,,,,,,,,,,
72208013880,2010-08-02T15:56:00,FM-15,7,,SE,0.25,mi,"TEMP, PRECIP, SNOW",,,"MMTS, SRG, SNOWBOARD",,,WFO CHS,,,,,,,,,,,,,,,,,,,,,,,,,,,30.03,76,90,0.00,,+0.02,6,63,30.02,FEW:02 30 SCT:04 100,29.98,10.00,80,150,,9,,,,,,,,,,,,,,,,,,,,,,,,,,,,,,,,,,,,,MET11208/02/10 15:56:02 METAR KCHS 022056Z 15008KT 10SM FEW030 SCT100 32/24 A3003 RMK AO2 SLP167 T03220244 56006 (AWS),,,,,,,,,,,,,,,,,,,,,,,,,,,,
72208013880,2010-08-02T16:00:00,FM-12,4,,SE,0.25,mi,"TEMP, PRECIP, SNOW",,,"MMTS, SRG, SNOWBOARD",,,WFO CHS,,,,,,,,,,,,,,,,,,,,,,,,,,,,76,90,,,+0.02,6,63,30.02,,29.98,9.94,80,150,,9,,,,,,,,,,,,,,,,,,,,,,,,,,,,,,,,,,,,,SYN076AAXX  02214 72208 32566 41508 10322 20244 30153 40167 56006 92056 555 90221;,,,,,,,,,,,,,,,,,,,,,,,,,,,,
72208013880,2010-08-03T12:56:00,SY-MT,7,,SE,0.25,mi,"TEMP, PRECIP, SNOW",,,"MMTS, SRG, SNOWBOARD",,,WFO CHS,,,,,,,,,,,,,,,,,,,,,,,,,,,30.08,75,90,0.00,,+0.04,8,62,30.08,BKN:07 37 BKN:07 48,30.03,10.00,79,150,,7,,,,,,,,,,,,,,,,,,,,,,,,,,,,,,,,,,,,,SYN092AAXX  03184 72208 32666 61506 10322 20239 30170 40185 58012 91756 333 10328 20283 555 90318;MET12308/03/10 12:56:02 METAR KCHS 031756Z 15006KT 10SM BKN037 BKN048 32/24 A3008 RMK AO2 SLP185 T03220239 10328 20283 58012 (WD),,,,,,,,,,,,,,,,,,,,,,,,,,,,
72208013880,2010-08-03T13:56:00,FM-15,7,,SE,0.25,mi,"TEMP, PRECIP, SNOW",,,"MMTS, SRG, SNOWBOARD",,,WFO CHS,,,,,,,,,,,,,,,,,,,,,,,,,,,30.07,74,91,0.00,,,,57,30.06,FEW:02 37,30.02,10.00,79,160,,10,,,,,,,,,,,,,,,,,,,,,,,,,,,,,,,,,,,,,MET09808/03/10 13:56:02 METAR KCHS 031856Z 16009KT 10SM FEW037 33/23 A3007 RMK AO2 SLP181 T03280233 (WD),,,,,,,,,,,,,,,,,,,,,,,,,,,,
72208013880,2010-08-03T14:56:00,FM-15,7,,SE,0.25,mi,"TEMP, PRECIP, SNOW",,,"MMTS, SRG, SNOWBOARD",,,WFO CHS,,,,,,,,,,,,,,,,,,,,,,,,,,,30.06,75,90,0.00,,,,62,30.06,SCT:04 40,30.01,10.00,79,160,,11,,,,,,,,,,,,,,,,,,,,,,,,,,,,,,,,,,,,,MET09808/03/10 14:56:02 METAR KCHS 031956Z 16010KT 10SM SCT040 32/24 A3006 RMK AO2 SLP178 T03220239 (WD),,,,,,,,,,,,,,,,,,,,,,,,,,,,
72208013880,2010-08-04T11:56:00,FM-15,7,,SE,0.25,mi,"TEMP, PRECIP, SNOW",,,"MMTS, SRG, SNOWBOARD",,,WFO CHS,,,,,,,,,,,,,,,,,,,,,,,,,,,30.04,76,89,0.00,,,,65,30.03,FEW:02 35,29.99,10.00,80,150,,8,,,,,,,,,,,,,,,,,,,,,,,,,,,,,,,,,,,,,MET09808/04/10 11:56:02 METAR KCHS 041656Z 15007KT 10SM FEW035 32/24 A3004 RMK AO2 SLP171 T03170244 (WD),,,,,,,,,,,,,,,,,,,,,,,,,,,,
72208013880,2010-08-04T14:56:00,FM-15,7,,SE,0.25,mi,"TEMP, PRECIP, SNOW",,,"MMTS, SRG, SNOWBOARD",,,WFO CHS,,,,,,,,,,,,,,,,,,,,,,,,,,,29.98,75,91,0.00,,,,59,29.97,SCT:04 40,29.93,10.00,79,170,20,13,,,,,,,,,,,,,,,,,,,,,,,,,,,,,,,,,,,,,MET10208/04/10 14:56:02 METAR KCHS 041956Z 17011G17KT 10SM SCT040 33/24 A2998 RMK AO2 SLP150 T03280239 (AWS),,,,,,,,,,,,,,,,,,,,,,,,,,,,
72208013880,2010-08-04T15:56:00,FM-15,7,,SE,0.25,mi,"TEMP, PRECIP, SNOW",,,"MMTS, SRG, SNOWBOARD",,,WFO CHS,,,,,,,,,,,,,,,,,,,,,,,,,,,29.97,75,90,0.00,,+0.06,6,62,29.97,FEW:02 38 SCT:04 45,29.92,10.00,79,170,,10,,,,,,,,,,,,,,,,,,,,,,,,,,,,,,,,,,,,,MET11208/04/10 15:56:02 METAR KCHS 042056Z 17009KT 10SM FEW038 SCT045 32/24 A2997 RMK AO2 SLP148 T03220239 56019 (AWS),,,,,,,,,,,,,,,,,,,,,,,,,,,,
72208013880,2010-08-04T16:00:00,FM-12,4,,SE,0.25,mi,"TEMP, PRECIP, SNOW",,,"MMTS, SRG, SNOWBOARD",,,WFO CHS,,,,,,,,,,,,,,,,,,,,,,,,,,,,75,90,,,+0.06,6,62,29.97,,29.92,9.94,79,170,,10,,,,,,,,,,,,,,,,,,,,,,,,,,,,,,,,,,,,,SYN076AAXX  04214 72208 32666 41709 10322 20239 30133 40148 56019 92056 555 90421;,,,,,,,,,,,,,,,,,,,,,,,,,,,,
72208013880,2010-08-04T16:56:00,FM-15,7,,SE,0.25,mi,"TEMP, PRECIP, SNOW",,,"MMTS, SRG, SNOWBOARD",,,WFO CHS,,,,,,,,,,,,,,,,,,,,,,,,,,,29.96,73,89,0.00,,,,59,29.95,FEW:02 38,29.91,10.00,78,170,,11,,,,,,,,,,,,,,,,,,,,,,,,,,,,,,,,,,,,,MET09908/04/10 16:56:02 METAR KCHS 042156Z 17010KT 10SM FEW038 32/23 A2996 RMK AO2 SLP143 T03170228 (AWS),,,,,,,,,,,,,,,,,,,,,,,,,,,,
72208013880,2010-08-07T15:56:00,FM-15,7,,SE,0.25,mi,"TEMP, PRECIP, SNOW",,,"MMTS, SRG, SNOWBOARD",,,WFO CHS,,,,,,,,,,,,,,,,,,,,,,,,,,,29.87,75,88,0.00,,+0.04,6,66,29.86,SCT:04 35,29.82,9.00,79,150,,8,,,,,,,,,,,,,,,,,,,,,,,,,,,,,,,,,,,,,MET10408/07/10 15:56:02 METAR KCHS 072056Z 15007KT 9SM SCT035 31/24 A2987 RMK AO2 SLP112 T03110239 56013 (WRB),,,,,,,,,,,,,,,,,,,,,,,,,,,,
72208013880,2010-08-07T16:00:00,FM-12,4,,SE,0.25,mi,"TEMP, PRECIP, SNOW",,,"MMTS, SRG, SNOWBOARD",,,WFO CHS,,,,,,,,,,,,,,,,,,,,,,,,,,,,75,88,,,+0.04,6,66,29.86,,29.82,8.70,79,150,,8,,,,,,,,,,,,,,,,,,,,,,,,,,,,,,,,,,,,,SYN076AAXX  07214 72208 32664 41507 10311 20239 30099 40112 56013 92056 555 90721;,,,,,,,,,,,,,,,,,,,,,,,,,,,,
72208013880,2010-08-07T16:56:00,FM-15,7,,SE,0.25,mi,"TEMP, PRECIP, SNOW",,,"MMTS, SRG, SNOWBOARD",,,WFO CHS,,,,,,,,,,,,,,,,,,,,,,,,,,,29.87,76,87,0.00,,,,70,29.87,SCT:04 38,29.82,8.00,79,150,,8,,,,,,,,,,,,,,,,,,,,,,,,,,,,,,,,,,,,,MET09808/07/10 16:56:02 METAR KCHS 072156Z 15007KT 8SM SCT038 31/24 A2987 RMK AO2 SLP114 T03060244 (WRB),,,,,,,,,,,,,,,,,,,,,,,,,,,,
72208013880,2010-08-07T17:56:00,FM-15,7,,SE,0.25,mi,"TEMP, PRECIP, SNOW",,,"MMTS, SRG, SNOWBOARD",,,WFO CHS,,,,,,,,,,,,,,,,,,,,,,,,,,,29.88,74,85,0.00,,,,70,29.88,FEW:02 40,29.83,9.00,77,160,,10,,,,,,,,,,,,,,,,,,,,,,,,,,,,,,,,,,,,,MET12108/07/10 17:56:02 METAR KCHS 072256Z 16009KT 9SM FEW040 29/23 A2988 RMK AO2 SLP118 CB DSNT NE TCU DSNT NW T02940233 (WRB),,,,,,,,,,,,,,,,,,,,,,,,,,,,
72208013880,2010-08-10T11:56:00,FM-15,7,,SE,0.25,mi,"TEMP, PRECIP, SNOW",,,"MMTS, SRG, SNOWBOARD",,,WFO CHS,,,,,,,,,,,,,,,,,,,,,,,,,,,30.03,77,91,0.00,,,,64,30.03,FEW:02 34 SCT:04 60,29.98,10.00,81,160,,10,,,,,,,,,,,,,,,,,,,,,,,,,,,,,,,,,,,,,MET10508/10/10 11:56:02 METAR KCHS 101656Z 16009KT 10SM FEW034 SCT060 33/25 A3003 RMK AO2 SLP170 T03280250 (WD),,,,,,,,,,,,,,,,,,,,,,,,,,,,
72208013880,2010-08-10T16:56:00,FM-15,7,,SE,0.25,mi,"TEMP, PRECIP, SNOW",,,"MMTS, SRG, SNOWBOARD",,,WFO CHS,,,,,,,,,,,,,,,,,,,,,,,,,,,29.97,73,90,0.00,,,,58,29.97,FEW:02 39,29.92,10.00,78,170,,11,,,,,,,,,,,,,,,,,,,,,,,,,,,,,,,,,,,,,MET09908/10/10 16:56:02 METAR KCHS 102156Z 17010KT 10SM FEW039 32/23 A2997 RMK AO2 SLP149 T03220228 (AWS),,,,,,,,,,,,,,,,,,,,,,,,,,,,
72208013880,2010-08-15T14:48:00,FM-16,7,,SE,0.25,mi,"TEMP, PRECIP, SNOW",,,"MMTS, SRG, SNOWBOARD",,,WFO CHS,,,,,,,,,,,,,,,,,,,,,,,,,,,29.96,75,81,,TS:7 |TS |TS,,,84,,FEW:02 10 SCT:04 23 BKN:07 80,29.91,10.00,77,160,,10,,,,,,,,,,,,,,,,,,,,,,,,,,,,,,,,,,,,,MET14008/15/10 14:48:02 SPECI KCHS 151948Z 16009KT 10SM TS FEW010 SCT023CB BKN080 27/24 A2996 RMK AO2 TSB10 OCNL LTGCIC S-SW TS S-SW MOV W $ (JRS),,,,,,,,,,,,,,,,,,,,,,,,,,,,
72208013880,2010-08-15T14:54:00,FM-16,6,,SE,0.25,mi,"TEMP, PRECIP, SNOW",,,"MMTS, SRG, SNOWBOARD",,,WFO CHS,,,,,,,,,,,,,,,,,,,,,,,,,,,29.95,75,81,,,,,84,,FEW:02 10 SCT:04 23 BKN:07 80,29.90,10.00,77,150,,8,,,,,,,,,,,,,,,,,,,,,,,,,,,,,,,,,,,,,MET12908/15/10 14:54:02 SPECI KCHS 151954Z 15007KT 10SM FEW010 SCT023CB BKN080 27/24 A2995 RMK AO2 TSB10E52 TS DSIPTD VCSH $ FIBI (JRS),,,,,,,,,,,,,,,,,,,,,,,,,,,,
72208013880,2010-08-15T14:56:00,FM-15,7,,SE,0.25,mi,"TEMP, PRECIP, SNOW",,,"MMTS, SRG, SNOWBOARD",,,WFO CHS,,,,,,,,,,,,,,,,,,,,,,,,,,,29.95,76,81,0.00,,,,85,29.95,FEW:02 10 SCT:04 23 BKN:07 80,29.90,10.00,77,150,,8,,,,,,,,,,,,,,,,,,,,,,,,,,,,,,,,,,,,,MET13908/15/10 14:56:02 METAR KCHS 151956Z 15007KT 10SM FEW010 SCT023 BKN080 27/24 A2995 RMK AO2 TSB10E52 SLP141 TS DSIPTD VCSH T02720244 $ (JRS),,,,,,,,,,,,,,,,,,,,,,,,,,,,
72208013880,2010-08-17T12:41:00,FM-16,7,,SE,0.25,mi,"TEMP, PRECIP, SNOW",,,"MMTS, SRG, SNOWBOARD",,,WFO CHS,,,,,,,,,,,,,,,,,,,,,,,,,,,30.05,79,84,T,-RA:02 |RA |RA,,,84,,BKN:07 21 BKN:07 29,30.00,9.00,80,170,,7,,,,,,,,,,,,,,,,,,,,,,,,,,,,,,,,,,,,,MET10308/17/10 12:41:02 SPECI KCHS 171741Z 17006KT 9SM -RA BKN021 BKN029 29/26 A3005 RMK AO2 RAB37 P0000 (WD),,,,,,,,,,,,,,,,,,,,,,,,,,,,
72208013880,2010-08-17T12:52:00,FM-16,7,,SE,0.25,mi,"TEMP, PRECIP, SNOW",,,"MMTS, SRG, SNOWBOARD",,,WFO CHS,,,,,,,,,,,,,,,,,,,,,,,,,,,30.05,79,82,0.03,+RA:02 BR:1 |RA |RA,,,89,,FEW:02 4 BKN:07 19 OVC:08 27,30.00,2.00,80,160,,10,,,,,,,,,,,,,,,,,,,,,,,,,,,,,,,,,,,,,MET11308/17/10 12:52:02 SPECI KCHS 171752Z 16009KT 2SM +RA BR FEW004 BKN019 OVC027 28/26 A3005 RMK AO2 RAB37 P0003 (WD),,,,,,,,,,,,,,,,,,,,,,,,,,,,
72208013880,2010-08-17T12:54:00,FM-16,7,,SE,0.25,mi,"TEMP, PRECIP, SNOW",,,"MMTS, SRG, SNOWBOARD",,,WFO CHS,,,,,,,,,,,,,,,,,,,,,,,,,,,30.05,79,82,0.08,+RA:02 BR:1 |RA |RA,,,89,,FEW:02 4 BKN:07 19 OVC:08 27,30.00,1.50,80,150,,8,,,,,,,,,,,,,,,,,,,,,,,,,,,,,,,,,,,,,MET11708/17/10 12:54:02 SPECI KCHS 171754Z 15007KT 1 1/2SM +RA BR FEW004 BKN019 OVC027 28/26 A3005 RMK AO2 RAB37 P0008 (WD),,,,,,,,,,,,,,,,,,,,,,,,,,,,
72208013880,2010-08-17T12:56:00,FM-15,7,,SE,0.25,mi,"TEMP, PRECIP, SNOW",,,"MMTS, SRG, SNOWBOARD",,,WFO CHS,,,,,,,,,,,,,,,,,,,,,,,,,,,30.05,78,81,0.17,+RA:02 BR:1 |RA |RA,+0.01,7,91,30.05,SCT:04 4 BKN:07 19 OVC:08 30,30.00,1.00,79,150,,7,,,,,,,,,,,,,,,,,,,,,,,,,,,,,,,,,,,,,MET15408/17/10 12:56:02 METAR KCHS 171756Z 15006KT 1SM +RA BR SCT004 BKN019 OVC030 27/26 A3005 RMK AO2 RAB37 SLP175 P0011 60030 T02720256 10300 20261 57005 (WD),,,,,,,,,,,,,,,,,,,,,,,,,,,,
72208013880,2010-08-17T13:00:00,FM-12,4,,SE,0.25,mi,"TEMP, PRECIP, SNOW",,,"MMTS, SRG, SNOWBOARD",,,WFO CHS,,,,,,,,,,,,,,,,,,,,,,,,,,,,78,81,,||RA,+0.01,7,91,30.05,,30.00,0.99,79,150,,7,,,,,,,,,,,,,,,,,,,,,,,,,,,,,,,,,,,,,SYN110AAXX  17184 72208 11216 81506 10272 20256 30160 40175 57005 60081 765// 91756 333 10300 20261 96010 555 91718;,,,,,,,,,,,,,,,,,,,,,,,,,,,,
72208013880,2010-08-17T15:56:00,SY-MT,7,,SE,0.25,mi,"TEMP, PRECIP, SNOW",,,"MMTS, SRG, SNOWBOARD",,,WFO CHS,,,,,,,,,,,,,,,,,,,,,,,,,,,30.01,78,87,0.00,,+0.04,6,75,30.01,FEW:02 43 SCT:04 80,29.96,10.00,80,150,,10,,,,,,,,,,,,,,,,,,,,,,,,,,,,,,,,,,,,,SYN082AAXX  17214 72208 12666 41509 10306 20256 30146 40162 56013 60037 92056 555 91721;MET13208/17/10 15:56:02 METAR KCHS 172056Z 15009KT 10SM FEW043 SCT080 31/26 A3001 RMK AO2 RAE1959 SLP162 P0000 60013 T03060256 56013 (AWS),,,,,,,,,,,,,,,,,,,,,,,,,,,,
72208013880,2010-08-17T16:56:00,FM-15,7,,SE,0.25,mi,"TEMP, PRECIP, SNOW",,,"MMTS, SRG, SNOWBOARD",,,WFO CHS,,,,,,,,,,,,,,,,,,,,,,,,,,,30.01,78,86,0.00,,,,77,30.00,FEW:02 43 SCT:04 90,29.96,10.00,80,150,,10,,,,,,,,,,,,,,,,,,,,,,,,,,,,,,,,,,,,,MET10608/17/10 16:56:02 METAR KCHS 172156Z 15009KT 10SM FEW043 SCT090 30/26 A3001 RMK AO2 SLP160 T03000256 (AWS),,,,,,,,,,,,,,,,,,,,,,,,,,,,
72208013880,2010-08-17T17:56:00,FM-15,7,,SE,0.25,mi,"TEMP, PRECIP, SNOW",,,"MMTS, SRG, SNOWBOARD",,,WFO CHS,,,,,,,,,,,,,,,,,,,,,,,,,,,30.01,77,84,0.00,,,,80,30.01,FEW:02 24,29.96,10.00,79,150,,8,,,,,,,,,,,,,,,,,,,,,,,,,,,,,,,,,,,,,MET09908/17/10 17:56:02 METAR KCHS 172256Z 15007KT 10SM FEW024 29/25 A3001 RMK AO2 SLP162 T02890250 (AWS),,,,,,,,,,,,,,,,,,,,,,,,,,,,
72208013880,2010-08-20T14:56:00,FM-15,7,,SE,0.25,mi,"TEMP, PRECIP, SNOW",,,"MMTS, SRG, SNOWBOARD",,,WFO CHS,,,,,,,,,,,,,,,,,,,,,,,,,,,29.90,78,83,T,TS:7 |TS |TS,,,85,29.90,FEW:02 12 BKN:07 25 OVC:08 36,29.85,8.00,79,160,,8,,,,,,,,,,,,,,,,,,,,,,,,,,,,,,,,,,,,,MET16808/20/10 14:56:02 METAR KCHS 201956Z 16007KT 8SM TS FEW012 BKN025CB OVC036 28/26 A2990 RMK AO2 TSB27RAB15E38 SLP125 OCNL LTGIC SE-W TS SE-W MOV SE P0000 T02830256 (AWS),,,,,,,,,,,,,,,,,,,,,,,,,,,,
72208013880,2010-08-25T10:56:00,FM-15,7,,SE,0.25,mi,"TEMP, PRECIP, SNOW",,,"MMTS, SRG, SNOWBOARD",,,WFO CHS,,,,,,,,,,,,,,,,,,,,,,,,,,,29.96,74,86,0.00,,,,67,29.96,FEW:02 24,29.91,9.00,78,150,,9,,,,,,,,,,,,,,,,,,,,,,,,,,,,,,,,,,,,,MET09708/25/10 10:56:02 METAR KCHS 251556Z 15008KT 9SM FEW024 30/23 A2996 RMK AO2 SLP145 T03000233 (WD),,,,,,,,,,,,,,,,,,,,,,,,,,,,
72208013880,2010-08-25T13:56:00,FM-15,7,,SE,0.25,mi,"TEMP, PRECIP, SNOW",,,"MMTS, SRG, SNOWBOARD",,,WFO CHS,,,,,,,,,,,,,,,,,,,,,,,,,,,29.93,72,88,0.00,,,,59,29.93,BKN:07 40 OVC:08 55,29.88,10.00,77,150,21,9,,,,,,,,,,,,,,,,,,,,,,,,,,,,,,,,,,,,,MET10808/25/10 13:56:02 METAR KCHS 251856Z 15008G18KT 10SM BKN040 OVC055 31/22 A2993 RMK AO2 SLP134 T03110222 (WD),,,,,,,,,,,,,,,,,,,,,,,,,,,,
72208013880,2010-08-31T17:56:00,FM-15,7,,SE,0.25,mi,"TEMP, PRECIP, SNOW",,,"MMTS, SRG, SNOWBOARD",,,WFO CHS,,,,,,,,,,,,,,,,,,,,,,,,,,,30.12,70,85,0.00,,,,61,30.11,,30.07,9.00,75,160,,8,,,,,,,,,,,,,,,,,,,,,,,,,,,,,,,,,,,,,MET09508/31/10 17:56:02 METAR KCHS 312256Z 16007KT 9SM CLR 29/21 A3012 RMK AO2 SLP197 T02940211 (AWS),,,,,,,,,,,,,,,,,,,,,,,,,,,,
72208013880,2010-09-07T17:56:00,FM-15,7,,SE,0.25,mi,"TEMP, PRECIP, SNOW",,,"MMTS, SRG, SNOWBOARD",,,WFO CHS,,,,,,,,,,,,,,,,,,,,,,,,,,,30.14,70,83,0.00,,,,65,30.14,FEW:02 34,30.09,10.00,74,150,,7,,,,,,,,,,,,,,,,,,,,,,,,,,,,,,,,,,,,,MET11009/07/10 17:56:02 METAR KCHS 072256Z 15006KT 10SM FEW034 28/21 A3014 RMK AO2 SLP206 TCU DSNT W T02830211 (AWS),,,,,,,,,,,,,,,,,,,,,,,,,,,,
72208013880,2010-09-11T10:56:00,FM-15,7,,SE,0.25,mi,"TEMP, PRECIP, SNOW",,,"MMTS, SRG, SNOWBOARD",,,WFO CHS,,,,,,,,,,,,,,,,,,,,,,,,,,,29.98,68,87,0.00,,,,53,29.98,,29.93,10.00,74,170,,9,,,,,,,,,,,,,,,,,,,,,,,,,,,,,,,,,,,,,MET09609/11/10 10:56:02 METAR KCHS 111556Z 17008KT 10SM CLR 31/20 A2998 RMK AO2 SLP151 T03060200 (JRS),,,,,,,,,,,,,,,,,,,,,,,,,,,,
72208013880,2010-09-11T12:56:00,SY-MT,7,,SE,0.25,mi,"TEMP, PRECIP, SNOW",,,"MMTS, SRG, SNOWBOARD",,,WFO CHS,,,,,,,,,,,,,,,,,,,,,,,,,,,29.96,70,88,0.00,,+0.03,8,55,29.95,FEW:02 35,29.91,10.00,76,150,,10,,,,,,,,,,,,,,,,,,,,,,,,,,,,,,,,,,,,,SYN092AAXX  11184 72208 32666 21509 10311 20211 30129 40143 58010 91756 333 10317 20239 555 91118;MET11709/11/10 12:56:02 METAR KCHS 111756Z 15009KT 10SM FEW035 31/21 A2996 RMK AO2 SLP143 T03110211 10317 20239 58010 (JRS),,,,,,,,,,,,,,,,,,,,,,,,,,,,
72208013880,2010-09-16T10:56:00,FM-15,7,,SE,0.25,mi,"TEMP, PRECIP, SNOW",,,"MMTS, SRG, SNOWBOARD",,,WFO CHS,,,,,,,,,,,,,,,,,,,,,,,,,,,30.12,64,86,0.00,,,,48,30.12,,30.07,10.00,72,160,,8,,,,,,,,,,,,,,,,,,,,,,,,,,,,,,,,,,,,,MET09509/16/10 10:56:02 METAR KCHS 161556Z 16007KT 10SM CLR 30/18 A3012 RMK AO2 SLP199 T03000178 (WD),,,,,,,,,,,,,,,,,,,,,,,,,,,,
72208013880,2010-09-16T11:56:00,FM-15,7,,SE,0.25,mi,"TEMP, PRECIP, SNOW",,,"MMTS, SRG, SNOWBOARD",,,WFO CHS,,,,,,,,,,,,,,,,,,,,,,,,,,,30.10,62,87,0.00,,,,43,30.10,,30.05,10.00,71,170,16,11,,,,,,,,,,,,,,,,,,,,,,,,,,,,,,,,,,,,,MET09809/16/10 11:56:02 METAR KCHS 161656Z 17010G14KT 10SM CLR 31/17 A3010 RMK AO2 SLP192 T03060167 (WD),,,,,,,,,,,,,,,,,,,,,,,,,,,,
72208013880,2010-09-16T12:56:00,SY-MT,7,,SE,0.25,mi,"TEMP, PRECIP, SNOW",,,"MMTS, SRG, SNOWBOARD",,,WFO CHS,,,,,,,,,,,,,,,,,,,,,,,,,,,30.09,64,88,0.00,,+0.05,6,45,30.09,FEW:02 30,30.04,10.00,72,150,22,11,,,,,,,,,,,,,,,,,,,,,,,,,,,,,,,,,,,,,SYN098AAXX  16184 72208 32566 21510 10311 20178 30173 40188 56017 91756 333 10311 20217 91019 555 91618;MET11909/16/10 12:56:02 METAR KCHS 161756Z 15010G19KT 10SM FEW030 31/18 A3009 RMK AO2 SLP188 T03110178 10311 20217 56017 (WD),,,,,,,,,,,,,,,,,,,,,,,,,,,,
72208013880,2010-09-16T13:56:00,FM-15,7,,SE,0.25,mi,"TEMP, PRECIP, SNOW",,,"MMTS, SRG, SNOWBOARD",,,WFO CHS,,,,,,,,,,,,,,,,,,,,,,,,,,,30.06,64,86,0.00,,,,48,30.06,FEW:02 50,30.01,10.00,72,170,,13,,,,,,,,,,,,,,,,,,,,,,,,,,,,,,,,,,,,,MET09809/16/10 13:56:02 METAR KCHS 161856Z 17011KT 10SM FEW050 30/18 A3006 RMK AO2 SLP179 T03000178 (WD),,,,,,,,,,,,,,,,,,,,,,,,,,,,
72208013880,2010-09-18T14:56:00,FM-15,7,,SE,0.25,mi,"TEMP, PRECIP, SNOW",,,"MMTS, SRG, SNOWBOARD",,,WFO CHS,,,,,,,,,,,,,,,,,,,,,,,,,,,30.04,72,90,0.00,,,,56,30.03,SCT:04 40,29.99,10.00,77,170,,8,,,,,,,,,,,,,,,,,,,,,,,,,,,,,,,,,,,,,MET11209/18/10 14:56:02 METAR KCHS 181956Z 17007KT 10SM SCT040 32/22 A3004 RMK AO2 SLP171 TCU DSNT N-E T03220222 (JRS),,,,,,,,,,,,,,,,,,,,,,,,,,,,
72208013880,2010-09-18T15:56:00,FM-15,7,,SE,0.25,mi,"TEMP, PRECIP, SNOW",,,"MMTS, SRG, SNOWBOARD",,,WFO CHS,,,,,,,,,,,,,,,,,,,,,,,,,,,30.02,70,87,0.00,,+0.05,6,57,30.02,BKN:07 43,29.97,10.00,75,150,,11,,,,,,,,,,,,,,,,,,,,,,,,,,,,,,,,,,,,,MET13809/18/10 15:56:02 METAR KCHS 182056Z 15010KT 10SM BKN043TCU 31/21 A3002 RMK AO2 SLP165 TCU NE-E VCSH NE-E CB DSNT NE T03060211 56018 (WRB),,,,,,,,,,,,,,,,,,,,,,,,,,,,
72208013880,2010-09-18T16:00:00,FM-12,4,,SE,0.25,mi,"TEMP, PRECIP, SNOW",,,"MMTS, SRG, SNOWBOARD",,,WFO CHS,,,,,,,,,,,,,,,,,,,,,,,,,,,,70,87,,,+0.05,6,57,30.02,,29.97,9.94,75,150,,11,,,,,,,,,,,,,,,,,,,,,,,,,,,,,,,,,,,,,SYN076AAXX  18214 72208 32666 61510 10306 20211 30150 40165 56018 92056 555 91821;,,,,,,,,,,,,,,,,,,,,,,,,,,,,
72208013880,2010-09-18T16:26:00,FM-16,7,,SE,0.25,mi,"TEMP, PRECIP, SNOW",,,"MMTS, SRG, SNOWBOARD",,,WFO CHS,,,,,,,,,,,,,,,,,,,,,,,,,,,30.05,73,75,0.30,TS:7 +RA:02 BR:1 |RA TS |SHRA TS,,,94,,OVC:08 41,30.00,2.50,74,160,,16,,,,,,,,,,,,,,,,,,,,,,,,,,,,,,,,,,,,,MET14009/18/10 16:26:02 SPECI KCHS 182126Z 16014KT 2 1/2SM +TSRA BR OVC041CB 24/23 A3005 RMK AO2 TSB26RAB08 OCNL LTGIC NE TS NE MOV SW P0030 (WRB),,,,,,,,,,,,,,,,,,,,,,,,,,,,
72208013880,2010-09-21T12:56:00,SY-MT,7,,SE,0.25,mi,"TEMP, PRECIP, SNOW",,,"MMTS, SRG, SNOWBOARD",,,WFO CHS,,,,,,,,,,,,,,,,,,,,,,,,,,,30.13,72,89,0.00,,+0.02,8,57,30.12,SCT:04 41,30.08,10.00,77,150,21,13,,,,,,,,,,,,,,,,,,,,,,,,,,,,,,,,,,,,,SYN098AAXX  21184 72208 32666 41511 10317 20222 30187 40201 58006 91756 333 10317 20256 91018 555 92118;MET12009/21/10 12:56:02 METAR KCHS 211756Z 15011G18KT 10SM SCT041 32/22 A3013 RMK AO2 SLP201 T03170222 10317 20256 58006 (KPL),,,,,,,,,,,,,,,,,,,,,,,,,,,,
72208013880,2010-09-21T13:56:00,FM-15,7,,SE,0.25,mi,"TEMP, PRECIP, SNOW",,,"MMTS, SRG, SNOWBOARD",,,WFO CHS,,,,,,,,,,,,,,,,,,,,,,,,,,,30.11,71,88,0.00,,,,57,30.11,SCT:04 40,30.06,10.00,76,160,20,15,,,,,,,,,,,,,,,,,,,,,,,,,,,,,,,,,,,,,MET10209/21/10 13:56:02 METAR KCHS 211856Z 16013G17KT 10SM SCT040 31/22 A3011 RMK AO2 SLP195 T03110217 (KPL),,,,,,,,,,,,,,,,,,,,,,,,,,,,
72208013880,2010-09-21T17:56:00,FM-15,7,,SE,0.25,mi,"TEMP, PRECIP, SNOW",,,"MMTS, SRG, SNOWBOARD",,,WFO CHS,,,,,,,,,,,,,,,,,,,,,,,,,,,30.12,72,81,0.00,,,,74,30.12,FEW:02 35,30.07,9.00,75,150,,11,,,,,,,,,,,,,,,,,,,,,,,,,,,,,,,,,,,,,MET09809/21/10 17:56:02 METAR KCHS 212256Z 15010KT 9SM FEW035 27/22 A3012 RMK AO2 SLP200 T02720222 (AWS),,,,,,,,,,,,,,,,,,,,,,,,,,,,
72208013880,2010-09-22T14:56:00,FM-15,7,,SE,0.25,mi,"TEMP, PRECIP, SNOW",,,"MMTS, SRG, SNOWBOARD",,,WFO CHS,,,,,,,,,,,,,,,,,,,,,,,,,,,30.15,70,86,0.00,,,,59,30.14,,30.10,10.00,75,150,,11,,,,,,,,,,,,,,,,,,,,,,,,,,,,,,,,,,,,,MET09509/22/10 14:56:02 METAR KCHS 221956Z 15010KT 10SM CLR 30/21 A3015 RMK AO2 SLP207 T03000211 (WD),,,,,,,,,,,,,,,,,,,,,,,,,,,,
72208013880,2010-09-22T15:56:00,SY-MT,7,,SE,0.25,mi,"TEMP, PRECIP, SNOW",,,"MMTS, SRG, SNOWBOARD",,,WFO CHS,,,,,,,,,,,,,,,,,,,,,,,,,,,30.14,70,85,0.00,,+0.04,6,61,30.14,FEW:02 37,30.09,10.00,75,160,,15,,,,,,,,,,,,,,,,,,,,,,,,,,,,,,,,,,,,,SYN076AAXX  22214 72208 32666 21613 10294 20211 30190 40207 56013 92056 555 92221;MET10509/22/10 15:56:02 METAR KCHS 222056Z 16013KT 10SM FEW037 29/21 A3014 RMK AO2 SLP207 T02940211 56013 (BBE),,,,,,,,,,,,,,,,,,,,,,,,,,,,
72208013880,2010-09-22T16:56:00,FM-15,7,,SE,0.25,mi,"TEMP, PRECIP, SNOW",,,"MMTS, SRG, SNOWBOARD",,,WFO CHS,,,,,,,,,,,,,,,,,,,,,,,,,,,30.15,69,82,0.00,,,,65,30.14,,30.10,10.00,73,160,,10,,,,,,,,,,,,,,,,,,,,,,,,,,,,,,,,,,,,,MET09609/22/10 16:56:02 METAR KCHS 222156Z 16009KT 10SM CLR 28/21 A3015 RMK AO2 SLP208 T02780206 (BBE),,,,,,,,,,,,,,,,,,,,,,,,,,,,
72208013880,2010-09-22T17:56:00,FM-15,7,,SE,0.25,mi,"TEMP, PRECIP, SNOW",,,"MMTS, SRG, SNOWBOARD",,,WFO CHS,,,,,,,,,,,,,,,,,,,,,,,,,,,30.15,68,80,0.00,,,,67,30.15,,30.10,9.00,72,150,,9,,,,,,,,,,,,,,,,,,,,,,,,,,,,,,,,,,,,,MET09509/22/10 17:56:02 METAR KCHS 222256Z 15008KT 9SM CLR 27/20 A3015 RMK AO2 SLP209 T02670200 (BBE),,,,,,,,,,,,,,,,,,,,,,,,,,,,
72208013880,2010-09-23T15:56:00,SY-MT,7,,SE,0.25,mi,"TEMP, PRECIP, SNOW",,,"MMTS, SRG, SNOWBOARD",,,WFO CHS,,,,,,,,,,,,,,,,,,,,,,,,,,,30.16,64,86,0.00,,+0.04,6,48,30.16,,30.11,10.00,72,150,,11,,,,,,,,,,,,,,,,,,,,,,,,,,,,,,,,,,,,,SYN076AAXX  23214 72208 32966 01510 10300 20178 30197 40213 56014 92056 555 92321;MET10209/23/10 15:56:02 METAR KCHS 232056Z 15010KT 10SM CLR 30/18 A3016 RMK AO2 SLP213 T03000178 56014 (AWS),,,,,,,,,,,,,,,,,,,,,,,,,,,,
72208013880,2010-09-23T16:56:00,FM-15,7,,SE,0.25,mi,"TEMP, PRECIP, SNOW",,,"MMTS, SRG, SNOWBOARD",,,WFO CHS,,,,,,,,,,,,,,,,,,,,,,,,,,,30.16,65,84,0.00,,,,53,30.16,,30.11,10.00,72,150,,7,,,,,,,,,,,,,,,,,,,,,,,,,,,,,,,,,,,,,MET09609/23/10 16:56:02 METAR KCHS 232156Z 15006KT 10SM CLR 29/18 A3016 RMK AO2 SLP213 T02890183 (AWS),,,,,,,,,,,,,,,,,,,,,,,,,,,,
72208013880,2010-09-24T12:56:00,FM-15,7,,SE,0.25,mi,"TEMP, PRECIP, SNOW",,,"MMTS, SRG, SNOWBOARD",,,WFO CHS,,,,,,,,,,,,,,,,,,,,,,,,,,,30.17,71,85,0.00,,+0.04,8,63,30.17,SCT:04 31 BKN:07 100,30.12,10.00,75,160,,9,,,,,,,,,,,,,,,,,,,,,,,,,,,,,,,,,,,,,MET13009/24/10 12:56:02 METAR KCHS 241756Z 16008KT 10SM SCT031 BKN100 29/22 A3017 RMK AO2 SLP217 60019 T02940217 10300 20222 58015 (AWS),,,,,,,,,,,,,,,,,,,,,,,,,,,,
72208013880,2010-09-24T13:00:00,SY-MT,4,,SE,0.25,mi,"TEMP, PRECIP, SNOW",,,"MMTS, SRG, SNOWBOARD",,,WFO CHS,,,,,,,,,,,,,,,,,,,,,,,,,,,30.17,71,85,,,+0.04,8,63,30.17,SCT:04 54 BKN:07 98,30.12,9.94,75,160,,9,,,,,,,,,,,,,,,,,,,,,,,,,,,,,,,,,,,,,SYN098AAXX  24184 72208 12566 61608 10294 20217 30201 40217 58015 60051 91756 333 10300 20222 555 92418;MET107METAR KCHS 241756Z 16008KT 10SM SCT055 BKN100 29/22 A3017 RMK AO2 SLP217 60019 T02940217 10300 20222 58015;,,,,,,,,,,,,,,,,,,,,,,,,,,,,
72208013880,2010-09-24T13:56:00,FM-15,7,,SE,0.25,mi,"TEMP, PRECIP, SNOW",,,"MMTS, SRG, SNOWBOARD",,,WFO CHS,,,,,,,,,,,,,,,,,,,,,,,,,,,30.15,72,84,0.00,,,,67,30.15,FEW:02 31 SCT:04 55 BKN:07 75,30.10,10.00,76,160,,10,,,,,,,,,,,,,,,,,,,,,,,,,,,,,,,,,,,,,MET11309/24/10 13:56:02 METAR KCHS 241856Z 16009KT 10SM FEW031 SCT055 BKN075 29/22 A3015 RMK AO2 SLP209 T02890222 (AWS),,,,,,,,,,,,,,,,,,,,,,,,,,,,
72208013880,2010-09-24T14:56:00,FM-15,7,,SE,0.25,mi,"TEMP, PRECIP, SNOW",,,"MMTS, SRG, SNOWBOARD",,,WFO CHS,,,,,,,,,,,,,,,,,,,,,,,,,,,30.13,72,84,0.00,,,,67,30.13,FEW:02 31 SCT:04 55 BKN:07 70,30.08,10.00,76,160,,8,,,,,,,,,,,,,,,,,,,,,,,,,,,,,,,,,,,,,MET11309/24/10 14:56:02 METAR KCHS 241956Z 16007KT 10SM FEW031 SCT055 BKN070 29/22 A3013 RMK AO2 SLP203 T02890222 (AWS),,,,,,,,,,,,,,,,,,,,,,,,,,,,
72208013880,2010-09-24T16:56:00,FM-15,7,,SE,0.25,mi,"TEMP, PRECIP, SNOW",,,"MMTS, SRG, SNOWBOARD",,,WFO CHS,,,,,,,,,,,,,,,,,,,,,,,,,,,30.11,71,82,T,-RA:02 |RA |RA,,,69,30.10,OVC:08 75,30.06,10.00,75,160,,10,,,,,,,,,,,,,,,,,,,,,,,,,,,,,,,,,,,,,MET11409/24/10 16:56:02 METAR KCHS 242156Z 16009KT 10SM -RA OVC075 28/22 A3011 RMK AO2 RAB47 SLP194 P0000 T02780217 (WD),,,,,,,,,,,,,,,,,,,,,,,,,,,,
72208013880,2010-09-24T17:56:00,FM-15,7,,SE,0.25,mi,"TEMP, PRECIP, SNOW",,,"MMTS, SRG, SNOWBOARD",,,WFO CHS,,,,,,,,,,,,,,,,,,,,,,,,,,,30.10,71,80,0.00,,,,74,30.10,BKN:07 65,30.05,10.00,74,150,,9,,,,,,,,,,,,,,,,,,,,,,,,,,,,,,,,,,,,,MET10609/24/10 17:56:02 METAR KCHS 242256Z 15008KT 10SM BKN065 27/22 A3010 RMK AO2 RAE2157 SLP193 T02670217 (WD),,,,,,,,,,,,,,,,,,,,,,,,,,,,
72208013880,2010-09-26T13:25:00,FM-16,7,,SE,0.25,mi,"TEMP, PRECIP, SNOW",,,"MMTS, SRG, SNOWBOARD",,,WFO CHS,,,,,,,,,,,,,,,,,,,,,,,,,,,29.86,72,81,T,,,,74,,BKN:07 27 BKN:07 33 OVC:08 85,29.81,10.00,75,160,,7,,,,,,,,,,,,,,,,,,,,,,,,,,,,,,,,,,,,,MET12809/26/10 13:25:02 SPECI KCHS 261825Z 16006KT 10SM BKN027 BKN033CB OVC085 27/22 A2986 RMK AO2 RAB10E19 CB SW-W MOV NE P0000 (JRS),,,,,,,,,,,,,,,,,,,,,,,,,,,,
72208013880,2010-09-26T13:53:00,FM-16,7,,SE,0.25,mi,"TEMP, PRECIP, SNOW",,,"MMTS, SRG, SNOWBOARD",,,WFO CHS,,,,,,,,,,,,,,,,,,,,,,,,,,,29.84,72,81,T,,,,74,,FEW:02 25 SCT:04 33 BKN:07 90,29.79,10.00,75,150,,9,,,,,,,,,,,,,,,,,,,,,,,,,,,,,,,,,,,,,MET12409/26/10 13:53:02 SPECI KCHS 261853Z 15008KT 10SM FEW025 SCT033 BKN090 27/22 A2984 RMK AO2 RAB10E19 CB DSNT W-NW P0000 (JRS),,,,,,,,,,,,,,,,,,,,,,,,,,,,
72208013880,2010-09-26T14:11:00,FM-16,7,,SE,0.25,mi,"TEMP, PRECIP, SNOW",,,"MMTS, SRG, SNOWBOARD",,,WFO CHS,,,,,,,,,,,,,,,,,,,,,,,,,,,29.84,73,81,,TS:7 |TS |TS,,,79,,FEW:02 28 BKN:07 33 BKN:07 110,29.79,10.00,75,170,,8,,,,,,,,,,,,,,,,,,,,,,,,,,,,,,,,,,,,,MET14009/26/10 14:11:02 SPECI KCHS 261911Z 17007KT 10SM TS FEW028 BKN033CB BKN110 27/23 A2984 RMK AO2 TSB11 OCNL LTGCGIC SW-W TS SW-W MOV NE (JRS),,,,,,,,,,,,,,,,,,,,,,,,,,,,
72208013880,2010-09-28T16:56:00,FM-15,7,,SE,0.25,mi,"TEMP, PRECIP, SNOW",,,"MMTS, SRG, SNOWBOARD",,,WFO CHS,,,,,,,,,,,,,,,,,,,,,,,,,,,29.74,62,76,0.00,,,,62,29.74,FEW:02 100,29.69,10.00,67,170,,11,,,,,,,,,,,,,,,,,,,,,,,,,,,,,,,,,,,,,MET09909/28/10 16:56:02 METAR KCHS 282156Z 17010KT 10SM FEW100 24/17 A2974 RMK AO2 SLP071 T02440167 (AWS),,,,,,,,,,,,,,,,,,,,,,,,,,,,
72208013880,2010-10-24T10:56:00,FM-15,7,,SE,0.25,mi,"TEMP, PRECIP, SNOW",,,"MMTS, SRG, SNOWBOARD",,,WFO CHS,,,,,,,,,,,,,,,,,,,,,,,,,,,30.23,64,78,0.00,,,,62,30.22,SCT:04 33,30.18,10.00,69,150,,9,,,,,,,,,,,,,,,,,,,,,,,,,,,,,,,,,,,,,MET09910/24/10 10:56:02 METAR KCHS 241556Z 15008KT 10SM SCT033 26/18 A3023 RMK AO2 SLP235 T02560178 (JRS),,,,,,,,,,,,,,,,,,,,,,,,,,,,
72208013880,2010-10-24T16:56:00,FM-15,7,,SE,0.25,mi,"TEMP, PRECIP, SNOW",,,"MMTS, SRG, SNOWBOARD",,,WFO CHS,,,,,,,,,,,,,,,,,,,,,,,,,,,30.14,64,75,0.00,,,,69,30.14,SCT:04 40 SCT:04 100,30.09,10.00,68,150,,7,,,,,,,,,,,,,,,,,,,,,,,,,,,,,,,,,,,,,MET10610/24/10 16:56:02 METAR KCHS 242156Z 15006KT 10SM SCT040 SCT100 24/18 A3014 RMK AO2 SLP205 T02390178 (WRB),,,,,,,,,,,,,,,,,,,,,,,,,,,,
72208013880,2010-11-14T15:56:00,SY-MT,7,,SE,0.25,mi,"TEMP, PRECIP, SNOW",,,"MMTS, SRG, SNOWBOARD",,,WFO CHS,,,,,,,,,,,,,,,,,,,,,,,,,,,30.03,40,68,0.00,,+0.04,6,36,30.03,,29.98,10.00,54,150,,8,,,,,,,,,,,,,,,,,,,,,,,,,,,,,,,,,,,,,SYN076AAXX  14214 72208 32966 01507 10200 20044 30153 40168 56012 92056 555 91421;MET10311/14/10 15:56:02 METAR KCHS 142056Z 15007KT 10SM CLR 20/04 A3003 RMK AO2 SLP168 T02000044 56012 $ (WD),,,,,,,,,,,,,,,,,,,,,,,,,,,,
72208013880,2010-11-14T16:56:00,FM-15,7,,SE,0.25,mi,"TEMP, PRECIP, SNOW",,,"MMTS, SRG, SNOWBOARD",,,WFO CHS,,,,,,,,,,,,,,,,,,,,,,,,,,,30.02,40,63,0.00,,,,43,30.02,SCT:04 250,29.97,10.00,52,160,,7,,,,,,,,,,,,,,,,,,,,,,,,,,,,,,,,,,,,,MET10011/14/10 16:56:02 METAR KCHS 142156Z 16006KT 10SM SCT250 17/04 A3002 RMK AO2 SLP166 T01720044 $ (WD),,,,,,,,,,,,,,,,,,,,,,,,,,,,
72208013880,2010-11-20T13:56:00,FM-15,7,,SE,0.25,mi,"TEMP, PRECIP, SNOW",,,"MMTS, SRG, SNOWBOARD",,,WFO CHS,,,,,,,,,,,,,,,,,,,,,,,,,,,30.30,52,69,0.00,,,,55,30.29,BKN:07 45 OVC:08 55,30.25,10.00,59,170,,9,,,,,,,,,,,,,,,,,,,,,,,,,,,,,,,,,,,,,MET10611/20/10 13:56:02 METAR KCHS 201856Z 17008KT 10SM BKN045 OVC055 21/11 A3030 RMK AO2 SLP259 T02060111 (JRS),,,,,,,,,,,,,,,,,,,,,,,,,,,,
72208013880,2010-11-20T14:56:00,FM-15,7,,SE,0.25,mi,"TEMP, PRECIP, SNOW",,,"MMTS, SRG, SNOWBOARD",,,WFO CHS,,,,,,,,,,,,,,,,,,,,,,,,,,,30.30,53,69,0.00,,,,57,30.29,FEW:02 40 BKN:07 60,30.25,10.00,60,170,,9,,,,,,,,,,,,,,,,,,,,,,,,,,,,,,,,,,,,,MET10611/20/10 14:56:02 METAR KCHS 201956Z 17008KT 10SM FEW040 BKN060 21/12 A3030 RMK AO2 SLP258 T02060117 (JRS),,,,,,,,,,,,,,,,,,,,,,,,,,,,
72208013880,2010-11-20T15:56:00,SY-MT,7,,SE,0.25,mi,"TEMP, PRECIP, SNOW",,,"MMTS, SRG, SNOWBOARD",,,WFO CHS,,,,,,,,,,,,,,,,,,,,,,,,,,,30.29,53,69,0.00,,+0.01,6,57,30.29,FEW:02 43 SCT:04 70,30.24,10.00,60,150,,8,,,,,,,,,,,,,,,,,,,,,,,,,,,,,,,,,,,,,SYN076AAXX  20214 72208 32666 41507 10206 20117 30241 40258 56004 92056 555 92021;MET11211/20/10 15:56:02 METAR KCHS 202056Z 15007KT 10SM FEW043 SCT070 21/12 A3029 RMK AO2 SLP258 T02060117 56004 (JRS),,,,,,,,,,,,,,,,,,,,,,,,,,,,
72208013880,2010-11-22T15:56:00,FM-15,7,,SE,0.25,mi,"TEMP, PRECIP, SNOW",,,"MMTS, SRG, SNOWBOARD",,,WFO CHS,,,,,,,,,,,,,,,,,,,,,,,,,,,30.28,59,69,0.00,,+0.04,5,70,30.27,FEW:02 45 SCT:04 60,30.23,10.00,63,160,,10,,,,,,,,,,,,,,,,,,,,,,,,,,,,,,,,,,,,,MET11111/22/10 15:56:02 METAR KCHS 222056Z 16009KT 10SM FEW045 SCT060 21/15 A3028 RMK AO2 SLP252 T02060150 55013 (DD),,,,,,,,,,,,,,,,,,,,,,,,,,,,
72208013880,2010-11-22T16:00:00,FM-12,4,,SE,0.25,mi,"TEMP, PRECIP, SNOW",,,"MMTS, SRG, SNOWBOARD",,,WFO CHS,,,,,,,,,,,,,,,,,,,,,,,,,,,,59,69,,,+0.04,5,70,30.27,,30.23,9.94,63,160,,10,,,,,,,,,,,,,,,,,,,,,,,,,,,,,,,,,,,,,SYN076AAXX  22214 72208 32666 41609 10206 20150 30238 40252 55013 92056 555 92221;,,,,,,,,,,,,,,,,,,,,,,,,,,,,
72208013880,2010-11-26T15:56:00,FM-15,7,,SE,0.25,mi,"TEMP, PRECIP, SNOW",,,"MMTS, SRG, SNOWBOARD",,,WFO CHS,,,,,,,,,,,,,,,,,,,,,,,,,,,29.86,63,64,0.03,-RA:02 BR:1 |RA |RA,+0.01,5,96,29.86,SCT:04 10 SCT:04 35 OVC:08 60,29.81,2.00,63,170,,7,,,,,,,,,,,,,,,,,,,,,,,,,,,,,,,,,,,,,MET13611/26/10 15:56:02 METAR KCHS 262056Z 17006KT 2SM -RA BR SCT010 SCT035 OVC060 18/17 A2986 RMK AO2 SLP112 P0003 60007 T01780172 55004 (WD),,,,,,,,,,,,,,,,,,,,,,,,,,,,
72208013880,2010-11-26T16:00:00,FM-12,4,,SE,0.25,mi,"TEMP, PRECIP, SNOW",,,"MMTS, SRG, SNOWBOARD",,,WFO CHS,,,,,,,,,,,,,,,,,,,,,,,,,,,,63,64,,||RA,+0.01,5,96,29.86,,29.81,1.99,63,170,,7,,,,,,,,,,,,,,,,,,,,,,,,,,,,,,,,,,,,,SYN098AAXX  26214 72208 11432 81706 10178 20172 30096 40112 55004 60027 761// 92056 333 96010 555 92621;,,,,,,,,,,,,,,,,,,,,,,,,,,,,
72208013880,2010-11-26T16:11:00,FM-16,7,,SE,0.25,mi,"TEMP, PRECIP, SNOW",,,"MMTS, SRG, SNOWBOARD",,,WFO CHS,,,,,,,,,,,,,,,,,,,,,,,,,,,29.85,63,64,0.02,-RA:02 BR:1 |RA |RA,,,94,,FEW:02 7 OVC:08 33,29.80,4.00,63,170,,9,,,,,,,,,,,,,,,,,,,,,,,,,,,,,,,,,,,,,MET10011/26/10 16:11:02 SPECI KCHS 262111Z 17008KT 4SM -RA BR FEW007 OVC033 18/17 A2985 RMK AO2 P0002 (WD),,,,,,,,,,,,,,,,,,,,,,,,,,,,
72208013880,2010-11-26T16:56:00,FM-15,7,,SE,0.25,mi,"TEMP, PRECIP, SNOW",,,"MMTS, SRG, SNOWBOARD",,,WFO CHS,,,,,,,,,,,,,,,,,,,,,,,,,,,29.81,62,63,0.02,-RA:02 |RA |RA,,,97,29.81,FEW:02 19 SCT:04 40 OVC:08 85,29.76,8.00,62,160,,11,,,,,,,,,,,,,,,,,,,,,,,,,,,,,,,,,,,,,MET12111/26/10 16:56:02 METAR KCHS 262156Z 16010KT 8SM -RA FEW019 SCT040 OVC085 17/17 A2981 RMK AO2 SLP094 P0002 T01720167 (WD),,,,,,,,,,,,,,,,,,,,,,,,,,,,
72208013880,2010-11-30T10:56:00,FM-15,7,,SE,0.25,mi,"TEMP, PRECIP, SNOW",,,"MMTS, SRG, SNOWBOARD",,,WFO CHS,,,,,,,,,,,,,,,,,,,,,,,,,,,30.13,64,73,0.00,,,,74,30.13,FEW:02 20 OVC:08 65,30.08,10.00,67,150,22,17,,,,,,,,,,,,,,,,,,,,,,,,,,,,,,,,,,,,,MET10811/30/10 10:56:02 METAR KCHS 301556Z 15015G19KT 10SM FEW020 OVC065 23/18 A3013 RMK AO2 SLP202 T02280178 (DD),,,,,,,,,,,,,,,,,,,,,,,,,,,,
72208013880,2010-11-30T12:56:00,FM-15,7,,SE,0.25,mi,"TEMP, PRECIP, SNOW",,,"MMTS, SRG, SNOWBOARD",,,WFO CHS,,,,,,,,,,,,,,,,,,,,,,,,,,,30.08,66,68,T,-RA:02 BR:1 |RA |RA,+0.06,8,93,30.08,SCT:04 10 BKN:07 25 OVC:08 40,30.03,3.00,67,150,,16,,,,,,,,,,,,,,,,,,,,,,,,,,,,,,,,,,,,,MET18011/30/10 12:56:02 METAR KCHS 301756Z 15014KT 3SM -RA BR SCT010 BKN025 OVC040 20/19 A3008 RMK AO2 PK WND 15027/1700 RAB1657E02B18 SLP185 P0000 60000 T02000189 10233 20194 58022 (DD),,,,,,,,,,,,,,,,,,,,,,,,,,,,
72208013880,2010-11-30T13:00:00,FM-12,4,,SE,0.25,mi,"TEMP, PRECIP, SNOW",,,"MMTS, SRG, SNOWBOARD",,,WFO CHS,,,,,,,,,,,,,,,,,,,,,,,,,,,,66,68,,||RA,+0.06,8,93,30.08,,30.03,2.98,67,150,,16,,,,,,,,,,,,,,,,,,,,,,,,,,,,,,,,,,,,,SYN110AAXX  30184 72208 11448 81514 10200 20189 30170 40185 58022 69901 761// 91756 333 10233 20178 96010 555 93018;,,,,,,,,,,,,,,,,,,,,,,,,,,,,
72208013880,2010-11-30T14:56:00,FM-15,7,,SE,0.25,mi,"TEMP, PRECIP, SNOW",,,"MMTS, SRG, SNOWBOARD",,,WFO CHS,,,,,,,,,,,,,,,,,,,,,,,,,,,30.03,67,68,0.03,-RA:02 BR:1 |RA |RA,,,96,30.03,FEW:02 10 BKN:07 25 OVC:08 40,29.98,5.00,67,150,,14,,,,,,,,,,,,,,,,,,,,,,,,,,,,,,,,,,,,,MET12411/30/10 14:56:02 METAR KCHS 301956Z 15012KT 5SM -RA BR FEW010 BKN025 OVC040 20/19 A3003 RMK AO2 SLP168 P0003 T02000194 (DD),,,,,,,,,,,,,,,,,,,,,,,,,,,,
72208013880,2010-11-30T15:31:00,FM-16,7,,SE,0.25,mi,"TEMP, PRECIP, SNOW",,,"MMTS, SRG, SNOWBOARD",,,WFO CHS,,,,,,,,,,,,,,,,,,,,,,,,,,,30.02,66,66,0.03,BR:1 ||,,,100,,FEW:02 10 BKN:07 25 OVC:08 40,29.97,2.00,66,150,,11,,,,,,,,,,,,,,,,,,,,,,,,,,,,,,,,,,,,,MET12911/30/10 15:31:02 SPECI KCHS 302031Z 15010KT 2SM BR FEW010 BKN025 OVC040 19/19 A3002 RMK AO2 SFC VIS 3 RAE05B26RAEMM P0003 $ (DD),,,,,,,,,,,,,,,,,,,,,,,,,,,,
72208013880,2010-11-30T15:53:00,FM-16,7,,SE,0.25,mi,"TEMP, PRECIP, SNOW",,,"MMTS, SRG, SNOWBOARD",,,WFO CHS,,,,,,,,,,,,,,,,,,,,,,,,,,,30.01,66,68,0.06,-RA:02 BR:1 |RA |RA,,,94,,BKN:07 10 BKN:07 20 OVC:08 35,29.96,3.00,67,170,,11,,,,,,,,,,,,,,,,,,,,,,,,,,,,,,,,,,,,,MET12611/30/10 15:53:02 SPECI KCHS 302053Z 17010KT 3SM -RA BR BKN010 BKN020 OVC035 20/19 A3001 RMK AO2 SFC VIS 6 RAE05B26 P0006 (DD),,,,,,,,,,,,,,,,,,,,,,,,,,,,
72208013880,2010-11-30T15:56:00,SY-MT,7,,SE,0.25,mi,"TEMP, PRECIP, SNOW",,,"MMTS, SRG, SNOWBOARD",,,WFO CHS,,,,,,,,,,,,,,,,,,,,,,,,,,,30.02,67,68,0.06,-RA:02 BR:1 |RA |RA,+0.06,6,96,30.01,BKN:07 10 BKN:07 20 OVC:08 35,29.97,3.00,67,160,17,10,,,,,,,,,,,,,,,,,,,,,,,,,,,,,,,,,,,,,SYN104AAXX  30214 72208 11448 81609 10200 20194 30150 40163 56022 60037 761// 92056 333 91015 96010 555 93021;MET15811/30/10 15:56:02 METAR KCHS 302056Z 16009G15KT 3SM -RA BR BKN010 BKN020 OVC035 20/19 A3002 RMK AO2 SFC VIS 6 RAE05B26 SLP163 P0006 60011 T02000194 56022 (DD),,,,,,,,,,,,,,,,,,,,,,,,,,,,
72208013880,2010-11-30T16:31:00,FM-16,7,,SE,0.25,mi,"TEMP, PRECIP, SNOW",,,"MMTS, SRG, SNOWBOARD",,,WFO CHS,,,,,,,,,,,,,,,,,,,,,,,,,,,30.00,66,70,T,,,,88,,FEW:02 7 BKN:07 12 BKN:07 45,29.95,7.00,67,160,,11,,,,,,,,,,,,,,,,,,,,,,,,,,,,,,,,,,,,,MET10711/30/10 16:31:02 SPECI KCHS 302131Z 16010KT 7SM FEW007 BKN012 BKN045 21/19 A3000 RMK AO2 RAE12 P0000 (AWS),,,,,,,,,,,,,,,,,,,,,,,,,,,,
72208013880,2010-11-30T16:50:00,FM-16,7,,SE,0.25,mi,"TEMP, PRECIP, SNOW",,,"MMTS, SRG, SNOWBOARD",,,WFO CHS,,,,,,,,,,,,,,,,,,,,,,,,,,,30.00,68,70,T,,,,94,,BKN:07 9 BKN:07 13 OVC:08 26,29.95,7.00,69,160,,9,,,,,,,,,,,,,,,,,,,,,,,,,,,,,,,,,,,,,MET11911/30/10 16:50:02 SPECI KCHS 302150Z 16008KT 7SM BKN009 BKN013 OVC026 21/20 A3000 RMK AO2 RAE12 CIG 006V011 P0000 (AWS),,,,,,,,,,,,,,,,,,,,,,,,,,,,
72208013880,2010-11-30T16:56:00,FM-15,7,,SE,0.25,mi,"TEMP, PRECIP, SNOW",,,"MMTS, SRG, SNOWBOARD",,,WFO CHS,,,,,,,,,,,,,,,,,,,,,,,,,,,30.00,68,69,T,,,,96,30.00,BKN:07 9 BKN:07 23 OVC:08 28,29.95,7.00,68,160,,10,,,,,,,,,,,,,,,,,,,,,,,,,,,,,,,,,,,,,MET13611/30/10 16:56:02 METAR KCHS 302156Z 16009KT 7SM BKN009 BKN023 OVC028 21/20 A3000 RMK AO2 RAE12 CIG 006V015 SLP158 P0000 T02060200 (AWS),,,,,,,,,,,,,,,,,,,,,,,,,,,,
72208013880,2010-11-30T17:26:00,FM-16,7,,SE,0.25,mi,"TEMP, PRECIP, SNOW",,,"MMTS, SRG, SNOWBOARD",,,WFO CHS,,,,,,,,,,,,,,,,,,,,,,,,,,,29.99,68,70,T,,,,94,,FEW:02 9 BKN:07 22 BKN:07 36,29.94,8.00,69,150,,9,,,,,,,,,,,,,,,,,,,,,,,,,,,,,,,,,,,,,MET11011/30/10 17:26:02 SPECI KCHS 302226Z 15008KT 8SM FEW009 BKN022 BKN036 21/20 A2999 RMK AO2 RAB03E12 P0000 (AWS),,,,,,,,,,,,,,,,,,,,,,,,,,,,
72208013880,2010-12-04T16:56:00,FM-15,7,,SE,0.25,mi,"TEMP, PRECIP, SNOW",,,"MMTS, SRG, SNOWBOARD",,,WFO CHS,,,,,,,,,,,,,,,,,,,,,,,,,,,29.89,42,55,0.00,,,,62,29.88,BKN:07 150,29.84,10.00,49,170,,10,,,,,,,,,,,,,,,,,,,,,,,,,,,,,,,,,,,,,MET09912/04/10 16:56:02 METAR KCHS 042156Z 17009KT 10SM BKN150 13/06 A2989 RMK AO2 SLP120 T01280056 (WRB),,,,,,,,,,,,,,,,,,,,,,,,,,,,
72208013880,2010-12-31T13:56:00,FM-15,7,,SE,0.25,mi,"TEMP, PRECIP, SNOW",,,"MMTS, SRG, SNOWBOARD",,,WFO CHS,,,,,,,,,,,,,,,,,,,,,,,,,,,30.24,53,68,0.00,,,,59,30.24,FEW:02 35,30.19,10.00,59,150,,8,,,,,,,,,,,,,,,,,,,,,,,,,,,,,,,,,,,,,MET09812/31/10 13:56:02 METAR KCHS 311856Z 15007KT 10SM FEW035 20/12 A3024 RMK AO2 SLP239 T02000117 (DD),,,,,,,,,,,,,,,,,,,,,,,,,,,,
72208013880,2011-01-01T14:54:00,FM-16,7,,SE,0.25,mi,"TEMP, PRECIP, SNOW",,,"MMTS, SRG, SNOWBOARD",,,WFO CHS,,,,,,,,,,,,,,,,,,,,,,,,,,,30.09,61,66,,,,,83,,OVC:08 32,30.04,10.00,63,170,,8,,,,,,,,,,,,,,,,,,,,,,,,,,,,,,,,,,,,,MET08401/01/11 14:54:02 SPECI KCHS 011954Z 17007KT 10SM OVC032 19/16 A3009 RMK AO2 $ (JRS),,,,,,,,,,,,,,,,,,,,,,,,,,,,
72208013880,2011-01-01T14:56:00,FM-15,7,,SE,0.25,mi,"TEMP, PRECIP, SNOW",,,"MMTS, SRG, SNOWBOARD",,,WFO CHS,,,,,,,,,,,,,,,,,,,,,,,,,,,30.09,61,67,0.00,,,,81,30.09,OVC:08 32,30.04,10.00,63,170,,7,,,,,,,,,,,,,,,,,,,,,,,,,,,,,,,,,,,,,MET10101/01/11 14:56:02 METAR KCHS 011956Z 17006KT 10SM OVC032 19/16 A3009 RMK AO2 SLP190 T01940161 $ (JRS),,,,,,,,,,,,,,,,,,,,,,,,,,,,
72208013880,2011-01-01T15:56:00,SY-MT,7,,SE,0.25,mi,"TEMP, PRECIP, SNOW",,,"MMTS, SRG, SNOWBOARD",,,WFO CHS,,,,,,,,,,,,,,,,,,,,,,,,,,,30.09,60,67,0.00,,+0.02,6,79,30.09,OVC:08 40,30.04,10.00,63,170,,9,,,,,,,,,,,,,,,,,,,,,,,,,,,,,,,,,,,,,SYN076AAXX  01214 72208 32666 81708 10194 20156 30173 40188 56008 92056 555 90121;MET10701/01/11 15:56:02 METAR KCHS 012056Z 17008KT 10SM OVC040 19/16 A3009 RMK AO2 SLP188 T01940156 56008 $ (JRS),,,,,,,,,,,,,,,,,,,,,,,,,,,,
72208013880,2011-01-01T16:56:00,FM-15,7,,SE,0.25,mi,"TEMP, PRECIP, SNOW",,,"MMTS, SRG, SNOWBOARD",,,WFO CHS,,,,,,,,,,,,,,,,,,,,,,,,,,,30.09,59,65,0.00,,,,81,30.09,OVC:08 42,30.04,10.00,61,170,,7,,,,,,,,,,,,,,,,,,,,,,,,,,,,,,,,,,,,,MET10001/01/11 16:56:02 METAR KCHS 012156Z 17006KT 10SM OVC042 18/15 A3009 RMK AO2 SLP190 T01830150 $ (WD),,,,,,,,,,,,,,,,,,,,,,,,,,,,
72208013880,2011-01-16T16:56:00,FM-15,7,,SE,0.25,mi,"TEMP, PRECIP, SNOW",,,"MMTS, SRG, SNOWBOARD",,,WFO CHS,,,,,,,,,,,,,,,,,,,,,,,,,,,30.08,34,55,0.00,,,,45,30.07,BKN:07 250,30.03,10.00,45,160,,9,,,,,,,,,,,,,,,,,,,,,,,,,,,,,,,,,,,,,MET09901/16/11 16:56:02 METAR KCHS 162156Z 16008KT 10SM BKN250 13/01 A3008 RMK AO2 SLP184 T01280011 (WRB),,,,,,,,,,,,,,,,,,,,,,,,,,,,
72208013880,2011-01-20T15:56:00,SY-MT,7,,SE,0.25,mi,"TEMP, PRECIP, SNOW",,,"MMTS, SRG, SNOWBOARD",,,WFO CHS,,,,,,,,,,,,,,,,,,,,,,,,,,,29.93,46,62,0.00,,+0.07,6,56,29.93,FEW:02 35 SCT:04 250,29.88,10.00,54,160,,13,,,,,,,,,,,,,,,,,,,,,,,,,,,,,,,,,,,,,SYN076AAXX  20214 72208 32666 41611 10167 20078 30119 40135 56025 92056 555 92021;MET11101/20/11 15:56:02 METAR KCHS 202056Z 16011KT 10SM FEW035 SCT250 17/08 A2993 RMK AO2 SLP135 T01670078 56025 (DD),,,,,,,,,,,,,,,,,,,,,,,,,,,,
72208013880,2011-01-23T15:56:00,SY-MT,7,,SE,0.25,mi,"TEMP, PRECIP, SNOW",,,"MMTS, SRG, SNOWBOARD",,,WFO CHS,,,,,,,,,,,,,,,,,,,,,,,,,,,30.14,24,50,0.00,,-0.01,3,36,30.14,FEW:02 160,30.09,10.00,40,150,,7,,,,,,,,,,,,,,,,,,,,,,,,,,,,,,,,,,,,,SYN076AAXX  23214 72208 32966 21506 10100 21044 30190 40206 53002 92056 555 92321;MET10601/23/11 15:56:02 METAR KCHS 232056Z 15006KT 10SM FEW160 10/M04 A3014 RMK AO2 SLP206 T01001044 53002 (JRS),,,,,,,,,,,,,,,,,,,,,,,,,,,,
72208013880,2011-01-23T16:56:00,FM-15,7,,SE,0.25,mi,"TEMP, PRECIP, SNOW",,,"MMTS, SRG, SNOWBOARD",,,WFO CHS,,,,,,,,,,,,,,,,,,,,,,,,,,,30.16,24,48,0.00,,,,39,30.16,,30.11,10.00,39,150,,9,,,,,,,,,,,,,,,,,,,,,,,,,,,,,,,,,,,,,MET09601/23/11 16:56:02 METAR KCHS 232156Z 15008KT 10SM CLR 09/M04 A3016 RMK AO2 SLP213 T00891044 (WD),,,,,,,,,,,,,,,,,,,,,,,,,,,,
72208013880,2011-02-15T13:56:00,FM-15,7,,SE,0.25,mi,"TEMP, PRECIP, SNOW",,,"MMTS, SRG, SNOWBOARD",,,WFO CHS,,,,,,,,,,,,,,,,,,,,,,,,,,,30.33,34,60,0.00,,,,38,30.32,BKN:07 250,30.28,10.00,48,150,,11,,,,,,,,,,,,,,,,,,,,,,,,,,,,,,,,,,,,,MET10802/15/11 13:56:02 METAR KCHS 151856Z 15010KT 10SM BKN250 16/01 A3033 RMK AO2 SLP269 FU DSNT N T01560011 (DD),,,,,,,,,,,,,,,,,,,,,,,,,,,,
72208013880,2011-02-17T10:56:00,FM-15,7,,SE,0.25,mi,"TEMP, PRECIP, SNOW",,,"MMTS, SRG, SNOWBOARD",,,WFO CHS,,,,,,,,,,,,,,,,,,,,,,,,,,,30.31,57,69,0.00,,,,66,30.30,SCT:04 30 BKN:07 40 BKN:07 80,30.26,10.00,62,170,,9,,,,,,,,,,,,,,,,,,,,,,,,,,,,,,,,,,,,,MET11202/17/11 10:56:02 METAR KCHS 171556Z 17008KT 10SM SCT030 BKN040 BKN080 21/14 A3031 RMK AO2 SLP261 T02060139 (DD),,,,,,,,,,,,,,,,,,,,,,,,,,,,
72208013880,2011-02-17T11:56:00,FM-15,7,,SE,0.25,mi,"TEMP, PRECIP, SNOW",,,"MMTS, SRG, SNOWBOARD",,,WFO CHS,,,,,,,,,,,,,,,,,,,,,,,,,,,30.30,57,72,0.00,,,,59,30.29,SCT:04 30 SCT:04 45 BKN:07 60,30.25,10.00,63,170,,14,,,,,,,,,,,,,,,,,,,,,,,,,,,,,,,,,,,,,MET11202/17/11 11:56:02 METAR KCHS 171656Z 17012KT 10SM SCT030 SCT045 BKN060 22/14 A3030 RMK AO2 SLP258 T02220139 (DD),,,,,,,,,,,,,,,,,,,,,,,,,,,,
72208013880,2011-02-17T12:56:00,FM-15,7,,SE,0.25,mi,"TEMP, PRECIP, SNOW",,,"MMTS, SRG, SNOWBOARD",,,WFO CHS,,,,,,,,,,,,,,,,,,,,,,,,,,,30.27,59,69,T,-RA:02 |RA |RA,+0.03,8,70,30.27,SCT:04 30 SCT:04 50 BKN:07 70,30.22,10.00,63,160,,14,,,,,,,,,,,,,,,,,,,,,,,,,,,,,,,,,,,,,MET14602/17/11 12:56:02 METAR KCHS 171756Z 16012KT 10SM -RA SCT030 SCT050 BKN070 21/15 A3027 RMK AO2 RAB55 SLP251 P0000 T02060150 10228 20111 58011 (DD),,,,,,,,,,,,,,,,,,,,,,,,,,,,
72208013880,2011-02-17T13:00:00,SY-MT,4,,SE,0.25,mi,"TEMP, PRECIP, SNOW",,,"MMTS, SRG, SNOWBOARD",,,WFO CHS,,,,,,,,,,,,,,,,,,,,,,,,,,,30.27,59,69,T,||RA,+0.03,8,70,30.27,SCT:04 30 SCT:04 49 BKN:07 69,30.22,9.94,63,160,,14,,,,,,,,,,,,,,,,,,,,,,,,,,,,,,,,,,,,,SYN098AAXX  17184 72208 31566 61612 10206 20150 30234 40251 58011 761// 91756 333 10228 20111 555 91718;MET130METAR KCHS 171756Z 16012KT 10SM -RA SCT030 SCT050 BKN070 21/15 A3027 RMK AO2 RAB55 SLP251 P0000 60001 T02060150 10228 20111 58011;,,,,,,,,,,,,,,,,,,,,,,,,,,,,
72208013880,2011-02-17T13:56:00,FM-15,7,,SE,0.25,mi,"TEMP, PRECIP, SNOW",,,"MMTS, SRG, SNOWBOARD",,,WFO CHS,,,,,,,,,,,,,,,,,,,,,,,,,,,30.25,59,70,T,,,,68,30.24,FEW:02 30 SCT:04 50 BKN:07 70,30.20,10.00,63,170,,13,,,,,,,,,,,,,,,,,,,,,,,,,,,,,,,,,,,,,MET12402/17/11 13:56:02 METAR KCHS 171856Z 17011KT 10SM FEW030 SCT050 BKN070 21/15 A3025 RMK AO2 RAE17 SLP242 P0000 T02110150 (DD),,,,,,,,,,,,,,,,,,,,,,,,,,,,
72208013880,2011-02-17T14:56:00,FM-15,7,,SE,0.25,mi,"TEMP, PRECIP, SNOW",,,"MMTS, SRG, SNOWBOARD",,,WFO CHS,,,,,,,,,,,,,,,,,,,,,,,,,,,30.24,59,69,0.00,,,,70,30.24,SCT:04 25 BKN:07 40 BKN:07 75,30.19,10.00,63,150,,14,,,,,,,,,,,,,,,,,,,,,,,,,,,,,,,,,,,,,MET11202/17/11 14:56:02 METAR KCHS 171956Z 15012KT 10SM SCT025 BKN040 BKN075 21/15 A3024 RMK AO2 SLP239 T02060150 (DD),,,,,,,,,,,,,,,,,,,,,,,,,,,,
72208013880,2011-02-17T15:56:00,SY-MT,7,,SE,0.25,mi,"TEMP, PRECIP, SNOW",,,"MMTS, SRG, SNOWBOARD",,,WFO CHS,,,,,,,,,,,,,,,,,,,,,,,,,,,30.23,60,69,0.00,,+0.05,6,73,30.22,SCT:04 20 SCT:04 35 BKN:07 75,30.18,10.00,64,170,,14,,,,,,,,,,,,,,,,,,,,,,,,,,,,,,,,,,,,,SYN082AAXX  17214 72208 12566 61712 10206 20156 30221 40235 56016 69907 92056 555 91721;MET12402/17/11 15:56:02 METAR KCHS 172056Z 17012KT 10SM SCT020 SCT035 BKN075 21/16 A3023 RMK AO2 SLP235 60000 T02060156 56016 (DD),,,,,,,,,,,,,,,,,,,,,,,,,,,,
72208013880,2011-02-23T13:56:00,FM-15,7,,SE,0.25,mi,"TEMP, PRECIP, SNOW",,,"MMTS, SRG, SNOWBOARD",,,WFO CHS,,,,,,,,,,,,,,,,,,,,,,,,,,,30.25,39,59,0.00,,,,48,30.24,,30.20,10.00,49,160,,9,,,,,,,,,,,,,,,,,,,,,,,,,,,,,,,,,,,,,MET09502/23/11 13:56:02 METAR KCHS 231856Z 16008KT 10SM CLR 15/04 A3025 RMK AO2 SLP241 T01500039 (DD),,,,,,,,,,,,,,,,,,,,,,,,,,,,
72208013880,2011-02-23T15:56:00,SY-MT,7,,SE,0.25,mi,"TEMP, PRECIP, SNOW",,,"MMTS, SRG, SNOWBOARD",,,WFO CHS,,,,,,,,,,,,,,,,,,,,,,,,,,,30.24,41,56,0.00,,+0.02,6,57,30.23,,30.19,10.00,49,150,,8,,,,,,,,,,,,,,,,,,,,,,,,,,,,,,,,,,,,,SYN076AAXX  23214 72208 32966 01507 10133 20050 30224 40238 56007 92056 555 92321;MET10102/23/11 15:56:02 METAR KCHS 232056Z 15007KT 10SM CLR 13/05 A3024 RMK AO2 SLP238 T01330050 56007 (DD),,,,,,,,,,,,,,,,,,,,,,,,,,,,
72208013880,2011-02-24T12:56:00,SY-MT,7,,SE,0.25,mi,"TEMP, PRECIP, SNOW",,,"MMTS, SRG, SNOWBOARD",,,WFO CHS,,,,,,,,,,,,,,,,,,,,,,,,,,,30.17,55,71,0.00,,+0.07,8,57,30.16,SCT:04 35,30.12,10.00,62,160,17,9,,,,,,,,,,,,,,,,,,,,,,,,,,,,,,,,,,,,,SYN098AAXX  24184 72208 32666 41608 10217 20128 30201 40214 58024 91756 333 10217 20078 91015 555 92418;MET11902/24/11 12:56:02 METAR KCHS 241756Z 16008G15KT 10SM SCT035 22/13 A3017 RMK AO2 SLP214 T02170128 10217 20078 58024 (DD),,,,,,,,,,,,,,,,,,,,,,,,,,,,
72208013880,2011-02-24T13:56:00,FM-15,7,,SE,0.25,mi,"TEMP, PRECIP, SNOW",,,"MMTS, SRG, SNOWBOARD",,,WFO CHS,,,,,,,,,,,,,,,,,,,,,,,,,,,30.14,56,69,0.00,,,,63,30.14,SCT:04 30 BKN:07 45,30.09,10.00,61,150,,11,,,,,,,,,,,,,,,,,,,,,,,,,,,,,,,,,,,,,MET10502/24/11 13:56:02 METAR KCHS 241856Z 15010KT 10SM SCT030 BKN045 21/13 A3014 RMK AO2 SLP205 T02060133 (DD),,,,,,,,,,,,,,,,,,,,,,,,,,,,
72208013880,2011-02-24T16:43:00,FM-16,7,,SE,0.25,mi,"TEMP, PRECIP, SNOW",,,"MMTS, SRG, SNOWBOARD",,,WFO CHS,,,,,,,,,,,,,,,,,,,,,,,,,,,30.09,61,63,0.01,-RA:02 BR:1 |RA |RA,,,94,,BKN:07 16 OVC:08 21,30.04,2.00,62,160,,8,,,,,,,,,,,,,,,,,,,,,,,,,,,,,,,,,,,,,MET10702/24/11 16:43:02 SPECI KCHS 242143Z 16007KT 2SM -RA BR BKN016 OVC021 17/16 A3009 RMK AO2 RAB11 P0001 (AWS),,,,,,,,,,,,,,,,,,,,,,,,,,,,
72208013880,2011-02-24T16:54:00,FM-16,6,,SE,0.25,mi,"TEMP, PRECIP, SNOW",,,"MMTS, SRG, SNOWBOARD",,,WFO CHS,,,,,,,,,,,,,,,,,,,,,,,,,,,30.09,61,63,,-RA:02 BR:1 |RA |,,,94,,BKN:07 11 OVC:08 18,30.04,2.00,62,150,,9,,,,,,,,,,,,,,,,,,,,,,,,,,,,,,,,,,,,,MET11202/24/11 16:54:02 SPECI KCHS 242154Z 15008KT 2SM -RA BR BKN011 OVC018 17/16 A3009 RMK AO2 RAB11 P0001 FIBI (AWS),,,,,,,,,,,,,,,,,,,,,,,,,,,,
72208013880,2011-02-24T16:56:00,FM-15,7,,SE,0.25,mi,"TEMP, PRECIP, SNOW",,,"MMTS, SRG, SNOWBOARD",,,WFO CHS,,,,,,,,,,,,,,,,,,,,,,,,,,,30.09,61,62,0.02,-RA:02 BR:1 |RA |RA,,,96,30.09,BKN:07 11 OVC:08 18,30.04,2.00,61,150,,8,,,,,,,,,,,,,,,,,,,,,,,,,,,,,,,,,,,,,MET12402/24/11 16:56:02 METAR KCHS 242156Z 15007KT 2SM -RA BR BKN011 OVC018 17/16 A3009 RMK AO2 RAB11 SLP189 P0001 T01670161 (AWS),,,,,,,,,,,,,,,,,,,,,,,,,,,,
72208013880,2011-02-24T17:56:00,FM-15,7,,SE,0.25,mi,"TEMP, PRECIP, SNOW",,,"MMTS, SRG, SNOWBOARD",,,WFO CHS,,,,,,,,,,,,,,,,,,,,,,,,,,,30.07,61,61,T,BR:1 ||,,,100,30.07,BKN:07 6 OVC:08 46,30.02,6.00,61,150,,9,,,,,,,,,,,,,,,,,,,,,,,,,,,,,,,,,,,,,MET13202/24/11 17:56:02 METAR KCHS 242256Z 15008KT 6SM BR BKN006 OVC046 16/16 A3007 RMK AO2 RAE05 CIG 004V008 SLP183 P0001 T01610161 (AWS),,,,,,,,,,,,,,,,,,,,,,,,,,,,
72208013880,2011-02-26T16:56:00,FM-15,7,,SE,0.25,mi,"TEMP, PRECIP, SNOW",,,"MMTS, SRG, SNOWBOARD",,,WFO CHS,,,,,,,,,,,,,,,,,,,,,,,,,,,30.03,57,70,0.00,,,,64,30.03,SCT:04 48 BKN:07 60,29.98,10.00,62,170,,7,,,,,,,,,,,,,,,,,,,,,,,,,,,,,,,,,,,,,MET10502/26/11 16:56:02 METAR KCHS 262156Z 17006KT 10SM SCT048 BKN060 21/14 A3003 RMK AO2 SLP168 T02110139 (WD),,,,,,,,,,,,,,,,,,,,,,,,,,,,
72208013880,2011-02-26T17:56:00,FM-15,7,,SE,0.25,mi,"TEMP, PRECIP, SNOW",,,"MMTS, SRG, SNOWBOARD",,,WFO CHS,,,,,,,,,,,,,,,,,,,,,,,,,,,30.04,58,66,0.00,,,,75,30.04,,29.99,8.00,61,150,,8,,,,,,,,,,,,,,,,,,,,,,,,,,,,,,,,,,,,,MET09402/26/11 17:56:02 METAR KCHS 262256Z 15007KT 8SM CLR 19/14 A3004 RMK AO2 SLP173 T01890144 (WD),,,,,,,,,,,,,,,,,,,,,,,,,,,,
72208013880,2011-03-02T17:56:00,FM-15,7,,SE,0.25,mi,"TEMP, PRECIP, SNOW",,,"MMTS, SRG, SNOWBOARD",,,WFO CHS,,,,,,,,,,,,,,,,,,,,,,,,,,,30.21,45,59,0.00,,,,60,30.21,,30.16,10.00,52,150,,8,,,,,,,,,,,,,,,,,,,,,,,,,,,,,,,,,,,,,MET09803/02/11 17:56:02 METAR KCHS 022256Z 15007KT 10SM CLR 15/07 A3021 RMK AO2 SLP229 T01500072 $ (AWS),,,,,,,,,,,,,,,,,,,,,,,,,,,,
72208013880,2011-03-05T10:56:00,FM-15,7,,SE,0.25,mi,"TEMP, PRECIP, SNOW",,,"MMTS, SRG, SNOWBOARD",,,WFO CHS,,,,,,,,,,,,,,,,,,,,,,,,,,,30.29,54,71,0.00,,,,55,30.29,FEW:02 35 SCT:04 60 OVC:08 200,30.24,10.00,61,150,,15,,,,,,,,,,,,,,,,,,,,,,,,,,,,,,,,,,,,,MET11303/05/11 10:56:02 METAR KCHS 051556Z 15013KT 10SM FEW035 SCT060 OVC200 22/12 A3029 RMK AO2 SLP256 T02170122 (JRS),,,,,,,,,,,,,,,,,,,,,,,,,,,,
72208013880,2011-03-05T11:56:00,FM-15,7,,SE,0.25,mi,"TEMP, PRECIP, SNOW",,,"MMTS, SRG, SNOWBOARD",,,WFO CHS,,,,,,,,,,,,,,,,,,,,,,,,,,,30.26,52,72,0.00,,,,50,30.26,FEW:02 35 OVC:08 200,30.21,10.00,61,150,,17,,,,,,,,,,,,,,,,,,,,,,,,,,,,,,,,,,,,,MET10603/05/11 11:56:02 METAR KCHS 051656Z 15015KT 10SM FEW035 OVC200 22/11 A3026 RMK AO2 SLP247 T02220111 (JRS),,,,,,,,,,,,,,,,,,,,,,,,,,,,
72208013880,2011-03-05T12:56:00,SY-MT,7,,SE,0.25,mi,"TEMP, PRECIP, SNOW",,,"MMTS, SRG, SNOWBOARD",,,WFO CHS,,,,,,,,,,,,,,,,,,,,,,,,,,,30.25,51,70,0.00,,+0.04,8,51,30.24,FEW:02 35 BKN:07 50 OVC:08 200,30.20,10.00,59,150,22,14,,,,,,,,,,,,,,,,,,,,,,,,,,,,,,,,,,,,,SYN098AAXX  05184 72208 32666 81512 10211 20106 30228 40242 58014 91756 333 10228 20128 91019 555 90518;MET13403/05/11 12:56:02 METAR KCHS 051756Z 15012G19KT 10SM FEW035 BKN050 OVC200 21/11 A3025 RMK AO2 SLP242 T02110106 10228 20128 58014 (JRS),,,,,,,,,,,,,,,,,,,,,,,,,,,,
72208013880,2011-03-05T14:56:00,FM-15,7,,SE,0.25,mi,"TEMP, PRECIP, SNOW",,,"MMTS, SRG, SNOWBOARD",,,WFO CHS,,,,,,,,,,,,,,,,,,,,,,,,,,,30.19,54,70,0.00,,,,57,30.19,FEW:02 42 SCT:04 60 BKN:07 180,30.14,10.00,61,160,,15,,,,,,,,,,,,,,,,,,,,,,,,,,,,,,,,,,,,,MET11303/05/11 14:56:02 METAR KCHS 051956Z 16013KT 10SM FEW042 SCT060 BKN180 21/12 A3019 RMK AO2 SLP223 T02110122 (JRS),,,,,,,,,,,,,,,,,,,,,,,,,,,,
72208013880,2011-03-07T15:56:00,SY-MT,7,,SE,0.25,mi,"TEMP, PRECIP, SNOW",,,"MMTS, SRG, SNOWBOARD",,,WFO CHS,,,,,,,,,,,,,,,,,,,,,,,,,,,30.12,38,56,0.00,,-0.00,3,51,30.11,OVC:08 200,30.07,10.00,47,150,,11,,,,,,,,,,,,,,,,,,,,,,,,,,,,,,,,,,,,,SYN076AAXX  07214 72208 32966 81510 10133 20033 30184 40197 53001 92056 555 90721;MET10403/07/11 15:56:02 METAR KCHS 072056Z 15010KT 10SM OVC200 13/03 A3012 RMK AO2 SLP197 T01330033 53001 (DD),,,,,,,,,,,,,,,,,,,,,,,,,,,,
72208013880,2011-03-09T11:56:00,FM-15,7,,SE,0.25,mi,"TEMP, PRECIP, SNOW",,,"MMTS, SRG, SNOWBOARD",,,WFO CHS,,,,,,,,,,,,,,,,,,,,,,,,,,,30.22,53,71,0.00,,,,53,30.22,FEW:02 40 BKN:07 60 BKN:07 250,30.17,10.00,61,160,29,16,,,,,,,,,,,,,,,,,,,,,,,,,,,,,,,,,,,,,MET13303/09/11 11:56:02 METAR KCHS 091656Z 16014G25KT 10SM FEW040 BKN060 BKN250 22/12 A3022 RMK AO2 PK WND 15026/1624 SLP232 T02170117 (DD),,,,,,,,,,,,,,,,,,,,,,,,,,,,
72208013880,2011-03-09T13:56:00,FM-15,7,,SE,0.25,mi,"TEMP, PRECIP, SNOW",,,"MMTS, SRG, SNOWBOARD",,,WFO CHS,,,,,,,,,,,,,,,,,,,,,,,,,,,30.20,55,71,T,,,,57,30.20,SCT:04 35 SCT:04 50 BKN:07 65,30.15,10.00,62,160,31,16,,,,,,,,,,,,,,,,,,,,,,,,,,,,,,,,,,,,,MET14803/09/11 13:56:02 METAR KCHS 091856Z 16014G27KT 10SM SCT035 SCT050 BKN065 22/13 A3020 RMK AO2 PK WND 14027/1849 RAB06E16 SLP226 P0000 T02170128 (DD),,,,,,,,,,,,,,,,,,,,,,,,,,,,
72208013880,2011-03-09T16:56:00,FM-15,7,,SE,0.25,mi,"TEMP, PRECIP, SNOW",,,"MMTS, SRG, SNOWBOARD",,,WFO CHS,,,,,,,,,,,,,,,,,,,,,,,,,,,30.11,56,68,0.00,,,,65,30.11,BKN:07 70,30.06,10.00,61,160,23,16,,,,,,,,,,,,,,,,,,,,,,,,,,,,,,,,,,,,,MET12003/09/11 16:56:02 METAR KCHS 092156Z 16014G20KT 10SM BKN070 20/13 A3011 RMK AO2 PK WND 14026/2101 SLP195 T02000133 (AWS),,,,,,,,,,,,,,,,,,,,,,,,,,,,
72208013880,2011-03-15T13:56:00,FM-15,7,,SE,0.25,mi,"TEMP, PRECIP, SNOW",,,"MMTS, SRG, SNOWBOARD",,,WFO CHS,,,,,,,,,,,,,,,,,,,,,,,,,,,30.19,56,73,0.00,,,,55,30.19,FEW:02 30 SCT:04 65,30.14,10.00,63,170,20,13,,,,,,,,,,,,,,,,,,,,,,,,,,,,,,,,,,,,,MET10803/15/11 13:56:02 METAR KCHS 151856Z 17011G17KT 10SM FEW030 SCT065 23/13 A3019 RMK AO2 SLP223 T02280133 (DD),,,,,,,,,,,,,,,,,,,,,,,,,,,,
72208013880,2011-03-15T15:56:00,SY-MT,7,,SE,0.25,mi,"TEMP, PRECIP, SNOW",,,"MMTS, SRG, SNOWBOARD",,,WFO CHS,,,,,,,,,,,,,,,,,,,,,,,,,,,30.16,57,71,0.00,,+0.06,6,61,30.16,FEW:02 35 SCT:04 65,30.11,10.00,63,150,,14,,,,,,,,,,,,,,,,,,,,,,,,,,,,,,,,,,,,,SYN076AAXX  15214 72208 32666 41512 10217 20139 30197 40213 56019 92056 555 91521;MET11203/15/11 15:56:02 METAR KCHS 152056Z 15012KT 10SM FEW035 SCT065 22/14 A3016 RMK AO2 SLP213 T02170139 56019 (AWS),,,,,,,,,,,,,,,,,,,,,,,,,,,,
72208013880,2011-03-15T16:56:00,FM-15,7,,SE,0.25,mi,"TEMP, PRECIP, SNOW",,,"MMTS, SRG, SNOWBOARD",,,WFO CHS,,,,,,,,,,,,,,,,,,,,,,,,,,,30.16,58,68,0.00,,,,70,30.16,FEW:02 35 SCT:04 65 SCT:04 150,30.11,10.00,62,150,,15,,,,,,,,,,,,,,,,,,,,,,,,,,,,,,,,,,,,,MET11303/15/11 16:56:02 METAR KCHS 152156Z 15013KT 10SM FEW035 SCT065 SCT150 20/14 A3016 RMK AO2 SLP212 T02000144 (AWS),,,,,,,,,,,,,,,,,,,,,,,,,,,,
72208013880,2011-03-17T13:56:00,FM-15,6,,SE,0.25,mi,"TEMP, PRECIP, SNOW",,,"MMTS, SRG, SNOWBOARD",,,WFO CHS,,,,,,,,,,,,,,,,,,,,,,,,,,,30.28,48,71,0.00,,,,44,30.27,CLR:00,30.23,10.00,58,160,,11,,,,,,,,,,,,,,,,,,,,,,,,,,,,,,,,,,,,,MET09503/17/11 13:56:02 METAR KCHS 171856Z 16010KT 10SM CLR 22/09 A3028 RMK AO2 SLP252 T02170089 (DD),,,,,,,,,,,,,,,,,,,,,,,,,,,,
72208013880,2011-03-17T14:56:00,FM-15,7,,SE,0.25,mi,"TEMP, PRECIP, SNOW",,,"MMTS, SRG, SNOWBOARD",,,WFO CHS,,,,,,,,,,,,,,,,,,,,,,,,,,,30.26,49,71,0.00,,,,46,30.26,,30.21,10.00,59,150,20,13,,,,,,,,,,,,,,,,,,,,,,,,,,,,,,,,,,,,,MET09803/17/11 14:56:02 METAR KCHS 171956Z 15011G17KT 10SM CLR 22/09 A3026 RMK AO2 SLP248 T02170094 (DD),,,,,,,,,,,,,,,,,,,,,,,,,,,,
72208013880,2011-03-17T15:56:00,SY-MT,7,,SE,0.25,mi,"TEMP, PRECIP, SNOW",,,"MMTS, SRG, SNOWBOARD",,,WFO CHS,,,,,,,,,,,,,,,,,,,,,,,,,,,30.27,47,70,0.00,,+0.03,5,44,30.27,,30.22,10.00,57,170,22,13,,,,,,,,,,,,,,,,,,,,,,,,,,,,,,,,,,,,,SYN086AAXX  17214 72208 32966 01711 10211 20083 30234 40249 55011 92056 333 91019 555 91721;MET10503/17/11 15:56:02 METAR KCHS 172056Z 17011G19KT 10SM CLR 21/08 A3027 RMK AO2 SLP249 T02110083 55011 (AWS),,,,,,,,,,,,,,,,,,,,,,,,,,,,
72208013880,2011-03-17T16:56:00,FM-15,7,,SE,0.25,mi,"TEMP, PRECIP, SNOW",,,"MMTS, SRG, SNOWBOARD",,,WFO CHS,,,,,,,,,,,,,,,,,,,,,,,,,,,30.26,48,68,0.00,,,,49,30.26,,30.21,10.00,57,170,,11,,,,,,,,,,,,,,,,,,,,,,,,,,,,,,,,,,,,,MET09603/17/11 16:56:02 METAR KCHS 172156Z 17010KT 10SM CLR 20/09 A3026 RMK AO2 SLP246 T02000089 (AWS),,,,,,,,,,,,,,,,,,,,,,,,,,,,
72208013880,2011-03-19T13:56:00,FM-15,7,,SE,0.25,mi,"TEMP, PRECIP, SNOW",,,"MMTS, SRG, SNOWBOARD",,,WFO CHS,,,,,,,,,,,,,,,,,,,,,,,,,,,30.15,55,84,0.00,,,,37,30.14,FEW:02 30,30.10,10.00,66,170,,15,,,,,,,,,,,,,,,,,,,,,,,,,,,,,,,,,,,,,MET09903/19/11 13:56:02 METAR KCHS 191856Z 17013KT 10SM FEW030 29/13 A3015 RMK AO2 SLP207 T02890128 (JRS),,,,,,,,,,,,,,,,,,,,,,,,,,,,
72208013880,2011-03-25T16:56:00,FM-15,7,,SE,0.25,mi,"TEMP, PRECIP, SNOW",,,"MMTS, SRG, SNOWBOARD",,,WFO CHS,,,,,,,,,,,,,,,,,,,,,,,,,,,29.93,49,63,0.00,,,,60,29.93,FEW:02 48,29.88,10.00,55,150,,9,,,,,,,,,,,,,,,,,,,,,,,,,,,,,,,,,,,,,MET09903/25/11 16:56:02 METAR KCHS 252156Z 15008KT 10SM FEW048 17/09 A2993 RMK AO2 SLP135 T01720094 (AWS),,,,,,,,,,,,,,,,,,,,,,,,,,,,
72208013880,2011-03-25T17:56:00,FM-15,7,,SE,0.25,mi,"TEMP, PRECIP, SNOW",,,"MMTS, SRG, SNOWBOARD",,,WFO CHS,,,,,,,,,,,,,,,,,,,,,,,,,,,29.93,50,60,0.00,,,,70,29.93,FEW:02 48,29.88,10.00,55,150,,10,,,,,,,,,,,,,,,,,,,,,,,,,,,,,,,,,,,,,MET09903/25/11 17:56:02 METAR KCHS 252256Z 15009KT 10SM FEW048 16/10 A2993 RMK AO2 SLP136 T01560100 (AWS),,,,,,,,,,,,,,,,,,,,,,,,,,,,
72208013880,2011-03-26T10:56:00,FM-15,7,,SE,0.25,mi,"TEMP, PRECIP, SNOW",,,"MMTS, SRG, SNOWBOARD",,,WFO CHS,,,,,,,,,,,,,,,,,,,,,,,,,,,29.95,50,72,0.00,,,,46,29.94,FEW:02 70 SCT:04 100,29.90,10.00,60,160,,7,,,,,,,,,,,,,,,,,,,,,,,,,,,,,,,,,,,,,MET10603/26/11 10:56:02 METAR KCHS 261556Z 16006KT 10SM FEW070 SCT100 22/10 A2995 RMK AO2 SLP140 T02220100 (JRS),,,,,,,,,,,,,,,,,,,,,,,,,,,,
72208013880,2011-03-26T11:56:00,FM-15,7,,SE,0.25,mi,"TEMP, PRECIP, SNOW",,,"MMTS, SRG, SNOWBOARD",,,WFO CHS,,,,,,,,,,,,,,,,,,,,,,,,,,,29.92,45,75,0.00,,,,34,29.92,FEW:02 100 SCT:04 250,29.87,10.00,59,160,,9,,,,,,,,,,,,,,,,,,,,,,,,,,,,,,,,,,,,,MET10603/26/11 11:56:02 METAR KCHS 261656Z 16008KT 10SM FEW100 SCT250 24/07 A2992 RMK AO2 SLP131 T02390072 (JRS),,,,,,,,,,,,,,,,,,,,,,,,,,,,
72208013880,2011-03-26T12:56:00,SY-MT,7,,SE,0.25,mi,"TEMP, PRECIP, SNOW",,,"MMTS, SRG, SNOWBOARD",,,WFO CHS,,,,,,,,,,,,,,,,,,,,,,,,,,,29.88,45,77,0.00,,+0.07,8,32,29.88,FEW:02 80 BKN:07 250,29.83,10.00,59,170,,13,,,,,,,,,,,,,,,,,,,,,,,,,,,,,,,,,,,,,SYN092AAXX  26184 72208 32866 61711 10250 20072 30102 40117 58025 91756 333 10250 20106 555 92618;MET12403/26/11 12:56:02 METAR KCHS 261756Z 17011KT 10SM FEW080 BKN250 25/07 A2988 RMK AO2 SLP117 T02500072 10250 20106 58025 (JRS),,,,,,,,,,,,,,,,,,,,,,,,,,,,
72208013880,2011-03-26T14:56:00,FM-15,7,,SE,0.25,mi,"TEMP, PRECIP, SNOW",,,"MMTS, SRG, SNOWBOARD",,,WFO CHS,,,,,,,,,,,,,,,,,,,,,,,,,,,29.82,47,76,0.00,,,,36,29.82,FEW:02 80,29.77,7.00,60,160,,16,,,,,,,,,,,,,,,,,,,,,,,,,,,,,,,,,,,,,MET09803/26/11 14:56:02 METAR KCHS 261956Z 16014KT 7SM FEW080 24/08 A2982 RMK AO2 SLP099 T02440083 (JRS),,,,,,,,,,,,,,,,,,,,,,,,,,,,
72208013880,2011-03-26T15:56:00,SY-MT,7,,SE,0.25,mi,"TEMP, PRECIP, SNOW",,,"MMTS, SRG, SNOWBOARD",,,WFO CHS,,,,,,,,,,,,,,,,,,,,,,,,,,,29.83,54,73,0.00,HZ:7 ||HZ,+0.05,5,51,29.82,BKN:07 70,29.78,6.00,62,160,,13,,,,,,,,,,,,,,,,,,,,,,,,,,,,,,,,,,,,,SYN082AAXX  26214 72208 31859 61611 10228 20122 30086 40099 55017 705// 92056 555 92621;MET10103/26/11 15:56:02 METAR KCHS 262056Z 16011KT 6SM HZ BKN070 23/12 A2983 RMK AO2 SLP099 T02280122 55017,,,,,,,,,,,,,,,,,,,,,,,,,,,,
72208013880,2011-03-26T16:56:00,FM-15,7,,SE,0.25,mi,"TEMP, PRECIP, SNOW",,,"MMTS, SRG, SNOWBOARD",,,WFO CHS,,,,,,,,,,,,,,,,,,,,,,,,,,,29.83,58,66,T,-RA:02 |RA |RA,,,75,29.83,BKN:07 33 BKN:07 95,29.78,4.00,61,170,,9,,,,,,,,,,,,,,,,,,,,,,,,,,,,,,,,,,,,,MET12003/26/11 16:56:02 METAR KCHS 262156Z 17008KT 4SM -RA BKN033 BKN095 19/14 A2983 RMK AO2 RAB36 SLP101 P0000 T01890144 (WD),,,,,,,,,,,,,,,,,,,,,,,,,,,,
72208013880,2011-04-03T10:56:00,FM-15,7,,SE,0.25,mi,"TEMP, PRECIP, SNOW",,,"MMTS, SRG, SNOWBOARD",,,WFO CHS,,,,,,,,,,,,,,,,,,,,,,,,,,,30.21,34,70,0.00,,,,27,30.20,,30.16,10.00,52,170,,8,,,,,,,,,,,,,,,,,,,,,,,,,,,,,,,,,,,,,MET09604/03/11 10:56:02 METAR KCHS 031556Z 17007KT 10SM CLR 21/01 A3021 RMK AO2 SLP228 T02110011 (JRS),,,,,,,,,,,,,,,,,,,,,,,,,,,,
72208013880,2011-04-03T11:56:00,FM-15,7,,SE,0.25,mi,"TEMP, PRECIP, SNOW",,,"MMTS, SRG, SNOWBOARD",,,WFO CHS,,,,,,,,,,,,,,,,,,,,,,,,,,,30.19,32,72,0.00,,,,23,30.18,,30.14,10.00,53,150,,8,,,,,,,,,,,,,,,,,,,,,,,,,,,,,,,,,,,,,MET09604/03/11 11:56:02 METAR KCHS 031656Z 15007KT 10SM CLR 22/00 A3019 RMK AO2 SLP221 T02220000 (JRS),,,,,,,,,,,,,,,,,,,,,,,,,,,,
72208013880,2011-04-03T16:56:00,FM-15,7,,SE,0.25,mi,"TEMP, PRECIP, SNOW",,,"MMTS, SRG, SNOWBOARD",,,WFO CHS,,,,,,,,,,,,,,,,,,,,,,,,,,,30.12,34,71,0.00,,,,26,30.12,,30.07,10.00,53,170,20,10,,,,,,,,,,,,,,,,,,,,,,,,,,,,,,,,,,,,,MET09904/03/11 16:56:02 METAR KCHS 032156Z 17009G17KT 10SM CLR 22/01 A3012 RMK AO2 SLP199 T02170011 (WRB),,,,,,,,,,,,,,,,,,,,,,,,,,,,
72208013880,2011-04-06T14:56:00,FM-15,7,,SE,0.25,mi,"TEMP, PRECIP, SNOW",,,"MMTS, SRG, SNOWBOARD",,,WFO CHS,,,,,,,,,,,,,,,,,,,,,,,,,,,30.19,39,66,0.00,,,,37,30.19,,30.14,10.00,52,160,18,13,,,,,,,,,,,,,,,,,,,,,,,,,,,,,,,,,,,,,MET09804/06/11 14:56:02 METAR KCHS 061956Z 16011G16KT 10SM CLR 19/04 A3019 RMK AO2 SLP222 T01890039 (DD),,,,,,,,,,,,,,,,,,,,,,,,,,,,
72208013880,2011-04-06T15:56:00,SY-MT,7,,SE,0.25,mi,"TEMP, PRECIP, SNOW",,,"MMTS, SRG, SNOWBOARD",,,WFO CHS,,,,,,,,,,,,,,,,,,,,,,,,,,,30.17,37,64,0.00,,+0.04,6,37,30.17,,30.12,10.00,51,170,,9,,,,,,,,,,,,,,,,,,,,,,,,,,,,,,,,,,,,,SYN076AAXX  06214 72208 32966 01708 10178 20028 30201 40217 56015 92056 555 90621;MET10204/06/11 15:56:02 METAR KCHS 062056Z 17008KT 10SM CLR 18/03 A3017 RMK AO2 SLP217 T01780028 56015 (AWS),,,,,,,,,,,,,,,,,,,,,,,,,,,,
72208013880,2011-04-14T12:56:00,FM-15,7,,SE,0.25,mi,"TEMP, PRECIP, SNOW",,,"MMTS, SRG, SNOWBOARD",,,WFO CHS,,,,,,,,,,,,,,,,,,,,,,,,,,,30.08,48,77,0.00,,+0.01,8,36,30.08,FEW:02 60 BKN:07 250,30.03,10.00,61,150,,14,,,,,,,,,,,,,,,,,,,,,,,,,,,,,,,,,,,,,MET12304/14/11 12:56:02 METAR KCHS 141756Z 15012KT 10SM FEW060 BKN250 25/09 A3008 RMK AO2 SLP185 T02500089 10250 20139 58005 (DD),,,,,,,,,,,,,,,,,,,,,,,,,,,,
72208013880,2011-04-14T13:00:00,FM-12,4,,SE,0.25,mi,"TEMP, PRECIP, SNOW",,,"MMTS, SRG, SNOWBOARD",,,WFO CHS,,,,,,,,,,,,,,,,,,,,,,,,,,,,48,77,,,+0.01,8,36,30.08,,30.03,9.94,61,150,,14,,,,,,,,,,,,,,,,,,,,,,,,,,,,,,,,,,,,,SYN092AAXX  14184 72208 32766 61512 10250 20089 30170 40185 58005 91756 333 10250 20139 555 91418;,,,,,,,,,,,,,,,,,,,,,,,,,,,,
72208013880,2011-04-14T15:56:00,SY-MT,7,,SE,0.25,mi,"TEMP, PRECIP, SNOW",,,"MMTS, SRG, SNOWBOARD",,,WFO CHS,,,,,,,,,,,,,,,,,,,,,,,,,,,30.05,48,75,0.00,,+0.03,6,39,30.04,BKN:07 250,30.00,10.00,60,160,,9,,,,,,,,,,,,,,,,,,,,,,,,,,,,,,,,,,,,,SYN076AAXX  14214 72208 32966 61608 10239 20089 30160 40174 56011 92056 555 91421;MET09904/14/11 15:56:02 METAR KCHS 142056Z 16008KT 10SM BKN250 24/09 A3005 RMK AO2 SLP174 T02390089 56011,,,,,,,,,,,,,,,,,,,,,,,,,,,,
72208013880,2011-04-14T16:56:00,FM-15,7,,SE,0.25,mi,"TEMP, PRECIP, SNOW",,,"MMTS, SRG, SNOWBOARD",,,WFO CHS,,,,,,,,,,,,,,,,,,,,,,,,,,,30.06,51,73,0.00,,,,46,30.05,BKN:07 250,30.01,10.00,60,160,,9,,,,,,,,,,,,,,,,,,,,,,,,,,,,,,,,,,,,,MET09904/14/11 16:56:02 METAR KCHS 142156Z 16008KT 10SM BKN250 23/11 A3006 RMK AO2 SLP177 T02280106 (AWS),,,,,,,,,,,,,,,,,,,,,,,,,,,,
72208013880,2011-04-17T15:56:00,SY-MT,7,,SE,0.25,mi,"TEMP, PRECIP, SNOW",,,"MMTS, SRG, SNOWBOARD",,,WFO CHS,,,,,,,,,,,,,,,,,,,,,,,,,,,30.01,48,72,0.00,,+0.04,5,43,30.01,,29.96,10.00,59,160,,13,,,,,,,,,,,,,,,,,,,,,,,,,,,,,,,,,,,,,SYN076AAXX  17214 72208 32966 01611 10222 20089 30146 40161 55013 92056 555 91721;MET10204/17/11 15:56:02 METAR KCHS 172056Z 16011KT 10SM CLR 22/09 A3001 RMK AO2 SLP161 T02220089 55013 (WRB),,,,,,,,,,,,,,,,,,,,,,,,,,,,
72208013880,2011-04-17T16:56:00,FM-15,7,,SE,0.25,mi,"TEMP, PRECIP, SNOW",,,"MMTS, SRG, SNOWBOARD",,,WFO CHS,,,,,,,,,,,,,,,,,,,,,,,,,,,30.01,47,69,0.00,,,,45,30.01,,29.96,10.00,57,170,,13,,,,,,,,,,,,,,,,,,,,,,,,,,,,,,,,,,,,,MET09604/17/11 16:56:02 METAR KCHS 172156Z 17011KT 10SM CLR 21/08 A3001 RMK AO2 SLP162 T02060083 (WRB),,,,,,,,,,,,,,,,,,,,,,,,,,,,
72208013880,2011-04-18T11:56:00,FM-15,7,,SE,0.25,mi,"TEMP, PRECIP, SNOW",,,"MMTS, SRG, SNOWBOARD",,,WFO CHS,,,,,,,,,,,,,,,,,,,,,,,,,,,30.13,42,76,0.00,,,,30,30.13,FEW:02 250,30.08,10.00,58,170,,8,,,,,,,,,,,,,,,,,,,,,,,,,,,,,,,,,,,,,MET09804/18/11 11:56:02 METAR KCHS 181656Z 17007KT 10SM FEW250 24/06 A3013 RMK AO2 SLP203 T02440056 (DD),,,,,,,,,,,,,,,,,,,,,,,,,,,,
72208013880,2011-04-18T12:56:00,SY-MT,7,,SE,0.25,mi,"TEMP, PRECIP, SNOW",,,"MMTS, SRG, SNOWBOARD",,,WFO CHS,,,,,,,,,,,,,,,,,,,,,,,,,,,30.12,36,77,0.00,,+0.03,8,23,30.12,FEW:02 250,30.07,10.00,56,150,,10,,,,,,,,,,,,,,,,,,,,,,,,,,,,,,,,,,,,,SYN092AAXX  18184 72208 32966 21509 10250 20022 30184 40199 58010 91756 333 10256 20117 555 91818;MET11604/18/11 12:56:02 METAR KCHS 181756Z 15009KT 10SM FEW250 25/02 A3012 RMK AO2 SLP199 T02500022 10256 20117 58010 (DD),,,,,,,,,,,,,,,,,,,,,,,,,,,,
72208013880,2011-04-18T13:56:00,FM-15,7,,SE,0.25,mi,"TEMP, PRECIP, SNOW",,,"MMTS, SRG, SNOWBOARD",,,WFO CHS,,,,,,,,,,,,,,,,,,,,,,,,,,,30.10,34,78,0.00,,,,20,30.10,FEW:02 250,30.05,10.00,56,170,18,11,,,,,,,,,,,,,,,,,,,,,,,,,,,,,,,,,,,,,MET10104/18/11 13:56:02 METAR KCHS 181856Z 17010G16KT 10SM FEW250 26/01 A3010 RMK AO2 SLP192 T02560011 (DD),,,,,,,,,,,,,,,,,,,,,,,,,,,,
72208013880,2011-04-18T14:56:00,FM-15,7,,SE,0.25,mi,"TEMP, PRECIP, SNOW",,,"MMTS, SRG, SNOWBOARD",,,WFO CHS,,,,,,,,,,,,,,,,,,,,,,,,,,,30.08,37,78,0.00,,,,23,30.08,FEW:02 250,30.03,10.00,57,160,,16,,,,,,,,,,,,,,,,,,,,,,,,,,,,,,,,,,,,,MET09804/18/11 14:56:02 METAR KCHS 181956Z 16014KT 10SM FEW250 26/03 A3008 RMK AO2 SLP186 T02560028 (DD),,,,,,,,,,,,,,,,,,,,,,,,,,,,
72208013880,2011-04-18T15:56:00,SY-MT,7,,SE,0.25,mi,"TEMP, PRECIP, SNOW",,,"MMTS, SRG, SNOWBOARD",,,WFO CHS,,,,,,,,,,,,,,,,,,,,,,,,,,,30.08,54,77,0.00,,+0.04,6,45,30.07,,30.03,10.00,63,160,,15,,,,,,,,,,,,,,,,,,,,,,,,,,,,,,,,,,,,,SYN076AAXX  18214 72208 32966 01613 10250 20122 30170 40184 56015 92056 555 91821;MET10204/18/11 15:56:02 METAR KCHS 182056Z 16013KT 10SM CLR 25/12 A3008 RMK AO2 SLP184 T02500122 56015 (JRS),,,,,,,,,,,,,,,,,,,,,,,,,,,,
72208013880,2011-04-25T12:56:00,SY-MT,7,,SE,0.25,mi,"TEMP, PRECIP, SNOW",,,"MMTS, SRG, SNOWBOARD",,,WFO CHS,,,,,,,,,,,,,,,,,,,,,,,,,,,30.09,65,82,0.00,,+0.04,8,56,30.09,SCT:04 35 BKN:07 50,30.04,10.00,71,170,21,14,,,,,,,,,,,,,,,,,,,,,,,,,,,,,,,,,,,,,SYN098AAXX  25184 72208 32666 61712 10278 20183 30173 40189 58015 91756 333 10289 20217 91018 555 92518;MET12604/25/11 12:56:02 METAR KCHS 251756Z 17012G18KT 10SM SCT035 BKN050 28/18 A3009 RMK AO2 SLP189 T02780183 10289 20217 58015 (DD),,,,,,,,,,,,,,,,,,,,,,,,,,,,
72208013880,2011-04-25T13:56:00,FM-15,7,,SE,0.25,mi,"TEMP, PRECIP, SNOW",,,"MMTS, SRG, SNOWBOARD",,,WFO CHS,,,,,,,,,,,,,,,,,,,,,,,,,,,30.07,66,80,0.00,,,,62,30.07,SCT:04 35 BKN:07 50,30.02,10.00,71,150,21,15,,,,,,,,,,,,,,,,,,,,,,,,,,,,,,,,,,,,,MET10804/25/11 13:56:02 METAR KCHS 251856Z 15013G18KT 10SM SCT035 BKN050 27/19 A3007 RMK AO2 SLP182 T02670189 (DD),,,,,,,,,,,,,,,,,,,,,,,,,,,,
72208013880,2011-04-25T15:56:00,SY-MT,7,,SE,0.25,mi,"TEMP, PRECIP, SNOW",,,"MMTS, SRG, SNOWBOARD",,,WFO CHS,,,,,,,,,,,,,,,,,,,,,,,,,,,30.04,67,79,T,,+0.05,7,67,30.03,SCT:04 31 BKN:07 55,29.99,10.00,71,160,,15,,,,,,,,,,,,,,,,,,,,,,,,,,,,,,,,,,,,,SYN082AAXX  25214 72208 12566 61613 10261 20194 30157 40171 57018 69907 92056 555 92521;MET13304/25/11 15:56:02 METAR KCHS 252056Z 16013KT 10SM SCT031 BKN055 26/19 A3004 RMK AO2 RAB16E25 SLP171 P0000 60000 T02610194 57018 (JRS),,,,,,,,,,,,,,,,,,,,,,,,,,,,
72208013880,2011-04-25T16:56:00,FM-15,7,,SE,0.25,mi,"TEMP, PRECIP, SNOW",,,"MMTS, SRG, SNOWBOARD",,,WFO CHS,,,,,,,,,,,,,,,,,,,,,,,,,,,30.03,69,78,T,,,,74,30.03,FEW:02 19 BKN:07 30 BKN:07 70,29.98,10.00,72,150,,11,,,,,,,,,,,,,,,,,,,,,,,,,,,,,,,,,,,,,MET12804/25/11 16:56:02 METAR KCHS 252156Z 15010KT 10SM FEW019 BKN030 BKN070 26/21 A3003 RMK AO2 RAB07E17 SLP169 P0000 T02560206 (JRS),,,,,,,,,,,,,,,,,,,,,,,,,,,,
72208013880,2011-04-25T17:56:00,FM-15,7,,SE,0.25,mi,"TEMP, PRECIP, SNOW",,,"MMTS, SRG, SNOWBOARD",,,WFO CHS,,,,,,,,,,,,,,,,,,,,,,,,,,,30.02,68,76,0.00,,,,77,30.02,FEW:02 22 SCT:04 60,29.97,10.00,71,170,,13,,,,,,,,,,,,,,,,,,,,,,,,,,,,,,,,,,,,,MET10604/25/11 17:56:02 METAR KCHS 252256Z 17011KT 10SM FEW022 SCT060 24/20 A3002 RMK AO2 SLP165 T02440200 (JRS),,,,,,,,,,,,,,,,,,,,,,,,,,,,
72208013880,2011-04-26T14:56:00,FM-15,7,,SE,0.25,mi,"TEMP, PRECIP, SNOW",,,"MMTS, SRG, SNOWBOARD",,,WFO CHS,,,,,,,,,,,,,,,,,,,,,,,,,,,29.96,69,78,T,,,,74,29.95,SCT:04 20 SCT:04 60 BKN:07 90,29.91,10.00,72,160,,15,,,,,,,,,,,,,,,,,,,,,,,,,,,,,,,,,,,,,MET13704/26/11 14:56:02 METAR KCHS 261956Z 16013KT 10SM SCT020 SCT060 BKN090 26/21 A2996 RMK AO2 RAB02E13 SLP143 CB MOVD N P0000 T02560206 (DD),,,,,,,,,,,,,,,,,,,,,,,,,,,,
72208013880,2011-04-26T15:56:00,FM-15,7,,SE,0.25,mi,"TEMP, PRECIP, SNOW",,,"MMTS, SRG, SNOWBOARD",,,WFO CHS,,,,,,,,,,,,,,,,,,,,,,,,,,,29.92,69,81,0.00,,+0.07,8,67,29.91,FEW:02 20 SCT:04 60 BKN:07 95,29.87,10.00,73,170,,10,,,,,,,,,,,,,,,,,,,,,,,,,,,,,,,,,,,,,MET12504/26/11 15:56:02 METAR KCHS 262056Z 17009KT 10SM FEW020 SCT060 BKN095 27/21 A2992 RMK AO2 SLP130 60000 T02720206 58025 (AWS),,,,,,,,,,,,,,,,,,,,,,,,,,,,
72208013880,2011-04-26T16:00:00,FM-12,4,,SE,0.25,mi,"TEMP, PRECIP, SNOW",,,"MMTS, SRG, SNOWBOARD",,,WFO CHS,,,,,,,,,,,,,,,,,,,,,,,,,,,,69,81,,,+0.07,8,67,29.91,,29.87,9.94,73,170,,10,,,,,,,,,,,,,,,,,,,,,,,,,,,,,,,,,,,,,SYN082AAXX  26214 72208 12566 61709 10272 20206 30116 40130 58025 69907 92056 555 92621;,,,,,,,,,,,,,,,,,,,,,,,,,,,,
72208013880,2011-04-26T16:56:00,FM-15,7,,SE,0.25,mi,"TEMP, PRECIP, SNOW",,,"MMTS, SRG, SNOWBOARD",,,WFO CHS,,,,,,,,,,,,,,,,,,,,,,,,,,,29.93,68,79,0.00,,,,69,29.93,FEW:02 20 BKN:07 150,29.88,10.00,72,170,,15,,,,,,,,,,,,,,,,,,,,,,,,,,,,,,,,,,,,,MET10604/26/11 16:56:02 METAR KCHS 262156Z 17013KT 10SM FEW020 BKN150 26/20 A2993 RMK AO2 SLP134 T02610200 (AWS),,,,,,,,,,,,,,,,,,,,,,,,,,,,
72208013880,2011-04-26T17:54:00,FM-16,6,,SE,0.25,mi,"TEMP, PRECIP, SNOW",,,"MMTS, SRG, SNOWBOARD",,,WFO CHS,,,,,,,,,,,,,,,,,,,,,,,,,,,29.93,70,75,,,,,83,,BKN:07 16 BKN:07 90,29.88,10.00,72,160,,10,,,,,,,,,,,,,,,,,,,,,,,,,,,,,,,,,,,,,MET09404/26/11 17:54:02 SPECI KCHS 262254Z 16009KT 10SM BKN016 BKN090 24/21 A2993 RMK AO2 FIBI (AWS),,,,,,,,,,,,,,,,,,,,,,,,,,,,
72208013880,2011-04-26T17:56:00,FM-15,7,,SE,0.25,mi,"TEMP, PRECIP, SNOW",,,"MMTS, SRG, SNOWBOARD",,,WFO CHS,,,,,,,,,,,,,,,,,,,,,,,,,,,29.93,69,76,0.00,,,,79,29.93,BKN:07 16 BKN:07 90,29.88,10.00,71,160,,10,,,,,,,,,,,,,,,,,,,,,,,,,,,,,,,,,,,,,MET10604/26/11 17:56:02 METAR KCHS 262256Z 16009KT 10SM BKN016 BKN090 24/21 A2993 RMK AO2 SLP134 T02440206 (AWS),,,,,,,,,,,,,,,,,,,,,,,,,,,,
72208013880,2011-04-30T14:56:00,FM-15,7,,SE,0.25,mi,"TEMP, PRECIP, SNOW",,,"MMTS, SRG, SNOWBOARD",,,WFO CHS,,,,,,,,,,,,,,,,,,,,,,,,,,,30.07,47,83,0.00,,,,28,30.06,,30.02,10.00,62,160,,10,,,,,,,,,,,,,,,,,,,,,,,,,,,,,,,,,,,,,MET09604/30/11 14:56:02 METAR KCHS 301956Z 16009KT 10SM CLR 28/08 A3007 RMK AO2 SLP181 T02830083 (JRS),,,,,,,,,,,,,,,,,,,,,,,,,,,,
72208013880,2011-05-02T10:56:00,FM-15,7,,SE,0.25,mi,"TEMP, PRECIP, SNOW",,,"MMTS, SRG, SNOWBOARD",,,WFO CHS,,,,,,,,,,,,,,,,,,,,,,,,,,,30.28,61,78,0.00,,,,56,30.27,SCT:04 40 BKN:07 55,30.23,10.00,67,170,,10,,,,,,,,,,,,,,,,,,,,,,,,,,,,,,,,,,,,,MET10505/02/11 10:56:02 METAR KCHS 021556Z 17009KT 10SM SCT040 BKN055 26/16 A3028 RMK AO2 SLP252 T02560161 (DD),,,,,,,,,,,,,,,,,,,,,,,,,,,,
72208013880,2011-05-02T11:56:00,FM-15,7,,SE,0.25,mi,"TEMP, PRECIP, SNOW",,,"MMTS, SRG, SNOWBOARD",,,WFO CHS,,,,,,,,,,,,,,,,,,,,,,,,,,,30.26,62,80,0.00,,,,54,30.26,SCT:04 40 SCT:04 55,30.21,10.00,69,150,20,14,,,,,,,,,,,,,,,,,,,,,,,,,,,,,,,,,,,,,MET10805/02/11 11:56:02 METAR KCHS 021656Z 15012G17KT 10SM SCT040 SCT055 27/17 A3026 RMK AO2 SLP247 T02670167 (DD),,,,,,,,,,,,,,,,,,,,,,,,,,,,
72208013880,2011-05-02T13:56:00,FM-15,7,,SE,0.25,mi,"TEMP, PRECIP, SNOW",,,"MMTS, SRG, SNOWBOARD",,,WFO CHS,,,,,,,,,,,,,,,,,,,,,,,,,,,30.23,61,81,0.00,,,,51,30.23,FEW:02 40 SCT:04 55,30.18,10.00,68,170,,8,,,,,,,,,,,,,,,,,,,,,,,,,,,,,,,,,,,,,MET10505/02/11 13:56:02 METAR KCHS 021856Z 17007KT 10SM FEW040 SCT055 27/16 A3023 RMK AO2 SLP236 T02720161 (DD),,,,,,,,,,,,,,,,,,,,,,,,,,,,
72208013880,2011-05-02T16:56:00,FM-15,7,,SE,0.25,mi,"TEMP, PRECIP, SNOW",,,"MMTS, SRG, SNOWBOARD",,,WFO CHS,,,,,,,,,,,,,,,,,,,,,,,,,,,30.20,59,78,0.00,,,,52,30.19,FEW:02 45 BKN:07 250,30.15,10.00,66,150,,13,,,,,,,,,,,,,,,,,,,,,,,,,,,,,,,,,,,,,MET10605/02/11 16:56:02 METAR KCHS 022156Z 15011KT 10SM FEW045 BKN250 26/15 A3020 RMK AO2 SLP225 T02560150 (AWS),,,,,,,,,,,,,,,,,,,,,,,,,,,,
72208013880,2011-05-02T17:56:00,FM-15,7,,SE,0.25,mi,"TEMP, PRECIP, SNOW",,,"MMTS, SRG, SNOWBOARD",,,WFO CHS,,,,,,,,,,,,,,,,,,,,,,,,,,,30.19,60,76,0.00,,,,58,30.19,BKN:07 250,30.14,10.00,66,150,,14,,,,,,,,,,,,,,,,,,,,,,,,,,,,,,,,,,,,,MET09905/02/11 17:56:02 METAR KCHS 022256Z 15012KT 10SM BKN250 24/16 A3019 RMK AO2 SLP222 T02440156 (AWS),,,,,,,,,,,,,,,,,,,,,,,,,,,,
72208013880,2011-05-05T15:56:00,SY-MT,7,,SE,0.25,mi,"TEMP, PRECIP, SNOW",,,"MMTS, SRG, SNOWBOARD",,,WFO CHS,,,,,,,,,,,,,,,,,,,,,,,,,,,30.17,47,69,0.00,,+0.07,7,45,30.17,FEW:02 55 SCT:04 250,30.12,10.00,57,170,17,10,,,,,,,,,,,,,,,,,,,,,,,,,,,,,,,,,,,,,SYN086AAXX  05214 72208 32766 41709 10206 20083 30201 40216 57023 92056 333 91015 555 90521;MET11505/05/11 15:56:02 METAR KCHS 052056Z 17009G15KT 10SM FEW055 SCT250 21/08 A3017 RMK AO2 SLP216 T02060083 57023 (JRS),,,,,,,,,,,,,,,,,,,,,,,,,,,,
72208013880,2011-05-05T16:56:00,FM-15,7,,SE,0.25,mi,"TEMP, PRECIP, SNOW",,,"MMTS, SRG, SNOWBOARD",,,WFO CHS,,,,,,,,,,,,,,,,,,,,,,,,,,,30.17,47,68,0.00,,,,47,30.17,FEW:02 55 SCT:04 250,30.12,10.00,57,150,,10,,,,,,,,,,,,,,,,,,,,,,,,,,,,,,,,,,,,,MET10605/05/11 16:56:02 METAR KCHS 052156Z 15009KT 10SM FEW055 SCT250 20/08 A3017 RMK AO2 SLP216 T02000083 (JRS),,,,,,,,,,,,,,,,,,,,,,,,,,,,
72208013880,2011-05-05T17:56:00,FM-15,7,,SE,0.25,mi,"TEMP, PRECIP, SNOW",,,"MMTS, SRG, SNOWBOARD",,,WFO CHS,,,,,,,,,,,,,,,,,,,,,,,,,,,30.17,48,66,0.00,,,,52,30.17,FEW:02 250,30.12,10.00,56,150,,10,,,,,,,,,,,,,,,,,,,,,,,,,,,,,,,,,,,,,MET09905/05/11 17:56:02 METAR KCHS 052256Z 15009KT 10SM FEW250 19/09 A3017 RMK AO2 SLP216 T01890089 (JRS),,,,,,,,,,,,,,,,,,,,,,,,,,,,
72208013880,2011-05-06T10:56:00,FM-15,7,,SE,0.25,mi,"TEMP, PRECIP, SNOW",,,"MMTS, SRG, SNOWBOARD",,,WFO CHS,,,,,,,,,,,,,,,,,,,,,,,,,,,30.04,61,70,0.01,-RA:02 |RA |RA,,,73,30.03,FEW:02 25 BKN:07 40 BKN:07 55,29.99,10.00,65,150,,7,,,,,,,,,,,,,,,,,,,,,,,,,,,,,,,,,,,,,MET12205/06/11 10:56:02 METAR KCHS 061556Z 15006KT 10SM -RA FEW025 BKN040 BKN055 21/16 A3004 RMK AO2 SLP170 P0001 T02110161 (DD),,,,,,,,,,,,,,,,,,,,,,,,,,,,
72208013880,2011-05-06T11:56:00,FM-15,7,,SE,0.25,mi,"TEMP, PRECIP, SNOW",,,"MMTS, SRG, SNOWBOARD",,,WFO CHS,,,,,,,,,,,,,,,,,,,,,,,,,,,30.02,63,69,0.04,,,,81,30.02,FEW:02 35 SCT:04 50 BKN:07 100,29.97,10.00,65,170,,9,,,,,,,,,,,,,,,,,,,,,,,,,,,,,,,,,,,,,MET13005/06/11 11:56:02 METAR KCHS 061656Z 17008KT 10SM FEW035 SCT050 BKN100 21/17 A3002 RMK AO2 RAE17B33E51 SLP166 P0004 T02060172 (DD),,,,,,,,,,,,,,,,,,,,,,,,,,,,
72208013880,2011-05-07T17:56:00,FM-15,7,,SE,0.25,mi,"TEMP, PRECIP, SNOW",,,"MMTS, SRG, SNOWBOARD",,,WFO CHS,,,,,,,,,,,,,,,,,,,,,,,,,,,29.96,57,75,0.00,,,,54,29.96,FEW:02 40,29.91,10.00,64,170,,10,,,,,,,,,,,,,,,,,,,,,,,,,,,,,,,,,,,,,MET09805/07/11 17:56:02 METAR KCHS 072256Z 17009KT 10SM FEW040 24/14 A2996 RMK AO2 SLP144 T02390139 (WD),,,,,,,,,,,,,,,,,,,,,,,,,,,,
72208013880,2011-05-09T13:56:00,FM-15,7,,SE,0.25,mi,"TEMP, PRECIP, SNOW",,,"MMTS, SRG, SNOWBOARD",,,WFO CHS,,,,,,,,,,,,,,,,,,,,,,,,,,,29.95,59,81,0.00,,,,47,29.95,FEW:02 45 SCT:04 60,29.90,10.00,67,170,,13,,,,,,,,,,,,,,,,,,,,,,,,,,,,,,,,,,,,,MET10505/09/11 13:56:02 METAR KCHS 091856Z 17011KT 10SM FEW045 SCT060 27/15 A2995 RMK AO2 SLP141 T02720150 (DD),,,,,,,,,,,,,,,,,,,,,,,,,,,,
72208013880,2011-05-09T14:56:00,FM-15,7,,SE,0.25,mi,"TEMP, PRECIP, SNOW",,,"MMTS, SRG, SNOWBOARD",,,WFO CHS,,,,,,,,,,,,,,,,,,,,,,,,,,,29.94,60,81,0.00,,,,49,29.93,FEW:02 45 SCT:04 60,29.89,10.00,68,160,,11,,,,,,,,,,,,,,,,,,,,,,,,,,,,,,,,,,,,,MET10505/09/11 14:56:02 METAR KCHS 091956Z 16010KT 10SM FEW045 SCT060 27/16 A2994 RMK AO2 SLP137 T02720156 (DD),,,,,,,,,,,,,,,,,,,,,,,,,,,,
72208013880,2011-05-09T15:56:00,SY-MT,7,,SE,0.25,mi,"TEMP, PRECIP, SNOW",,,"MMTS, SRG, SNOWBOARD",,,WFO CHS,,,,,,,,,,,,,,,,,,,,,,,,,,,29.93,59,78,0.00,,+0.03,7,52,29.93,FEW:02 60,29.88,8.00,66,150,,13,,,,,,,,,,,,,,,,,,,,,,,,,,,,,,,,,,,,,SYN076AAXX  09214 72208 32762 21511 10256 20150 30119 40135 57009 92056 555 90921;MET10405/09/11 15:56:02 METAR KCHS 092056Z 15011KT 8SM FEW060 26/15 A2993 RMK AO2 SLP135 T02560150 57009 (AWS),,,,,,,,,,,,,,,,,,,,,,,,,,,,
72208013880,2011-05-09T16:56:00,FM-15,7,,SE,0.25,mi,"TEMP, PRECIP, SNOW",,,"MMTS, SRG, SNOWBOARD",,,WFO CHS,,,,,,,,,,,,,,,,,,,,,,,,,,,29.94,56,77,0.00,,,,48,29.94,FEW:02 75 SCT:04 100,29.89,10.00,64,160,,11,,,,,,,,,,,,,,,,,,,,,,,,,,,,,,,,,,,,,MET10605/09/11 16:56:02 METAR KCHS 092156Z 16010KT 10SM FEW075 SCT100 25/13 A2994 RMK AO2 SLP138 T02500133 (AWS),,,,,,,,,,,,,,,,,,,,,,,,,,,,
72208013880,2011-05-09T17:56:00,FM-15,7,,SE,0.25,mi,"TEMP, PRECIP, SNOW",,,"MMTS, SRG, SNOWBOARD",,,WFO CHS,,,,,,,,,,,,,,,,,,,,,,,,,,,29.94,57,74,0.00,,,,56,29.93,FEW:02 65 SCT:04 200,29.89,10.00,64,160,,8,,,,,,,,,,,,,,,,,,,,,,,,,,,,,,,,,,,,,MET10605/09/11 17:56:02 METAR KCHS 092256Z 16007KT 10SM FEW065 SCT200 23/14 A2994 RMK AO2 SLP137 T02330139 (AWS),,,,,,,,,,,,,,,,,,,,,,,,,,,,
72208013880,2011-05-12T10:56:00,FM-15,7,,SE,0.25,mi,"TEMP, PRECIP, SNOW",,,"MMTS, SRG, SNOWBOARD",,,WFO CHS,,,,,,,,,,,,,,,,,,,,,,,,,,,30.06,66,78,0.00,,,,67,30.06,SCT:04 25 BKN:07 40 OVC:08 60,30.01,10.00,70,160,,9,,,,,,,,,,,,,,,,,,,,,,,,,,,,,,,,,,,,,MET11205/12/11 10:56:02 METAR KCHS 121556Z 16008KT 10SM SCT025 BKN040 OVC060 26/19 A3006 RMK AO2 SLP180 T02560189 (DD),,,,,,,,,,,,,,,,,,,,,,,,,,,,
72208013880,2011-05-12T11:56:00,FM-15,7,,SE,0.25,mi,"TEMP, PRECIP, SNOW",,,"MMTS, SRG, SNOWBOARD",,,WFO CHS,,,,,,,,,,,,,,,,,,,,,,,,,,,30.05,66,79,0.00,,,,65,30.05,SCT:04 35 OVC:08 50,30.00,10.00,71,170,,9,,,,,,,,,,,,,,,,,,,,,,,,,,,,,,,,,,,,,MET10505/12/11 11:56:02 METAR KCHS 121656Z 17008KT 10SM SCT035 OVC050 26/19 A3005 RMK AO2 SLP175 T02610189 (DD),,,,,,,,,,,,,,,,,,,,,,,,,,,,
72208013880,2011-05-12T12:56:00,FM-15,7,,SE,0.25,mi,"TEMP, PRECIP, SNOW",,,"MMTS, SRG, SNOWBOARD",,,WFO CHS,,,,,,,,,,,,,,,,,,,,,,,,,,,30.04,65,79,0.00,,+0.02,8,62,30.04,SCT:04 35 OVC:08 50,29.99,10.00,70,160,,9,,,,,,,,,,,,,,,,,,,,,,,,,,,,,,,,,,,,,MET12305/12/11 12:56:02 METAR KCHS 121756Z 16008KT 10SM SCT035 OVC050 26/18 A3004 RMK AO2 SLP172 T02610183 10267 20222 58006 (DD),,,,,,,,,,,,,,,,,,,,,,,,,,,,
72208013880,2011-05-12T13:00:00,FM-12,4,,SE,0.25,mi,"TEMP, PRECIP, SNOW",,,"MMTS, SRG, SNOWBOARD",,,WFO CHS,,,,,,,,,,,,,,,,,,,,,,,,,,,,65,79,,,+0.02,8,62,30.04,,29.99,9.94,70,160,,9,,,,,,,,,,,,,,,,,,,,,,,,,,,,,,,,,,,,,SYN092AAXX  12184 72208 32666 81608 10261 20183 30157 40172 58006 91756 333 10267 20222 555 91218;,,,,,,,,,,,,,,,,,,,,,,,,,,,,
72208013880,2011-05-12T13:56:00,FM-15,7,,SE,0.25,mi,"TEMP, PRECIP, SNOW",,,"MMTS, SRG, SNOWBOARD",,,WFO CHS,,,,,,,,,,,,,,,,,,,,,,,,,,,30.03,67,80,0.00,,,,64,30.03,SCT:04 35 BKN:07 50,29.98,10.00,71,160,,8,,,,,,,,,,,,,,,,,,,,,,,,,,,,,,,,,,,,,MET10505/12/11 13:56:02 METAR KCHS 121856Z 16007KT 10SM SCT035 BKN050 27/19 A3003 RMK AO2 SLP168 T02670194 (DD),,,,,,,,,,,,,,,,,,,,,,,,,,,,
72208013880,2011-05-12T17:56:00,FM-15,7,,SE,0.25,mi,"TEMP, PRECIP, SNOW",,,"MMTS, SRG, SNOWBOARD",,,WFO CHS,,,,,,,,,,,,,,,,,,,,,,,,,,,29.98,66,78,0.00,,,,67,29.98,FEW:02 32 SCT:04 80,29.93,10.00,70,170,,10,,,,,,,,,,,,,,,,,,,,,,,,,,,,,,,,,,,,,MET10605/12/11 17:56:02 METAR KCHS 122256Z 17009KT 10SM FEW032 SCT080 26/19 A2998 RMK AO2 SLP152 T02560189 (AWS),,,,,,,,,,,,,,,,,,,,,,,,,,,,
72208013880,2011-05-13T14:56:00,FM-15,7,,SE,0.25,mi,"TEMP, PRECIP, SNOW",,,"MMTS, SRG, SNOWBOARD",,,WFO CHS,,,,,,,,,,,,,,,,,,,,,,,,,,,29.80,70,87,0.00,,,,57,29.79,FEW:02 30 SCT:04 45 BKN:07 250,29.75,10.00,75,160,,14,,,,,,,,,,,,,,,,,,,,,,,,,,,,,,,,,,,,,MET11605/13/11 14:56:02 METAR KCHS 131956Z 16012KT 10SM FEW030 SCT045 BKN250 31/21 A2980 RMK AO2 SLP089 T03060211 RTX (DD),,,,,,,,,,,,,,,,,,,,,,,,,,,,
72208013880,2011-05-19T13:56:00,FM-15,7,,SE,0.25,mi,"TEMP, PRECIP, SNOW",,,"MMTS, SRG, SNOWBOARD",,,WFO CHS,,,,,,,,,,,,,,,,,,,,,,,,,,,30.04,48,82,0.00,,,,31,30.04,FEW:02 70 SCT:04 250,29.99,10.00,62,160,,7,,,,,,,,,,,,,,,,,,,,,,,,,,,,,,,,,,,,,MET10505/19/11 13:56:02 METAR KCHS 191856Z 16006KT 10SM FEW070 SCT250 28/09 A3004 RMK AO2 SLP172 T02780089 (DD),,,,,,,,,,,,,,,,,,,,,,,,,,,,
72208013880,2011-05-20T16:56:00,FM-15,7,,SE,0.25,mi,"TEMP, PRECIP, SNOW",,,"MMTS, SRG, SNOWBOARD",,,WFO CHS,,,,,,,,,,,,,,,,,,,,,,,,,,,29.99,61,83,0.00,,,,48,29.98,SCT:04 65,29.94,10.00,69,150,,14,,,,,,,,,,,,,,,,,,,,,,,,,,,,,,,,,,,,,MET09805/20/11 16:56:02 METAR KCHS 202156Z 15012KT 10SM SCT065 28/16 A2999 RMK AO2 SLP154 T02830161 (WD),,,,,,,,,,,,,,,,,,,,,,,,,,,,
72208013880,2011-05-21T14:56:00,FM-15,7,,SE,0.25,mi,"TEMP, PRECIP, SNOW",,,"MMTS, SRG, SNOWBOARD",,,WFO CHS,,,,,,,,,,,,,,,,,,,,,,,,,,,29.97,70,84,0.00,,,,63,29.97,SCT:04 50 BKN:07 75,29.92,9.00,74,150,,13,,,,,,,,,,,,,,,,,,,,,,,,,,,,,,,,,,,,,MET10405/21/11 14:56:02 METAR KCHS 211956Z 15011KT 9SM SCT050 BKN075 29/21 A2997 RMK AO2 SLP148 T02890211 (WD),,,,,,,,,,,,,,,,,,,,,,,,,,,,
72208013880,2011-05-22T11:56:00,FM-15,7,,SE,0.25,mi,"TEMP, PRECIP, SNOW",,,"MMTS, SRG, SNOWBOARD",,,WFO CHS,,,,,,,,,,,,,,,,,,,,,,,,,,,30.05,67,90,0.00,,,,47,30.05,FEW:02 40,30.00,10.00,74,150,,8,,,,,,,,,,,,,,,,,,,,,,,,,,,,,,,,,,,,,MET09905/22/11 11:56:02 METAR KCHS 221656Z 15007KT 10SM FEW040 32/19 A3005 RMK AO2 SLP177 T03220194 (JRS),,,,,,,,,,,,,,,,,,,,,,,,,,,,
72208013880,2011-05-22T12:56:00,SY-MT,7,,SE,0.25,mi,"TEMP, PRECIP, SNOW",,,"MMTS, SRG, SNOWBOARD",,,WFO CHS,,,,,,,,,,,,,,,,,,,,,,,,,,,30.04,66,91,0.00,,+0.01,8,44,30.04,FEW:02 45,29.99,10.00,74,150,,10,,,,,,,,,,,,,,,,,,,,,,,,,,,,,,,,,,,,,SYN092AAXX  22184 72208 32666 21509 10328 20189 30157 40172 58005 91756 333 10333 20244 555 92218;MET11705/22/11 12:56:02 METAR KCHS 221756Z 15009KT 10SM FEW045 33/19 A3004 RMK AO2 SLP172 T03280189 10333 20244 58005 (JRS),,,,,,,,,,,,,,,,,,,,,,,,,,,,
72208013880,2011-05-22T14:56:00,FM-15,7,,SE,0.25,mi,"TEMP, PRECIP, SNOW",,,"MMTS, SRG, SNOWBOARD",,,WFO CHS,,,,,,,,,,,,,,,,,,,,,,,,,,,30.04,67,88,0.00,,,,50,30.03,FEW:02 55,29.99,10.00,74,150,,15,,,,,,,,,,,,,,,,,,,,,,,,,,,,,,,,,,,,,MET09905/22/11 14:56:02 METAR KCHS 221956Z 15013KT 10SM FEW055 31/19 A3004 RMK AO2 SLP171 T03110194 (JRS),,,,,,,,,,,,,,,,,,,,,,,,,,,,
72208013880,2011-05-22T17:56:00,FM-15,7,,SE,0.25,mi,"TEMP, PRECIP, SNOW",,,"MMTS, SRG, SNOWBOARD",,,WFO CHS,,,,,,,,,,,,,,,,,,,,,,,,,,,30.02,69,82,0.00,,,,65,30.01,,29.97,9.00,73,150,,13,,,,,,,,,,,,,,,,,,,,,,,,,,,,,,,,,,,,,MET09405/22/11 17:56:02 METAR KCHS 222256Z 15011KT 9SM CLR 28/21 A3002 RMK AO2 SLP163 T02780206 (WD),,,,,,,,,,,,,,,,,,,,,,,,,,,,
72208013880,2011-05-23T13:56:00,FM-15,7,,SE,0.25,mi,"TEMP, PRECIP, SNOW",,,"MMTS, SRG, SNOWBOARD",,,WFO CHS,,,,,,,,,,,,,,,,,,,,,,,,,,,30.00,73,89,0.00,,,,59,30.00,FEW:02 40 SCT:04 55 SCT:04 250,29.95,10.00,78,170,21,16,,,,,,,,,,,,,,,,,,,,,,,,,,,,,,,,,,,,,MET11905/23/11 13:56:02 METAR KCHS 231856Z 17014G18KT 10SM FEW040 SCT055 SCT250 32/23 A3000 RMK AO2 SLP158 T03170228 RTX (DD),,,,,,,,,,,,,,,,,,,,,,,,,,,,
72208013880,2011-05-23T15:56:00,FM-15,7,,SE,0.25,mi,"TEMP, PRECIP, SNOW",,,"MMTS, SRG, SNOWBOARD",,,WFO CHS,,,,,,,,,,,,,,,,,,,,,,,,,,,29.98,70,89,0.00,,+0.03,8,53,29.98,,29.93,8.00,76,170,,14,,,,,,,,,,,,,,,,,,,,,,,,,,,,,,,,,,,,,MET10505/23/11 15:56:02 METAR KCHS 232056Z 17012KT 8SM CLR 32/21 A2998 RMK AO2 SLP152 T03170211 58011 RTX (AWS),,,,,,,,,,,,,,,,,,,,,,,,,,,,
72208013880,2011-05-23T16:00:00,FM-12,4,,SE,0.25,mi,"TEMP, PRECIP, SNOW",,,"MMTS, SRG, SNOWBOARD",,,WFO CHS,,,,,,,,,,,,,,,,,,,,,,,,,,,,70,89,,,+0.03,8,53,29.98,CLR:00,29.93,7.46,76,170,,14,,,,,,,,,,,,,,,,,,,,,,,,,,,,,,,,,,,,,SYN076AAXX  23214 72208 32962 01712 10317 20211 30136 40152 58011 92056 555 92321;,,,,,,,,,,,,,,,,,,,,,,,,,,,,
72208013880,2011-05-24T14:56:00,FM-15,7,,SE,0.25,mi,"TEMP, PRECIP, SNOW",,,"MMTS, SRG, SNOWBOARD",,,WFO CHS,,,,,,,,,,,,,,,,,,,,,,,,,,,29.94,69,92,0.00,,,,47,29.93,FEW:02 65 SCT:04 90 SCT:04 200,29.89,10.00,76,150,,13,,,,,,,,,,,,,,,,,,,,,,,,,,,,,,,,,,,,,MET11305/24/11 14:56:02 METAR KCHS 241956Z 15011KT 10SM FEW065 SCT090 SCT200 33/21 A2994 RMK AO2 SLP137 T03330206 (AWS),,,,,,,,,,,,,,,,,,,,,,,,,,,,
72208013880,2011-05-26T14:56:00,FM-15,7,,SE,0.25,mi,"TEMP, PRECIP, SNOW",,,"MMTS, SRG, SNOWBOARD",,,WFO CHS,,,,,,,,,,,,,,,,,,,,,,,,,,,29.97,65,85,0.00,,,,51,29.97,FEW:02 45,29.92,10.00,72,170,22,15,,,,,,,,,,,,,,,,,,,,,,,,,,,,,,,,,,,,,MET10105/26/11 14:56:02 METAR KCHS 261956Z 17013G19KT 10SM FEW045 29/18 A2997 RMK AO2 SLP148 T02940183 (DD),,,,,,,,,,,,,,,,,,,,,,,,,,,,
72208013880,2011-05-26T15:56:00,FM-15,7,,SE,0.25,mi,"TEMP, PRECIP, SNOW",,,"MMTS, SRG, SNOWBOARD",,,WFO CHS,,,,,,,,,,,,,,,,,,,,,,,,,,,29.96,65,85,0.00,,+0.03,8,51,29.95,,29.91,10.00,72,170,24,17,,,,,,,,,,,,,,,,,,,,,,,,,,,,,,,,,,,,,MET10505/26/11 15:56:02 METAR KCHS 262056Z 17015G21KT 10SM CLR 29/18 A2996 RMK AO2 SLP143 T02940183 58011 (AWS),,,,,,,,,,,,,,,,,,,,,,,,,,,,
72208013880,2011-05-26T16:00:00,FM-12,4,,SE,0.25,mi,"TEMP, PRECIP, SNOW",,,"MMTS, SRG, SNOWBOARD",,,WFO CHS,,,,,,,,,,,,,,,,,,,,,,,,,,,,65,85,,,+0.03,8,51,29.95,CLR:00,29.91,9.94,72,170,24,17,,,,,,,,,,,,,,,,,,,,,,,,,,,,,,,,,,,,,SYN086AAXX  26214 72208 32966 01715 10294 20183 30129 40143 58011 92056 333 91021 555 92621;,,,,,,,,,,,,,,,,,,,,,,,,,,,,
72208013880,2011-05-26T17:56:00,FM-15,7,,SE,0.25,mi,"TEMP, PRECIP, SNOW",,,"MMTS, SRG, SNOWBOARD",,,WFO CHS,,,,,,,,,,,,,,,,,,,,,,,,,,,29.92,65,81,0.00,,,,58,29.92,,29.87,10.00,71,170,25,17,,,,,,,,,,,,,,,,,,,,,,,,,,,,,,,,,,,,,MET09905/26/11 17:56:02 METAR KCHS 262256Z 17015G22KT 10SM CLR 27/18 A2992 RMK AO2 SLP132 T02720183 (AWS),,,,,,,,,,,,,,,,,,,,,,,,,,,,
72208013880,2011-05-27T13:56:00,FM-15,7,,SE,0.25,mi,"TEMP, PRECIP, SNOW",,,"MMTS, SRG, SNOWBOARD",,,WFO CHS,,,,,,,,,,,,,,,,,,,,,,,,,,,29.91,70,80,0.00,,,,71,29.91,SCT:04 25 SCT:04 50 BKN:07 180,29.86,10.00,73,170,,15,,,,,,,,,,,,,,,,,,,,,,,,,,,,,,,,,,,,,MET14405/27/11 13:56:02 METAR KCHS 271856Z 17013KT 10SM SCT025 SCT050 BKN180 27/21 A2991 RMK AO2 SLP128 CB DSNT SW-NW MOVG NE CBMAM W-N T02670211 (DD),,,,,,,,,,,,,,,,,,,,,,,,,,,,
72208013880,2011-05-27T15:34:00,FM-16,7,,SE,0.25,mi,"TEMP, PRECIP, SNOW",,,"MMTS, SRG, SNOWBOARD",,,WFO CHS,,,,,,,,,,,,,,,,,,,,,,,,,,,29.92,70,81,,,,,70,,BKN:07 28 BKN:07 35 BKN:07 180,29.87,10.00,74,170,,16,,,,,,,,,,,,,,,,,,,,,,,,,,,,,,,,,,,,,MET10605/27/11 15:34:02 SPECI KCHS 272034Z 17014KT 10SM BKN028 BKN035 BKN180 27/21 A2992 RMK AO2 CB DSNT NW (DD),,,,,,,,,,,,,,,,,,,,,,,,,,,,
72208013880,2011-05-27T17:33:00,FM-16,7,,SE,0.25,mi,"TEMP, PRECIP, SNOW",,,"MMTS, SRG, SNOWBOARD",,,WFO CHS,,,,,,,,,,,,,,,,,,,,,,,,,,,29.92,72,79,T,,,,79,,FEW:02 22 BKN:07 33 BKN:07 46,29.87,10.00,74,160,,11,,,,,,,,,,,,,,,,,,,,,,,,,,,,,,,,,,,,,MET10805/27/11 17:33:02 SPECI KCHS 272233Z 16010KT 10SM FEW022 BKN033 BKN046 26/22 A2992 RMK AO2 RAE27 P0000 (AWS),,,,,,,,,,,,,,,,,,,,,,,,,,,,
72208013880,2011-05-27T17:56:00,FM-15,7,,SE,0.25,mi,"TEMP, PRECIP, SNOW",,,"MMTS, SRG, SNOWBOARD",,,WFO CHS,,,,,,,,,,,,,,,,,,,,,,,,,,,29.91,70,79,T,,,,74,29.91,FEW:02 22 SCT:04 30 BKN:07 180,29.86,10.00,73,160,,11,,,,,,,,,,,,,,,,,,,,,,,,,,,,,,,,,,,,,MET12505/27/11 17:56:02 METAR KCHS 272256Z 16010KT 10SM FEW022 SCT030 BKN180 26/21 A2991 RMK AO2 RAE27 SLP127 P0000 T02610211 (AWS),,,,,,,,,,,,,,,,,,,,,,,,,,,,
72208013880,2011-05-28T10:56:00,FM-15,7,,SE,0.25,mi,"TEMP, PRECIP, SNOW",,,"MMTS, SRG, SNOWBOARD",,,WFO CHS,,,,,,,,,,,,,,,,,,,,,,,,,,,29.99,72,83,T,-RA:02 |RA |RA,,,70,29.98,SCT:04 27 BKN:07 40,29.94,10.00,75,170,,14,,,,,,,,,,,,,,,,,,,,,,,,,,,,,,,,,,,,,MET12805/28/11 10:56:02 METAR KCHS 281556Z 17012KT 10SM -RA SCT027 BKN040 28/22 A2999 RMK AO2 RAB44 SLP154 TCU N P0000 T02830222 (JRS),,,,,,,,,,,,,,,,,,,,,,,,,,,,
72208013880,2011-05-28T11:56:00,FM-15,7,,SE,0.25,mi,"TEMP, PRECIP, SNOW",,,"MMTS, SRG, SNOWBOARD",,,WFO CHS,,,,,,,,,,,,,,,,,,,,,,,,,,,29.97,71,86,T,,,,61,29.97,SCT:04 29,29.92,10.00,76,170,,14,,,,,,,,,,,,,,,,,,,,,,,,,,,,,,,,,,,,,MET12305/28/11 11:56:02 METAR KCHS 281656Z 17012KT 10SM SCT029 30/22 A2997 RMK AO2 RAE03 SLP149 TCU DSNT NW P0000 T03000217 (JRS),,,,,,,,,,,,,,,,,,,,,,,,,,,,
72208013880,2011-05-28T13:32:00,FM-16,7,,SE,0.25,mi,"TEMP, PRECIP, SNOW",,,"MMTS, SRG, SNOWBOARD",,,WFO CHS,,,,,,,,,,,,,,,,,,,,,,,,,,,29.96,70,82,,TS:7 |TS |TS,,,66,,SCT:04 33,29.91,10.00,74,160,,14,,,,,,,,,,,,,,,,,,,,,,,,,,,,,,,,,,,,,MET11805/28/11 13:32:02 SPECI KCHS 281832Z 16012KT 10SM TS SCT033CB 28/21 A2996 RMK AO2 TSB27 OCNL LTGCG N TS N MOV NE (JRS),,,,,,,,,,,,,,,,,,,,,,,,,,,,
72208013880,2011-05-28T13:56:00,FM-15,7,,SE,0.25,mi,"TEMP, PRECIP, SNOW",,,"MMTS, SRG, SNOWBOARD",,,WFO CHS,,,,,,,,,,,,,,,,,,,,,,,,,,,29.97,69,83,0.00,TS:7 |TS |TS,,,63,29.96,FEW:02 20 SCT:04 33 BKN:07 250,29.92,10.00,74,160,,14,,,,,,,,,,,,,,,,,,,,,,,,,,,,,,,,,,,,,MET17205/28/11 13:56:02 METAR KCHS 281856Z 16012KT 10SM TS FEW020 SCT033CB BKN250 28/21 A2997 RMK AO2 TSB27 SLP147 OCNL LTGCGIC N TS N MOV E CB DSNT NE AND DSNT W T02830206 (JRS),,,,,,,,,,,,,,,,,,,,,,,,,,,,
72208013880,2011-05-28T14:34:00,FM-16,7,,SE,0.25,mi,"TEMP, PRECIP, SNOW",,,"MMTS, SRG, SNOWBOARD",,,WFO CHS,,,,,,,,,,,,,,,,,,,,,,,,,,,29.97,72,81,T,-RA:02 |RA |RA,,,74,,FEW:02 30 SCT:04 100 BKN:07 250,29.92,10.00,75,150,,11,,,,,,,,,,,,,,,,,,,,,,,,,,,,,,,,,,,,,MET15205/28/11 14:34:02 SPECI KCHS 281934Z 15010KT 10SM -RA FEW030 SCT100 BKN250 27/22 A2997 RMK AO2 TSE29RAB03 TS MOV NE CB DSNT NE AND DSNT W-NW P0000 (JRS),,,,,,,,,,,,,,,,,,,,,,,,,,,,
72208013880,2011-05-28T14:56:00,FM-15,7,,SE,0.25,mi,"TEMP, PRECIP, SNOW",,,"MMTS, SRG, SNOWBOARD",,,WFO CHS,,,,,,,,,,,,,,,,,,,,,,,,,,,29.94,70,80,T,,,,71,29.94,FEW:02 30 SCT:04 100 BKN:07 250,29.89,10.00,73,160,,14,,,,,,,,,,,,,,,,,,,,,,,,,,,,,,,,,,,,,MET17605/28/11 14:56:02 METAR KCHS 281956Z 16012KT 10SM FEW030 SCT100 BKN250 27/21 A2994 RMK AO2 TSE29RAB03E40 PRESFR SLP139 TS MOV NE CB DSNT NE AND DSNT SW-NW P0000 T02670211 (JRS),,,,,,,,,,,,,,,,,,,,,,,,,,,,
72208013880,2011-05-28T16:56:00,FM-15,7,,SE,0.25,mi,"TEMP, PRECIP, SNOW",,,"MMTS, SRG, SNOWBOARD",,,WFO CHS,,,,,,,,,,,,,,,,,,,,,,,,,,,29.96,67,84,0.00,,,,57,29.96,FEW:02 26 SCT:04 110 SCT:04 250,29.91,10.00,73,170,,9,,,,,,,,,,,,,,,,,,,,,,,,,,,,,,,,,,,,,MET11305/28/11 16:56:02 METAR KCHS 282156Z 17008KT 10SM FEW026 SCT110 SCT250 29/19 A2996 RMK AO2 SLP145 T02890194 (WRB),,,,,,,,,,,,,,,,,,,,,,,,,,,,
72208013880,2011-05-28T17:56:00,FM-15,7,,SE,0.25,mi,"TEMP, PRECIP, SNOW",,,"MMTS, SRG, SNOWBOARD",,,WFO CHS,,,,,,,,,,,,,,,,,,,,,,,,,,,29.98,70,83,0.00,,,,65,29.97,FEW:02 22 SCT:04 110,29.93,10.00,74,150,,9,,,,,,,,,,,,,,,,,,,,,,,,,,,,,,,,,,,,,MET10605/28/11 17:56:02 METAR KCHS 282256Z 15008KT 10SM FEW022 SCT110 28/21 A2998 RMK AO2 SLP150 T02830211 (WRB),,,,,,,,,,,,,,,,,,,,,,,,,,,,
72208013880,2011-05-29T12:56:00,SY-MT,7,,SE,0.25,mi,"TEMP, PRECIP, SNOW",,,"MMTS, SRG, SNOWBOARD",,,WFO CHS,,,,,,,,,,,,,,,,,,,,,,,,,,,30.12,66,89,0.00,,+0.01,8,47,30.12,FEW:02 45,30.07,10.00,74,150,,9,,,,,,,,,,,,,,,,,,,,,,,,,,,,,,,,,,,,,SYN092AAXX  29184 72208 32666 21508 10317 20189 30184 40200 58005 91756 333 10317 20256 555 92918;MET11705/29/11 12:56:02 METAR KCHS 291756Z 15008KT 10SM FEW045 32/19 A3012 RMK AO2 SLP200 T03170189 10317 20256 58005 (JRS),,,,,,,,,,,,,,,,,,,,,,,,,,,,
72208013880,2011-05-29T14:56:00,FM-15,7,,SE,0.25,mi,"TEMP, PRECIP, SNOW",,,"MMTS, SRG, SNOWBOARD",,,WFO CHS,,,,,,,,,,,,,,,,,,,,,,,,,,,30.11,63,88,0.00,,,,43,30.11,FEW:02 50 SCT:04 250,30.06,10.00,72,150,,14,,,,,,,,,,,,,,,,,,,,,,,,,,,,,,,,,,,,,MET10605/29/11 14:56:02 METAR KCHS 291956Z 15012KT 10SM FEW050 SCT250 31/17 A3011 RMK AO2 SLP195 T03110172 (JRS),,,,,,,,,,,,,,,,,,,,,,,,,,,,
72208013880,2011-05-29T17:56:00,FM-15,7,,SE,0.25,mi,"TEMP, PRECIP, SNOW",,,"MMTS, SRG, SNOWBOARD",,,WFO CHS,,,,,,,,,,,,,,,,,,,,,,,,,,,30.11,70,83,0.00,,,,65,30.11,FEW:02 45 SCT:04 250,30.06,10.00,74,150,,13,,,,,,,,,,,,,,,,,,,,,,,,,,,,,,,,,,,,,MET10605/29/11 17:56:02 METAR KCHS 292256Z 15011KT 10SM FEW045 SCT250 28/21 A3011 RMK AO2 SLP197 T02830211 (WRB),,,,,,,,,,,,,,,,,,,,,,,,,,,,
72208013880,2011-05-30T14:56:00,FM-15,7,,SE,0.25,mi,"TEMP, PRECIP, SNOW",,,"MMTS, SRG, SNOWBOARD",,,WFO CHS,,,,,,,,,,,,,,,,,,,,,,,,,,,30.19,67,89,0.00,,,,48,30.18,SCT:04 50 SCT:04 65,30.14,10.00,74,160,,11,,,,,,,,,,,,,,,,,,,,,,,,,,,,,,,,,,,,,MET10505/30/11 14:56:02 METAR KCHS 301956Z 16010KT 10SM SCT050 SCT065 32/19 A3019 RMK AO2 SLP221 T03170194 (DD),,,,,,,,,,,,,,,,,,,,,,,,,,,,
72208013880,2011-05-30T15:56:00,SY-MT,7,,SE,0.25,mi,"TEMP, PRECIP, SNOW",,,"MMTS, SRG, SNOWBOARD",,,WFO CHS,,,,,,,,,,,,,,,,,,,,,,,,,,,30.18,68,87,0.00,,+0.02,6,53,30.18,FEW:02 50 SCT:04 65,30.13,10.00,74,150,,10,,,,,,,,,,,,,,,,,,,,,,,,,,,,,,,,,,,,,SYN076AAXX  30214 72208 32766 41509 10306 20200 30204 40219 56008 92056 555 93021;MET11205/30/11 15:56:02 METAR KCHS 302056Z 15009KT 10SM FEW050 SCT065 31/20 A3018 RMK AO2 SLP219 T03060200 56008 (AWS),,,,,,,,,,,,,,,,,,,,,,,,,,,,
72208013880,2011-05-30T16:56:00,FM-15,7,,SE,0.25,mi,"TEMP, PRECIP, SNOW",,,"MMTS, SRG, SNOWBOARD",,,WFO CHS,,,,,,,,,,,,,,,,,,,,,,,,,,,30.17,67,86,0.00,,,,53,30.17,FEW:02 50,30.12,10.00,73,160,,11,,,,,,,,,,,,,,,,,,,,,,,,,,,,,,,,,,,,,MET09905/30/11 16:56:02 METAR KCHS 302156Z 16010KT 10SM FEW050 30/19 A3017 RMK AO2 SLP217 T03000194 (AWS),,,,,,,,,,,,,,,,,,,,,,,,,,,,
72208013880,2011-06-04T15:56:00,SY-MT,7,,SE,0.25,mi,"TEMP, PRECIP, SNOW",,,"MMTS, SRG, SNOWBOARD",,,WFO CHS,,,,,,,,,,,,,,,,,,,,,,,,,,,30.08,66,88,0.00,,+0.04,6,48,30.08,FEW:02 65,30.03,10.00,73,150,17,10,,,,,,,,,,,,,,,,,,,,,,,,,,,,,,,,,,,,,SYN086AAXX  04214 72208 32766 21509 10311 20189 30170 40185 56012 92056 333 91015 555 90421;MET10706/04/11 15:56:02 METAR KCHS 042056Z 15009G15KT 10SM FEW065 31/19 A3008 RMK AO2 SLP185 T03110189 56012 (WD),,,,,,,,,,,,,,,,,,,,,,,,,,,,
72208013880,2011-06-04T17:56:00,FM-15,7,,SE,0.25,mi,"TEMP, PRECIP, SNOW",,,"MMTS, SRG, SNOWBOARD",,,WFO CHS,,,,,,,,,,,,,,,,,,,,,,,,,,,30.09,67,83,0.00,,,,59,30.09,,30.04,10.00,72,150,,13,,,,,,,,,,,,,,,,,,,,,,,,,,,,,,,,,,,,,MET09506/04/11 17:56:02 METAR KCHS 042256Z 15011KT 10SM CLR 28/19 A3009 RMK AO2 SLP188 T02830194 (WD),,,,,,,,,,,,,,,,,,,,,,,,,,,,
72208013880,2011-06-07T12:56:00,SY-MT,7,,SE,0.25,mi,"TEMP, PRECIP, SNOW",,,"MMTS, SRG, SNOWBOARD",,,WFO CHS,,,,,,,,,,,,,,,,,,,,,,,,,,,30.06,66,87,0.00,,0.00,4,50,30.06,FEW:02 40 SCT:04 65 SCT:04 100,30.01,10.00,73,150,,13,,,,,,,,,,,,,,,,,,,,,,,,,,,,,,,,,,,,,SYN092AAXX  07184 72208 32666 41511 10306 20189 30163 40178 54000 91756 333 10317 20256 555 90718;MET13006/07/11 12:56:02 METAR KCHS 071756Z 15011KT 10SM FEW040 SCT065 SCT100 31/19 A3006 RMK AO2 SLP178 T03060189 10317 20256 54000 (DD),,,,,,,,,,,,,,,,,,,,,,,,,,,,
72208013880,2011-06-07T13:56:00,FM-15,7,,SE,0.25,mi,"TEMP, PRECIP, SNOW",,,"MMTS, SRG, SNOWBOARD",,,WFO CHS,,,,,,,,,,,,,,,,,,,,,,,,,,,30.04,65,88,0.00,,,,46,30.03,FEW:02 45 SCT:04 70 SCT:04 100,29.99,10.00,73,170,,11,,,,,,,,,,,,,,,,,,,,,,,,,,,,,,,,,,,,,MET11206/07/11 13:56:02 METAR KCHS 071856Z 17010KT 10SM FEW045 SCT070 SCT100 31/18 A3004 RMK AO2 SLP171 T03110183 (DD),,,,,,,,,,,,,,,,,,,,,,,,,,,,
72208013880,2011-06-07T14:56:00,FM-15,7,,SE,0.25,mi,"TEMP, PRECIP, SNOW",,,"MMTS, SRG, SNOWBOARD",,,WFO CHS,,,,,,,,,,,,,,,,,,,,,,,,,,,30.03,65,89,0.00,,,,45,30.02,FEW:02 45 SCT:04 70 SCT:04 100,29.98,10.00,73,170,,13,,,,,,,,,,,,,,,,,,,,,,,,,,,,,,,,,,,,,MET11206/07/11 14:56:02 METAR KCHS 071956Z 17011KT 10SM FEW045 SCT070 SCT100 32/18 A3003 RMK AO2 SLP166 T03170183 (DD),,,,,,,,,,,,,,,,,,,,,,,,,,,,
72208013880,2011-06-07T15:56:00,SY-MT,7,,SE,0.25,mi,"TEMP, PRECIP, SNOW",,,"MMTS, SRG, SNOWBOARD",,,WFO CHS,,,,,,,,,,,,,,,,,,,,,,,,,,,30.02,64,87,0.00,,+0.04,6,46,30.01,FEW:02 45 SCT:04 70 SCT:04 100,29.97,10.00,72,160,20,13,,,,,,,,,,,,,,,,,,,,,,,,,,,,,,,,,,,,,SYN086AAXX  07214 72208 32666 41611 10306 20178 30150 40163 56014 92056 333 91017 555 90721;MET13206/07/11 15:56:02 METAR KCHS 072056Z 16011G17KT 10SM FEW045 SCT070 SCT100 31/18 A3002 RMK AO2 SLP163 CB DSNT N T03060178 56014 (AWS),,,,,,,,,,,,,,,,,,,,,,,,,,,,
72208013880,2011-06-10T13:56:00,FM-15,7,,SE,0.25,mi,"TEMP, PRECIP, SNOW",,,"MMTS, SRG, SNOWBOARD",,,WFO CHS,,,,,,,,,,,,,,,,,,,,,,,,,,,29.97,62,90,0.00,,,,39,29.97,FEW:02 60 SCT:04 250,29.92,10.00,72,160,16,9,,,,,,,,,,,,,,,,,,,,,,,,,,,,,,,,,,,,,MET10806/10/11 13:56:02 METAR KCHS 101856Z 16008G14KT 10SM FEW060 SCT250 32/17 A2997 RMK AO2 SLP149 T03220167 (DD),,,,,,,,,,,,,,,,,,,,,,,,,,,,
72208013880,2011-06-10T14:56:00,FM-15,7,,SE,0.25,mi,"TEMP, PRECIP, SNOW",,,"MMTS, SRG, SNOWBOARD",,,WFO CHS,,,,,,,,,,,,,,,,,,,,,,,,,,,29.97,63,89,0.00,,,,42,29.97,FEW:02 55 SCT:04 180 SCT:04 250,29.92,10.00,72,160,,13,,,,,,,,,,,,,,,,,,,,,,,,,,,,,,,,,,,,,MET11206/10/11 14:56:02 METAR KCHS 101956Z 16011KT 10SM FEW055 SCT180 SCT250 32/17 A2997 RMK AO2 SLP148 T03170172 (DD),,,,,,,,,,,,,,,,,,,,,,,,,,,,
72208013880,2011-06-10T17:56:00,FM-15,7,,SE,0.25,mi,"TEMP, PRECIP, SNOW",,,"MMTS, SRG, SNOWBOARD",,,WFO CHS,,,,,,,,,,,,,,,,,,,,,,,,,,,29.95,67,84,0.00,,,,57,29.95,FEW:02 180,29.90,10.00,73,170,,11,,,,,,,,,,,,,,,,,,,,,,,,,,,,,,,,,,,,,MET09906/10/11 17:56:02 METAR KCHS 102256Z 17010KT 10SM FEW180 29/19 A2995 RMK AO2 SLP142 T02890194 (AWS),,,,,,,,,,,,,,,,,,,,,,,,,,,,
72208013880,2011-06-11T12:56:00,FM-15,7,,SE,0.25,mi,"TEMP, PRECIP, SNOW",,,"MMTS, SRG, SNOWBOARD",,,WFO CHS,,,,,,,,,,,,,,,,,,,,,,,,,,,29.97,65,88,0.00,,+0.02,8,46,29.96,SCT:04 50 SCT:04 200,29.92,10.00,73,150,,8,,,,,,,,,,,,,,,,,,,,,,,,,,,,,,,,,,,,,MET12406/11/11 12:56:02 METAR KCHS 111756Z 15007KT 10SM SCT050 SCT200 31/18 A2997 RMK AO2 SLP146 T03110183 10317 20239 58007 (JRS),,,,,,,,,,,,,,,,,,,,,,,,,,,,
72208013880,2011-06-11T13:00:00,FM-12,4,,SE,0.25,mi,"TEMP, PRECIP, SNOW",,,"MMTS, SRG, SNOWBOARD",,,WFO CHS,,,,,,,,,,,,,,,,,,,,,,,,,,,,65,88,,,+0.02,8,46,29.96,,29.92,9.94,73,150,,8,,,,,,,,,,,,,,,,,,,,,,,,,,,,,,,,,,,,,SYN092AAXX  11184 72208 32766 41507 10311 20183 30133 40146 58007 91756 333 10317 20239 555 91118;,,,,,,,,,,,,,,,,,,,,,,,,,,,,
72208013880,2011-06-11T14:56:00,FM-15,7,,SE,0.25,mi,"TEMP, PRECIP, SNOW",,,"MMTS, SRG, SNOWBOARD",,,WFO CHS,,,,,,,,,,,,,,,,,,,,,,,,,,,29.95,66,87,0.00,,,,50,29.94,FEW:02 50,29.90,10.00,73,150,18,15,,,,,,,,,,,,,,,,,,,,,,,,,,,,,,,,,,,,,MET10206/11/11 14:56:02 METAR KCHS 111956Z 15013G16KT 10SM FEW050 31/19 A2995 RMK AO2 SLP140 T03060189 (JRS),,,,,,,,,,,,,,,,,,,,,,,,,,,,
72208013880,2011-06-11T15:56:00,FM-15,7,,SE,0.25,mi,"TEMP, PRECIP, SNOW",,,"MMTS, SRG, SNOWBOARD",,,WFO CHS,,,,,,,,,,,,,,,,,,,,,,,,,,,29.93,66,87,0.00,,+0.03,6,50,29.93,FEW:02 50 SCT:04 250,29.88,10.00,73,160,21,15,,,,,,,,,,,,,,,,,,,,,,,,,,,,,,,,,,,,,MET11506/11/11 15:56:02 METAR KCHS 112056Z 16013G18KT 10SM FEW050 SCT250 31/19 A2993 RMK AO2 SLP135 T03060189 56011 (WRB),,,,,,,,,,,,,,,,,,,,,,,,,,,,
72208013880,2011-06-11T16:00:00,FM-12,4,,SE,0.25,mi,"TEMP, PRECIP, SNOW",,,"MMTS, SRG, SNOWBOARD",,,WFO CHS,,,,,,,,,,,,,,,,,,,,,,,,,,,,66,87,,,+0.03,6,50,29.93,,29.88,9.94,73,160,21,15,,,,,,,,,,,,,,,,,,,,,,,,,,,,,,,,,,,,,SYN086AAXX  11214 72208 32766 41613 10306 20189 30119 40135 56011 92056 333 91018 555 91121;,,,,,,,,,,,,,,,,,,,,,,,,,,,,
72208013880,2011-06-11T16:56:00,FM-15,7,,SE,0.25,mi,"TEMP, PRECIP, SNOW",,,"MMTS, SRG, SNOWBOARD",,,WFO CHS,,,,,,,,,,,,,,,,,,,,,,,,,,,29.93,65,85,0.00,,,,51,29.92,FEW:02 47 SCT:04 250,29.88,10.00,72,160,,10,,,,,,,,,,,,,,,,,,,,,,,,,,,,,,,,,,,,,MET10606/11/11 16:56:02 METAR KCHS 112156Z 16009KT 10SM FEW047 SCT250 29/18 A2993 RMK AO2 SLP133 T02940183 (WRB),,,,,,,,,,,,,,,,,,,,,,,,,,,,
72208013880,2011-06-12T14:56:00,FM-15,7,,SE,0.25,mi,"TEMP, PRECIP, SNOW",,,"MMTS, SRG, SNOWBOARD",,,WFO CHS,,,,,,,,,,,,,,,,,,,,,,,,,,,29.89,67,90,0.00,,,,47,29.88,FEW:02 60 SCT:04 250,29.84,10.00,74,160,,17,,,,,,,,,,,,,,,,,,,,,,,,,,,,,,,,,,,,,MET10806/12/11 14:56:02 METAR KCHS 121956Z 16015KT 10SM FEW060 SCT250 32/19 A2989 RMK AO2 SLP119 T03220194 $ (JRS),,,,,,,,,,,,,,,,,,,,,,,,,,,,
72208013880,2011-06-12T15:56:00,FM-15,7,,SE,0.25,mi,"TEMP, PRECIP, SNOW",,,"MMTS, SRG, SNOWBOARD",,,WFO CHS,,,,,,,,,,,,,,,,,,,,,,,,,,,29.87,66,90,0.00,,+0.05,6,45,29.87,FEW:02 60 SCT:04 250,29.82,10.00,74,160,,17,,,,,,,,,,,,,,,,,,,,,,,,,,,,,,,,,,,,,MET11406/12/11 15:56:02 METAR KCHS 122056Z 16015KT 10SM FEW060 SCT250 32/19 A2987 RMK AO2 SLP114 T03220189 56018 $ (WRB),,,,,,,,,,,,,,,,,,,,,,,,,,,,
72208013880,2011-06-12T16:00:00,FM-12,4,,SE,0.25,mi,"TEMP, PRECIP, SNOW",,,"MMTS, SRG, SNOWBOARD",,,WFO CHS,,,,,,,,,,,,,,,,,,,,,,,,,,,,66,90,,,+0.05,6,45,29.87,,29.82,9.94,74,160,,17,,,,,,,,,,,,,,,,,,,,,,,,,,,,,,,,,,,,,SYN076AAXX  12214 72208 32766 41615 10322 20189 30099 40114 56018 92056 555 91221;,,,,,,,,,,,,,,,,,,,,,,,,,,,,
72208013880,2011-06-13T14:56:00,FM-15,7,,SE,0.25,mi,"TEMP, PRECIP, SNOW",,,"MMTS, SRG, SNOWBOARD",,,WFO CHS,,,,,,,,,,,,,,,,,,,,,,,,,,,29.83,71,95,0.00,,,,46,29.83,SCT:04 75 SCT:04 90,29.78,10.00,78,170,,9,,,,,,,,,,,,,,,,,,,,,,,,,,,,,,,,,,,,,MET10506/13/11 14:56:02 METAR KCHS 131956Z 17008KT 10SM SCT075 SCT090 35/22 A2983 RMK AO2 SLP101 T03500217 (DD),,,,,,,,,,,,,,,,,,,,,,,,,,,,
72208013880,2011-06-13T17:56:00,FM-15,7,,SE,0.25,mi,"TEMP, PRECIP, SNOW",,,"MMTS, SRG, SNOWBOARD",,,WFO CHS,,,,,,,,,,,,,,,,,,,,,,,,,,,29.84,70,88,0.00,,,,55,29.84,FEW:02 80,29.79,8.00,76,150,,11,,,,,,,,,,,,,,,,,,,,,,,,,,,,,,,,,,,,,MET09806/13/11 17:56:02 METAR KCHS 132256Z 15010KT 8SM FEW080 31/21 A2984 RMK AO2 SLP104 T03110211 (AWS),,,,,,,,,,,,,,,,,,,,,,,,,,,,
72208013880,2011-06-15T13:56:00,FM-15,7,,SE,0.25,mi,"TEMP, PRECIP, SNOW",,,"MMTS, SRG, SNOWBOARD",,,WFO CHS,,,,,,,,,,,,,,,,,,,,,,,,,,,29.90,66,86,0.00,,,,51,29.90,SCT:04 45 SCT:04 60 BKN:07 75,29.85,10.00,73,160,,16,,,,,,,,,,,,,,,,,,,,,,,,,,,,,,,,,,,,,MET12206/15/11 13:56:02 METAR KCHS 151856Z 16014KT 10SM SCT045 SCT060 BKN075 30/19 A2990 RMK AO2 SLP124 CB DSIPTD T03000189 (DD),,,,,,,,,,,,,,,,,,,,,,,,,,,,
72208013880,2011-06-15T14:56:00,FM-15,7,,SE,0.25,mi,"TEMP, PRECIP, SNOW",,,"MMTS, SRG, SNOWBOARD",,,WFO CHS,,,,,,,,,,,,,,,,,,,,,,,,,,,29.92,66,86,0.00,,,,51,29.91,FEW:02 50 SCT:04 65 BKN:07 80,29.87,10.00,73,160,,10,,,,,,,,,,,,,,,,,,,,,,,,,,,,,,,,,,,,,MET12406/15/11 14:56:02 METAR KCHS 151956Z 16009KT 10SM FEW050TCU SCT065 BKN080 30/19 A2992 RMK AO2 SLP130 TCU N-NE T03000189 (DD),,,,,,,,,,,,,,,,,,,,,,,,,,,,
72208013880,2011-06-15T16:00:00,FM-12,4,,SE,0.25,mi,"TEMP, PRECIP, SNOW",,,"MMTS, SRG, SNOWBOARD",,,WFO CHS,,,,,,,,,,,,,,,,,,,,,,,,,,,,66,87,,,-0.01,3,50,29.91,,29.86,9.94,73,150,22,13,,,,,,,,,,,,,,,,,,,,,,,,,,,,,,,,,,,,,SYN086AAXX  15214 72208 32766 41511 10306 20189 30113 40129 53002 92056 333 91019 555 91521;,,,,,,,,,,,,,,,,,,,,,,,,,,,,
72208013880,2011-06-21T15:56:00,FM-15,7,,SE,0.25,mi,"TEMP, PRECIP, SNOW",,,"MMTS, SRG, SNOWBOARD",,,WFO CHS,,,,,,,,,,,,,,,,,,,,,,,,,,,29.92,69,97,0.00,,+0.04,6,40,29.91,FEW:02 75 SCT:04 100,29.87,8.00,77,170,22,14,,,,,,,,,,,,,,,,,,,,,,,,,,,,,,,,,,,,,MET11406/21/11 15:56:02 METAR KCHS 212056Z 17012G19KT 8SM FEW075 SCT100 36/21 A2992 RMK AO2 SLP130 T03610206 56013 (AWS),,,,,,,,,,,,,,,,,,,,,,,,,,,,
72208013880,2011-06-21T16:00:00,FM-12,4,,SE,0.25,mi,"TEMP, PRECIP, SNOW",,,"MMTS, SRG, SNOWBOARD",,,WFO CHS,,,,,,,,,,,,,,,,,,,,,,,,,,,,69,97,,,+0.04,6,40,29.91,,29.87,7.46,77,170,22,14,,,,,,,,,,,,,,,,,,,,,,,,,,,,,,,,,,,,,SYN086AAXX  21214 72208 32862 41712 10361 20206 30116 40130 56013 92056 333 91019 555 92121;,,,,,,,,,,,,,,,,,,,,,,,,,,,,
72208013880,2011-06-22T13:56:00,FM-15,7,,SE,0.25,mi,"TEMP, PRECIP, SNOW",,,"MMTS, SRG, SNOWBOARD",,,WFO CHS,,,,,,,,,,,,,,,,,,,,,,,,,,,29.96,74,96,0.00,,,,49,29.95,FEW:02 55 SCT:04 70 SCT:04 85,29.91,10.00,80,150,22,13,,,,,,,,,,,,,,,,,,,,,,,,,,,,,,,,,,,,,MET11506/22/11 13:56:02 METAR KCHS 221856Z 15011G19KT 10SM FEW055 SCT070 SCT085 36/23 A2996 RMK AO2 SLP143 T03560233 (DD),,,,,,,,,,,,,,,,,,,,,,,,,,,,
72208013880,2011-06-23T15:56:00,FM-15,7,,SE,0.25,mi,"TEMP, PRECIP, SNOW",,,"MMTS, SRG, SNOWBOARD",,,WFO CHS,,,,,,,,,,,,,,,,,,,,,,,,,,,29.87,77,91,0.08,,+0.03,6,64,29.86,FEW:02 45 SCT:04 65 SCT:04 200,29.82,7.00,81,170,17,14,,,,,,,,,,,,,,,,,,,,,,,,,,,,,,,,,,,,,MET20406/23/11 15:56:02 METAR KCHS 232056Z 17012G15KT 7SM FEW045 SCT065 SCT200 33/25 A2987 RMK AO2 PK WND 31029/2018 WSHFT 2001 TSE39RAB14E35 SLP113 CB DSNT W AND NE TS MOVD NE P0008 60008 T03280250 56010 (AWS),,,,,,,,,,,,,,,,,,,,,,,,,,,,
72208013880,2011-06-23T16:00:00,FM-12,4,,SE,0.25,mi,"TEMP, PRECIP, SNOW",,,"MMTS, SRG, SNOWBOARD",,,WFO CHS,,,,,,,,,,,,,,,,,,,,,,,,,,,,77,91,,,+0.03,6,64,29.86,,29.82,6.84,81,170,17,14,,,,,,,,,,,,,,,,,,,,,,,,,,,,,,,,,,,,,SYN092AAXX  23214 72208 12661 41712 10328 20250 30099 40113 56010 60027 92056 333 91015 555 92321;,,,,,,,,,,,,,,,,,,,,,,,,,,,,
72208013880,2011-06-23T16:09:00,FM-16,7,,SE,0.25,mi,"TEMP, PRECIP, SNOW",,,"MMTS, SRG, SNOWBOARD",,,WFO CHS,,,,,,,,,,,,,,,,,,,,,,,,,,,29.87,75,90,,HZ:7 ||HZ,,,63,,FEW:02 45 SCT:04 65 SCT:04 200,29.82,5.00,79,170,,13,,,,,,,,,,,,,,,,,,,,,,,,,,,,,,,,,,,,,MET13906/23/11 16:09:02 SPECI KCHS 232109Z 17011KT 5SM HZ FEW045 SCT065 SCT200 32/24 A2987 RMK AO2 WSHFT 2050 CB DSNT W AND NE TCU DSNT N $ (AWS),,,,,,,,,,,,,,,,,,,,,,,,,,,,
72208013880,2011-06-26T15:56:00,FM-15,7,,SE,0.25,mi,"TEMP, PRECIP, SNOW",,,"MMTS, SRG, SNOWBOARD",,,WFO CHS,,,,,,,,,,,,,,,,,,,,,,,,,,,29.92,72,92,0.00,,+0.04,8,52,29.91,FEW:02 65,29.87,10.00,78,170,,15,,,,,,,,,,,,,,,,,,,,,,,,,,,,,,,,,,,,,MET11706/26/11 15:56:02 METAR KCHS 262056Z 17013KT 10SM FEW065 33/22 A2992 RMK AO2 SLP130 CB DSNT W T03330222 58015 $ (WRB),,,,,,,,,,,,,,,,,,,,,,,,,,,,
72208013880,2011-06-26T16:00:00,FM-12,4,,SE,0.25,mi,"TEMP, PRECIP, SNOW",,,"MMTS, SRG, SNOWBOARD",,,WFO CHS,,,,,,,,,,,,,,,,,,,,,,,,,,,,72,92,,,+0.04,8,52,29.91,,29.87,9.94,78,170,,15,,,,,,,,,,,,,,,,,,,,,,,,,,,,,,,,,,,,,SYN076AAXX  26214 72208 32766 21713 10333 20222 30116 40130 58015 92056 555 92621;,,,,,,,,,,,,,,,,,,,,,,,,,,,,
72208013880,2011-06-29T16:54:00,FM-16,6,,SE,0.25,mi,"TEMP, PRECIP, SNOW",,,"MMTS, SRG, SNOWBOARD",,,WFO CHS,,,,,,,,,,,,,,,,,,,,,,,,,,,29.94,70,82,,TS:7 |TS |,,,66,,FEW:02 40 SCT:04 55 SCT:04 75,29.89,10.00,74,170,22,17,,,,,,,,,,,,,,,,,,,,,,,,,,,,,,,,,,,,,MET15806/29/11 16:54:02 SPECI KCHS 292154Z 17015G19KT 10SM TS FEW040CB SCT055 SCT075 28/21 A2994 RMK AO2 WSHFT 2138 TSB27 OCNL LTGIC SE-SW TS SE-SW MOV E FIBI (AWS),,,,,,,,,,,,,,,,,,,,,,,,,,,,
72208013880,2011-06-29T16:56:00,FM-15,7,,SE,0.25,mi,"TEMP, PRECIP, SNOW",,,"MMTS, SRG, SNOWBOARD",,,WFO CHS,,,,,,,,,,,,,,,,,,,,,,,,,,,29.94,70,83,0.00,TS:7 |TS |TS,,,65,29.93,FEW:02 21 SCT:04 50 SCT:04 75,29.89,9.00,74,170,22,17,,,,,,,,,,,,,,,,,,,,,,,,,,,,,,,,,,,,,MET16906/29/11 16:56:02 METAR KCHS 292156Z 17015G19KT 9SM TS FEW021 SCT050CB SCT075 28/21 A2994 RMK AO2 WSHFT 2138 TSB27 SLP137 OCNL LTGIC SE-SW TS SE-SW MOV E T02830211 (AWS),,,,,,,,,,,,,,,,,,,,,,,,,,,,
72208013880,2011-06-29T17:02:00,FM-16,7,,SE,0.25,mi,"TEMP, PRECIP, SNOW",,,"MMTS, SRG, SNOWBOARD",,,WFO CHS,,,,,,,,,,,,,,,,,,,,,,,,,,,29.93,70,81,,TS:7 |TS |TS,,,70,,FEW:02 21 SCT:04 50 SCT:04 75,29.88,10.00,74,160,,16,,,,,,,,,,,,,,,,,,,,,,,,,,,,,,,,,,,,,MET14406/29/11 17:02:02 SPECI KCHS 292202Z 16014KT 10SM TS FEW021 SCT050CB SCT075 27/21 A2993 RMK AO2 WSHFT 2143 OCNL LTGIC SE-SW TS SE-SW MOV E (AWS),,,,,,,,,,,,,,,,,,,,,,,,,,,,
72208013880,2011-06-30T16:56:00,FM-15,7,,SE,0.25,mi,"TEMP, PRECIP, SNOW",,,"MMTS, SRG, SNOWBOARD",,,WFO CHS,,,,,,,,,,,,,,,,,,,,,,,,,,,29.94,73,86,0.00,FU:3 |FU |FU,,,65,29.93,SCT:04 95,29.89,6.00,77,160,,9,,,,,,,,,,,,,,,,,,,,,,,,,,,,,,,,,,,,,MET10106/30/11 16:56:02 METAR KCHS 302156Z 16008KT 6SM FU SCT095 30/23 A2994 RMK AO2 SLP136 T03000228 (AWS),,,,,,,,,,,,,,,,,,,,,,,,,,,,
72208013880,2011-07-01T12:56:00,FM-15,7,,SE,0.25,mi,"TEMP, PRECIP, SNOW",,,"MMTS, SRG, SNOWBOARD",,,WFO CHS,,,,,,,,,,,,,,,,,,,,,,,,,,,30.00,74,88,0.00,FU:3 |FU |FU,+0.01,8,63,30.00,FEW:02 45 SCT:04 60 SCT:04 75,29.95,6.00,78,150,,14,,,,,,,,,,,,,,,,,,,,,,,,,,,,,,,,,,,,,MET15007/01/11 12:56:02 METAR KCHS 011756Z 15012KT 6SM FU FEW045 SCT060 SCT075 31/23 A3000 RMK AO2 SLP159 TCU DSNT SW-NW-NE T03110233 10328 20250 58004 (DD),,,,,,,,,,,,,,,,,,,,,,,,,,,,
72208013880,2011-07-01T13:00:00,FM-12,4,,SE,0.25,mi,"TEMP, PRECIP, SNOW",,,"MMTS, SRG, SNOWBOARD",,,WFO CHS,,,,,,,,,,,,,,,,,,,,,,,,,,,,74,88,,||FU,+0.01,8,63,30.00,,29.95,5.59,78,150,,14,,,,,,,,,,,,,,,,,,,,,,,,,,,,,,,,,,,,,SYN098AAXX  01184 72208 31659 41512 10311 20233 30143 40159 58004 704// 91756 333 10328 20233 555 90118;,,,,,,,,,,,,,,,,,,,,,,,,,,,,
72208013880,2011-07-02T13:56:00,FM-15,7,,SE,0.25,mi,"TEMP, PRECIP, SNOW",,,"MMTS, SRG, SNOWBOARD",,,WFO CHS,,,,,,,,,,,,,,,,,,,,,,,,,,,30.07,66,85,0.00,,,,53,30.07,FEW:02 35 SCT:04 100 BKN:07 250,30.02,10.00,72,170,,13,,,,,,,,,,,,,,,,,,,,,,,,,,,,,,,,,,,,,MET12607/02/11 13:56:02 METAR KCHS 021856Z 17011KT 10SM FEW035CB SCT100 BKN250 29/19 A3007 RMK AO2 SLP183 CB N STNRY T02940189 (JRS),,,,,,,,,,,,,,,,,,,,,,,,,,,,
72208013880,2011-07-02T14:56:00,FM-15,7,,SE,0.25,mi,"TEMP, PRECIP, SNOW",,,"MMTS, SRG, SNOWBOARD",,,WFO CHS,,,,,,,,,,,,,,,,,,,,,,,,,,,30.05,71,84,0.00,,,,65,30.04,FEW:02 30 BKN:07 100 BKN:07 250,30.00,10.00,75,160,,15,,,,,,,,,,,,,,,,,,,,,,,,,,,,,,,,,,,,,MET12607/02/11 14:56:02 METAR KCHS 021956Z 16013KT 10SM FEW030 BKN100 BKN250 29/22 A3005 RMK AO2 SLP174 CB DSNT NW-NE T02890217 (WD),,,,,,,,,,,,,,,,,,,,,,,,,,,,
72208013880,2011-07-05T13:56:00,FM-15,7,,SE,0.25,mi,"TEMP, PRECIP, SNOW",,,"MMTS, SRG, SNOWBOARD",,,WFO CHS,,,,,,,,,,,,,,,,,,,,,,,,,,,29.97,75,88,T,-RA:02 |RA |RA,,,66,29.96,SCT:04 40 BKN:07 55 BKN:07 70,29.92,10.00,79,160,,15,,,,,,,,,,,,,,,,,,,,,,,,,,,,,,,,,,,,,MET14407/05/11 13:56:02 METAR KCHS 051856Z 16013KT 10SM -RA SCT040TCU BKN055 BKN070 31/24 A2997 RMK AO2 RAB55 SLP147 TCU SW-W-OHD P0000 T03110239 (DD),,,,,,,,,,,,,,,,,,,,,,,,,,,,
72208013880,2011-07-05T14:56:00,FM-15,7,,SE,0.25,mi,"TEMP, PRECIP, SNOW",,,"MMTS, SRG, SNOWBOARD",,,WFO CHS,,,,,,,,,,,,,,,,,,,,,,,,,,,29.95,77,88,0.17,,,,70,29.95,FEW:02 20 SCT:04 60 SCT:04 100,29.90,10.00,80,170,,17,,,,,,,,,,,,,,,,,,,,,,,,,,,,,,,,,,,,,MET13707/05/11 14:56:02 METAR KCHS 051956Z 17015KT 10SM FEW020 SCT060 SCT100 31/25 A2995 RMK AO2 RAE42 SLP141 TCU DSNT W-N P0017 T03110250 (DD),,,,,,,,,,,,,,,,,,,,,,,,,,,,
72208013880,2011-07-05T15:56:00,SY-MT,7,,SE,0.25,mi,"TEMP, PRECIP, SNOW",,,"MMTS, SRG, SNOWBOARD",,,WFO CHS,,,,,,,,,,,,,,,,,,,,,,,,,,,29.94,75,89,0.00,,+0.04,6,63,29.94,FEW:02 20 SCT:04 60 SCT:04 100,29.89,10.00,79,160,,15,,,,,,,,,,,,,,,,,,,,,,,,,,,,,,,,,,,,,SYN082AAXX  05214 72208 12566 41613 10317 20239 30123 40139 56013 60047 92056 555 90521;MET14207/05/11 15:56:02 METAR KCHS 052056Z 16013KT 10SM FEW020 SCT060 SCT100 32/24 A2994 RMK AO2 SLP139 CB DSNT NW AND N 60017 T03170239 56013 (AWS),,,,,,,,,,,,,,,,,,,,,,,,,,,,
72208013880,2011-07-06T12:56:00,FM-15,7,,SE,0.25,mi,"TEMP, PRECIP, SNOW",,,"MMTS, SRG, SNOWBOARD",,,WFO CHS,,,,,,,,,,,,,,,,,,,,,,,,,,,29.99,75,90,0.00,,+0.03,8,62,29.99,FEW:02 35 SCT:04 70 SCT:04 120,29.94,7.00,79,170,,10,,,,,,,,,,,,,,,,,,,,,,,,,,,,,,,,,,,,,MET15007/06/11 12:56:02 METAR KCHS 061756Z 17009KT 7SM FEW035 SCT070 SCT120 32/24 A2999 RMK AO2 SLP155 CB DSNT W-NW MOVG NE T03220239 10322 20267 58011 (DD),,,,,,,,,,,,,,,,,,,,,,,,,,,,
72208013880,2011-07-06T13:00:00,FM-12,4,,SE,0.25,mi,"TEMP, PRECIP, SNOW",,,"MMTS, SRG, SNOWBOARD",,,WFO CHS,,,,,,,,,,,,,,,,,,,,,,,,,,,,75,90,,,+0.03,8,62,29.99,,29.94,6.84,79,170,,10,,,,,,,,,,,,,,,,,,,,,,,,,,,,,,,,,,,,,SYN092AAXX  06184 72208 32661 41709 10322 20239 30140 40155 58011 91756 333 10322 20267 555 90618;,,,,,,,,,,,,,,,,,,,,,,,,,,,,
72208013880,2011-07-06T13:56:00,FM-15,7,,SE,0.25,mi,"TEMP, PRECIP, SNOW",,,"MMTS, SRG, SNOWBOARD",,,WFO CHS,,,,,,,,,,,,,,,,,,,,,,,,,,,29.97,74,87,0.00,,,,65,29.97,FEW:02 30 SCT:04 70 BKN:07 180,29.92,7.00,78,170,,13,,,,,,,,,,,,,,,,,,,,,,,,,,,,,,,,,,,,,MET13307/06/11 13:56:02 METAR KCHS 061856Z 17011KT 7SM FEW030 SCT070 BKN180 31/23 A2997 RMK AO2 SLP148 CB DSNT W-N LTL MOVMT T03060233 (DD),,,,,,,,,,,,,,,,,,,,,,,,,,,,
72208013880,2011-07-07T11:56:00,FM-15,7,,SE,0.25,mi,"TEMP, PRECIP, SNOW",,,"MMTS, SRG, SNOWBOARD",,,WFO CHS,,,,,,,,,,,,,,,,,,,,,,,,,,,29.98,73,90,0.00,,,,58,29.98,FEW:02 40 SCT:04 55 SCT:04 70,29.93,10.00,78,150,,10,,,,,,,,,,,,,,,,,,,,,,,,,,,,,,,,,,,,,MET12407/07/11 11:56:02 METAR KCHS 071656Z 15009KT 10SM FEW040 SCT055 SCT070 32/23 A2998 RMK AO2 SLP152 TCU DSNT NE T03220228 (DD),,,,,,,,,,,,,,,,,,,,,,,,,,,,
72208013880,2011-07-07T13:56:00,FM-15,7,,SE,0.25,mi,"TEMP, PRECIP, SNOW",,,"MMTS, SRG, SNOWBOARD",,,WFO CHS,,,,,,,,,,,,,,,,,,,,,,,,,,,29.94,74,91,0.00,,,,57,29.94,FEW:02 40 SCT:04 80 SCT:04 180,29.89,10.00,79,150,,8,,,,,,,,,,,,,,,,,,,,,,,,,,,,,,,,,,,,,MET14707/07/11 13:56:02 METAR KCHS 071856Z 15007KT 10SM FEW040 SCT080 SCT180 33/23 A2994 RMK AO2 SLP138 CB DSNT N-NE MOVG SLO N TCU DSNT W T03280233 (DD),,,,,,,,,,,,,,,,,,,,,,,,,,,,
72208013880,2011-07-07T14:56:00,FM-15,7,,SE,0.25,mi,"TEMP, PRECIP, SNOW",,,"MMTS, SRG, SNOWBOARD",,,WFO CHS,,,,,,,,,,,,,,,,,,,,,,,,,,,29.92,73,91,0.00,,,,56,29.92,FEW:02 40 SCT:04 80 SCT:04 180,29.87,10.00,78,150,,11,,,,,,,,,,,,,,,,,,,,,,,,,,,,,,,,,,,,,MET14507/07/11 14:56:02 METAR KCHS 071956Z 15010KT 10SM FEW040 SCT080 SCT180 33/23 A2992 RMK AO2 SLP132 CB DSNT NE MOVG SLO N TCU DSNT W T03280228 (DD),,,,,,,,,,,,,,,,,,,,,,,,,,,,
72208013880,2011-07-07T16:56:00,FM-15,7,,SE,0.25,mi,"TEMP, PRECIP, SNOW",,,"MMTS, SRG, SNOWBOARD",,,WFO CHS,,,,,,,,,,,,,,,,,,,,,,,,,,,29.91,74,89,0.00,,,,61,29.91,FEW:02 34 SCT:04 80 SCT:04 180,29.86,10.00,78,150,,10,,,,,,,,,,,,,,,,,,,,,,,,,,,,,,,,,,,,,MET13907/07/11 16:56:02 METAR KCHS 072156Z 15009KT 10SM FEW034TCU SCT080 SCT180 32/23 A2991 RMK AO2 SLP128 TCU NW AND N CB DSNT N T03170233 (AWS),,,,,,,,,,,,,,,,,,,,,,,,,,,,
72208013880,2011-07-07T17:56:00,FM-15,7,,SE,0.25,mi,"TEMP, PRECIP, SNOW",,,"MMTS, SRG, SNOWBOARD",,,WFO CHS,,,,,,,,,,,,,,,,,,,,,,,,,,,29.91,74,86,0.00,,,,67,29.91,FEW:02 34 SCT:04 80 BKN:07 250,29.86,10.00,78,170,,13,,,,,,,,,,,,,,,,,,,,,,,,,,,,,,,,,,,,,MET11307/07/11 17:56:02 METAR KCHS 072256Z 17011KT 10SM FEW034 SCT080 BKN250 30/23 A2991 RMK AO2 SLP127 T03000233 (AWS),,,,,,,,,,,,,,,,,,,,,,,,,,,,
72208013880,2011-07-09T12:24:00,FM-16,7,,SE,0.25,mi,"TEMP, PRECIP, SNOW",,,"MMTS, SRG, SNOWBOARD",,,WFO CHS,,,,,,,,,,,,,,,,,,,,,,,,,,,29.95,70,79,0.61,TS:7 +RA:02 SQ:2 |SQ s RA s TS s |SQ SHRA TS,,,74,,SCT:04 6 OVC:08 30,29.90,0.25,73,160,59,14,,,,,,,,,,,,,,,,,,,,,,,,,,,,,,,,,,,,,MET17807/09/11 12:24:02 SPECI KCHS 091724Z 16012G51KT 1/4SM +TSRA SQ SCT006 OVC030CB 26/21 A2995 RMK AO2 PK WND 23051/1720 TSB00E04B06RAB03 FRQ LTGCGCC ALQDS TS ALQDS MOV E P0061 (JRS),,,,,,,,,,,,,,,,,,,,,,,,,,,,
72208013880,2011-07-09T12:29:00,FM-16,7,,SE,0.25,mi,"TEMP, PRECIP, SNOW",,,"MMTS, SRG, SNOWBOARD",,,WFO CHS,,,,,,,,,,,,,,,,,,,,,,,,,,,29.93,70,79,0.86,TS:7 +RA:02 |RA s TS s |SHRA TS,,,74,,SCT:04 6 OVC:08 30,29.88,0.50,73,160,59,14,,,,,,,,,,,,,,,,,,,,,,,,,,,,,,,,,,,,,MET18207/09/11 12:29:02 SPECI KCHS 091729Z 16012G51KT 1/2SM +TSRA SCT006 OVC030CB 26/21 A2993 RMK AO2 PK WND 23051/1720 WSHFT 1715 TSB00E04B06RAB03 FRQ LTGCGCC E-S TS E-S MOV E P0086 (JRS),,,,,,,,,,,,,,,,,,,,,,,,,,,,
72208013880,2011-07-09T12:31:00,FM-16,7,,SE,0.25,mi,"TEMP, PRECIP, SNOW",,,"MMTS, SRG, SNOWBOARD",,,WFO CHS,,,,,,,,,,,,,,,,,,,,,,,,,,,29.92,72,77,0.89,TS:7 -RA:02 |RA TS |SHRA TS,,,83,,FEW:02 6 OVC:08 30,29.87,2.00,74,160,41,11,,,,,,,,,,,,,,,,,,,,,,,,,,,,,,,,,,,,,MET18007/09/11 12:31:02 SPECI KCHS 091731Z 16010G36KT 2SM -TSRA FEW006 OVC030CB 25/22 A2992 RMK AO2 PK WND 23051/1720 WSHFT 1715 TSB00E04B06RAB03 FRQ LTGCGCC E-S TS E-S MOV E P0089 (JRS),,,,,,,,,,,,,,,,,,,,,,,,,,,,
72208013880,2011-07-09T12:56:00,SY-MT,7,,SE,0.25,mi,"TEMP, PRECIP, SNOW",,,"MMTS, SRG, SNOWBOARD",,,WFO CHS,,,,,,,,,,,,,,,,,,,,,,,,,,,29.91,75,82,0.89,TS:7 |TS |TS TS,+0.01,8,79,29.91,FEW:02 30 BKN:07 300,29.86,10.00,77,150,,7,,,,,,,,,,,,,,,,,,,,,,,,,,,,,,,,,,,,,SYN104AAXX  09184 72208 11566 61506 10278 20244 30113 40129 58005 60231 795// 91756 333 10333 20250 555 90918;MET22607/09/11 12:56:02 METAR KCHS 091756Z 15006KT 10SM TS FEW030CB BKN300 28/24 A2991 RMK AO2 PK WND 23051/1720 WSHFT 1715 TSB00E04B06RAB03E37 SLP129 OCNL LTGIC E-SE TS E-SE MOV E CB DSNT W P0089 60089 T02780244 10333 20250 58005 $,,,,,,,,,,,,,,,,,,,,,,,,,,,,
72208013880,2011-07-09T13:56:00,FM-15,7,,SE,0.25,mi,"TEMP, PRECIP, SNOW",,,"MMTS, SRG, SNOWBOARD",,,WFO CHS,,,,,,,,,,,,,,,,,,,,,,,,,,,29.88,82,89,0.00,,,,80,29.88,FEW:02 35,29.83,10.00,84,160,,7,,,,,,,,,,,,,,,,,,,,,,,,,,,,,,,,,,,,,MET11607/09/11 13:56:02 METAR KCHS 091856Z 16006KT 10SM FEW035 32/28 A2988 RMK AO2 TSE06 SLP119 TS MOV E T03170278 $ (JRS),,,,,,,,,,,,,,,,,,,,,,,,,,,,
72208013880,2011-07-10T13:56:00,FM-15,7,,SE,0.25,mi,"TEMP, PRECIP, SNOW",,,"MMTS, SRG, SNOWBOARD",,,WFO CHS,,,,,,,,,,,,,,,,,,,,,,,,,,,30.00,78,88,0.00,,,,73,30.00,SCT:04 20 BKN:07 30,29.95,10.00,81,150,,10,,,,,,,,,,,,,,,,,,,,,,,,,,,,,,,,,,,,,MET12607/10/11 13:56:02 METAR KCHS 101856Z 15009KT 10SM SCT020 BKN030CB 31/26 A3000 RMK AO2 SLP159 CB W STNRY VCSH T03110256 $ (JRS),,,,,,,,,,,,,,,,,,,,,,,,,,,,
72208013880,2011-07-10T14:56:00,FM-15,7,,SE,0.25,mi,"TEMP, PRECIP, SNOW",,,"MMTS, SRG, SNOWBOARD",,,WFO CHS,,,,,,,,,,,,,,,,,,,,,,,,,,,29.99,77,86,0.00,,,,75,29.98,FEW:02 20 SCT:04 30 BKN:07 60,29.94,7.00,80,150,,8,,,,,,,,,,,,,,,,,,,,,,,,,,,,,,,,,,,,,MET14107/10/11 14:56:02 METAR KCHS 101956Z 15007KT 7SM FEW020 SCT030CB BKN060 30/25 A2999 RMK AO2 SLP154 CB NW-N STNRY CB DSNT SW T03000250 $ (JRS),,,,,,,,,,,,,,,,,,,,,,,,,,,,
72208013880,2011-07-10T15:56:00,FM-15,7,,SE,0.25,mi,"TEMP, PRECIP, SNOW",,,"MMTS, SRG, SNOWBOARD",,,WFO CHS,,,,,,,,,,,,,,,,,,,,,,,,,,,29.98,76,86,0.00,,+0.03,6,72,29.98,FEW:02 35 BKN:07 55 BKN:07 130,29.93,8.00,79,160,,10,,,,,,,,,,,,,,,,,,,,,,,,,,,,,,,,,,,,,MET13007/10/11 15:56:02 METAR KCHS 102056Z 16009KT 8SM FEW035 BKN055 BKN130 30/24 A2998 RMK AO2 SLP152 CB DSNT W T03000244 56010 $ (WRB),,,,,,,,,,,,,,,,,,,,,,,,,,,,
72208013880,2011-07-10T16:00:00,FM-12,4,,SE,0.25,mi,"TEMP, PRECIP, SNOW",,,"MMTS, SRG, SNOWBOARD",,,WFO CHS,,,,,,,,,,,,,,,,,,,,,,,,,,,,76,86,,,+0.03,6,72,29.98,,29.93,7.46,79,160,,10,,,,,,,,,,,,,,,,,,,,,,,,,,,,,,,,,,,,,SYN076AAXX  10214 72208 32662 61609 10300 20244 30136 40152 56010 92056 555 91021;,,,,,,,,,,,,,,,,,,,,,,,,,,,,
72208013880,2011-07-10T17:56:00,FM-15,7,,SE,0.25,mi,"TEMP, PRECIP, SNOW",,,"MMTS, SRG, SNOWBOARD",,,WFO CHS,,,,,,,,,,,,,,,,,,,,,,,,,,,30.00,77,85,0.00,HZ:7 ||HZ,,,77,30.00,FEW:02 19 BKN:07 100,29.95,5.00,79,170,,9,,,,,,,,,,,,,,,,,,,,,,,,,,,,,,,,,,,,,MET11007/10/11 17:56:02 METAR KCHS 102256Z 17008KT 5SM HZ FEW019 BKN100 29/25 A3000 RMK AO2 SLP158 T02940250 $ (WRB),,,,,,,,,,,,,,,,,,,,,,,,,,,,
72208013880,2011-07-11T12:56:00,SY-MT,7,,SE,0.25,mi,"TEMP, PRECIP, SNOW",,,"MMTS, SRG, SNOWBOARD",,,WFO CHS,,,,,,,,,,,,,,,,,,,,,,,,,,,30.03,77,88,0.00,,+0.03,6,70,30.03,SCT:04 35 SCT:04 60 BKN:07 85,29.98,10.00,80,170,,13,,,,,,,,,,,,,,,,,,,,,,,,,,,,,,,,,,,,,SYN092AAXX  11184 72208 32666 61711 10311 20250 30153 40169 56011 91756 333 10333 20272 555 91118;MET15207/11/11 12:56:02 METAR KCHS 111756Z 17011KT 10SM SCT035TCU SCT060 BKN085 31/25 A3003 RMK AO2 SLP169 TCU S-SW SHRA S-SW T03110250 10333 20272 56011 (DD),,,,,,,,,,,,,,,,,,,,,,,,,,,,
72208013880,2011-07-11T15:56:00,SY-MT,7,,SE,0.25,mi,"TEMP, PRECIP, SNOW",,,"MMTS, SRG, SNOWBOARD",,,WFO CHS,,,,,,,,,,,,,,,,,,,,,,,,,,,29.99,76,88,0.00,HZ:7 ||HZ,+0.04,7,68,29.98,FEW:02 27 SCT:04 45 SCT:04 90,29.94,6.00,79,150,,13,,,,,,,,,,,,,,,,,,,,,,,,,,,,,,,,,,,,,SYN082AAXX  11214 72208 31559 41511 10311 20244 30140 40154 57015 705// 92056 555 91121;MET12107/11/11 15:56:02 METAR KCHS 112056Z 15011KT 6SM HZ FEW027 SCT045 SCT090 31/24 A2999 RMK AO2 SLP154 T03110244 57015 (AWS),,,,,,,,,,,,,,,,,,,,,,,,,,,,
72208013880,2011-07-13T17:06:00,FM-16,7,,SE,0.25,mi,"TEMP, PRECIP, SNOW",,,"MMTS, SRG, SNOWBOARD",,,WFO CHS,,,,,,,,,,,,,,,,,,,,,,,,,,,29.80,70,88,0.22,TS:7 -RA:02 |RA TS |SHRA TS,,,55,,SCT:04 16 BKN:07 40 BKN:07 180,29.75,3.00,76,150,21,14,,,,,,,,,,,,,,,,,,,,,,,,,,,,,,,,,,,,,MET11207/13/11 17:06:02 SPECI KCHS 132206Z 15012G18KT 3SM -TSRA SCT016 BKN040CB BKN180 31/21 A2980 RMK AO2 P0022 (AWS),,,,,,,,,,,,,,,,,,,,,,,,,,,,
72208013880,2011-07-14T14:24:00,FM-16,7,,SE,0.25,mi,"TEMP, PRECIP, SNOW",,,"MMTS, SRG, SNOWBOARD",,,WFO CHS,,,,,,,,,,,,,,,,,,,,,,,,,,,29.90,73,77,1.07,TS:7 -RA:02 |RA TS |SHRA TS,,,89,,SCT:04 15 BKN:07 40 BKN:07 65,29.85,7.00,74,160,16,10,,,,,,,,,,,,,,,,,,,,,,,,,,,,,,,,,,,,,MET15107/14/11 14:24:02 SPECI KCHS 141924Z 16009G14KT 7SM -TSRA SCT015CB BKN040 BKN065 25/23 A2990 RMK AO2 VIS S-W 1 FRQ LTGICCG S-W TS S-W MOVG S P0107 (DD),,,,,,,,,,,,,,,,,,,,,,,,,,,,
72208013880,2011-07-18T16:56:00,FM-15,7,,SE,0.25,mi,"TEMP, PRECIP, SNOW",,,"MMTS, SRG, SNOWBOARD",,,WFO CHS,,,,,,,,,,,,,,,,,,,,,,,,,,,30.02,60,86,0.00,,,,42,30.02,FEW:02 65,29.97,10.00,69,150,,7,,,,,,,,,,,,,,,,,,,,,,,,,,,,,,,,,,,,,MET09907/18/11 16:56:02 METAR KCHS 182156Z 15006KT 10SM FEW065 30/16 A3002 RMK AO2 SLP166 T03000156 (JRS),,,,,,,,,,,,,,,,,,,,,,,,,,,,
72208013880,2011-07-18T17:56:00,FM-15,7,,SE,0.25,mi,"TEMP, PRECIP, SNOW",,,"MMTS, SRG, SNOWBOARD",,,WFO CHS,,,,,,,,,,,,,,,,,,,,,,,,,,,30.01,65,84,0.00,,,,53,30.01,,29.96,10.00,72,170,,8,,,,,,,,,,,,,,,,,,,,,,,,,,,,,,,,,,,,,MET09607/18/11 17:56:02 METAR KCHS 182256Z 17007KT 10SM CLR 29/18 A3001 RMK AO2 SLP163 T02890183 (JRS),,,,,,,,,,,,,,,,,,,,,,,,,,,,
72208013880,2011-07-30T14:56:00,FM-15,7,,SE,0.25,mi,"TEMP, PRECIP, SNOW",,,"MMTS, SRG, SNOWBOARD",,,WFO CHS,,,,,,,,,,,,,,,,,,,,,,,,,,,29.94,74,96,0.00,,,,49,29.94,FEW:02 40 SCT:04 250,29.89,10.00,80,150,,7,,,,,,,,,,,,,,,,,,,,,,,,,,,,,,,,,,,,,MET13107/30/11 14:56:02 METAR KCHS 301956Z 15006KT 10SM FEW040 SCT250 36/23 A2994 RMK AO2 TSE06 SLP138 TS MOVD S CB DSNT S T03560233 (WD),,,,,,,,,,,,,,,,,,,,,,,,,,,,
72208013880,2011-08-05T15:56:00,FM-15,7,,SE,0.25,mi,"TEMP, PRECIP, SNOW",,,"MMTS, SRG, SNOWBOARD",,,WFO CHS,,,,,,,,,,,,,,,,,,,,,,,,,,,29.92,77,93,0.00,,+0.02,5,60,29.92,FEW:02 35 SCT:04 70 BKN:07 180,29.87,10.00,81,160,,10,,,,,,,,,,,,,,,,,,,,,,,,,,,,,,,,,,,,,MET13508/05/11 15:56:02 METAR KCHS 052056Z 16009KT 10SM FEW035 SCT070 BKN180 34/25 A2992 RMK AO2 SLP131 CB DSNT NW-N-NE T03390250 55007 (AWS),,,,,,,,,,,,,,,,,,,,,,,,,,,,
72208013880,2011-08-05T16:00:00,FM-12,4,,SE,0.25,mi,"TEMP, PRECIP, SNOW",,,"MMTS, SRG, SNOWBOARD",,,WFO CHS,,,,,,,,,,,,,,,,,,,,,,,,,,,,77,93,,,+0.02,5,60,29.92,,29.87,9.94,81,160,,10,,,,,,,,,,,,,,,,,,,,,,,,,,,,,,,,,,,,,SYN076AAXX  05214 72208 32666 61609 10339 20250 30116 40131 55007 92056 555 90521;,,,,,,,,,,,,,,,,,,,,,,,,,,,,
72208013880,2011-08-05T17:56:00,FM-15,7,,SE,0.25,mi,"TEMP, PRECIP, SNOW",,,"MMTS, SRG, SNOWBOARD",,,WFO CHS,,,,,,,,,,,,,,,,,,,,,,,,,,,29.94,78,87,0.00,,,,75,29.94,FEW:02 35 SCT:04 80 BKN:07 180,29.89,10.00,80,170,,8,,,,,,,,,,,,,,,,,,,,,,,,,,,,,,,,,,,,,MET12408/05/11 17:56:02 METAR KCHS 052256Z 17007KT 10SM FEW035 SCT080 BKN180 31/26 A2994 RMK AO2 SLP138 CB DSNT NW T03060256 (AWS),,,,,,,,,,,,,,,,,,,,,,,,,,,,
72208013880,2011-08-11T11:56:00,FM-15,7,,SE,0.25,mi,"TEMP, PRECIP, SNOW",,,"MMTS, SRG, SNOWBOARD",,,WFO CHS,,,,,,,,,,,,,,,,,,,,,,,,,,,29.85,71,94,0.00,,,,48,29.85,FEW:02 50 SCT:04 150,29.80,10.00,78,160,,7,,,,,,,,,,,,,,,,,,,,,,,,,,,,,,,,,,,,,MET10508/11/11 11:56:02 METAR KCHS 111656Z 16006KT 10SM FEW050 SCT150 34/22 A2985 RMK AO2 SLP108 T03440217 (DD),,,,,,,,,,,,,,,,,,,,,,,,,,,,
72208013880,2011-08-11T12:56:00,FM-15,7,,SE,0.25,mi,"TEMP, PRECIP, SNOW",,,"MMTS, SRG, SNOWBOARD",,,WFO CHS,,,,,,,,,,,,,,,,,,,,,,,,,,,29.85,73,94,0.00,,+0.01,8,51,29.85,FEW:02 50 SCT:04 150,29.80,10.00,79,150,,10,,,,,,,,,,,,,,,,,,,,,,,,,,,,,,,,,,,,,MET12308/11/11 12:56:02 METAR KCHS 111756Z 15009KT 10SM FEW050 SCT150 34/23 A2985 RMK AO2 SLP107 T03440228 10350 20267 58004 (DD),,,,,,,,,,,,,,,,,,,,,,,,,,,,
72208013880,2011-08-11T13:00:00,FM-12,4,,SE,0.25,mi,"TEMP, PRECIP, SNOW",,,"MMTS, SRG, SNOWBOARD",,,WFO CHS,,,,,,,,,,,,,,,,,,,,,,,,,,,,73,94,,,+0.01,8,51,29.85,,29.80,9.94,79,150,,10,,,,,,,,,,,,,,,,,,,,,,,,,,,,,,,,,,,,,SYN092AAXX  11184 72208 32766 41509 10344 20228 30092 40107 58004 91756 333 10350 20267 555 91118;,,,,,,,,,,,,,,,,,,,,,,,,,,,,
72208013880,2011-08-11T15:56:00,FM-15,7,,SE,0.25,mi,"TEMP, PRECIP, SNOW",,,"MMTS, SRG, SNOWBOARD",,,WFO CHS,,,,,,,,,,,,,,,,,,,,,,,,,,,29.81,70,93,0.00,,+0.04,6,47,29.81,FEW:02 50 SCT:04 250,29.76,10.00,77,160,,9,,,,,,,,,,,,,,,,,,,,,,,,,,,,,,,,,,,,,MET12308/11/11 15:56:02 METAR KCHS 112056Z 16008KT 10SM FEW050 SCT250 34/21 A2981 RMK AO2 SLP095 CB DSNT NW T03390211 56012 (BBE),,,,,,,,,,,,,,,,,,,,,,,,,,,,
72208013880,2011-08-11T16:00:00,FM-12,4,,SE,0.25,mi,"TEMP, PRECIP, SNOW",,,"MMTS, SRG, SNOWBOARD",,,WFO CHS,,,,,,,,,,,,,,,,,,,,,,,,,,,,70,93,,,+0.04,6,47,29.81,,29.76,9.94,77,160,,9,,,,,,,,,,,,,,,,,,,,,,,,,,,,,,,,,,,,,SYN076AAXX  11214 72208 32766 41608 10339 20211 30079 40095 56012 92056 555 91121;,,,,,,,,,,,,,,,,,,,,,,,,,,,,
72208013880,2011-08-11T16:56:00,FM-15,7,,SE,0.25,mi,"TEMP, PRECIP, SNOW",,,"MMTS, SRG, SNOWBOARD",,,WFO CHS,,,,,,,,,,,,,,,,,,,,,,,,,,,29.82,71,92,0.00,,,,51,29.82,SCT:04 50 SCT:04 250,29.77,10.00,77,170,,11,,,,,,,,,,,,,,,,,,,,,,,,,,,,,,,,,,,,,MET12508/11/11 16:56:02 METAR KCHS 112156Z 17010KT 10SM SCT050CB SCT250 33/22 A2982 RMK AO2 SLP097 CB NW-NE MOVG SE T03330217 (BBE),,,,,,,,,,,,,,,,,,,,,,,,,,,,
72208013880,2011-08-11T17:56:00,FM-15,7,,SE,0.25,mi,"TEMP, PRECIP, SNOW",,,"MMTS, SRG, SNOWBOARD",,,WFO CHS,,,,,,,,,,,,,,,,,,,,,,,,,,,29.83,73,89,0.00,,,,59,29.83,SCT:04 100 BKN:07 150,29.78,10.00,78,150,,7,,,,,,,,,,,,,,,,,,,,,,,,,,,,,,,,,,,,,MET10608/11/11 17:56:02 METAR KCHS 112256Z 15006KT 10SM SCT100 BKN150 32/23 A2983 RMK AO2 SLP100 T03170228 (BBE),,,,,,,,,,,,,,,,,,,,,,,,,,,,
72208013880,2011-08-12T10:56:00,FM-15,6,,SE,0.25,mi,"TEMP, PRECIP, SNOW",,,"MMTS, SRG, SNOWBOARD",,,WFO CHS,,,,,,,,,,,,,,,,,,,,,,,,,,,29.94,78,90,0.00,,,,68,29.93,SCT:04 25 SCT:04 50 BKN:07 75,29.89,10.00,81,150,,15,,,,,,,,,,,,,,,,,,,,,,,,,,,,,,,,,,,,,MET13108/12/11 10:56:02 METAR KCHS 121556Z 15013KT 10SM SCT025 SCT050 BKN075 32/26 A2994 RMK AO2 SLP137 CB DSNT W-N MOVG E T03220256 (DD),,,,,,,,,,,,,,,,,,,,,,,,,,,,
72208013880,2011-08-13T12:56:00,SY-MT,7,,SE,0.25,mi,"TEMP, PRECIP, SNOW",,,"MMTS, SRG, SNOWBOARD",,,WFO CHS,,,,,,,,,,,,,,,,,,,,,,,,,,,29.98,76,89,,,+0.03,8,66,29.98,SCT:04 28 SCT:04 50,29.93,10.00,80,150,21,14,,,,,,,,,,,,,,,,,,,,,,,,,,,,,,,,,,,,,SYN086AAXX  13184 72208 32566 41512 10316 20246 30136 40151 58010 91756 333 91018 555 91318;MET12108/13/11 12:56:02 METAR KCHS 131756Z 15012G18KT 10SM SCT028 SCT050 32/25 A2998 RMK AO2 SLP151 T03160246 58010 PNO $ (JRS),,,,,,,,,,,,,,,,,,,,,,,,,,,,
72208013880,2011-08-13T13:56:00,FM-15,7,,SE,0.25,mi,"TEMP, PRECIP, SNOW",,,"MMTS, SRG, SNOWBOARD",,,WFO CHS,,,,,,,,,,,,,,,,,,,,,,,,,,,29.96,77,85,0.08,,,,76,29.96,FEW:02 15 SCT:04 26 BKN:07 250,29.91,10.00,79,150,,11,,,,,,,,,,,,,,,,,,,,,,,,,,,,,,,,,,,,,MET15708/13/11 13:56:02 METAR KCHS 131856Z 15010KT 10SM FEW015 SCT026CB BKN250 30/25 A2996 RMK AO2 RAB07E17 SLP144 CB N-NE AND SW MOV E P0008 T02950248 PNO $ (JRS),,,,,,,,,,,,,,,,,,,,,,,,,,,,
72208013880,2011-08-13T14:17:00,FM-16,7,,SE,0.25,mi,"TEMP, PRECIP, SNOW",,,"MMTS, SRG, SNOWBOARD",,,WFO CHS,,,,,,,,,,,,,,,,,,,,,,,,,,,29.96,77,84,,TS:7 |TS |TS,,,79,,FEW:02 15 BKN:07 26 BKN:07 250,29.91,7.00,79,150,17,11,,,,,,,,,,,,,,,,,,,,,,,,,,,,,,,,,,,,,MET15008/13/11 14:17:02 SPECI KCHS 131917Z 15010G15KT 7SM TS FEW015 BKN026CB BKN250 29/25 A2996 RMK AO2 TSB12 OCNL LTGCG N-NE TS N-NE STNRY VCSH PNO $ (JRS),,,,,,,,,,,,,,,,,,,,,,,,,,,,
72208013880,2011-08-18T12:56:00,SY-MT,7,,SE,0.25,mi,"TEMP, PRECIP, SNOW",,,"MMTS, SRG, SNOWBOARD",,,WFO CHS,,,,,,,,,,,,,,,,,,,,,,,,,,,30.00,74,84,0.00,,+0.06,6,72,30.00,BKN:07 40 BKN:07 75,29.95,10.00,77,160,,14,,,,,,,,,,,,,,,,,,,,,,,,,,,,,,,,,,,,,SYN092AAXX  18184 72208 32666 61612 10289 20233 30143 40158 56019 91756 333 10322 20244 555 91818;MET14008/18/11 12:56:02 METAR KCHS 181756Z 16012KT 10SM BKN040TCU BKN075 29/23 A3000 RMK AO2 SLP158 TCU NE-SE-OHD T02890233 10322 20244 56019 (DD),,,,,,,,,,,,,,,,,,,,,,,,,,,,
72208013880,2011-08-19T16:56:00,FM-15,7,,SE,0.25,mi,"TEMP, PRECIP, SNOW",,,"MMTS, SRG, SNOWBOARD",,,WFO CHS,,,,,,,,,,,,,,,,,,,,,,,,,,,29.88,72,88,0.00,,,,59,29.88,FEW:02 50 SCT:04 250,29.83,10.00,77,160,,11,,,,,,,,,,,,,,,,,,,,,,,,,,,,,,,,,,,,,MET11908/19/11 16:56:02 METAR KCHS 192156Z 16010KT 10SM FEW050 SCT250 31/22 A2988 RMK AO2 SLP117 CB DSNT NW-N T03110222 (BBE),,,,,,,,,,,,,,,,,,,,,,,,,,,,
72208013880,2011-08-20T13:56:00,FM-15,7,,SE,0.25,mi,"TEMP, PRECIP, SNOW",,,"MMTS, SRG, SNOWBOARD",,,WFO CHS,,,,,,,,,,,,,,,,,,,,,,,,,,,29.99,71,90,0.00,,,,54,29.98,FEW:02 33 SCT:04 120 SCT:04 250,29.94,10.00,77,170,,9,,,,,,,,,,,,,,,,,,,,,,,,,,,,,,,,,,,,,MET12608/20/11 13:56:02 METAR KCHS 201856Z 17008KT 10SM FEW033 SCT120 SCT250 32/22 A2999 RMK AO2 SLP154 CB DSNT N-NE T03220217 (JRS),,,,,,,,,,,,,,,,,,,,,,,,,,,,
72208013880,2011-08-28T14:56:00,FM-15,7,,SE,0.25,mi,"TEMP, PRECIP, SNOW",,,"MMTS, SRG, SNOWBOARD",,,WFO CHS,,,,,,,,,,,,,,,,,,,,,,,,,,,29.66,68,91,0.00,,,,47,29.66,FEW:02 50,29.61,10.00,75,160,,7,,,,,,,,,,,,,,,,,,,,,,,,,,,,,,,,,,,,,MET10108/28/11 14:56:02 METAR KCHS 281956Z 16006KT 10SM FEW050 33/20 A2966 RMK AO2 SLP043 T03280200 $ (JRS),,,,,,,,,,,,,,,,,,,,,,,,,,,,
72208013880,2011-08-28T15:56:00,FM-15,7,,SE,0.25,mi,"TEMP, PRECIP, SNOW",,,"MMTS, SRG, SNOWBOARD",,,WFO CHS,,,,,,,,,,,,,,,,,,,,,,,,,,,29.66,69,89,0.00,,+0.01,6,52,29.66,FEW:02 50,29.61,10.00,75,150,,10,,,,,,,,,,,,,,,,,,,,,,,,,,,,,,,,,,,,,MET10608/28/11 15:56:02 METAR KCHS 282056Z 15009KT 10SM FEW050 32/21 A2966 RMK AO2 SLP043 T03170206 56005 $ (WD),,,,,,,,,,,,,,,,,,,,,,,,,,,,
72208013880,2011-08-28T16:00:00,FM-12,4,,SE,0.25,mi,"TEMP, PRECIP, SNOW",,,"MMTS, SRG, SNOWBOARD",,,WFO CHS,,,,,,,,,,,,,,,,,,,,,,,,,,,,69,89,,,+0.01,6,52,29.66,,29.61,9.94,75,150,,10,,,,,,,,,,,,,,,,,,,,,,,,,,,,,,,,,,,,,SYN076AAXX  28214 72208 32766 21509 10317 20206 30028 40043 56005 92056 555 92821;,,,,,,,,,,,,,,,,,,,,,,,,,,,,
72208013880,2011-09-02T14:56:00,FM-15,7,,SE,0.25,mi,"TEMP, PRECIP, SNOW",,,"MMTS, SRG, SNOWBOARD",,,WFO CHS,,,,,,,,,,,,,,,,,,,,,,,,,,,30.00,70,88,0.00,,,,55,29.99,FEW:02 45,29.95,10.00,76,150,,8,,,,,,,,,,,,,,,,,,,,,,,,,,,,,,,,,,,,,MET09809/02/11 14:56:02 METAR KCHS 021956Z 15007KT 10SM FEW045 31/21 A3000 RMK AO2 SLP157 T03110211 (DD),,,,,,,,,,,,,,,,,,,,,,,,,,,,
72208013880,2011-09-03T15:56:00,SY-MT,7,,SE,0.25,mi,"TEMP, PRECIP, SNOW",,,"MMTS, SRG, SNOWBOARD",,,WFO CHS,,,,,,,,,,,,,,,,,,,,,,,,,,,29.95,71,84,0.00,,+0.03,8,65,29.95,SCT:04 33,29.90,10.00,75,150,,11,,,,,,,,,,,,,,,,,,,,,,,,,,,,,,,,,,,,,SYN076AAXX  03214 72208 32566 41510 10289 20217 30126 40141 58010 92056 555 90321;MET11709/03/11 15:56:02 METAR KCHS 032056Z 15010KT 10SM SCT033 29/22 A2995 RMK AO2 SLP141 TCU DSNT NE T02890217 58010 (WRB),,,,,,,,,,,,,,,,,,,,,,,,,,,,
72208013880,2011-09-03T16:56:00,FM-15,7,,SE,0.25,mi,"TEMP, PRECIP, SNOW",,,"MMTS, SRG, SNOWBOARD",,,WFO CHS,,,,,,,,,,,,,,,,,,,,,,,,,,,29.95,71,84,0.00,,,,65,29.95,SCT:04 29,29.90,10.00,75,170,,8,,,,,,,,,,,,,,,,,,,,,,,,,,,,,,,,,,,,,MET12709/03/11 16:56:02 METAR KCHS 032156Z 17007KT 10SM SCT029TCU 29/22 A2995 RMK AO2 SLP141 TCU E TCU DSNT NW AND NE T02890217 (WRB),,,,,,,,,,,,,,,,,,,,,,,,,,,,
72208013880,2011-09-04T16:56:00,FM-15,7,,SE,0.25,mi,"TEMP, PRECIP, SNOW",,,"MMTS, SRG, SNOWBOARD",,,WFO CHS,,,,,,,,,,,,,,,,,,,,,,,,,,,29.89,70,81,0.00,,,,69,29.88,SCT:04 80 BKN:07 110 OVC:08 140,29.84,10.00,74,170,,9,,,,,,,,,,,,,,,,,,,,,,,,,,,,,,,,,,,,,MET11309/04/11 16:56:02 METAR KCHS 042156Z 17008KT 10SM SCT080 BKN110 OVC140 27/21 A2989 RMK AO2 SLP120 T02720211 (WRB),,,,,,,,,,,,,,,,,,,,,,,,,,,,
72208013880,2011-09-05T15:56:00,FM-15,7,,SE,0.25,mi,"TEMP, PRECIP, SNOW",,,"MMTS, SRG, SNOWBOARD",,,WFO CHS,,,,,,,,,,,,,,,,,,,,,,,,,,,29.76,75,87,0.00,,+0.07,6,67,29.75,SCT:04 25 BKN:07 40 BKN:07 180,29.71,10.00,78,170,,17,,,,,,,,,,,,,,,,,,,,,,,,,,,,,,,,,,,,,MET11809/05/11 15:56:02 METAR KCHS 052056Z 17015KT 10SM SCT025 BKN040 BKN180 31/24 A2976 RMK AO2 SLP075 T03060239 56023 (DD),,,,,,,,,,,,,,,,,,,,,,,,,,,,
72208013880,2011-09-05T16:00:00,FM-12,4,,SE,0.25,mi,"TEMP, PRECIP, SNOW",,,"MMTS, SRG, SNOWBOARD",,,WFO CHS,,,,,,,,,,,,,,,,,,,,,,,,,,,,75,87,,,+0.07,6,67,29.75,,29.71,9.94,78,170,,17,,,,,,,,,,,,,,,,,,,,,,,,,,,,,,,,,,,,,SYN076AAXX  05214 72208 32566 61715 10306 20239 30062 40075 56023 92056 555 90521;,,,,,,,,,,,,,,,,,,,,,,,,,,,,
72208013880,2011-09-06T10:56:00,FM-15,7,,SE,0.25,mi,"TEMP, PRECIP, SNOW",,,"MMTS, SRG, SNOWBOARD",,,WFO CHS,,,,,,,,,,,,,,,,,,,,,,,,,,,29.80,79,79,0.02,-RA:02 BR:1 |RA |RA,,,100,29.79,FEW:02 10 SCT:04 25 BKN:07 70,29.75,5.00,79,170,,9,,,,,,,,,,,,,,,,,,,,,,,,,,,,,,,,,,,,,MET15409/06/11 10:56:02 METAR KCHS 061556Z 17008KT 5SM -RA BR FEW010 SCT025 BKN070 26/26 A2980 RMK AO2 TSE48 SLP089 CB DSNT NE-SE-S MOVG NE P0002 T02610261 (DD),,,,,,,,,,,,,,,,,,,,,,,,,,,,
72208013880,2011-09-11T13:56:00,FM-15,7,,SE,0.25,mi,"TEMP, PRECIP, SNOW",,,"MMTS, SRG, SNOWBOARD",,,WFO CHS,,,,,,,,,,,,,,,,,,,,,,,,,,,30.04,67,85,0.00,,,,55,30.03,FEW:02 60 SCT:04 90,29.99,10.00,73,150,,8,,,,,,,,,,,,,,,,,,,,,,,,,,,,,,,,,,,,,MET10809/11/11 13:56:02 METAR KCHS 111856Z 15007KT 10SM FEW060 SCT090 29/19 A3004 RMK AO2 SLP171 T02940194 $ (JRS),,,,,,,,,,,,,,,,,,,,,,,,,,,,
72208013880,2011-09-11T15:56:00,SY-MT,7,,SE,0.25,mi,"TEMP, PRECIP, SNOW",,,"MMTS, SRG, SNOWBOARD",,,WFO CHS,,,,,,,,,,,,,,,,,,,,,,,,,,,30.01,66,86,0.00,,+0.04,6,51,30.01,FEW:02 60,29.96,10.00,73,150,23,9,,,,,,,,,,,,,,,,,,,,,,,,,,,,,,,,,,,,,SYN086AAXX  11214 72208 32766 21508 10300 20189 30146 40162 56014 92056 333 91020 555 91121;MET10909/11/11 15:56:02 METAR KCHS 112056Z 15008G20KT 10SM FEW060 30/19 A3001 RMK AO2 SLP162 T03000189 56014 $ (WD),,,,,,,,,,,,,,,,,,,,,,,,,,,,
72208013880,2011-09-11T16:56:00,FM-15,7,,SE,0.25,mi,"TEMP, PRECIP, SNOW",,,"MMTS, SRG, SNOWBOARD",,,WFO CHS,,,,,,,,,,,,,,,,,,,,,,,,,,,30.02,66,84,0.00,,,,55,30.02,FEW:02 70 SCT:04 140,29.97,10.00,72,150,,14,,,,,,,,,,,,,,,,,,,,,,,,,,,,,,,,,,,,,MET10709/11/11 16:56:02 METAR KCHS 112156Z 15012KT 10SM FEW070 SCT140 29/19 A3002 RMK AO2 SLP165 T02890189 $ (WD),,,,,,,,,,,,,,,,,,,,,,,,,,,,
72208013880,2011-09-11T17:56:00,FM-15,7,,SE,0.25,mi,"TEMP, PRECIP, SNOW",,,"MMTS, SRG, SNOWBOARD",,,WFO CHS,,,,,,,,,,,,,,,,,,,,,,,,,,,30.03,66,80,0.00,,,,62,30.03,FEW:02 120 SCT:04 200,29.98,10.00,71,160,,10,,,,,,,,,,,,,,,,,,,,,,,,,,,,,,,,,,,,,MET10709/11/11 17:56:02 METAR KCHS 112256Z 16009KT 10SM FEW120 SCT200 27/19 A3003 RMK AO2 SLP168 T02670189 $ (WD),,,,,,,,,,,,,,,,,,,,,,,,,,,,
72208013880,2011-09-14T14:56:00,FM-15,7,,SE,0.25,mi,"TEMP, PRECIP, SNOW",,,"MMTS, SRG, SNOWBOARD",,,WFO CHS,,,,,,,,,,,,,,,,,,,,,,,,,,,29.95,67,86,0.00,,,,53,29.95,FEW:02 50 SCT:04 65 SCT:04 120,29.90,10.00,73,160,,9,,,,,,,,,,,,,,,,,,,,,,,,,,,,,,,,,,,,,MET13109/14/11 14:56:02 METAR KCHS 141956Z 16008KT 10SM FEW050 SCT065 SCT120 30/19 A2995 RMK AO2 SLP141 TCU DSNT NE AND SW T03000194 (DD),,,,,,,,,,,,,,,,,,,,,,,,,,,,
72208013880,2011-09-14T15:56:00,FM-15,7,,SE,0.25,mi,"TEMP, PRECIP, SNOW",,,"MMTS, SRG, SNOWBOARD",,,WFO CHS,,,,,,,,,,,,,,,,,,,,,,,,,,,29.94,68,86,0.00,,+0.04,6,55,29.94,FEW:02 50 SCT:04 65 SCT:04 120,29.89,10.00,74,170,,10,,,,,,,,,,,,,,,,,,,,,,,,,,,,,,,,,,,,,MET12909/14/11 15:56:02 METAR KCHS 142056Z 17009KT 10SM FEW050 SCT065 SCT120 30/20 A2994 RMK AO2 SLP138 CB DSNT N T03000200 56013 (JMB),,,,,,,,,,,,,,,,,,,,,,,,,,,,
72208013880,2011-09-14T16:00:00,FM-12,4,,SE,0.25,mi,"TEMP, PRECIP, SNOW",,,"MMTS, SRG, SNOWBOARD",,,WFO CHS,,,,,,,,,,,,,,,,,,,,,,,,,,,,68,86,,,+0.04,6,55,29.94,,29.89,9.94,74,170,,10,,,,,,,,,,,,,,,,,,,,,,,,,,,,,,,,,,,,,SYN076AAXX  14214 72208 32766 41709 10300 20200 30123 40138 56013 92056 555 91421;,,,,,,,,,,,,,,,,,,,,,,,,,,,,
72208013880,2011-09-14T17:56:00,FM-15,7,,SE,0.25,mi,"TEMP, PRECIP, SNOW",,,"MMTS, SRG, SNOWBOARD",,,WFO CHS,,,,,,,,,,,,,,,,,,,,,,,,,,,29.94,68,81,0.00,,,,65,29.94,FEW:02 50 SCT:04 250,29.89,10.00,72,150,,8,,,,,,,,,,,,,,,,,,,,,,,,,,,,,,,,,,,,,MET10609/14/11 17:56:02 METAR KCHS 142256Z 15007KT 10SM FEW050 SCT250 27/20 A2994 RMK AO2 SLP139 T02720200 (JMB),,,,,,,,,,,,,,,,,,,,,,,,,,,,
72208013880,2011-09-15T12:56:00,FM-15,7,,SE,0.25,mi,"TEMP, PRECIP, SNOW",,,"MMTS, SRG, SNOWBOARD",,,WFO CHS,,,,,,,,,,,,,,,,,,,,,,,,,,,29.92,68,89,0.00,,+0.04,8,50,29.91,FEW:02 45 SCT:04 60,29.87,10.00,75,170,,7,,,,,,,,,,,,,,,,,,,,,,,,,,,,,,,,,,,,,MET12309/15/11 12:56:02 METAR KCHS 151756Z 17006KT 10SM FEW045 SCT060 32/20 A2992 RMK AO2 SLP130 T03170200 10317 20222 58013 (DD),,,,,,,,,,,,,,,,,,,,,,,,,,,,
72208013880,2011-09-15T13:00:00,FM-12,4,,SE,0.25,mi,"TEMP, PRECIP, SNOW",,,"MMTS, SRG, SNOWBOARD",,,WFO CHS,,,,,,,,,,,,,,,,,,,,,,,,,,,,68,89,,,+0.04,8,50,29.91,,29.87,9.94,75,170,,7,,,,,,,,,,,,,,,,,,,,,,,,,,,,,,,,,,,,,SYN092AAXX  15184 72208 32666 41706 10317 20200 30116 40130 58013 91756 333 10317 20222 555 91518;,,,,,,,,,,,,,,,,,,,,,,,,,,,,
72208013880,2011-09-15T15:56:00,FM-15,7,,SE,0.25,mi,"TEMP, PRECIP, SNOW",,,"MMTS, SRG, SNOWBOARD",,,WFO CHS,,,,,,,,,,,,,,,,,,,,,,,,,,,29.87,69,90,0.00,,+0.05,6,50,29.87,FEW:02 50 SCT:04 75 SCT:04 120,29.82,10.00,76,170,,9,,,,,,,,,,,,,,,,,,,,,,,,,,,,,,,,,,,,,MET13609/15/11 15:56:02 METAR KCHS 152056Z 17008KT 10SM FEW050 SCT075 SCT120 32/21 A2987 RMK AO2 SLP115 MDT CU SE AND NW T03220206 56016 (JMB),,,,,,,,,,,,,,,,,,,,,,,,,,,,
72208013880,2011-09-15T16:00:00,FM-12,4,,SE,0.25,mi,"TEMP, PRECIP, SNOW",,,"MMTS, SRG, SNOWBOARD",,,WFO CHS,,,,,,,,,,,,,,,,,,,,,,,,,,,,69,90,,,+0.05,6,50,29.87,,29.82,9.94,76,170,,9,,,,,,,,,,,,,,,,,,,,,,,,,,,,,,,,,,,,,SYN076AAXX  15214 72208 32766 41708 10322 20206 30099 40115 56016 92056 555 91521;,,,,,,,,,,,,,,,,,,,,,,,,,,,,
72208013880,2011-09-20T12:25:00,FM-16,7,,SE,0.25,mi,"TEMP, PRECIP, SNOW",,,"MMTS, SRG, SNOWBOARD",,,WFO CHS,,,,,,,,,,,,,,,,,,,,,,,,,,,30.07,72,81,,TS:7 |TS |TS,,,74,,SCT:04 25 SCT:04 50 BKN:07 75,30.02,10.00,75,150,,8,,,,,,,,,,,,,,,,,,,,,,,,,,,,,,,,,,,,,MET13909/20/11 12:25:02 SPECI KCHS 201725Z 15007KT 10SM TS SCT025CB SCT050 BKN075 27/22 A3007 RMK AO2 TSB24 OCNL LTGICCG W-NW TS W-NW MOVG N (DD),,,,,,,,,,,,,,,,,,,,,,,,,,,,
72208013880,2011-09-20T12:48:00,FM-16,7,,SE,0.25,mi,"TEMP, PRECIP, SNOW",,,"MMTS, SRG, SNOWBOARD",,,WFO CHS,,,,,,,,,,,,,,,,,,,,,,,,,,,30.06,72,81,T,,,,74,,SCT:04 25 SCT:04 50 BKN:07 75,30.01,10.00,75,150,,8,,,,,,,,,,,,,,,,,,,,,,,,,,,,,,,,,,,,,MET14809/20/11 12:48:02 SPECI KCHS 201748Z 15007KT 10SM SCT025 SCT050 BKN075 27/22 A3006 RMK AO2 TSB24E47RAB34E47 CB DSNT NW-N MOVG N TS MOVD N P0000 (DD),,,,,,,,,,,,,,,,,,,,,,,,,,,,
72208013880,2011-09-21T14:56:00,FM-15,7,,SE,0.25,mi,"TEMP, PRECIP, SNOW",,,"MMTS, SRG, SNOWBOARD",,,WFO CHS,,,,,,,,,,,,,,,,,,,,,,,,,,,30.05,71,82,0.00,,,,69,30.05,FEW:02 20 SCT:04 35 BKN:07 200,30.00,10.00,74,150,,8,,,,,,,,,,,,,,,,,,,,,,,,,,,,,,,,,,,,,MET11209/21/11 14:56:02 METAR KCHS 211956Z 15007KT 10SM FEW020 SCT035 BKN200 28/22 A3005 RMK AO2 SLP176 T02780217 (DD),,,,,,,,,,,,,,,,,,,,,,,,,,,,
72208013880,2011-09-21T15:56:00,FM-15,7,,SE,0.25,mi,"TEMP, PRECIP, SNOW",,,"MMTS, SRG, SNOWBOARD",,,WFO CHS,,,,,,,,,,,,,,,,,,,,,,,,,,,30.05,70,81,0.00,,+0.04,6,69,30.04,FEW:02 20 SCT:04 35 BKN:07 200,30.00,10.00,74,160,,9,,,,,,,,,,,,,,,,,,,,,,,,,,,,,,,,,,,,,MET11909/21/11 15:56:02 METAR KCHS 212056Z 16008KT 10SM FEW020 SCT035 BKN200 27/21 A3005 RMK AO2 SLP174 T02720211 56014 (JMB),,,,,,,,,,,,,,,,,,,,,,,,,,,,
72208013880,2011-09-21T16:00:00,FM-12,4,,SE,0.25,mi,"TEMP, PRECIP, SNOW",,,"MMTS, SRG, SNOWBOARD",,,WFO CHS,,,,,,,,,,,,,,,,,,,,,,,,,,,,70,81,,,+0.04,6,69,30.04,,30.00,9.94,74,160,,9,,,,,,,,,,,,,,,,,,,,,,,,,,,,,,,,,,,,,SYN076AAXX  21214 72208 32566 61608 10272 20211 30160 40174 56014 92056 555 92121;,,,,,,,,,,,,,,,,,,,,,,,,,,,,
72208013880,2011-09-21T16:56:00,FM-15,7,,SE,0.25,mi,"TEMP, PRECIP, SNOW",,,"MMTS, SRG, SNOWBOARD",,,WFO CHS,,,,,,,,,,,,,,,,,,,,,,,,,,,30.04,71,80,0.00,,,,74,30.04,SCT:04 20 SCT:04 35 BKN:07 200,29.99,10.00,74,170,,9,,,,,,,,,,,,,,,,,,,,,,,,,,,,,,,,,,,,,MET11509/21/11 16:56:02 METAR KCHS 212156Z 17008KT 10SM SCT020 SCT035 BKN200 27/22 A3004 RMK AO2 SLP172 T02670217 $ (JMB),,,,,,,,,,,,,,,,,,,,,,,,,,,,
72208013880,2011-09-24T11:39:00,FM-16,7,,SE,0.25,mi,"TEMP, PRECIP, SNOW",,,"MMTS, SRG, SNOWBOARD",,,WFO CHS,,,,,,,,,,,,,,,,,,,,,,,,,,,29.96,75,81,,,,,84,,FEW:02 22 SCT:04 33,29.91,10.00,77,150,,7,,,,,,,,,,,,,,,,,,,,,,,,,,,,,,,,,,,,,MET11509/24/11 11:39:02 SPECI KCHS 241639Z 15006KT 10SM FEW022 SCT033TCU 27/24 A2996 RMK AO2 TCU SE-S AND DSNT W-NW (JRS),,,,,,,,,,,,,,,,,,,,,,,,,,,,
72208013880,2011-09-24T11:56:00,FM-15,7,,SE,0.25,mi,"TEMP, PRECIP, SNOW",,,"MMTS, SRG, SNOWBOARD",,,WFO CHS,,,,,,,,,,,,,,,,,,,,,,,,,,,29.96,77,84,0.00,,,,80,29.95,SCT:04 30 BKN:07 250,29.91,10.00,79,150,,8,,,,,,,,,,,,,,,,,,,,,,,,,,,,,,,,,,,,,MET12809/24/11 11:56:02 METAR KCHS 241656Z 15007KT 10SM SCT030CB BKN250 29/25 A2996 RMK AO2 SLP143 CB W-NW MOV E TCU S T02890250 (JRS),,,,,,,,,,,,,,,,,,,,,,,,,,,,
72208013880,2011-09-24T14:56:00,FM-15,7,,SE,0.25,mi,"TEMP, PRECIP, SNOW",,,"MMTS, SRG, SNOWBOARD",,,WFO CHS,,,,,,,,,,,,,,,,,,,,,,,,,,,29.91,74,82,0.00,,,,77,29.91,FEW:02 24 SCT:04 32,29.86,10.00,76,150,,9,,,,,,,,,,,,,,,,,,,,,,,,,,,,,,,,,,,,,MET12709/24/11 14:56:02 METAR KCHS 241956Z 15008KT 10SM FEW024 SCT032TCU 28/23 A2991 RMK AO2 SLP129 TCU SW CB DSNT NW T02780233 (JRS),,,,,,,,,,,,,,,,,,,,,,,,,,,,
72208013880,2011-09-26T12:56:00,FM-15,7,,SE,0.25,mi,"TEMP, PRECIP, SNOW",,,"MMTS, SRG, SNOWBOARD",,,WFO CHS,,,,,,,,,,,,,,,,,,,,,,,,,,,29.95,75,85,0.00,,+0.03,8,72,29.94,SCT:04 25 SCT:04 50 BKN:07 180,29.90,10.00,78,150,,11,,,,,,,,,,,,,,,,,,,,,,,,,,,,,,,,,,,,,MET14209/26/11 12:56:02 METAR KCHS 261756Z 15010KT 10SM SCT025 SCT050 BKN180 29/24 A2995 RMK AO2 SLP140 TCU DSNT NE T02940239 10300 20233 58011 (DD),,,,,,,,,,,,,,,,,,,,,,,,,,,,
72208013880,2011-09-26T13:00:00,FM-12,4,,SE,0.25,mi,"TEMP, PRECIP, SNOW",,,"MMTS, SRG, SNOWBOARD",,,WFO CHS,,,,,,,,,,,,,,,,,,,,,,,,,,,,75,85,,,+0.03,8,72,29.94,,29.90,9.94,78,150,,11,,,,,,,,,,,,,,,,,,,,,,,,,,,,,,,,,,,,,SYN092AAXX  26184 72208 32566 61510 10294 20239 30126 40140 58011 91756 333 10300 20233 555 92618;,,,,,,,,,,,,,,,,,,,,,,,,,,,,
72208013880,2011-09-26T13:56:00,FM-15,7,,SE,0.25,mi,"TEMP, PRECIP, SNOW",,,"MMTS, SRG, SNOWBOARD",,,WFO CHS,,,,,,,,,,,,,,,,,,,,,,,,,,,29.91,73,85,0.00,,,,68,29.91,SCT:04 30 SCT:04 60 BKN:07 180,29.86,10.00,77,150,,10,,,,,,,,,,,,,,,,,,,,,,,,,,,,,,,,,,,,,MET13109/26/11 13:56:02 METAR KCHS 261856Z 15009KT 10SM SCT030 SCT060 BKN180 29/23 A2991 RMK AO2 SLP127 CB DSNT S AND W-NW T02940228 (DD),,,,,,,,,,,,,,,,,,,,,,,,,,,,
72208013880,2011-09-26T14:56:00,FM-15,7,,SE,0.25,mi,"TEMP, PRECIP, SNOW",,,"MMTS, SRG, SNOWBOARD",,,WFO CHS,,,,,,,,,,,,,,,,,,,,,,,,,,,29.91,73,83,0.00,,,,72,29.91,SCT:04 30 SCT:04 60 BKN:07 180,29.86,10.00,76,170,,14,,,,,,,,,,,,,,,,,,,,,,,,,,,,,,,,,,,,,MET14509/26/11 14:56:02 METAR KCHS 261956Z 17012KT 10SM SCT030TCU SCT060 BKN180 28/23 A2991 RMK AO2 SLP127 TCU N CB DSNT S AND NW SHRA N T02830228 (DD),,,,,,,,,,,,,,,,,,,,,,,,,,,,
72208013880,2011-09-26T15:56:00,SY-MT,7,,SE,0.25,mi,"TEMP, PRECIP, SNOW",,,"MMTS, SRG, SNOWBOARD",,,WFO CHS,,,,,,,,,,,,,,,,,,,,,,,,,,,29.91,71,81,0.00,,+0.03,5,72,29.91,SCT:04 30 BKN:07 60 BKN:07 180,29.86,10.00,74,170,,11,,,,,,,,,,,,,,,,,,,,,,,,,,,,,,,,,,,,,SYN076AAXX  26214 72208 32566 61710 10272 20217 30113 40129 55011 92056 555 92621;MET14609/26/11 15:56:02 METAR KCHS 262056Z 17010KT 10SM SCT030TCU BKN060 BKN180 27/22 A2991 RMK AO2 SLP129 TCU N CB DSNT NE SHRA N T02720217 55011 (JMB),,,,,,,,,,,,,,,,,,,,,,,,,,,,
72208013880,2011-09-27T14:56:00,FM-15,7,,SE,0.25,mi,"TEMP, PRECIP, SNOW",,,"MMTS, SRG, SNOWBOARD",,,WFO CHS,,,,,,,,,,,,,,,,,,,,,,,,,,,29.88,73,86,0.00,,,,65,29.88,SCT:04 45 SCT:04 60,29.83,10.00,77,150,17,13,,,,,,,,,,,,,,,,,,,,,,,,,,,,,,,,,,,,,MET10809/27/11 14:56:02 METAR KCHS 271956Z 15011G15KT 10SM SCT045 SCT060 30/23 A2988 RMK AO2 SLP118 T03000228 (DD),,,,,,,,,,,,,,,,,,,,,,,,,,,,
72208013880,2011-09-27T15:56:00,FM-15,7,,SE,0.25,mi,"TEMP, PRECIP, SNOW",,,"MMTS, SRG, SNOWBOARD",,,WFO CHS,,,,,,,,,,,,,,,,,,,,,,,,,,,29.87,73,86,0.00,,+0.06,6,65,29.86,SCT:04 45 SCT:04 60,29.82,10.00,77,150,,10,,,,,,,,,,,,,,,,,,,,,,,,,,,,,,,,,,,,,MET11209/27/11 15:56:02 METAR KCHS 272056Z 15009KT 10SM SCT045 SCT060 30/23 A2987 RMK AO2 SLP112 T03000228 56020 (JMB),,,,,,,,,,,,,,,,,,,,,,,,,,,,
72208013880,2011-09-27T16:00:00,FM-12,4,,SE,0.25,mi,"TEMP, PRECIP, SNOW",,,"MMTS, SRG, SNOWBOARD",,,WFO CHS,,,,,,,,,,,,,,,,,,,,,,,,,,,,73,86,,,+0.06,6,65,29.86,,29.82,9.94,77,150,,10,,,,,,,,,,,,,,,,,,,,,,,,,,,,,,,,,,,,,SYN076AAXX  27214 72208 32666 41509 10300 20228 30099 40112 56020 92056 555 92721;,,,,,,,,,,,,,,,,,,,,,,,,,,,,
72208013880,2011-09-27T16:56:00,FM-15,7,,SE,0.25,mi,"TEMP, PRECIP, SNOW",,,"MMTS, SRG, SNOWBOARD",,,WFO CHS,,,,,,,,,,,,,,,,,,,,,,,,,,,29.87,74,85,0.00,,,,70,29.87,FEW:02 45 SCT:04 60,29.82,10.00,77,170,,8,,,,,,,,,,,,,,,,,,,,,,,,,,,,,,,,,,,,,MET10609/27/11 16:56:02 METAR KCHS 272156Z 17007KT 10SM FEW045 SCT060 29/23 A2987 RMK AO2 SLP114 T02940233 (JMB),,,,,,,,,,,,,,,,,,,,,,,,,,,,
72208013880,2011-10-16T14:56:00,FM-15,7,,SE,0.25,mi,"TEMP, PRECIP, SNOW",,,"MMTS, SRG, SNOWBOARD",,,WFO CHS,,,,,,,,,,,,,,,,,,,,,,,,,,,30.07,44,77,0.00,,,,31,30.07,,30.02,10.00,59,170,,8,,,,,,,,,,,,,,,,,,,,,,,,,,,,,,,,,,,,,MET09610/16/11 14:56:02 METAR KCHS 161956Z 17007KT 10SM CLR 25/07 A3007 RMK AO2 SLP183 T02500067 (JRS),,,,,,,,,,,,,,,,,,,,,,,,,,,,
72208013880,2011-10-16T15:56:00,SY-MT,7,,SE,0.25,mi,"TEMP, PRECIP, SNOW",,,"MMTS, SRG, SNOWBOARD",,,WFO CHS,,,,,,,,,,,,,,,,,,,,,,,,,,,30.07,48,76,0.00,,+0.04,6,37,30.07,,30.02,10.00,60,160,,7,,,,,,,,,,,,,,,,,,,,,,,,,,,,,,,,,,,,,SYN076AAXX  16214 72208 32966 01606 10244 20089 30167 40182 56013 92056 555 91621;MET10210/16/11 15:56:02 METAR KCHS 162056Z 16006KT 10SM CLR 24/09 A3007 RMK AO2 SLP182 T02440089 56013 (WRB),,,,,,,,,,,,,,,,,,,,,,,,,,,,
72208013880,2011-10-16T16:56:00,FM-15,7,,SE,0.25,mi,"TEMP, PRECIP, SNOW",,,"MMTS, SRG, SNOWBOARD",,,WFO CHS,,,,,,,,,,,,,,,,,,,,,,,,,,,30.06,51,73,0.00,,,,46,30.06,,30.01,10.00,60,160,,8,,,,,,,,,,,,,,,,,,,,,,,,,,,,,,,,,,,,,MET09610/16/11 16:56:02 METAR KCHS 162156Z 16007KT 10SM CLR 23/11 A3006 RMK AO2 SLP179 T02280106 (WRB),,,,,,,,,,,,,,,,,,,,,,,,,,,,
72208013880,2011-10-18T11:56:00,FM-15,7,,SE,0.25,mi,"TEMP, PRECIP, SNOW",,,"MMTS, SRG, SNOWBOARD",,,WFO CHS,,,,,,,,,,,,,,,,,,,,,,,,,,,29.82,69,82,0.00,,,,65,29.81,SCT:04 25 SCT:04 60 BKN:07 120,29.77,10.00,73,150,,10,,,,,,,,,,,,,,,,,,,,,,,,,,,,,,,,,,,,,MET11210/18/11 11:56:02 METAR KCHS 181656Z 15009KT 10SM SCT025 SCT060 BKN120 28/21 A2982 RMK AO2 SLP095 T02780206 (DD),,,,,,,,,,,,,,,,,,,,,,,,,,,,
72208013880,2011-10-18T16:20:00,FM-16,7,,SE,0.25,mi,"TEMP, PRECIP, SNOW",,,"MMTS, SRG, SNOWBOARD",,,WFO CHS,,,,,,,,,,,,,,,,,,,,,,,,,,,29.73,70,72,0.14,+RA:02 BR:1 |RA |RA,,,94,,FEW:02 9 BKN:07 25 OVC:08 35,29.68,1.00,71,170,,7,,,,,,,,,,,,,,,,,,,,,,,,,,,,,,,,,,,,,MET10810/18/11 16:20:02 SPECI KCHS 182120Z 17006KT 1SM +RA BR FEW009 BKN025 OVC035 22/21 A2973 RMK AO2 P0014 (BBE),,,,,,,,,,,,,,,,,,,,,,,,,,,,
72208013880,2011-11-03T12:56:00,SY-MT,7,,SE,0.25,mi,"TEMP, PRECIP, SNOW",,,"MMTS, SRG, SNOWBOARD",,,WFO CHS,,,,,,,,,,,,,,,,,,,,,,,,,,,30.09,54,73,0.00,,+0.10,8,51,30.08,FEW:02 40 SCT:04 60,30.04,10.00,62,160,,8,,,,,,,,,,,,,,,,,,,,,,,,,,,,,,,,,,,,,SYN092AAXX  03184 72208 32666 41607 10228 20122 30173 40187 58035 91756 333 10233 20061 555 90318;MET12311/03/11 12:56:02 METAR KCHS 031756Z 16007KT 10SM FEW040 SCT060 23/12 A3009 RMK AO2 SLP187 T02280122 10233 20061 58035 (DD),,,,,,,,,,,,,,,,,,,,,,,,,,,,
72208013880,2011-11-03T13:56:00,FM-15,7,,SE,0.25,mi,"TEMP, PRECIP, SNOW",,,"MMTS, SRG, SNOWBOARD",,,WFO CHS,,,,,,,,,,,,,,,,,,,,,,,,,,,30.04,55,73,0.00,,,,53,30.04,FEW:02 40 SCT:04 60,29.99,10.00,62,160,,8,,,,,,,,,,,,,,,,,,,,,,,,,,,,,,,,,,,,,MET10511/03/11 13:56:02 METAR KCHS 031856Z 16007KT 10SM FEW040 SCT060 23/13 A3004 RMK AO2 SLP173 T02280128 (DD),,,,,,,,,,,,,,,,,,,,,,,,,,,,
72208013880,2011-11-03T14:56:00,FM-15,7,,SE,0.25,mi,"TEMP, PRECIP, SNOW",,,"MMTS, SRG, SNOWBOARD",,,WFO CHS,,,,,,,,,,,,,,,,,,,,,,,,,,,30.02,54,73,0.00,,,,51,30.02,FEW:02 40 SCT:04 70,29.97,10.00,62,160,,9,,,,,,,,,,,,,,,,,,,,,,,,,,,,,,,,,,,,,MET10511/03/11 14:56:02 METAR KCHS 031956Z 16008KT 10SM FEW040 SCT070 23/12 A3002 RMK AO2 SLP165 T02280122 (DD),,,,,,,,,,,,,,,,,,,,,,,,,,,,
72208013880,2011-11-03T16:56:00,FM-15,7,,SE,0.25,mi,"TEMP, PRECIP, SNOW",,,"MMTS, SRG, SNOWBOARD",,,WFO CHS,,,,,,,,,,,,,,,,,,,,,,,,,,,29.99,56,68,0.00,,,,65,29.99,SCT:04 60,29.94,10.00,61,160,,9,,,,,,,,,,,,,,,,,,,,,,,,,,,,,,,,,,,,,MET09911/03/11 16:56:02 METAR KCHS 032156Z 16008KT 10SM SCT060 20/13 A2999 RMK AO2 SLP155 T02000133 (JMB),,,,,,,,,,,,,,,,,,,,,,,,,,,,
72208013880,2011-11-03T17:56:00,FM-15,7,,SE,0.25,mi,"TEMP, PRECIP, SNOW",,,"MMTS, SRG, SNOWBOARD",,,WFO CHS,,,,,,,,,,,,,,,,,,,,,,,,,,,29.96,57,63,0.00,,,,81,29.96,FEW:02 60,29.91,10.00,60,150,,9,,,,,,,,,,,,,,,,,,,,,,,,,,,,,,,,,,,,,MET09911/03/11 17:56:02 METAR KCHS 032256Z 15008KT 10SM FEW060 17/14 A2996 RMK AO2 SLP144 T01720139 (JMB),,,,,,,,,,,,,,,,,,,,,,,,,,,,
72208013880,2011-11-12T14:56:00,FM-15,7,,SE,0.25,mi,"TEMP, PRECIP, SNOW",,,"MMTS, SRG, SNOWBOARD",,,WFO CHS,,,,,,,,,,,,,,,,,,,,,,,,,,,30.29,34,66,0.00,,,,30,30.29,FEW:02 80,30.24,10.00,51,170,,9,,,,,,,,,,,,,,,,,,,,,,,,,,,,,,,,,,,,,MET09911/12/11 14:56:02 METAR KCHS 121956Z 17008KT 10SM FEW080 19/01 A3029 RMK AO2 SLP257 T01890011 (KLL),,,,,,,,,,,,,,,,,,,,,,,,,,,,
72208013880,2011-11-13T17:56:00,FM-15,7,,SE,0.25,mi,"TEMP, PRECIP, SNOW",,,"MMTS, SRG, SNOWBOARD",,,WFO CHS,,,,,,,,,,,,,,,,,,,,,,,,,,,30.20,53,61,0.00,,,,75,30.19,BKN:07 250,30.15,10.00,57,160,,8,,,,,,,,,,,,,,,,,,,,,,,,,,,,,,,,,,,,,MET09911/13/11 17:56:02 METAR KCHS 132256Z 16007KT 10SM BKN250 16/12 A3020 RMK AO2 SLP224 T01610117 (JRS),,,,,,,,,,,,,,,,,,,,,,,,,,,,
72208013880,2011-11-20T14:56:00,FM-15,7,,SE,0.25,mi,"TEMP, PRECIP, SNOW",,,"MMTS, SRG, SNOWBOARD",,,WFO CHS,,,,,,,,,,,,,,,,,,,,,,,,,,,30.29,59,74,0.00,,,,60,30.28,BKN:07 45 BKN:07 60,30.24,10.00,65,150,,11,,,,,,,,,,,,,,,,,,,,,,,,,,,,,,,,,,,,,MET10811/20/11 14:56:02 METAR KCHS 201956Z 15010KT 10SM BKN045 BKN060 23/15 A3029 RMK AO2 SLP255 T02330150 $ (KLL),,,,,,,,,,,,,,,,,,,,,,,,,,,,
72208013880,2011-11-20T15:56:00,SY-MT,7,,SE,0.25,mi,"TEMP, PRECIP, SNOW",,,"MMTS, SRG, SNOWBOARD",,,WFO CHS,,,,,,,,,,,,,,,,,,,,,,,,,,,30.29,60,73,0.00,,+0.01,5,64,30.29,FEW:02 47 BKN:07 60,30.24,10.00,65,160,,7,,,,,,,,,,,,,,,,,,,,,,,,,,,,,,,,,,,,,SYN076AAXX  20214 72208 32666 61606 10228 20156 30241 40257 55005 92056 555 92021;MET11411/20/11 15:56:02 METAR KCHS 202056Z 16006KT 10SM FEW047 BKN060 23/16 A3029 RMK AO2 SLP257 T02280156 55005 $ (JRS),,,,,,,,,,,,,,,,,,,,,,,,,,,,
72208013880,2011-11-20T16:56:00,FM-15,7,,SE,0.25,mi,"TEMP, PRECIP, SNOW",,,"MMTS, SRG, SNOWBOARD",,,WFO CHS,,,,,,,,,,,,,,,,,,,,,,,,,,,30.30,61,70,0.00,,,,73,30.29,BKN:07 65,30.25,10.00,65,150,,8,,,,,,,,,,,,,,,,,,,,,,,,,,,,,,,,,,,,,MET10111/20/11 16:56:02 METAR KCHS 202156Z 15007KT 10SM BKN065 21/16 A3030 RMK AO2 SLP258 T02110161 $ (JRS),,,,,,,,,,,,,,,,,,,,,,,,,,,,
72208013880,2011-11-22T17:56:00,FM-15,7,,SE,0.25,mi,"TEMP, PRECIP, SNOW",,,"MMTS, SRG, SNOWBOARD",,,WFO CHS,,,,,,,,,,,,,,,,,,,,,,,,,,,30.08,64,69,0.00,,,,84,30.07,FEW:02 80,30.03,10.00,66,170,,8,,,,,,,,,,,,,,,,,,,,,,,,,,,,,,,,,,,,,MET09911/22/11 17:56:02 METAR KCHS 222256Z 17007KT 10SM FEW080 21/18 A3008 RMK AO2 SLP184 T02060178 (JMB),,,,,,,,,,,,,,,,,,,,,,,,,,,,
72208013880,2011-11-27T11:56:00,FM-15,7,,SE,0.25,mi,"TEMP, PRECIP, SNOW",,,"MMTS, SRG, SNOWBOARD",,,WFO CHS,,,,,,,,,,,,,,,,,,,,,,,,,,,30.16,56,75,0.00,,,,52,30.16,FEW:02 43 BKN:07 60,30.11,10.00,64,150,,14,,,,,,,,,,,,,,,,,,,,,,,,,,,,,,,,,,,,,MET10611/27/11 11:56:02 METAR KCHS 271656Z 15012KT 10SM FEW043 BKN060 24/13 A3016 RMK AO2 SLP214 T02390133 (KLL),,,,,,,,,,,,,,,,,,,,,,,,,,,,
72208013880,2011-11-27T13:56:00,FM-15,7,,SE,0.25,mi,"TEMP, PRECIP, SNOW",,,"MMTS, SRG, SNOWBOARD",,,WFO CHS,,,,,,,,,,,,,,,,,,,,,,,,,,,30.11,56,77,0.00,,,,48,30.11,SCT:04 65,30.06,10.00,64,150,,16,,,,,,,,,,,,,,,,,,,,,,,,,,,,,,,,,,,,,MET09911/27/11 13:56:02 METAR KCHS 271856Z 15014KT 10SM SCT065 25/13 A3011 RMK AO2 SLP196 T02500133 (KLL),,,,,,,,,,,,,,,,,,,,,,,,,,,,
72208013880,2011-11-28T10:56:00,FM-15,7,,SE,0.25,mi,"TEMP, PRECIP, SNOW",,,"MMTS, SRG, SNOWBOARD",,,WFO CHS,,,,,,,,,,,,,,,,,,,,,,,,,,,29.95,64,78,0.00,,,,62,29.95,FEW:02 30 BKN:07 75,29.90,10.00,69,160,24,14,,,,,,,,,,,,,,,,,,,,,,,,,,,,,,,,,,,,,MET10811/28/11 10:56:02 METAR KCHS 281556Z 16012G21KT 10SM FEW030 BKN075 26/18 A2995 RMK AO2 SLP142 T02560178 (DD),,,,,,,,,,,,,,,,,,,,,,,,,,,,
72208013880,2011-11-28T13:56:00,FM-15,7,,SE,0.25,mi,"TEMP, PRECIP, SNOW",,,"MMTS, SRG, SNOWBOARD",,,WFO CHS,,,,,,,,,,,,,,,,,,,,,,,,,,,29.88,68,72,T,,,,87,29.88,SCT:04 30 SCT:04 50 BKN:07 70,29.83,10.00,69,150,25,17,,,,,,,,,,,,,,,,,,,,,,,,,,,,,,,,,,,,,MET15411/28/11 13:56:02 METAR KCHS 281856Z 15015G22KT 10SM SCT030 SCT050 BKN070 22/20 A2988 RMK AO2 PK WND 16029/1830 RAB20E26B42E55 SLP117 P0000 T02220200 (DD),,,,,,,,,,,,,,,,,,,,,,,,,,,,
72208013880,2011-11-28T14:56:00,FM-15,7,,SE,0.25,mi,"TEMP, PRECIP, SNOW",,,"MMTS, SRG, SNOWBOARD",,,WFO CHS,,,,,,,,,,,,,,,,,,,,,,,,,,,29.85,65,74,0.00,,,,74,29.85,FEW:02 20 BKN:07 40 BKN:07 60,29.80,10.00,68,150,23,17,,,,,,,,,,,,,,,,,,,,,,,,,,,,,,,,,,,,,MET11511/28/11 14:56:02 METAR KCHS 281956Z 15015G20KT 10SM FEW020 BKN040 BKN060 23/18 A2985 RMK AO2 SLP107 T02330183 (DD),,,,,,,,,,,,,,,,,,,,,,,,,,,,
72208013880,2011-11-28T15:56:00,SY-MT,7,,SE,0.25,mi,"TEMP, PRECIP, SNOW",,,"MMTS, SRG, SNOWBOARD",,,WFO CHS,,,,,,,,,,,,,,,,,,,,,,,,,,,29.85,67,69,0.04,-RA:02 BR:1 |RA |RA,+0.04,6,93,29.84,FEW:02 15 SCT:04 20 OVC:08 40,29.80,3.00,68,170,,10,,,,,,,,,,,,,,,,,,,,,,,,,,,,,,,,,,,,,SYN098AAXX  28214 72208 11448 81709 10206 20194 30092 40106 56014 60017 761// 92056 333 96010 555 92821;MET16111/28/11 15:56:02 METAR KCHS 282056Z 17009KT 3SM -RA BR FEW015 SCT020 OVC040 21/19 A2985 RMK AO2 PK WND 15027/2015 RAB04 SLP106 P0004 60004 T02060194 56014 (JMB),,,,,,,,,,,,,,,,,,,,,,,,,,,,
72208013880,2011-11-28T17:11:00,FM-16,7,,SE,0.25,mi,"TEMP, PRECIP, SNOW",,,"MMTS, SRG, SNOWBOARD",,,WFO CHS,,,,,,,,,,,,,,,,,,,,,,,,,,,29.85,66,66,0.07,-RA:02 BR:1 |RA |RA,,,100,,FEW:02 10 BKN:07 20 OVC:08 30,29.80,2.00,66,170,23,15,,,,,,,,,,,,,,,,,,,,,,,,,,,,,,,,,,,,,MET11111/28/11 17:11:02 SPECI KCHS 282211Z 17013G20KT 2SM -RA BR FEW010 BKN020 OVC030 19/19 A2985 RMK AO2 P0007 (JMB),,,,,,,,,,,,,,,,,,,,,,,,,,,,
72208013880,2011-11-28T17:41:00,FM-16,7,,SE,0.25,mi,"TEMP, PRECIP, SNOW",,,"MMTS, SRG, SNOWBOARD",,,WFO CHS,,,,,,,,,,,,,,,,,,,,,,,,,,,29.84,66,66,0.09,-RA:02 BR:1 |RA |RA,,,100,,FEW:02 10 SCT:04 30 OVC:08 40,29.79,4.00,66,150,,13,,,,,,,,,,,,,,,,,,,,,,,,,,,,,,,,,,,,,MET10811/28/11 17:41:02 SPECI KCHS 282241Z 15011KT 4SM -RA BR FEW010 SCT030 OVC040 19/19 A2984 RMK AO2 P0009 (JMB),,,,,,,,,,,,,,,,,,,,,,,,,,,,
72208013880,2011-12-02T16:56:00,FM-15,7,,SE,0.25,mi,"TEMP, PRECIP, SNOW",,,"MMTS, SRG, SNOWBOARD",,,WFO CHS,,,,,,,,,,,,,,,,,,,,,,,,,,,30.39,38,56,0.00,,,,51,30.39,SCT:04 250,30.34,10.00,47,150,,7,,,,,,,,,,,,,,,,,,,,,,,,,,,,,,,,,,,,,MET09912/02/11 16:56:02 METAR KCHS 022156Z 15006KT 10SM SCT250 13/03 A3039 RMK AO2 SLP291 T01330033 (JMB),,,,,,,,,,,,,,,,,,,,,,,,,,,,
72208013880,2011-12-05T13:56:00,FM-15,7,,SE,0.25,mi,"TEMP, PRECIP, SNOW",,,"MMTS, SRG, SNOWBOARD",,,WFO CHS,,,,,,,,,,,,,,,,,,,,,,,,,,,30.18,59,72,0.00,,,,64,30.18,FEW:02 35 SCT:04 50 BKN:07 65,30.13,10.00,64,150,,14,,,,,,,,,,,,,,,,,,,,,,,,,,,,,,,,,,,,,MET11212/05/11 13:56:02 METAR KCHS 051856Z 15012KT 10SM FEW035 SCT050 BKN065 22/15 A3018 RMK AO2 SLP221 T02220150 (DD),,,,,,,,,,,,,,,,,,,,,,,,,,,,
72208013880,2011-12-05T14:56:00,FM-15,7,,SE,0.25,mi,"TEMP, PRECIP, SNOW",,,"MMTS, SRG, SNOWBOARD",,,WFO CHS,,,,,,,,,,,,,,,,,,,,,,,,,,,30.17,60,72,0.00,,,,66,30.17,FEW:02 35 SCT:04 50 BKN:07 65,30.12,10.00,65,150,,14,,,,,,,,,,,,,,,,,,,,,,,,,,,,,,,,,,,,,MET11212/05/11 14:56:02 METAR KCHS 051956Z 15012KT 10SM FEW035 SCT050 BKN065 22/16 A3017 RMK AO2 SLP216 T02220156 (DD),,,,,,,,,,,,,,,,,,,,,,,,,,,,
72208013880,2011-12-05T15:56:00,SY-MT,7,,SE,0.25,mi,"TEMP, PRECIP, SNOW",,,"MMTS, SRG, SNOWBOARD",,,WFO CHS,,,,,,,,,,,,,,,,,,,,,,,,,,,30.17,60,71,0.00,,+0.04,6,68,30.16,FEW:02 30 BKN:07 50 BKN:07 75,30.12,10.00,64,150,,7,,,,,,,,,,,,,,,,,,,,,,,,,,,,,,,,,,,,,SYN076AAXX  05214 72208 32566 61506 10217 20156 30201 40214 56012 92056 555 90521;MET11912/05/11 15:56:02 METAR KCHS 052056Z 15006KT 10SM FEW030 BKN050 BKN075 22/16 A3017 RMK AO2 SLP214 T02170156 56012 (BBE),,,,,,,,,,,,,,,,,,,,,,,,,,,,
72208013880,2011-12-05T16:56:00,FM-15,7,,SE,0.25,mi,"TEMP, PRECIP, SNOW",,,"MMTS, SRG, SNOWBOARD",,,WFO CHS,,,,,,,,,,,,,,,,,,,,,,,,,,,30.17,62,68,0.00,,,,81,30.17,SCT:04 40 BKN:07 50 BKN:07 75,30.12,10.00,64,160,,7,,,,,,,,,,,,,,,,,,,,,,,,,,,,,,,,,,,,,MET11312/05/11 16:56:02 METAR KCHS 052156Z 16006KT 10SM SCT040 BKN050 BKN075 20/17 A3017 RMK AO2 SLP217 T02000167 (BBE),,,,,,,,,,,,,,,,,,,,,,,,,,,,
72208013880,2011-12-08T15:56:00,SY-MT,7,,SE,0.25,mi,"TEMP, PRECIP, SNOW",,,"MMTS, SRG, SNOWBOARD",,,WFO CHS,,,,,,,,,,,,,,,,,,,,,,,,,,,30.26,31,54,0.00,,-0.00,3,42,30.25,FEW:02 250,30.21,10.00,44,150,,8,,,,,,,,,,,,,,,,,,,,,,,,,,,,,,,,,,,,,SYN076AAXX  08214 72208 32966 21507 10122 21006 30231 40245 53001 92056 555 90821;MET10612/08/11 15:56:02 METAR KCHS 082056Z 15007KT 10SM FEW250 12/M01 A3026 RMK AO2 SLP245 T01221006 53001 (BBE),,,,,,,,,,,,,,,,,,,,,,,,,,,,
72208013880,2011-12-14T11:56:00,FM-15,7,,SE,0.25,mi,"TEMP, PRECIP, SNOW",,,"MMTS, SRG, SNOWBOARD",,,WFO CHS,,,,,,,,,,,,,,,,,,,,,,,,,,,30.37,49,66,0.00,,,,54,30.37,FEW:02 250,30.32,10.00,57,150,,8,,,,,,,,,,,,,,,,,,,,,,,,,,,,,,,,,,,,,MET09812/14/11 11:56:02 METAR KCHS 141656Z 15007KT 10SM FEW250 19/09 A3037 RMK AO2 SLP284 T01890094 (DD),,,,,,,,,,,,,,,,,,,,,,,,,,,,
72208013880,2011-12-14T15:56:00,FM-15,7,,SE,0.25,mi,"TEMP, PRECIP, SNOW",,,"MMTS, SRG, SNOWBOARD",,,WFO CHS,,,,,,,,,,,,,,,,,,,,,,,,,,,30.33,48,66,0.00,,+0.02,5,52,30.32,SCT:04 250,30.28,10.00,56,150,,7,,,,,,,,,,,,,,,,,,,,,,,,,,,,,,,,,,,,,MET10512/14/11 15:56:02 METAR KCHS 142056Z 15006KT 10SM SCT250 19/09 A3033 RMK AO2 SLP268 T01890089 55008 (BBE),,,,,,,,,,,,,,,,,,,,,,,,,,,,
72208013880,2011-12-14T16:00:00,FM-12,4,,SE,0.25,mi,"TEMP, PRECIP, SNOW",,,"MMTS, SRG, SNOWBOARD",,,WFO CHS,,,,,,,,,,,,,,,,,,,,,,,,,,,,48,66,,,+0.02,5,52,30.32,,30.28,9.94,56,150,,7,,,,,,,,,,,,,,,,,,,,,,,,,,,,,,,,,,,,,SYN076AAXX  14214 72208 32966 41506 10189 20089 30255 40268 55008 92056 555 91421;,,,,,,,,,,,,,,,,,,,,,,,,,,,,
72208013880,2011-12-14T16:56:00,FM-15,7,,SE,0.25,mi,"TEMP, PRECIP, SNOW",,,"MMTS, SRG, SNOWBOARD",,,WFO CHS,,,,,,,,,,,,,,,,,,,,,,,,,,,30.33,48,62,0.00,,,,60,30.32,SCT:04 250,30.28,10.00,55,150,,7,,,,,,,,,,,,,,,,,,,,,,,,,,,,,,,,,,,,,MET09912/14/11 16:56:02 METAR KCHS 142156Z 15006KT 10SM SCT250 17/09 A3033 RMK AO2 SLP268 T01670089 (BBE),,,,,,,,,,,,,,,,,,,,,,,,,,,,
72208013880,2011-12-19T11:56:00,FM-15,7,,SE,0.25,mi,"TEMP, PRECIP, SNOW",,,"MMTS, SRG, SNOWBOARD",,,WFO CHS,,,,,,,,,,,,,,,,,,,,,,,,,,,30.35,44,63,0.00,,,,50,30.35,,30.29,10.00,53,160,,8,,,,,,,,,,,,,,,,,,,,,,,,,,,,,,,,,,,,,MET09512/19/11 11:56:02 METAR KCHS 191656Z 16007KT 10SM CLR 17/07 A3035 RMK AO2 SLP276 T01720067 (DD),,,,,,,,,,,,,,,,,,,,,,,,,,,,
72208013880,2011-12-19T12:56:00,SY-MT,7,,SE,0.25,mi,"TEMP, PRECIP, SNOW",,,"MMTS, SRG, SNOWBOARD",,,WFO CHS,,,,,,,,,,,,,,,,,,,,,,,,,,,30.32,45,64,0.00,,+0.06,8,50,30.32,FEW:02 40 SCT:04 250,30.27,10.00,54,160,,11,,,,,,,,,,,,,,,,,,,,,,,,,,,,,,,,,,,,,SYN092AAXX  19184 72208 32666 41610 10178 20072 30251 40267 58020 91756 333 10178 20000 555 91918;MET12312/19/11 12:56:02 METAR KCHS 191756Z 16010KT 10SM FEW040 SCT250 18/07 A3032 RMK AO2 SLP267 T01780072 10178 20000 58020 (DD),,,,,,,,,,,,,,,,,,,,,,,,,,,,
72208013880,2011-12-30T13:56:00,FM-15,7,,SE,0.25,mi,"TEMP, PRECIP, SNOW",,,"MMTS, SRG, SNOWBOARD",,,WFO CHS,,,,,,,,,,,,,,,,,,,,,,,,,,,30.07,42,65,0.00,,,,43,30.06,FEW:02 250,30.02,10.00,53,170,16,9,,,,,,,,,,,,,,,,,,,,,,,,,,,,,,,,,,,,,MET10212/30/11 13:56:02 METAR KCHS 301856Z 17008G14KT 10SM FEW250 18/06 A3007 RMK AO2 SLP181 T01830056 (KPL),,,,,,,,,,,,,,,,,,,,,,,,,,,,
72208013880,2011-12-30T14:56:00,FM-15,7,,SE,0.25,mi,"TEMP, PRECIP, SNOW",,,"MMTS, SRG, SNOWBOARD",,,WFO CHS,,,,,,,,,,,,,,,,,,,,,,,,,,,30.07,44,65,0.00,,,,47,30.06,FEW:02 120 SCT:04 200,30.02,10.00,54,160,,14,,,,,,,,,,,,,,,,,,,,,,,,,,,,,,,,,,,,,MET10612/30/11 14:56:02 METAR KCHS 301956Z 16012KT 10SM FEW120 SCT200 18/07 A3007 RMK AO2 SLP181 T01830067 (KPL),,,,,,,,,,,,,,,,,,,,,,,,,,,,
72208013880,2012-01-16T11:56:00,FM-15,7,,SE,0.25,mi,"TEMP, PRECIP, SNOW",,,"MMTS, SRG, SNOWBOARD",,,WFO CHS,,,,,,,,,,,,,,,,,,,,,,,,,,,30.56,34,55,0.00,,,,45,30.56,SCT:04 180 BKN:07 250,30.50,10.00,46,150,,13,,,,,,,,,,,,,,,,,,,,,,,,,,,,,,,,,,,,,MET10501/16/12 11:56:02 METAR KCHS 161656Z 15011KT 10SM SCT180 BKN250 13/01 A3056 RMK AO2 SLP348 T01280011 (DD),,,,,,,,,,,,,,,,,,,,,,,,,,,,
72208013880,2012-01-16T12:56:00,SY-MT,7,,SE,0.25,mi,"TEMP, PRECIP, SNOW",,,"MMTS, SRG, SNOWBOARD",,,WFO CHS,,,,,,,,,,,,,,,,,,,,,,,,,,,30.53,34,58,0.00,,+0.06,8,41,30.52,BKN:07 200,30.47,10.00,47,150,,14,,,,,,,,,,,,,,,,,,,,,,,,,,,,,,,,,,,,,SYN092AAXX  16184 72208 32966 61512 10144 20011 30322 40336 58020 91756 333 10144 21006 555 91618;MET11601/16/12 12:56:02 METAR KCHS 161756Z 15012KT 10SM BKN200 14/01 A3053 RMK AO2 SLP336 T01440011 10144 21006 58020 (DD),,,,,,,,,,,,,,,,,,,,,,,,,,,,
72208013880,2012-01-16T14:56:00,FM-15,7,,SE,0.25,mi,"TEMP, PRECIP, SNOW",,,"MMTS, SRG, SNOWBOARD",,,WFO CHS,,,,,,,,,,,,,,,,,,,,,,,,,,,30.48,35,56,0.00,,,,46,30.47,BKN:07 150 BKN:07 200,30.42,10.00,46,150,,8,,,,,,,,,,,,,,,,,,,,,,,,,,,,,,,,,,,,,MET11501/16/12 14:56:02 METAR KCHS 161956Z 15007KT 10SM BKN150 BKN200 13/02 A3048 RMK AO2 SLP320 FU DSNT E T01330017 (DD),,,,,,,,,,,,,,,,,,,,,,,,,,,,
72208013880,2012-01-19T15:56:00,SY-MT,7,,SE,0.25,mi,"TEMP, PRECIP, SNOW",,,"MMTS, SRG, SNOWBOARD",,,WFO CHS,,,,,,,,,,,,,,,,,,,,,,,,,,,30.14,37,57,0.00,,-0.00,3,47,30.13,FEW:02 40 SCT:04 250,30.09,10.00,48,150,,8,,,,,,,,,,,,,,,,,,,,,,,,,,,,,,,,,,,,,SYN076AAXX  19214 72208 32666 41507 10139 20028 30190 40204 53000 92056 555 91921;MET11201/19/12 15:56:02 METAR KCHS 192056Z 15007KT 10SM FEW040 SCT250 14/03 A3014 RMK AO2 SLP204 T01390028 53000 (JMB),,,,,,,,,,,,,,,,,,,,,,,,,,,,
72208013880,2012-01-19T16:56:00,FM-15,7,,SE,0.25,mi,"TEMP, PRECIP, SNOW",,,"MMTS, SRG, SNOWBOARD",,,WFO CHS,,,,,,,,,,,,,,,,,,,,,,,,,,,30.13,41,54,0.00,,,,62,30.13,FEW:02 40 SCT:04 250,30.08,10.00,48,150,,8,,,,,,,,,,,,,,,,,,,,,,,,,,,,,,,,,,,,,MET10601/19/12 16:56:02 METAR KCHS 192156Z 15007KT 10SM FEW040 SCT250 12/05 A3013 RMK AO2 SLP203 T01220050 (JMB),,,,,,,,,,,,,,,,,,,,,,,,,,,,
72208013880,2012-01-19T17:56:00,FM-15,7,,SE,0.25,mi,"TEMP, PRECIP, SNOW",,,"MMTS, SRG, SNOWBOARD",,,WFO CHS,,,,,,,,,,,,,,,,,,,,,,,,,,,30.12,40,49,0.00,,,,71,30.12,SCT:04 250,30.07,10.00,45,160,,8,,,,,,,,,,,,,,,,,,,,,,,,,,,,,,,,,,,,,MET09901/19/12 17:56:02 METAR KCHS 192256Z 16007KT 10SM SCT250 09/04 A3012 RMK AO2 SLP200 T00940044 (JMB),,,,,,,,,,,,,,,,,,,,,,,,,,,,
72208013880,2012-01-23T12:27:00,FM-16,7,,SE,0.25,mi,"TEMP, PRECIP, SNOW",,,"MMTS, SRG, SNOWBOARD",,,WFO CHS,,,,,,,,,,,,,,,,,,,,,,,,,,,30.13,57,63,,,,,83,,SCT:04 7 BKN:07 200,30.08,7.00,60,170,,7,,,,,,,,,,,,,,,,,,,,,,,,,,,,,,,,,,,,,MET09701/23/12 12:27:02 SPECI KCHS 231727Z 17006KT 7SM SCT007 BKN200 17/14 A3013 RMK AO2 SCT V BKN (DD),,,,,,,,,,,,,,,,,,,,,,,,,,,,
72208013880,2012-01-23T12:56:00,SY-MT,7,,SE,0.25,mi,"TEMP, PRECIP, SNOW",,,"MMTS, SRG, SNOWBOARD",,,WFO CHS,,,,,,,,,,,,,,,,,,,,,,,,,,,30.11,59,65,0.00,,+0.09,6,81,30.11,FEW:02 120 BKN:07 200,30.06,8.00,61,160,,8,,,,,,,,,,,,,,,,,,,,,,,,,,,,,,,,,,,,,SYN092AAXX  23184 72208 32962 61607 10183 20150 30180 40196 56029 91756 333 10183 20078 555 92318;MET12201/23/12 12:56:02 METAR KCHS 231756Z 16007KT 8SM FEW120 BKN200 18/15 A3011 RMK AO2 SLP196 T01830150 10183 20078 56029 (DD),,,,,,,,,,,,,,,,,,,,,,,,,,,,
72208013880,2012-01-23T13:56:00,FM-15,7,,SE,0.25,mi,"TEMP, PRECIP, SNOW",,,"MMTS, SRG, SNOWBOARD",,,WFO CHS,,,,,,,,,,,,,,,,,,,,,,,,,,,30.09,59,67,0.00,,,,76,30.09,SCT:04 20 OVC:08 200,30.04,10.00,62,160,,9,,,,,,,,,,,,,,,,,,,,,,,,,,,,,,,,,,,,,MET10501/23/12 13:56:02 METAR KCHS 231856Z 16008KT 10SM SCT020 OVC200 19/15 A3009 RMK AO2 SLP190 T01940150 (DD),,,,,,,,,,,,,,,,,,,,,,,,,,,,
72208013880,2012-01-26T10:56:00,FM-15,7,,SE,0.25,mi,"TEMP, PRECIP, SNOW",,,"MMTS, SRG, SNOWBOARD",,,WFO CHS,,,,,,,,,,,,,,,,,,,,,,,,,,,30.11,61,73,0.00,,,,66,30.11,FEW:02 25 SCT:04 60 SCT:04 250,30.06,10.00,66,160,16,13,,,,,,,,,,,,,,,,,,,,,,,,,,,,,,,,,,,,,MET11501/26/12 10:56:02 METAR KCHS 261556Z 16011G14KT 10SM FEW025 SCT060 SCT250 23/16 A3011 RMK AO2 SLP196 T02280161 (DD),,,,,,,,,,,,,,,,,,,,,,,,,,,,
72208013880,2012-01-26T11:56:00,FM-15,7,,SE,0.25,mi,"TEMP, PRECIP, SNOW",,,"MMTS, SRG, SNOWBOARD",,,WFO CHS,,,,,,,,,,,,,,,,,,,,,,,,,,,30.07,60,74,0.00,,,,62,30.06,SCT:04 30 SCT:04 60,30.02,10.00,65,170,,10,,,,,,,,,,,,,,,,,,,,,,,,,,,,,,,,,,,,,MET10501/26/12 11:56:02 METAR KCHS 261656Z 17009KT 10SM SCT030 SCT060 23/16 A3007 RMK AO2 SLP181 T02330156 (DD),,,,,,,,,,,,,,,,,,,,,,,,,,,,
72208013880,2012-01-30T17:56:00,FM-15,7,,SE,0.25,mi,"TEMP, PRECIP, SNOW",,,"MMTS, SRG, SNOWBOARD",,,WFO CHS,,,,,,,,,,,,,,,,,,,,,,,,,,,30.39,29,54,0.00,,,,38,30.39,SCT:04 250,30.34,10.00,43,150,,9,,,,,,,,,,,,,,,,,,,,,,,,,,,,,,,,,,,,,MET10001/30/12 17:56:02 METAR KCHS 302256Z 15008KT 10SM SCT250 12/M02 A3039 RMK AO2 SLP290 T01221017 (BBE),,,,,,,,,,,,,,,,,,,,,,,,,,,,
72208013880,2012-02-04T10:56:00,FM-15,7,,SE,0.25,mi,"TEMP, PRECIP, SNOW",,,"MMTS, SRG, SNOWBOARD",,,WFO CHS,,,,,,,,,,,,,,,,,,,,,,,,,,,30.27,54,68,0.00,,,,61,30.27,FEW:02 45,30.22,9.00,60,160,,9,,,,,,,,,,,,,,,,,,,,,,,,,,,,,,,,,,,,,MET09802/04/12 10:56:02 METAR KCHS 041556Z 16008KT 9SM FEW045 20/12 A3027 RMK AO2 SLP251 T02000122 (KLL),,,,,,,,,,,,,,,,,,,,,,,,,,,,
72208013880,2012-02-04T11:56:00,FM-15,7,,SE,0.25,mi,"TEMP, PRECIP, SNOW",,,"MMTS, SRG, SNOWBOARD",,,WFO CHS,,,,,,,,,,,,,,,,,,,,,,,,,,,30.25,53,73,0.00,,,,50,30.25,SCT:04 37,30.20,10.00,61,170,,16,,,,,,,,,,,,,,,,,,,,,,,,,,,,,,,,,,,,,MET09902/04/12 11:56:02 METAR KCHS 041656Z 17014KT 10SM SCT037 23/12 A3025 RMK AO2 SLP243 T02280117 (KLL),,,,,,,,,,,,,,,,,,,,,,,,,,,,
72208013880,2012-02-09T15:56:00,SY-MT,7,,SE,0.25,mi,"TEMP, PRECIP, SNOW",,,"MMTS, SRG, SNOWBOARD",,,WFO CHS,,,,,,,,,,,,,,,,,,,,,,,,,,,30.22,35,54,0.00,,+0.05,6,49,30.22,FEW:02 120 BKN:07 250,30.17,10.00,45,150,,9,,,,,,,,,,,,,,,,,,,,,,,,,,,,,,,,,,,,,SYN076AAXX  09214 72208 32966 61508 10122 20017 30217 40232 56016 92056 555 90921;MET11202/09/12 15:56:02 METAR KCHS 092056Z 15008KT 10SM FEW120 BKN250 12/02 A3022 RMK AO2 SLP232 T01220017 56016 (BBE),,,,,,,,,,,,,,,,,,,,,,,,,,,,
72208013880,2012-02-13T14:56:00,FM-15,7,,SE,0.25,mi,"TEMP, PRECIP, SNOW",,,"MMTS, SRG, SNOWBOARD",,,WFO CHS,,,,,,,,,,,,,,,,,,,,,,,,,,,30.21,21,54,0.00,,,,28,30.21,FEW:02 200,30.16,10.00,41,150,21,11,,,,,,,,,,,,,,,,,,,,,,,,,,,,,,,,,,,,,MET10202/13/12 14:56:02 METAR KCHS 131956Z 15010G18KT 10SM FEW200 12/M06 A3021 RMK AO2 SLP230 T01221061 (DD),,,,,,,,,,,,,,,,,,,,,,,,,,,,
72208013880,2012-02-14T14:56:00,FM-15,7,,SE,0.25,mi,"TEMP, PRECIP, SNOW",,,"MMTS, SRG, SNOWBOARD",,,WFO CHS,,,,,,,,,,,,,,,,,,,,,,,,,,,30.06,43,58,0.00,,,,58,30.06,FEW:02 40 BKN:07 80 BKN:07 180,30.01,10.00,50,160,,8,,,,,,,,,,,,,,,,,,,,,,,,,,,,,,,,,,,,,MET11202/14/12 14:56:02 METAR KCHS 141956Z 16007KT 10SM FEW040 BKN080 BKN180 14/06 A3006 RMK AO2 SLP180 T01440061 (DD),,,,,,,,,,,,,,,,,,,,,,,,,,,,
72208013880,2012-02-14T15:56:00,SY-MT,7,,SE,0.25,mi,"TEMP, PRECIP, SNOW",,,"MMTS, SRG, SNOWBOARD",,,WFO CHS,,,,,,,,,,,,,,,,,,,,,,,,,,,30.07,42,57,0.00,,+0.04,6,58,30.06,SCT:04 40 OVC:08 55,30.02,10.00,50,150,,7,,,,,,,,,,,,,,,,,,,,,,,,,,,,,,,,,,,,,SYN076AAXX  14214 72208 32666 81506 10139 20056 30167 40180 56012 92056 555 91421;MET11202/14/12 15:56:02 METAR KCHS 142056Z 15006KT 10SM SCT040 OVC055 14/06 A3007 RMK AO2 SLP180 T01390056 56012 (BBE),,,,,,,,,,,,,,,,,,,,,,,,,,,,
72208013880,2012-02-15T15:56:00,SY-MT,7,,SE,0.25,mi,"TEMP, PRECIP, SNOW",,,"MMTS, SRG, SNOWBOARD",,,WFO CHS,,,,,,,,,,,,,,,,,,,,,,,,,,,30.20,51,63,0.00,,+0.02,6,65,30.19,BKN:07 250,30.15,10.00,56,150,,10,,,,,,,,,,,,,,,,,,,,,,,,,,,,,,,,,,,,,SYN076AAXX  15214 72208 32966 61509 10172 20106 30211 40225 56007 92056 555 91521;MET10502/15/12 15:56:02 METAR KCHS 152056Z 15009KT 10SM BKN250 17/11 A3020 RMK AO2 SLP225 T01720106 56007 (BBE),,,,,,,,,,,,,,,,,,,,,,,,,,,,
72208013880,2012-02-15T16:56:00,FM-15,7,,SE,0.25,mi,"TEMP, PRECIP, SNOW",,,"MMTS, SRG, SNOWBOARD",,,WFO CHS,,,,,,,,,,,,,,,,,,,,,,,,,,,30.21,51,62,0.00,,,,67,30.21,BKN:07 250,30.16,10.00,56,170,,11,,,,,,,,,,,,,,,,,,,,,,,,,,,,,,,,,,,,,MET09902/15/12 16:56:02 METAR KCHS 152156Z 17010KT 10SM BKN250 17/11 A3021 RMK AO2 SLP230 T01670106 (BBE),,,,,,,,,,,,,,,,,,,,,,,,,,,,
72208013880,2012-02-15T17:56:00,FM-15,7,,SE,0.25,mi,"TEMP, PRECIP, SNOW",,,"MMTS, SRG, SNOWBOARD",,,WFO CHS,,,,,,,,,,,,,,,,,,,,,,,,,,,30.22,50,58,0.00,,,,75,30.22,BKN:07 250,30.17,10.00,54,150,,8,,,,,,,,,,,,,,,,,,,,,,,,,,,,,,,,,,,,,MET09902/15/12 17:56:02 METAR KCHS 152256Z 15007KT 10SM BKN250 14/10 A3022 RMK AO2 SLP234 T01440100 (BBE),,,,,,,,,,,,,,,,,,,,,,,,,,,,
72208013880,2012-02-21T11:56:00,FM-15,7,,SE,0.25,mi,"TEMP, PRECIP, SNOW",,,"MMTS, SRG, SNOWBOARD",,,WFO CHS,,,,,,,,,,,,,,,,,,,,,,,,,,,30.25,48,63,0.00,,,,58,30.25,FEW:02 65 SCT:04 120 BKN:07 200,30.20,10.00,55,150,,9,,,,,,,,,,,,,,,,,,,,,,,,,,,,,,,,,,,,,MET11202/21/12 11:56:02 METAR KCHS 211656Z 15008KT 10SM FEW065 SCT120 BKN200 17/09 A3025 RMK AO2 SLP243 T01720089 (DD),,,,,,,,,,,,,,,,,,,,,,,,,,,,
72208013880,2012-02-21T12:56:00,SY-MT,7,,SE,0.25,mi,"TEMP, PRECIP, SNOW",,,"MMTS, SRG, SNOWBOARD",,,WFO CHS,,,,,,,,,,,,,,,,,,,,,,,,,,,30.22,51,64,0.00,,+0.08,8,63,30.22,FEW:02 40 BKN:07 100 BKN:07 200,30.17,10.00,57,150,,10,,,,,,,,,,,,,,,,,,,,,,,,,,,,,,,,,,,,,SYN092AAXX  21184 72208 32666 61509 10178 20106 30217 40233 58027 91756 333 10178 20050 555 92118;MET13002/21/12 12:56:02 METAR KCHS 211756Z 15009KT 10SM FEW040 BKN100 BKN200 18/11 A3022 RMK AO2 SLP233 T01780106 10178 20050 58027 (DD),,,,,,,,,,,,,,,,,,,,,,,,,,,,
72208013880,2012-02-21T13:56:00,FM-15,7,,SE,0.25,mi,"TEMP, PRECIP, SNOW",,,"MMTS, SRG, SNOWBOARD",,,WFO CHS,,,,,,,,,,,,,,,,,,,,,,,,,,,30.19,52,63,0.00,,,,68,30.19,FEW:02 35 SCT:04 110 BKN:07 200,30.14,10.00,57,160,,8,,,,,,,,,,,,,,,,,,,,,,,,,,,,,,,,,,,,,MET11202/21/12 13:56:02 METAR KCHS 211856Z 16007KT 10SM FEW035 SCT110 BKN200 17/11 A3019 RMK AO2 SLP224 T01720111 (DD),,,,,,,,,,,,,,,,,,,,,,,,,,,,
72208013880,2012-02-21T15:56:00,SY-MT,7,,SE,0.25,mi,"TEMP, PRECIP, SNOW",,,"MMTS, SRG, SNOWBOARD",,,WFO CHS,,,,,,,,,,,,,,,,,,,,,,,,,,,30.14,53,63,0.00,,+0.08,6,70,30.14,FEW:02 35 SCT:04 100 BKN:07 200,30.09,10.00,57,150,,13,,,,,,,,,,,,,,,,,,,,,,,,,,,,,,,,,,,,,SYN076AAXX  21214 72208 32666 61511 10172 20117 30190 40206 56027 92056 555 92121;MET11902/21/12 15:56:02 METAR KCHS 212056Z 15011KT 10SM FEW035 SCT100 BKN200 17/12 A3014 RMK AO2 SLP206 T01720117 56027 (BBE),,,,,,,,,,,,,,,,,,,,,,,,,,,,
72208013880,2012-02-27T14:56:00,FM-15,7,,SE,0.25,mi,"TEMP, PRECIP, SNOW",,,"MMTS, SRG, SNOWBOARD",,,WFO CHS,,,,,,,,,,,,,,,,,,,,,,,,,,,30.32,61,66,0.00,,,,84,30.32,FEW:02 10 BKN:07 15 OVC:08 30,30.27,10.00,63,160,,8,,,,,,,,,,,,,,,,,,,,,,,,,,,,,,,,,,,,,MET11202/27/12 14:56:02 METAR KCHS 271956Z 16007KT 10SM FEW010 BKN015 OVC030 19/16 A3032 RMK AO2 SLP267 T01890161 (DD),,,,,,,,,,,,,,,,,,,,,,,,,,,,
72208013880,2012-02-27T15:56:00,SY-MT,7,,SE,0.25,mi,"TEMP, PRECIP, SNOW",,,"MMTS, SRG, SNOWBOARD",,,WFO CHS,,,,,,,,,,,,,,,,,,,,,,,,,,,30.32,61,66,0.00,,+0.03,6,84,30.32,FEW:02 10 BKN:07 15 OVC:08 20,30.27,10.00,63,170,,8,,,,,,,,,,,,,,,,,,,,,,,,,,,,,,,,,,,,,SYN076AAXX  27214 72208 32466 81707 10189 20161 30251 40266 56011 92056 555 92721;MET11902/27/12 15:56:02 METAR KCHS 272056Z 17007KT 10SM FEW010 BKN015 OVC020 19/16 A3032 RMK AO2 SLP266 T01890161 56011 (BBE),,,,,,,,,,,,,,,,,,,,,,,,,,,,
72208013880,2012-03-03T14:56:00,FM-15,7,,SE,0.25,mi,"TEMP, PRECIP, SNOW",,,"MMTS, SRG, SNOWBOARD",,,WFO CHS,,,,,,,,,,,,,,,,,,,,,,,,,,,29.79,58,60,0.28,+RA:02 BR:1 |RA |RA,,,93,29.79,OVC:08 47,29.74,2.50,59,170,,9,,,,,,,,,,,,,,,,,,,,,,,,,,,,,,,,,,,,,MET11503/03/12 14:56:02 METAR KCHS 031956Z 17008KT 2 1/2SM +RA BR OVC047 16/14 A2979 RMK AO2 SLP088 P0027 T01560144 (KLL),,,,,,,,,,,,,,,,,,,,,,,,,,,,
72208013880,2012-03-03T16:56:00,FM-15,7,,SE,0.25,mi,"TEMP, PRECIP, SNOW",,,"MMTS, SRG, SNOWBOARD",,,WFO CHS,,,,,,,,,,,,,,,,,,,,,,,,,,,29.77,58,59,0.18,-RA:02 BR:1 |RA |RA,,,96,29.76,FEW:02 5 SCT:04 11 OVC:08 80,29.72,2.50,58,160,,7,,,,,,,,,,,,,,,,,,,,,,,,,,,,,,,,,,,,,MET15503/03/12 16:56:02 METAR KCHS 032156Z 16006KT 2 1/2SM -RA BR FEW005 SCT011 OVC080 15/14 A2977 RMK AO2 SFC VIS 4 TSE37 SLP079 TS DSIPTD P0019 T01500144 (JRS),,,,,,,,,,,,,,,,,,,,,,,,,,,,
72208013880,2012-03-03T17:36:00,FM-16,7,,SE,0.25,mi,"TEMP, PRECIP, SNOW",,,"MMTS, SRG, SNOWBOARD",,,WFO CHS,,,,,,,,,,,,,,,,,,,,,,,,,,,29.75,57,59,0.07,-RA:02 BR:1 |RA |RA,,,94,,FEW:02 5 SCT:04 40 OVC:08 100,29.70,2.50,58,160,,8,,,,,,,,,,,,,,,,,,,,,,,,,,,,,,,,,,,,,MET12203/03/12 17:36:02 SPECI KCHS 032236Z 16007KT 2 1/2SM -RA BR FEW005 SCT040 OVC100 15/14 A2975 RMK AO2 SFC VIS 5 P0007 (JRS),,,,,,,,,,,,,,,,,,,,,,,,,,,,
72208013880,2012-03-08T11:56:00,FM-15,7,,SE,0.25,mi,"TEMP, PRECIP, SNOW",,,"MMTS, SRG, SNOWBOARD",,,WFO CHS,,,,,,,,,,,,,,,,,,,,,,,,,,,30.36,58,71,0.00,,,,63,30.36,FEW:02 40 SCT:04 55 BKN:07 70,30.31,10.00,63,160,,10,,,,,,,,,,,,,,,,,,,,,,,,,,,,,,,,,,,,,MET11203/08/12 11:56:02 METAR KCHS 081656Z 16009KT 10SM FEW040 SCT055 BKN070 22/14 A3036 RMK AO2 SLP281 T02170144 (DD),,,,,,,,,,,,,,,,,,,,,,,,,,,,
72208013880,2012-03-08T17:56:00,FM-15,7,,SE,0.25,mi,"TEMP, PRECIP, SNOW",,,"MMTS, SRG, SNOWBOARD",,,WFO CHS,,,,,,,,,,,,,,,,,,,,,,,,,,,30.25,60,69,0.00,,,,73,30.24,FEW:02 40 SCT:04 250,30.20,10.00,64,160,,11,,,,,,,,,,,,,,,,,,,,,,,,,,,,,,,,,,,,,MET10603/08/12 17:56:02 METAR KCHS 082256Z 16010KT 10SM FEW040 SCT250 21/16 A3025 RMK AO2 SLP241 T02060156 (JMB),,,,,,,,,,,,,,,,,,,,,,,,,,,,
72208013880,2012-03-12T11:56:00,FM-15,7,,SE,0.25,mi,"TEMP, PRECIP, SNOW",,,"MMTS, SRG, SNOWBOARD",,,WFO CHS,,,,,,,,,,,,,,,,,,,,,,,,,,,30.39,51,71,0.00,,,,49,30.39,SCT:04 40 BKN:07 50 BKN:07 100,30.34,10.00,60,150,21,16,,,,,,,,,,,,,,,,,,,,,,,,,,,,,,,,,,,,,MET11503/12/12 11:56:02 METAR KCHS 121656Z 15014G18KT 10SM SCT040 BKN050 BKN100 22/11 A3039 RMK AO2 SLP291 T02170106 (DD),,,,,,,,,,,,,,,,,,,,,,,,,,,,
72208013880,2012-03-12T12:56:00,SY-MT,7,,SE,0.25,mi,"TEMP, PRECIP, SNOW",,,"MMTS, SRG, SNOWBOARD",,,WFO CHS,,,,,,,,,,,,,,,,,,,,,,,,,,,30.37,51,73,0.00,,+0.04,8,46,30.36,SCT:04 50 SCT:04 100,30.32,10.00,61,160,22,14,,,,,,,,,,,,,,,,,,,,,,,,,,,,,,,,,,,,,SYN098AAXX  12184 72208 32766 41612 10228 20106 30268 40282 58015 91756 333 10228 20100 91019 555 91218;MET12603/12/12 12:56:02 METAR KCHS 121756Z 16012G19KT 10SM SCT050 SCT100 23/11 A3037 RMK AO2 SLP282 T02280106 10228 20100 58015 (DD),,,,,,,,,,,,,,,,,,,,,,,,,,,,
72208013880,2012-03-12T15:56:00,FM-15,7,,SE,0.25,mi,"TEMP, PRECIP, SNOW",,,"MMTS, SRG, SNOWBOARD",,,WFO CHS,,,,,,,,,,,,,,,,,,,,,,,,,,,30.32,52,72,0.00,,+0.05,6,50,30.31,FEW:02 45 SCT:04 250,30.27,10.00,61,160,,13,,,,,,,,,,,,,,,,,,,,,,,,,,,,,,,,,,,,,MET11203/12/12 15:56:02 METAR KCHS 122056Z 16011KT 10SM FEW045 SCT250 22/11 A3032 RMK AO2 SLP265 T02220111 56017 (JMB),,,,,,,,,,,,,,,,,,,,,,,,,,,,
72208013880,2012-03-12T16:00:00,FM-12,4,,SE,0.25,mi,"TEMP, PRECIP, SNOW",,,"MMTS, SRG, SNOWBOARD",,,WFO CHS,,,,,,,,,,,,,,,,,,,,,,,,,,,,52,72,,,+0.05,6,50,30.31,,30.27,9.94,61,160,,13,,,,,,,,,,,,,,,,,,,,,,,,,,,,,,,,,,,,,SYN076AAXX  12214 72208 32666 41611 10222 20111 30251 40265 56017 92056 555 91221;,,,,,,,,,,,,,,,,,,,,,,,,,,,,
72208013880,2012-03-12T17:56:00,FM-15,7,,SE,0.25,mi,"TEMP, PRECIP, SNOW",,,"MMTS, SRG, SNOWBOARD",,,WFO CHS,,,,,,,,,,,,,,,,,,,,,,,,,,,30.31,52,68,0.00,,,,57,30.31,FEW:02 45 BKN:07 80 BKN:07 250,30.26,10.00,59,150,,8,,,,,,,,,,,,,,,,,,,,,,,,,,,,,,,,,,,,,MET11303/12/12 17:56:02 METAR KCHS 122256Z 15007KT 10SM FEW045 BKN080 BKN250 20/11 A3031 RMK AO2 SLP264 T02000111 (JMB),,,,,,,,,,,,,,,,,,,,,,,,,,,,
72208013880,2012-03-14T14:46:00,FM-16,7,,SE,0.25,mi,"TEMP, PRECIP, SNOW",,,"MMTS, SRG, SNOWBOARD",,,WFO CHS,,,,,,,,,,,,,,,,,,,,,,,,,,,30.18,63,79,,,,,58,,SCT:04 50 SCT:04 60,30.13,10.00,69,160,,13,,,,,,,,,,,,,,,,,,,,,,,,,,,,,,,,,,,,,MET10003/14/12 14:46:02 SPECI KCHS 141946Z 16011KT 10SM SCT050 SCT060 26/17 A3018 RMK AO2 WSHFT 1927 (JMB),,,,,,,,,,,,,,,,,,,,,,,,,,,,
72208013880,2012-03-14T14:56:00,FM-15,7,,SE,0.25,mi,"TEMP, PRECIP, SNOW",,,"MMTS, SRG, SNOWBOARD",,,WFO CHS,,,,,,,,,,,,,,,,,,,,,,,,,,,30.18,62,79,0.00,,,,56,30.18,FEW:02 50 SCT:04 60 SCT:04 100,30.13,10.00,68,170,,15,,,,,,,,,,,,,,,,,,,,,,,,,,,,,,,,,,,,,MET13603/14/12 14:56:02 METAR KCHS 141956Z 17013KT 10SM FEW050 SCT060 SCT100 26/17 A3018 RMK AO2 WSHFT 1927 SLP220 MDT CU NW-N T02610167 (JMB),,,,,,,,,,,,,,,,,,,,,,,,,,,,
72208013880,2012-03-14T15:56:00,SY-MT,7,,SE,0.25,mi,"TEMP, PRECIP, SNOW",,,"MMTS, SRG, SNOWBOARD",,,WFO CHS,,,,,,,,,,,,,,,,,,,,,,,,,,,30.19,62,76,0.00,,+0.04,5,62,30.19,SCT:04 50 BKN:07 60 BKN:07 100,30.14,10.00,67,160,,13,,,,,,,,,,,,,,,,,,,,,,,,,,,,,,,,,,,,,SYN076AAXX  14214 72208 32766 61611 10244 20167 30207 40222 55012 92056 555 91421;MET13203/14/12 15:56:02 METAR KCHS 142056Z 16011KT 10SM SCT050 BKN060 BKN100 24/17 A3019 RMK AO2 SLP222 MDT CU NW-NE T02440167 55012 (JMB),,,,,,,,,,,,,,,,,,,,,,,,,,,,
72208013880,2012-03-15T15:56:00,FM-15,7,,SE,0.25,mi,"TEMP, PRECIP, SNOW",,,"MMTS, SRG, SNOWBOARD",,,WFO CHS,,,,,,,,,,,,,,,,,,,,,,,,,,,30.22,59,78,0.00,,+0.05,6,52,30.22,FEW:02 45 SCT:04 65 SCT:04 250,30.17,10.00,66,160,,16,,,,,,,,,,,,,,,,,,,,,,,,,,,,,,,,,,,,,MET13103/15/12 15:56:02 METAR KCHS 152056Z 16014KT 10SM FEW045 SCT065 SCT250 26/15 A3022 RMK AO2 SLP233 MDT CU NW-N T02560150 56018 (JMB),,,,,,,,,,,,,,,,,,,,,,,,,,,,
72208013880,2012-03-15T16:00:00,FM-12,4,,SE,0.25,mi,"TEMP, PRECIP, SNOW",,,"MMTS, SRG, SNOWBOARD",,,WFO CHS,,,,,,,,,,,,,,,,,,,,,,,,,,,,59,78,,,+0.05,6,52,30.22,,30.17,9.94,66,160,,16,,,,,,,,,,,,,,,,,,,,,,,,,,,,,,,,,,,,,SYN076AAXX  15214 72208 32666 41614 10256 20150 30217 40233 56018 92056 555 91521;,,,,,,,,,,,,,,,,,,,,,,,,,,,,
72208013880,2012-03-17T16:56:00,FM-15,7,,SE,0.25,mi,"TEMP, PRECIP, SNOW",,,"MMTS, SRG, SNOWBOARD",,,WFO CHS,,,,,,,,,,,,,,,,,,,,,,,,,,,30.15,60,80,0.00,,,,51,30.15,FEW:02 55 SCT:04 250,30.10,10.00,68,170,,13,,,,,,,,,,,,,,,,,,,,,,,,,,,,,,,,,,,,,MET11603/17/12 16:56:02 METAR KCHS 172156Z 17011KT 10SM FEW055 SCT250 27/16 A3015 RMK AO2 SLP209 CB DSNT E T02670156 (JRS),,,,,,,,,,,,,,,,,,,,,,,,,,,,
72208013880,2012-03-18T13:56:00,FM-15,7,,SE,0.25,mi,"TEMP, PRECIP, SNOW",,,"MMTS, SRG, SNOWBOARD",,,WFO CHS,,,,,,,,,,,,,,,,,,,,,,,,,,,30.21,61,76,T,TS:7 -RA:02 |RA TS |SHRA TS,,,60,30.21,BKN:07 45 BKN:07 85,30.16,10.00,67,150,,14,,,,,,,,,,,,,,,,,,,,,,,,,,,,,,,,,,,,,MET16603/18/12 13:56:02 METAR KCHS 181856Z 15012KT 10SM -TSRA BKN045CB BKN085 24/16 A3021 RMK AO2 TSB48RAB54 SLP229 OCNL LTGCG S-W-NW TS S-W-NW MOV SE P0000 T02440161 (KLL),,,,,,,,,,,,,,,,,,,,,,,,,,,,
72208013880,2012-03-19T17:56:00,FM-15,7,,SE,0.25,mi,"TEMP, PRECIP, SNOW",,,"MMTS, SRG, SNOWBOARD",,,WFO CHS,,,,,,,,,,,,,,,,,,,,,,,,,,,30.14,56,72,0.00,,,,57,30.14,FEW:02 45 SCT:04 65 BKN:07 250,30.09,10.00,63,170,,7,,,,,,,,,,,,,,,,,,,,,,,,,,,,,,,,,,,,,MET12203/19/12 17:56:02 METAR KCHS 192256Z 17006KT 10SM FEW045 SCT065 BKN250 22/13 A3014 RMK AO2 SLP207 MDT CU N T02220133 (JMB),,,,,,,,,,,,,,,,,,,,,,,,,,,,
72208013880,2012-03-20T12:56:00,SY-MT,7,,SE,0.25,mi,"TEMP, PRECIP, SNOW",,,"MMTS, SRG, SNOWBOARD",,,WFO CHS,,,,,,,,,,,,,,,,,,,,,,,,,,,30.20,63,78,0.00,,+0.03,8,60,30.19,SCT:04 40 BKN:07 55,30.15,10.00,68,170,,11,,,,,,,,,,,,,,,,,,,,,,,,,,,,,,,,,,,,,SYN092AAXX  20184 72208 32666 61710 10256 20172 30211 40225 58009 91756 333 10267 20156 555 92018;MET12303/20/12 12:56:02 METAR KCHS 201756Z 17010KT 10SM SCT040 BKN055 26/17 A3020 RMK AO2 SLP225 T02560172 10267 20156 58009 (DD),,,,,,,,,,,,,,,,,,,,,,,,,,,,
72208013880,2012-03-20T13:56:00,FM-15,7,,SE,0.25,mi,"TEMP, PRECIP, SNOW",,,"MMTS, SRG, SNOWBOARD",,,WFO CHS,,,,,,,,,,,,,,,,,,,,,,,,,,,30.17,60,79,0.00,,,,52,30.17,SCT:04 45 BKN:07 60,30.12,10.00,67,150,,13,,,,,,,,,,,,,,,,,,,,,,,,,,,,,,,,,,,,,MET10503/20/12 13:56:02 METAR KCHS 201856Z 15011KT 10SM SCT045 BKN060 26/16 A3017 RMK AO2 SLP216 T02610156 (DD),,,,,,,,,,,,,,,,,,,,,,,,,,,,
72208013880,2012-03-20T14:56:00,FM-15,7,,SE,0.25,mi,"TEMP, PRECIP, SNOW",,,"MMTS, SRG, SNOWBOARD",,,WFO CHS,,,,,,,,,,,,,,,,,,,,,,,,,,,30.16,60,79,0.00,,,,52,30.16,FEW:02 45 SCT:04 250,30.11,10.00,67,150,,13,,,,,,,,,,,,,,,,,,,,,,,,,,,,,,,,,,,,,MET11603/20/12 14:56:02 METAR KCHS 201956Z 15011KT 10SM FEW045 SCT250 26/16 A3016 RMK AO2 SLP212 MDT CU NW T02610156 (JMB),,,,,,,,,,,,,,,,,,,,,,,,,,,,
72208013880,2012-03-20T15:56:00,SY-MT,7,,SE,0.25,mi,"TEMP, PRECIP, SNOW",,,"MMTS, SRG, SNOWBOARD",,,WFO CHS,,,,,,,,,,,,,,,,,,,,,,,,,,,30.15,61,77,0.00,,+0.04,6,58,30.15,FEW:02 45 SCT:04 250,30.10,10.00,67,160,,13,,,,,,,,,,,,,,,,,,,,,,,,,,,,,,,,,,,,,SYN076AAXX  20214 72208 32666 41611 10250 20161 30194 40210 56015 92056 555 92021;MET12203/20/12 15:56:02 METAR KCHS 202056Z 16011KT 10SM FEW045 SCT250 25/16 A3015 RMK AO2 SLP210 MDT CU NW T02500161 56015 (JMB),,,,,,,,,,,,,,,,,,,,,,,,,,,,
72208013880,2012-03-20T17:56:00,FM-15,6,,SE,0.25,mi,"TEMP, PRECIP, SNOW",,,"MMTS, SRG, SNOWBOARD",,,WFO CHS,,,,,,,,,,,,,,,,,,,,,,,,,,,30.15,61,72,0.00,,,,68,30.15,FEW:02 250,30.10,10.00,65,160,,9,,,,,,,,,,,,,,,,,,,,,,,,,,,,,,,,,,,,,MET09903/20/12 17:56:02 METAR KCHS 202256Z 16008KT 10SM FEW250 22/16 A3015 RMK AO2 SLP209 T02220161 (JMB),,,,,,,,,,,,,,,,,,,,,,,,,,,,
72208013880,2012-03-21T13:56:00,FM-15,7,,SE,0.25,mi,"TEMP, PRECIP, SNOW",,,"MMTS, SRG, SNOWBOARD",,,WFO CHS,,,,,,,,,,,,,,,,,,,,,,,,,,,30.23,63,72,0.00,,,,73,30.23,SCT:04 30 SCT:04 60 BKN:07 100,30.18,10.00,66,160,,16,,,,,,,,,,,,,,,,,,,,,,,,,,,,,,,,,,,,,MET12503/21/12 13:56:02 METAR KCHS 211856Z 16014KT 10SM SCT030 SCT060 BKN100 22/17 A3023 RMK AO2 SLP236 TCU DSNT W-N T02220172 (DD),,,,,,,,,,,,,,,,,,,,,,,,,,,,
72208013880,2012-03-21T16:56:00,FM-15,7,,SE,0.25,mi,"TEMP, PRECIP, SNOW",,,"MMTS, SRG, SNOWBOARD",,,WFO CHS,,,,,,,,,,,,,,,,,,,,,,,,,,,30.21,63,73,0.00,,,,71,30.21,FEW:02 30 SCT:04 40 BKN:07 100,30.16,10.00,67,150,,13,,,,,,,,,,,,,,,,,,,,,,,,,,,,,,,,,,,,,MET11303/21/12 16:56:02 METAR KCHS 212156Z 15011KT 10SM FEW030 SCT040 BKN100 23/17 A3021 RMK AO2 SLP230 T02280172 (JMB),,,,,,,,,,,,,,,,,,,,,,,,,,,,
72208013880,2012-03-21T17:56:00,FM-15,7,,SE,0.25,mi,"TEMP, PRECIP, SNOW",,,"MMTS, SRG, SNOWBOARD",,,WFO CHS,,,,,,,,,,,,,,,,,,,,,,,,,,,30.22,62,71,0.00,,,,73,30.21,FEW:02 30 SCT:04 50 BKN:07 100,30.17,10.00,65,150,,9,,,,,,,,,,,,,,,,,,,,,,,,,,,,,,,,,,,,,MET11303/21/12 17:56:02 METAR KCHS 212256Z 15008KT 10SM FEW030 SCT050 BKN100 22/17 A3022 RMK AO2 SLP231 T02170167 (JMB),,,,,,,,,,,,,,,,,,,,,,,,,,,,
72208013880,2012-03-22T12:56:00,SY-MT,7,,SE,0.25,mi,"TEMP, PRECIP, SNOW",,,"MMTS, SRG, SNOWBOARD",,,WFO CHS,,,,,,,,,,,,,,,,,,,,,,,,,,,30.22,66,78,0.00,,+0.04,8,67,30.22,SCT:04 30 SCT:04 65 BKN:07 120,30.17,10.00,70,170,,13,,,,,,,,,,,,,,,,,,,,,,,,,,,,,,,,,,,,,SYN092AAXX  22184 72208 32566 61711 10256 20189 30217 40232 58013 91756 333 10261 20172 555 92218;MET15203/22/12 12:56:02 METAR KCHS 221756Z 17011KT 10SM SCT030TCU SCT065 BKN120 26/19 A3022 RMK AO2 SLP232 TCU S-SW SHRA S-SW T02560189 10261 20172 58013 (DD),,,,,,,,,,,,,,,,,,,,,,,,,,,,
72208013880,2012-03-22T14:56:00,FM-15,7,,SE,0.25,mi,"TEMP, PRECIP, SNOW",,,"MMTS, SRG, SNOWBOARD",,,WFO CHS,,,,,,,,,,,,,,,,,,,,,,,,,,,30.18,65,74,0.01,,,,74,30.18,SCT:04 30 BKN:07 65 BKN:07 100,30.13,10.00,68,170,,10,,,,,,,,,,,,,,,,,,,,,,,,,,,,,,,,,,,,,MET13703/22/12 14:56:02 METAR KCHS 221956Z 17009KT 10SM SCT030 BKN065 BKN100 23/18 A3018 RMK AO2 RAE24 SLP219 MDT CU NW-N P0001 T02330183 (JMB),,,,,,,,,,,,,,,,,,,,,,,,,,,,
72208013880,2012-03-22T15:56:00,SY-MT,7,,SE,0.25,mi,"TEMP, PRECIP, SNOW",,,"MMTS, SRG, SNOWBOARD",,,WFO CHS,,,,,,,,,,,,,,,,,,,,,,,,,,,30.18,64,72,0.00,,+0.03,5,76,30.18,FEW:02 30 BKN:07 65 BKN:07 100,30.13,10.00,67,150,,14,,,,,,,,,,,,,,,,,,,,,,,,,,,,,,,,,,,,,SYN082AAXX  22214 72208 12566 61512 10222 20178 30204 40220 55011 60047 92056 555 92221;MET13503/22/12 15:56:02 METAR KCHS 222056Z 15012KT 10SM FEW030 BKN065 BKN100 22/18 A3018 RMK AO2 SLP220 MDT CU NE 60015 T02220178 55011 (JMB),,,,,,,,,,,,,,,,,,,,,,,,,,,,
72208013880,2012-03-23T15:56:00,FM-15,7,,SE,0.25,mi,"TEMP, PRECIP, SNOW",,,"MMTS, SRG, SNOWBOARD",,,WFO CHS,,,,,,,,,,,,,,,,,,,,,,,,,,,30.01,63,81,0.00,,+0.08,6,54,30.01,SCT:04 40 SCT:04 100 BKN:07 250,29.96,10.00,69,170,,10,,,,,,,,,,,,,,,,,,,,,,,,,,,,,,,,,,,,,MET13503/23/12 15:56:02 METAR KCHS 232056Z 17009KT 10SM SCT040 SCT100 BKN250 27/17 A3001 RMK AO2 SLP161 MDT CU NE 60000 T02720172 56028 (JMB),,,,,,,,,,,,,,,,,,,,,,,,,,,,
72208013880,2012-03-23T16:00:00,FM-12,4,,SE,0.25,mi,"TEMP, PRECIP, SNOW",,,"MMTS, SRG, SNOWBOARD",,,WFO CHS,,,,,,,,,,,,,,,,,,,,,,,,,,,,63,81,,,+0.08,6,54,30.01,,29.96,9.94,69,170,,10,,,,,,,,,,,,,,,,,,,,,,,,,,,,,,,,,,,,,SYN082AAXX  23214 72208 12666 61709 10272 20172 30146 40161 56028 69907 92056 555 92321;,,,,,,,,,,,,,,,,,,,,,,,,,,,,
72208013880,2012-03-23T16:56:00,FM-15,7,,SE,0.25,mi,"TEMP, PRECIP, SNOW",,,"MMTS, SRG, SNOWBOARD",,,WFO CHS,,,,,,,,,,,,,,,,,,,,,,,,,,,30.01,61,78,0.00,,,,56,30.01,FEW:02 40 SCT:04 100 SCT:04 250,29.96,10.00,67,170,,15,,,,,,,,,,,,,,,,,,,,,,,,,,,,,,,,,,,,,MET12503/23/12 16:56:02 METAR KCHS 232156Z 17013KT 10SM FEW040 SCT100 SCT250 26/16 A3001 RMK AO2 SLP163 MDT CU N-NE T02560161 (JMB),,,,,,,,,,,,,,,,,,,,,,,,,,,,
72208013880,2012-03-24T13:37:00,FM-16,7,,SE,0.25,mi,"TEMP, PRECIP, SNOW",,,"MMTS, SRG, SNOWBOARD",,,WFO CHS,,,,,,,,,,,,,,,,,,,,,,,,,,,29.88,64,75,T,TS:7 RA:02 |RA TS |SHRA TS,,,69,,BKN:07 43 BKN:07 55,29.83,7.00,68,170,,15,,,,,,,,,,,,,,,,,,,,,,,,,,,,,,,,,,,,,MET15503/24/12 13:37:02 SPECI KCHS 241837Z 17013KT 7SM TSRA BKN043 CB BKN055 24/18 A2988 RMK AO2 TSB32RAB32 OCNL LTGICCC SW TS SW MOV NE CB SW MOV NE P0000 (KLL),,,,,,,,,,,,,,,,,,,,,,,,,,,,
72208013880,2012-04-01T12:56:00,SY-MT,7,,SE,0.25,mi,"TEMP, PRECIP, SNOW",,,"MMTS, SRG, SNOWBOARD",,,WFO CHS,,,,,,,,,,,,,,,,,,,,,,,,,,,29.87,61,74,0.00,,+0.02,8,64,29.86,SCT:04 25 SCT:04 50,29.82,10.00,66,160,,8,,,,,,,,,,,,,,,,,,,,,,,,,,,,,,,,,,,,,SYN092AAXX  01184 72208 32566 41607 10233 20161 30099 40113 58007 91756 333 10256 20156 555 90118;MET12604/01/12 12:56:02 METAR KCHS 011756Z 16007KT 10SM SCT025 SCT050 23/16 A2987 RMK AO2 SLP113 T02330161 10256 20156 58007 $ (KLL),,,,,,,,,,,,,,,,,,,,,,,,,,,,
72208013880,2012-04-01T13:56:00,FM-15,7,,SE,0.25,mi,"TEMP, PRECIP, SNOW",,,"MMTS, SRG, SNOWBOARD",,,WFO CHS,,,,,,,,,,,,,,,,,,,,,,,,,,,29.84,61,75,0.00,,,,62,29.84,FEW:02 35,29.79,10.00,66,150,,9,,,,,,,,,,,,,,,,,,,,,,,,,,,,,,,,,,,,,MET10104/01/12 13:56:02 METAR KCHS 011856Z 15008KT 10SM FEW035 24/16 A2984 RMK AO2 SLP104 T02390161 $ (KLL),,,,,,,,,,,,,,,,,,,,,,,,,,,,
72208013880,2012-04-01T14:56:00,FM-15,7,,SE,0.25,mi,"TEMP, PRECIP, SNOW",,,"MMTS, SRG, SNOWBOARD",,,WFO CHS,,,,,,,,,,,,,,,,,,,,,,,,,,,29.83,61,75,0.00,,,,62,29.83,FEW:02 38,29.78,10.00,66,170,,11,,,,,,,,,,,,,,,,,,,,,,,,,,,,,,,,,,,,,MET10104/01/12 14:56:02 METAR KCHS 011956Z 17010KT 10SM FEW038 24/16 A2983 RMK AO2 SLP101 T02390161 $ (JRS),,,,,,,,,,,,,,,,,,,,,,,,,,,,
72208013880,2012-04-01T15:56:00,FM-15,7,,SE,0.25,mi,"TEMP, PRECIP, SNOW",,,"MMTS, SRG, SNOWBOARD",,,WFO CHS,,,,,,,,,,,,,,,,,,,,,,,,,,,29.82,61,74,0.00,,+0.04,6,64,29.82,FEW:02 38,29.77,10.00,66,150,,13,,,,,,,,,,,,,,,,,,,,,,,,,,,,,,,,,,,,,MET10704/01/12 15:56:02 METAR KCHS 012056Z 15011KT 10SM FEW038 23/16 A2982 RMK AO2 SLP098 T02330161 56015 $ (JRS),,,,,,,,,,,,,,,,,,,,,,,,,,,,
72208013880,2012-04-01T16:00:00,FM-12,4,,SE,0.25,mi,"TEMP, PRECIP, SNOW",,,"MMTS, SRG, SNOWBOARD",,,WFO CHS,,,,,,,,,,,,,,,,,,,,,,,,,,,,61,74,,,+0.04,6,64,29.82,,29.77,9.94,66,150,,13,,,,,,,,,,,,,,,,,,,,,,,,,,,,,,,,,,,,,SYN076AAXX  01214 72208 32666 21511 10233 20161 30082 40098 56015 92056 555 90121;,,,,,,,,,,,,,,,,,,,,,,,,,,,,
72208013880,2012-04-01T17:56:00,FM-15,7,,SE,0.25,mi,"TEMP, PRECIP, SNOW",,,"MMTS, SRG, SNOWBOARD",,,WFO CHS,,,,,,,,,,,,,,,,,,,,,,,,,,,29.83,59,70,0.00,,,,68,29.82,,29.78,10.00,63,170,,9,,,,,,,,,,,,,,,,,,,,,,,,,,,,,,,,,,,,,MET09804/01/12 17:56:02 METAR KCHS 012256Z 17008KT 10SM CLR 21/15 A2983 RMK AO2 SLP099 T02110150 $ (JRS),,,,,,,,,,,,,,,,,,,,,,,,,,,,
72208013880,2012-04-03T13:02:00,FM-16,7,,SE,0.25,mi,"TEMP, PRECIP, SNOW",,,"MMTS, SRG, SNOWBOARD",,,WFO CHS,,,,,,,,,,,,,,,,,,,,,,,,,,,30.00,59,75,,,,,57,,BKN:07 28 OVC:08 35,29.95,10.00,65,160,,13,,,,,,,,,,,,,,,,,,,,,,,,,,,,,,,,,,,,,MET08904/03/12 13:02:02 SPECI KCHS 031802Z 16011KT 10SM BKN028 OVC035 24/15 A3000 RMK AO2 (JRS),,,,,,,,,,,,,,,,,,,,,,,,,,,,
72208013880,2012-04-09T15:56:00,FM-15,7,,SE,0.25,mi,"TEMP, PRECIP, SNOW",,,"MMTS, SRG, SNOWBOARD",,,WFO CHS,,,,,,,,,,,,,,,,,,,,,,,,,,,29.99,47,75,0.00,,+0.06,6,37,29.98,,29.94,10.00,59,170,,11,,,,,,,,,,,,,,,,,,,,,,,,,,,,,,,,,,,,,MET10204/09/12 15:56:02 METAR KCHS 092056Z 17010KT 10SM CLR 24/08 A2999 RMK AO2 SLP153 T02390083 56021 (BBE),,,,,,,,,,,,,,,,,,,,,,,,,,,,
72208013880,2012-04-09T16:00:00,FM-12,4,,SE,0.25,mi,"TEMP, PRECIP, SNOW",,,"MMTS, SRG, SNOWBOARD",,,WFO CHS,,,,,,,,,,,,,,,,,,,,,,,,,,,,47,75,,,+0.06,6,37,29.98,CLR:00,29.94,9.94,59,170,,11,,,,,,,,,,,,,,,,,,,,,,,,,,,,,,,,,,,,,SYN076AAXX  09214 72208 32966 01710 10239 20083 30140 40153 56021 92056 555 90921;,,,,,,,,,,,,,,,,,,,,,,,,,,,,
72208013880,2012-04-12T17:56:00,FM-15,7,,SE,0.25,mi,"TEMP, PRECIP, SNOW",,,"MMTS, SRG, SNOWBOARD",,,WFO CHS,,,,,,,,,,,,,,,,,,,,,,,,,,,30.15,39,61,0.00,,,,44,30.15,,30.10,10.00,50,150,,10,,,,,,,,,,,,,,,,,,,,,,,,,,,,,,,,,,,,,MET09604/12/12 17:56:02 METAR KCHS 122256Z 15009KT 10SM CLR 16/04 A3015 RMK AO2 SLP210 T01610039 (BBE),,,,,,,,,,,,,,,,,,,,,,,,,,,,
72208013880,2012-04-14T12:56:00,SY-MT,7,,SE,0.25,mi,"TEMP, PRECIP, SNOW",,,"MMTS, SRG, SNOWBOARD",,,WFO CHS,,,,,,,,,,,,,,,,,,,,,,,,,,,30.31,57,76,0.00,,+0.04,8,52,30.30,SCT:04 36 BKN:07 47,30.26,10.00,65,160,23,17,,,,,,,,,,,,,,,,,,,,,,,,,,,,,,,,,,,,,SYN098AAXX  14184 72208 32666 61615 10244 20139 30248 40262 58012 91756 333 10244 20133 91020 555 91418;MET13804/14/12 12:56:02 METAR KCHS 141756Z 16015G20KT 10SM SCT036 BKN047 24/14 A3031 RMK AO2 WSHFT 1738 SLP262 T02440139 10244 20133 58012 (KLL),,,,,,,,,,,,,,,,,,,,,,,,,,,,
72208013880,2012-04-14T13:56:00,FM-15,7,,SE,0.25,mi,"TEMP, PRECIP, SNOW",,,"MMTS, SRG, SNOWBOARD",,,WFO CHS,,,,,,,,,,,,,,,,,,,,,,,,,,,30.29,56,74,0.00,,,,54,30.28,SCT:04 37 BKN:07 50,30.24,10.00,63,160,22,15,,,,,,,,,,,,,,,,,,,,,,,,,,,,,,,,,,,,,MET10904/14/12 13:56:02 METAR KCHS 141856Z 16013G19KT 10SM SCT037 BKN050 23/13 A3029 RMK AO2 SLP255 T02330133 (KLL),,,,,,,,,,,,,,,,,,,,,,,,,,,,
72208013880,2012-04-20T16:56:00,FM-15,7,,SE,0.25,mi,"TEMP, PRECIP, SNOW",,,"MMTS, SRG, SNOWBOARD",,,WFO CHS,,,,,,,,,,,,,,,,,,,,,,,,,,,29.87,62,75,0.00,,,,64,29.87,SCT:04 35 SCT:04 50,29.82,10.00,67,160,,9,,,,,,,,,,,,,,,,,,,,,,,,,,,,,,,,,,,,,MET10604/20/12 16:56:02 METAR KCHS 202156Z 16008KT 10SM SCT035 SCT050 24/17 A2987 RMK AO2 SLP115 T02390167 (BBE),,,,,,,,,,,,,,,,,,,,,,,,,,,,
72208013880,2012-04-21T10:56:00,FM-15,7,,SE,0.25,mi,"TEMP, PRECIP, SNOW",,,"MMTS, SRG, SNOWBOARD",,,WFO CHS,,,,,,,,,,,,,,,,,,,,,,,,,,,29.80,67,77,0.00,,,,71,29.80,SCT:04 19 BKN:07 34,29.75,10.00,70,150,17,11,,,,,,,,,,,,,,,,,,,,,,,,,,,,,,,,,,,,,MET10904/21/12 10:56:02 METAR KCHS 211556Z 15010G15KT 10SM SCT019 BKN034 25/19 A2980 RMK AO2 SLP091 T02500194 (KLL),,,,,,,,,,,,,,,,,,,,,,,,,,,,
72208013880,2012-04-21T11:56:00,FM-15,7,,SE,0.25,mi,"TEMP, PRECIP, SNOW",,,"MMTS, SRG, SNOWBOARD",,,WFO CHS,,,,,,,,,,,,,,,,,,,,,,,,,,,29.80,67,78,0.00,,,,69,29.79,BKN:07 18 BKN:07 27,29.75,10.00,71,170,,10,,,,,,,,,,,,,,,,,,,,,,,,,,,,,,,,,,,,,MET10604/21/12 11:56:02 METAR KCHS 211656Z 17009KT 10SM BKN018 BKN027 26/19 A2980 RMK AO2 SLP089 T02560194 (KLL),,,,,,,,,,,,,,,,,,,,,,,,,,,,
72208013880,2012-04-21T13:45:00,FM-16,7,,SE,0.25,mi,"TEMP, PRECIP, SNOW",,,"MMTS, SRG, SNOWBOARD",,,WFO CHS,,,,,,,,,,,,,,,,,,,,,,,,,,,29.78,64,77,,,,,65,,FEW:02 20 SCT:04 38 BKN:07 50,29.73,10.00,69,160,,14,,,,,,,,,,,,,,,,,,,,,,,,,,,,,,,,,,,,,MET09604/21/12 13:45:02 SPECI KCHS 211845Z 16012KT 10SM FEW020 SCT038 BKN050 25/18 A2978 RMK AO2 (KLL),,,,,,,,,,,,,,,,,,,,,,,,,,,,
72208013880,2012-04-21T13:56:00,FM-15,7,,SE,0.25,mi,"TEMP, PRECIP, SNOW",,,"MMTS, SRG, SNOWBOARD",,,WFO CHS,,,,,,,,,,,,,,,,,,,,,,,,,,,29.77,65,76,0.00,,,,69,29.77,FEW:02 20 SCT:04 38 BKN:07 50,29.72,10.00,69,160,,15,,,,,,,,,,,,,,,,,,,,,,,,,,,,,,,,,,,,,MET11304/21/12 13:56:02 METAR KCHS 211856Z 16013KT 10SM FEW020 SCT038 BKN050 24/18 A2977 RMK AO2 SLP082 T02440183 (KLL),,,,,,,,,,,,,,,,,,,,,,,,,,,,
72208013880,2012-04-29T13:56:00,FM-15,7,,SE,0.25,mi,"TEMP, PRECIP, SNOW",,,"MMTS, SRG, SNOWBOARD",,,WFO CHS,,,,,,,,,,,,,,,,,,,,,,,,,,,30.10,68,86,0.00,,,,55,30.10,SCT:04 55,30.05,10.00,74,160,,14,,,,,,,,,,,,,,,,,,,,,,,,,,,,,,,,,,,,,MET09904/29/12 13:56:02 METAR KCHS 291856Z 16012KT 10SM SCT055 30/20 A3010 RMK AO2 SLP193 T03000200 (KLL),,,,,,,,,,,,,,,,,,,,,,,,,,,,
72208013880,2012-04-29T14:56:00,FM-15,7,,SE,0.25,mi,"TEMP, PRECIP, SNOW",,,"MMTS, SRG, SNOWBOARD",,,WFO CHS,,,,,,,,,,,,,,,,,,,,,,,,,,,30.09,68,86,0.00,,,,55,30.09,FEW:02 50 SCT:04 250,30.04,10.00,74,170,,10,,,,,,,,,,,,,,,,,,,,,,,,,,,,,,,,,,,,,MET10604/29/12 14:56:02 METAR KCHS 291956Z 17009KT 10SM FEW050 SCT250 30/20 A3009 RMK AO2 SLP189 T03000200 (JRS),,,,,,,,,,,,,,,,,,,,,,,,,,,,
72208013880,2012-04-29T15:56:00,FM-15,7,,SE,0.25,mi,"TEMP, PRECIP, SNOW",,,"MMTS, SRG, SNOWBOARD",,,WFO CHS,,,,,,,,,,,,,,,,,,,,,,,,,,,30.08,66,86,0.00,,+0.03,6,51,30.08,FEW:02 50 SCT:04 250,30.03,10.00,73,160,,10,,,,,,,,,,,,,,,,,,,,,,,,,,,,,,,,,,,,,MET11204/29/12 15:56:02 METAR KCHS 292056Z 16009KT 10SM FEW050 SCT250 30/19 A3008 RMK AO2 SLP186 T03000189 56009 (JRS),,,,,,,,,,,,,,,,,,,,,,,,,,,,
72208013880,2012-04-29T16:00:00,FM-12,4,,SE,0.25,mi,"TEMP, PRECIP, SNOW",,,"MMTS, SRG, SNOWBOARD",,,WFO CHS,,,,,,,,,,,,,,,,,,,,,,,,,,,,66,86,,,+0.03,6,51,30.08,,30.03,9.94,73,160,,10,,,,,,,,,,,,,,,,,,,,,,,,,,,,,,,,,,,,,SYN076AAXX  29214 72208 32766 41609 10300 20189 30170 40186 56009 92056 555 92921;,,,,,,,,,,,,,,,,,,,,,,,,,,,,
72208013880,2012-04-29T17:56:00,FM-15,7,,SE,0.25,mi,"TEMP, PRECIP, SNOW",,,"MMTS, SRG, SNOWBOARD",,,WFO CHS,,,,,,,,,,,,,,,,,,,,,,,,,,,30.10,65,79,0.00,,,,62,30.10,FEW:02 60 SCT:04 250,30.05,10.00,70,160,,7,,,,,,,,,,,,,,,,,,,,,,,,,,,,,,,,,,,,,MET10604/29/12 17:56:02 METAR KCHS 292256Z 16006KT 10SM FEW060 SCT250 26/18 A3010 RMK AO2 SLP193 T02610183 (JRS),,,,,,,,,,,,,,,,,,,,,,,,,,,,
72208013880,2012-04-30T12:56:00,SY-MT,7,,SE,0.25,mi,"TEMP, PRECIP, SNOW",,,"MMTS, SRG, SNOWBOARD",,,WFO CHS,,,,,,,,,,,,,,,,,,,,,,,,,,,30.20,66,82,0.00,,+0.02,8,58,30.20,SCT:04 35 BKN:07 45,30.15,10.00,71,160,17,10,,,,,,,,,,,,,,,,,,,,,,,,,,,,,,,,,,,,,SYN098AAXX  30184 72208 32666 61609 10278 20189 30211 40227 58006 91756 333 10283 20211 91015 555 93018;MET12604/30/12 12:56:02 METAR KCHS 301756Z 16009G15KT 10SM SCT035 BKN045 28/19 A3020 RMK AO2 SLP227 T02780189 10283 20211 58006 (DD),,,,,,,,,,,,,,,,,,,,,,,,,,,,
72208013880,2012-04-30T15:56:00,FM-15,7,,SE,0.25,mi,"TEMP, PRECIP, SNOW",,,"MMTS, SRG, SNOWBOARD",,,WFO CHS,,,,,,,,,,,,,,,,,,,,,,,,,,,30.16,64,80,0.00,,+0.04,6,58,30.16,SCT:04 30 BKN:07 40,30.11,10.00,70,150,,11,,,,,,,,,,,,,,,,,,,,,,,,,,,,,,,,,,,,,MET11204/30/12 15:56:02 METAR KCHS 302056Z 15010KT 10SM SCT030 BKN040 27/18 A3016 RMK AO2 SLP212 T02670178 56015 (JMB),,,,,,,,,,,,,,,,,,,,,,,,,,,,
72208013880,2012-04-30T16:00:00,FM-12,4,,SE,0.25,mi,"TEMP, PRECIP, SNOW",,,"MMTS, SRG, SNOWBOARD",,,WFO CHS,,,,,,,,,,,,,,,,,,,,,,,,,,,,64,80,,,+0.04,6,58,30.16,,30.11,9.94,70,150,,11,,,,,,,,,,,,,,,,,,,,,,,,,,,,,,,,,,,,,SYN076AAXX  30214 72208 32566 61510 10267 20178 30197 40212 56015 92056 555 93021;,,,,,,,,,,,,,,,,,,,,,,,,,,,,
72208013880,2012-04-30T16:56:00,FM-15,7,,SE,0.25,mi,"TEMP, PRECIP, SNOW",,,"MMTS, SRG, SNOWBOARD",,,WFO CHS,,,,,,,,,,,,,,,,,,,,,,,,,,,30.16,64,79,0.00,,,,60,30.16,SCT:04 30 BKN:07 40,30.11,10.00,69,160,,8,,,,,,,,,,,,,,,,,,,,,,,,,,,,,,,,,,,,,MET10604/30/12 16:56:02 METAR KCHS 302156Z 16007KT 10SM SCT030 BKN040 26/18 A3016 RMK AO2 SLP212 T02610178 (JMB),,,,,,,,,,,,,,,,,,,,,,,,,,,,
72208013880,2012-04-30T17:56:00,FM-15,7,,SE,0.25,mi,"TEMP, PRECIP, SNOW",,,"MMTS, SRG, SNOWBOARD",,,WFO CHS,,,,,,,,,,,,,,,,,,,,,,,,,,,30.16,66,76,0.00,,,,72,30.16,SCT:04 30 BKN:07 40,30.11,10.00,70,160,,10,,,,,,,,,,,,,,,,,,,,,,,,,,,,,,,,,,,,,MET10604/30/12 17:56:02 METAR KCHS 302256Z 16009KT 10SM SCT030 BKN040 24/19 A3016 RMK AO2 SLP213 T02440189 (JMB),,,,,,,,,,,,,,,,,,,,,,,,,,,,
72208013880,2012-05-01T15:56:00,SY-MT,7,,SE,0.25,mi,"TEMP, PRECIP, SNOW",,,"MMTS, SRG, SNOWBOARD",,,WFO CHS,,,,,,,,,,,,,,,,,,,,,,,,,,,30.11,66,82,0.00,,+0.04,6,58,30.11,FEW:02 60 SCT:04 250,30.06,10.00,71,160,24,17,,,,,,,,,,,,,,,,,,,,,,,,,,,,,,,,,,,,,SYN086AAXX  01214 72208 32766 41615 10278 20189 30180 40196 56013 92056 333 91021 555 90121;MET11505/01/12 15:56:02 METAR KCHS 012056Z 16015G21KT 10SM FEW060 SCT250 28/19 A3011 RMK AO2 SLP196 T02780189 56013 (JMB),,,,,,,,,,,,,,,,,,,,,,,,,,,,
72208013880,2012-05-02T13:56:00,FM-15,7,,SE,0.25,mi,"TEMP, PRECIP, SNOW",,,"MMTS, SRG, SNOWBOARD",,,WFO CHS,,,,,,,,,,,,,,,,,,,,,,,,,,,30.14,67,86,0.00,,,,53,30.13,FEW:02 45,30.09,10.00,73,170,,14,,,,,,,,,,,,,,,,,,,,,,,,,,,,,,,,,,,,,MET09805/02/12 13:56:02 METAR KCHS 021856Z 17012KT 10SM FEW045 30/19 A3014 RMK AO2 SLP204 T03000194 (DD),,,,,,,,,,,,,,,,,,,,,,,,,,,,
72208013880,2012-05-02T14:56:00,FM-15,7,,SE,0.25,mi,"TEMP, PRECIP, SNOW",,,"MMTS, SRG, SNOWBOARD",,,WFO CHS,,,,,,,,,,,,,,,,,,,,,,,,,,,30.12,66,84,0.00,,,,55,30.12,SCT:04 40 SCT:04 250,30.07,10.00,72,170,,16,,,,,,,,,,,,,,,,,,,,,,,,,,,,,,,,,,,,,MET10605/02/12 14:56:02 METAR KCHS 021956Z 17014KT 10SM SCT040 SCT250 29/19 A3012 RMK AO2 SLP200 T02890189 (JMB),,,,,,,,,,,,,,,,,,,,,,,,,,,,
72208013880,2012-05-02T15:56:00,FM-15,7,,SE,0.25,mi,"TEMP, PRECIP, SNOW",,,"MMTS, SRG, SNOWBOARD",,,WFO CHS,,,,,,,,,,,,,,,,,,,,,,,,,,,30.12,65,82,0.00,,+0.02,6,56,30.12,FEW:02 40 SCT:04 250,30.07,10.00,71,170,,13,,,,,,,,,,,,,,,,,,,,,,,,,,,,,,,,,,,,,MET11205/02/12 15:56:02 METAR KCHS 022056Z 17011KT 10SM FEW040 SCT250 28/18 A3012 RMK AO2 SLP200 T02780183 56008 (JMB),,,,,,,,,,,,,,,,,,,,,,,,,,,,
72208013880,2012-05-02T16:00:00,FM-12,4,,SE,0.25,mi,"TEMP, PRECIP, SNOW",,,"MMTS, SRG, SNOWBOARD",,,WFO CHS,,,,,,,,,,,,,,,,,,,,,,,,,,,,65,82,,,+0.02,6,56,30.12,,30.07,9.94,71,170,,13,,,,,,,,,,,,,,,,,,,,,,,,,,,,,,,,,,,,,SYN076AAXX  02214 72208 32666 41711 10278 20183 30184 40200 56008 92056 555 90221;,,,,,,,,,,,,,,,,,,,,,,,,,,,,
72208013880,2012-05-03T15:56:00,FM-15,7,,SE,0.25,mi,"TEMP, PRECIP, SNOW",,,"MMTS, SRG, SNOWBOARD",,,WFO CHS,,,,,,,,,,,,,,,,,,,,,,,,,,,30.10,67,84,0.00,,+0.04,6,57,30.09,FEW:02 45 BKN:07 250,30.05,10.00,73,170,,13,,,,,,,,,,,,,,,,,,,,,,,,,,,,,,,,,,,,,MET11205/03/12 15:56:02 METAR KCHS 032056Z 17011KT 10SM FEW045 BKN250 29/19 A3010 RMK AO2 SLP191 T02890194 56015 (JMB),,,,,,,,,,,,,,,,,,,,,,,,,,,,
72208013880,2012-05-03T16:00:00,FM-12,4,,SE,0.25,mi,"TEMP, PRECIP, SNOW",,,"MMTS, SRG, SNOWBOARD",,,WFO CHS,,,,,,,,,,,,,,,,,,,,,,,,,,,,67,84,,,+0.04,6,57,30.09,,30.05,9.94,73,170,,13,,,,,,,,,,,,,,,,,,,,,,,,,,,,,,,,,,,,,SYN076AAXX  03214 72208 32666 61711 10289 20194 30177 40191 56015 92056 555 90321;,,,,,,,,,,,,,,,,,,,,,,,,,,,,
72208013880,2012-05-08T10:56:00,FM-15,7,,SE,0.25,mi,"TEMP, PRECIP, SNOW",,,"MMTS, SRG, SNOWBOARD",,,WFO CHS,,,,,,,,,,,,,,,,,,,,,,,,,,,29.96,61,77,0.00,,,,58,29.96,BKN:07 35 BKN:07 45,29.91,10.00,67,150,,8,,,,,,,,,,,,,,,,,,,,,,,,,,,,,,,,,,,,,MET10505/08/12 10:56:02 METAR KCHS 081556Z 15007KT 10SM BKN035 BKN045 25/16 A2996 RMK AO2 SLP145 T02500161 (DD),,,,,,,,,,,,,,,,,,,,,,,,,,,,
72208013880,2012-05-08T14:56:00,FM-15,7,,SE,0.25,mi,"TEMP, PRECIP, SNOW",,,"MMTS, SRG, SNOWBOARD",,,WFO CHS,,,,,,,,,,,,,,,,,,,,,,,,,,,29.91,62,81,0.00,,,,53,29.91,SCT:04 40 BKN:07 200,29.86,10.00,69,150,22,14,,,,,,,,,,,,,,,,,,,,,,,,,,,,,,,,,,,,,MET11905/08/12 14:56:02 METAR KCHS 081956Z 15012G19KT 10SM SCT040 BKN200 27/17 A2991 RMK AO2 SLP128 SCT V BKN T02720167 (JMB),,,,,,,,,,,,,,,,,,,,,,,,,,,,
72208013880,2012-05-08T16:56:00,FM-15,7,,SE,0.25,mi,"TEMP, PRECIP, SNOW",,,"MMTS, SRG, SNOWBOARD",,,WFO CHS,,,,,,,,,,,,,,,,,,,,,,,,,,,29.89,63,78,0.00,,,,60,29.88,SCT:04 35 SCT:04 200,29.84,10.00,68,160,,14,,,,,,,,,,,,,,,,,,,,,,,,,,,,,,,,,,,,,MET10605/08/12 16:56:02 METAR KCHS 082156Z 16012KT 10SM SCT035 SCT200 26/17 A2989 RMK AO2 SLP120 T02560172 (JMB),,,,,,,,,,,,,,,,,,,,,,,,,,,,
72208013880,2012-05-08T17:56:00,FM-15,7,,SE,0.25,mi,"TEMP, PRECIP, SNOW",,,"MMTS, SRG, SNOWBOARD",,,WFO CHS,,,,,,,,,,,,,,,,,,,,,,,,,,,29.89,65,76,0.00,,,,69,29.88,SCT:04 30 SCT:04 200,29.84,10.00,69,150,,13,,,,,,,,,,,,,,,,,,,,,,,,,,,,,,,,,,,,,MET10605/08/12 17:56:02 METAR KCHS 082256Z 15011KT 10SM SCT030 SCT200 24/18 A2989 RMK AO2 SLP120 T02440183 (JMB),,,,,,,,,,,,,,,,,,,,,,,,,,,,
72208013880,2012-05-09T11:56:00,FM-15,7,,SE,0.25,mi,"TEMP, PRECIP, SNOW",,,"MMTS, SRG, SNOWBOARD",,,WFO CHS,,,,,,,,,,,,,,,,,,,,,,,,,,,29.78,69,79,0.00,,,,72,29.78,SCT:04 35 BKN:07 50 BKN:07 65,29.73,10.00,72,170,,10,,,,,,,,,,,,,,,,,,,,,,,,,,,,,,,,,,,,,MET14505/09/12 11:56:02 METAR KCHS 091656Z 17009KT 10SM SCT035TCU BKN050 BKN065 26/21 A2978 RMK AO2 SLP083 TCU SW-W CB DSNT NE-E MOVG NE T02610206 (DD),,,,,,,,,,,,,,,,,,,,,,,,,,,,
72208013880,2012-05-13T15:56:00,SY-MT,7,,SE,0.25,mi,"TEMP, PRECIP, SNOW",,,"MMTS, SRG, SNOWBOARD",,,WFO CHS,,,,,,,,,,,,,,,,,,,,,,,,,,,30.14,62,74,0.00,,+0.05,6,67,30.13,FEW:02 27 SCT:04 40 OVC:08 70,30.09,10.00,67,170,,11,,,,,,,,,,,,,,,,,,,,,,,,,,,,,,,,,,,,,SYN076AAXX  13214 72208 32566 81710 10233 20167 30190 40204 56018 92056 555 91321;MET11905/13/12 15:56:02 METAR KCHS 132056Z 17010KT 10SM FEW027 SCT040 OVC070 23/17 A3014 RMK AO2 SLP204 T02330167 56018 (JRS),,,,,,,,,,,,,,,,,,,,,,,,,,,,
72208013880,2012-05-13T16:56:00,FM-15,7,,SE,0.25,mi,"TEMP, PRECIP, SNOW",,,"MMTS, SRG, SNOWBOARD",,,WFO CHS,,,,,,,,,,,,,,,,,,,,,,,,,,,30.13,62,74,T,,,,67,30.12,FEW:02 27 BKN:07 40 OVC:08 200,30.08,10.00,67,170,,10,,,,,,,,,,,,,,,,,,,,,,,,,,,,,,,,,,,,,MET12805/13/12 16:56:02 METAR KCHS 132156Z 17009KT 10SM FEW027 BKN040 OVC200 23/17 A3013 RMK AO2 RAB27E40 SLP201 P0000 T02330167 (JRS),,,,,,,,,,,,,,,,,,,,,,,,,,,,
72208013880,2012-05-13T17:56:00,FM-15,7,,SE,0.25,mi,"TEMP, PRECIP, SNOW",,,"MMTS, SRG, SNOWBOARD",,,WFO CHS,,,,,,,,,,,,,,,,,,,,,,,,,,,30.11,62,72,T,-RA:02 |RA |RA,,,71,30.11,FEW:02 30 OVC:08 100,30.06,10.00,66,150,,7,,,,,,,,,,,,,,,,,,,,,,,,,,,,,,,,,,,,,MET12205/13/12 17:56:02 METAR KCHS 132256Z 15006KT 10SM -RA FEW030 OVC100 22/17 A3011 RMK AO2 RAB45 SLP196 P0000 T02220167 (JRS),,,,,,,,,,,,,,,,,,,,,,,,,,,,
72208013880,2012-05-17T11:56:00,FM-15,7,,SE,0.25,mi,"TEMP, PRECIP, SNOW",,,"MMTS, SRG, SNOWBOARD",,,WFO CHS,,,,,,,,,,,,,,,,,,,,,,,,,,,29.93,67,78,0.00,,,,69,29.93,SCT:04 30 SCT:04 45 BKN:07 60,29.88,10.00,71,160,,9,,,,,,,,,,,,,,,,,,,,,,,,,,,,,,,,,,,,,MET14605/17/12 11:56:02 METAR KCHS 171656Z 16008KT 10SM SCT030 SCT045 BKN060 26/19 A2993 RMK AO2 SLP134 CB DSNT NW-N LTL MOVMT TCU DSNT W T02560194 (DD),,,,,,,,,,,,,,,,,,,,,,,,,,,,
72208013880,2012-05-17T12:48:00,FM-16,7,,SE,0.25,mi,"TEMP, PRECIP, SNOW",,,"MMTS, SRG, SNOWBOARD",,,WFO CHS,,,,,,,,,,,,,,,,,,,,,,,,,,,29.90,66,81,,TS:7 |TS |TS,,,62,,FEW:02 35 SCT:04 50 SCT:04 65,29.85,10.00,71,160,,14,,,,,,,,,,,,,,,,,,,,,,,,,,,,,,,,,,,,,MET14005/17/12 12:48:02 SPECI KCHS 171748Z 16012KT 10SM TS FEW035CB SCT050 SCT065 27/19 A2990 RMK AO2 TSB47 OCNL LTGICCG W-N TS W-N LTL MOVMT (DD),,,,,,,,,,,,,,,,,,,,,,,,,,,,
72208013880,2012-05-17T12:56:00,SY-MT,7,,SE,0.25,mi,"TEMP, PRECIP, SNOW",,,"MMTS, SRG, SNOWBOARD",,,WFO CHS,,,,,,,,,,,,,,,,,,,,,,,,,,,29.90,65,82,0.00,TS:7 |TS |TS TS,+0.05,8,56,29.90,FEW:02 30 SCT:04 45 SCT:04 60,29.85,10.00,71,150,21,16,,,,,,,,,,,,,,,,,,,,,,,,,,,,,,,,,,,,,SYN104AAXX  17184 72208 31566 41514 10278 20183 30109 40125 58016 795// 91756 333 10278 20200 91018 555 91718;MET17805/17/12 12:56:02 METAR KCHS 171756Z 15014G18KT 10SM TS FEW030CB SCT045 SCT060 28/18 A2990 RMK AO2 TSB47 SLP125 OCNL LTGICCG W-N TS W-N LTL MOVMT T02780183 10278 20200 58016 (DD),,,,,,,,,,,,,,,,,,,,,,,,,,,,
72208013880,2012-05-17T13:56:00,FM-15,7,,SE,0.25,mi,"TEMP, PRECIP, SNOW",,,"MMTS, SRG, SNOWBOARD",,,WFO CHS,,,,,,,,,,,,,,,,,,,,,,,,,,,29.88,63,78,0.00,TS:7 |TS |TS,,,60,29.88,FEW:02 35 SCT:04 70 BKN:07 180,29.83,10.00,68,150,,8,,,,,,,,,,,,,,,,,,,,,,,,,,,,,,,,,,,,,MET15305/17/12 13:56:02 METAR KCHS 171856Z 15007KT 10SM TS FEW035CB SCT070 BKN180 26/17 A2988 RMK AO2 SLP117 OCNL LTGIC SW-NW TS SW-NW LTL MOVMT T02560172 (DD),,,,,,,,,,,,,,,,,,,,,,,,,,,,
72208013880,2012-05-21T14:56:00,FM-15,7,,SE,0.25,mi,"TEMP, PRECIP, SNOW",,,"MMTS, SRG, SNOWBOARD",,,WFO CHS,,,,,,,,,,,,,,,,,,,,,,,,,,,29.92,65,80,0.00,,,,60,29.91,SCT:04 45 BKN:07 60,29.87,10.00,70,150,,11,,,,,,,,,,,,,,,,,,,,,,,,,,,,,,,,,,,,,MET13205/21/12 14:56:02 METAR KCHS 211956Z 15010KT 10SM SCT045TCU BKN060 27/18 A2992 RMK AO2 SLP130 TCU OHD MDT CU ALQDS T02670183 $ (JMB),,,,,,,,,,,,,,,,,,,,,,,,,,,,
72208013880,2012-05-21T16:56:00,FM-15,7,,SE,0.25,mi,"TEMP, PRECIP, SNOW",,,"MMTS, SRG, SNOWBOARD",,,WFO CHS,,,,,,,,,,,,,,,,,,,,,,,,,,,29.90,69,75,0.07,,,,82,29.90,FEW:02 10 SCT:04 40 BKN:07 60,29.85,10.00,71,150,,9,,,,,,,,,,,,,,,,,,,,,,,,,,,,,,,,,,,,,MET16005/21/12 16:56:02 METAR KCHS 212156Z 15008KT 10SM FEW010 SCT040TCU BKN060 24/21 A2990 RMK AO2 RAB04E44 SLP125 TCU NE AND SW MDT CU ALQDS P0007 T02390206 $ (JMB),,,,,,,,,,,,,,,,,,,,,,,,,,,,
72208013880,2012-05-21T17:56:00,FM-15,7,,SE,0.25,mi,"TEMP, PRECIP, SNOW",,,"MMTS, SRG, SNOWBOARD",,,WFO CHS,,,,,,,,,,,,,,,,,,,,,,,,,,,29.90,65,75,0.00,,,,71,29.89,SCT:04 40 BKN:07 60 BKN:07 100,29.85,10.00,69,150,,9,,,,,,,,,,,,,,,,,,,,,,,,,,,,,,,,,,,,,MET13105/21/12 17:56:02 METAR KCHS 212256Z 15008KT 10SM SCT040 BKN060 BKN100 24/18 A2990 RMK AO2 SLP123 MDT CU E AND SW T02390183 $ (JMB),,,,,,,,,,,,,,,,,,,,,,,,,,,,
72208013880,2012-05-23T15:56:00,SY-MT,7,,SE,0.25,mi,"TEMP, PRECIP, SNOW",,,"MMTS, SRG, SNOWBOARD",,,WFO CHS,,,,,,,,,,,,,,,,,,,,,,,,,,,29.86,65,84,0.00,,+0.03,6,53,29.85,FEW:02 40,29.81,10.00,71,170,,11,,,,,,,,,,,,,,,,,,,,,,,,,,,,,,,,,,,,,SYN076AAXX  23214 72208 32666 21710 10289 20183 30096 40110 56010 92056 555 92321;MET11605/23/12 15:56:02 METAR KCHS 232056Z 17010KT 10SM FEW040 29/18 A2986 RMK AO2 SLP110 MDT CU N T02890183 56010 $ (JMB),,,,,,,,,,,,,,,,,,,,,,,,,,,,
72208013880,2012-05-24T14:56:00,FM-15,7,,SE,0.25,mi,"TEMP, PRECIP, SNOW",,,"MMTS, SRG, SNOWBOARD",,,WFO CHS,,,,,,,,,,,,,,,,,,,,,,,,,,,29.98,68,86,0.00,,,,55,29.98,FEW:02 55 SCT:04 70,29.93,10.00,74,150,18,15,,,,,,,,,,,,,,,,,,,,,,,,,,,,,,,,,,,,,MET12105/24/12 14:56:02 METAR KCHS 241956Z 15013G16KT 10SM FEW055 SCT070 30/20 A2998 RMK AO2 SLP152 MDT CU W-NW T03000200 (JMB),,,,,,,,,,,,,,,,,,,,,,,,,,,,
72208013880,2012-05-24T15:56:00,SY-MT,7,,SE,0.25,mi,"TEMP, PRECIP, SNOW",,,"MMTS, SRG, SNOWBOARD",,,WFO CHS,,,,,,,,,,,,,,,,,,,,,,,,,,,29.98,69,85,0.00,,+0.02,8,59,29.98,FEW:02 40 SCT:04 55,29.93,10.00,74,160,22,15,,,,,,,,,,,,,,,,,,,,,,,,,,,,,,,,,,,,,SYN086AAXX  24214 72208 32666 41613 10294 20206 30136 40151 58007 92056 333 91019 555 92421;MET12505/24/12 15:56:02 METAR KCHS 242056Z 16013G19KT 10SM FEW040 SCT055 29/21 A2998 RMK AO2 SLP151 MDT CU NW T02940206 58007 (JMB),,,,,,,,,,,,,,,,,,,,,,,,,,,,
72208013880,2012-05-25T17:56:00,FM-15,7,,SE,0.25,mi,"TEMP, PRECIP, SNOW",,,"MMTS, SRG, SNOWBOARD",,,WFO CHS,,,,,,,,,,,,,,,,,,,,,,,,,,,30.03,71,83,0.00,,,,67,30.03,SCT:04 45 SCT:04 65,29.98,10.00,75,150,,9,,,,,,,,,,,,,,,,,,,,,,,,,,,,,,,,,,,,,MET12305/25/12 17:56:02 METAR KCHS 252256Z 15008KT 10SM SCT045 SCT065 28/22 A3003 RMK AO2 SLP168 MDT CU NE AND SW T02830217 (JMB),,,,,,,,,,,,,,,,,,,,,,,,,,,,
72208013880,2012-05-29T10:56:00,FM-15,7,,SE,0.25,mi,"TEMP, PRECIP, SNOW",,,"MMTS, SRG, SNOWBOARD",,,WFO CHS,,,,,,,,,,,,,,,,,,,,,,,,,,,29.94,69,81,T,,,,67,29.94,SCT:04 30 BKN:07 45 OVC:08 180,29.89,10.00,73,150,,10,,,,,,,,,,,,,,,,,,,,,,,,,,,,,,,,,,,,,MET12405/29/12 10:56:02 METAR KCHS 291556Z 15009KT 10SM SCT030 BKN045 OVC180 27/21 A2994 RMK AO2 RAE47 SLP138 P0000 T02720206 (DD),,,,,,,,,,,,,,,,,,,,,,,,,,,,
72208013880,2012-05-29T13:29:00,FM-16,7,,SE,0.25,mi,"TEMP, PRECIP, SNOW",,,"MMTS, SRG, SNOWBOARD",,,WFO CHS,,,,,,,,,,,,,,,,,,,,,,,,,,,29.88,70,84,,,,,62,,SCT:04 25 BKN:07 50 BKN:07 180,29.83,10.00,74,150,24,17,,,,,,,,,,,,,,,,,,,,,,,,,,,,,,,,,,,,,MET11005/29/12 13:29:02 SPECI KCHS 291829Z 15015G21KT 10SM SCT025 BKN050 BKN180 29/21 A2988 RMK AO2 MDT CU N-NE (DD),,,,,,,,,,,,,,,,,,,,,,,,,,,,
72208013880,2012-05-29T13:56:00,FM-15,7,,SE,0.25,mi,"TEMP, PRECIP, SNOW",,,"MMTS, SRG, SNOWBOARD",,,WFO CHS,,,,,,,,,,,,,,,,,,,,,,,,,,,29.88,70,81,0.00,,,,69,29.88,SCT:04 25 BKN:07 40 BKN:07 180,29.83,10.00,74,170,,14,,,,,,,,,,,,,,,,,,,,,,,,,,,,,,,,,,,,,MET13405/29/12 13:56:02 METAR KCHS 291856Z 17012KT 10SM SCT025 BKN040 BKN180 27/21 A2988 RMK AO2 SLP117 MDT CU N-NE SCT V BKN T02720211 (DD),,,,,,,,,,,,,,,,,,,,,,,,,,,,
72208013880,2012-05-29T14:56:00,FM-15,7,,SE,0.25,mi,"TEMP, PRECIP, SNOW",,,"MMTS, SRG, SNOWBOARD",,,WFO CHS,,,,,,,,,,,,,,,,,,,,,,,,,,,29.86,69,81,0.00,,,,67,29.85,SCT:04 25 BKN:07 35 BKN:07 180,29.81,10.00,73,160,,11,,,,,,,,,,,,,,,,,,,,,,,,,,,,,,,,,,,,,MET12305/29/12 14:56:02 METAR KCHS 291956Z 16010KT 10SM SCT025 BKN035 BKN180 27/21 A2986 RMK AO2 SLP110 SCT V BKN T02720206 (JMB),,,,,,,,,,,,,,,,,,,,,,,,,,,,
72208013880,2012-05-29T15:56:00,SY-MT,7,,SE,0.25,mi,"TEMP, PRECIP, SNOW",,,"MMTS, SRG, SNOWBOARD",,,WFO CHS,,,,,,,,,,,,,,,,,,,,,,,,,,,29.84,70,78,T,-RA:02 |RA |RA,+0.06,6,76,29.84,FEW:02 25 BKN:07 70 BKN:07 200,29.79,10.00,73,150,,11,,,,,,,,,,,,,,,,,,,,,,,,,,,,,,,,,,,,,SYN088AAXX  29214 72208 11566 61510 10256 20211 30089 40105 56020 69907 761// 92056 555 92921;MET14105/29/12 15:56:02 METAR KCHS 292056Z 15010KT 10SM -RA FEW025 BKN070 BKN200 26/21 A2984 RMK AO2 RAB47 SLP105 P0000 60000 T02560211 56020 (JMB),,,,,,,,,,,,,,,,,,,,,,,,,,,,
72208013880,2012-05-31T13:56:00,FM-15,7,,SE,0.25,mi,"TEMP, PRECIP, SNOW",,,"MMTS, SRG, SNOWBOARD",,,WFO CHS,,,,,,,,,,,,,,,,,,,,,,,,,,,29.88,66,88,0.00,,,,48,29.88,FEW:02 60 SCT:04 75 SCT:04 200,29.83,10.00,73,160,,13,,,,,,,,,,,,,,,,,,,,,,,,,,,,,,,,,,,,,MET12305/31/12 13:56:02 METAR KCHS 311856Z 16011KT 10SM FEW060 SCT075 SCT200 31/19 A2988 RMK AO2 SLP118 CB DSNT SW T03110189 (DD),,,,,,,,,,,,,,,,,,,,,,,,,,,,
72208013880,2012-05-31T14:56:00,FM-15,7,,SE,0.25,mi,"TEMP, PRECIP, SNOW",,,"MMTS, SRG, SNOWBOARD",,,WFO CHS,,,,,,,,,,,,,,,,,,,,,,,,,,,29.87,68,85,0.00,,,,57,29.87,FEW:02 45 SCT:04 200,29.82,10.00,74,150,,13,,,,,,,,,,,,,,,,,,,,,,,,,,,,,,,,,,,,,MET10605/31/12 14:56:02 METAR KCHS 311956Z 15011KT 10SM FEW045 SCT200 29/20 A2987 RMK AO2 SLP114 T02940200 (JMB),,,,,,,,,,,,,,,,,,,,,,,,,,,,
72208013880,2012-05-31T15:56:00,SY-MT,7,,SE,0.25,mi,"TEMP, PRECIP, SNOW",,,"MMTS, SRG, SNOWBOARD",,,WFO CHS,,,,,,,,,,,,,,,,,,,,,,,,,,,29.86,66,84,0.00,,+0.03,6,55,29.86,FEW:02 45 BKN:07 200,29.81,10.00,72,160,,11,,,,,,,,,,,,,,,,,,,,,,,,,,,,,,,,,,,,,SYN076AAXX  31214 72208 32666 61610 10289 20189 30096 40112 56009 92056 555 93121;MET11205/31/12 15:56:02 METAR KCHS 312056Z 16010KT 10SM FEW045 BKN200 29/19 A2986 RMK AO2 SLP112 T02890189 56009 (JMB),,,,,,,,,,,,,,,,,,,,,,,,,,,,
72208013880,2012-06-07T11:56:00,FM-15,7,,SE,0.25,mi,"TEMP, PRECIP, SNOW",,,"MMTS, SRG, SNOWBOARD",,,WFO CHS,,,,,,,,,,,,,,,,,,,,,,,,,,,30.03,60,79,0.00,,,,52,30.03,SCT:04 42,29.98,10.00,67,150,16,9,,,,,,,,,,,,,,,,,,,,,,,,,,,,,,,,,,,,,MET10606/07/12 11:56:02 METAR KCHS 071656Z 15008G14KT 10SM SCT042 26/16 A3003 RMK AO2 SLP170 T02610156 TSNO (DD),,,,,,,,,,,,,,,,,,,,,,,,,,,,
72208013880,2012-06-08T15:56:00,SY-MT,7,,SE,0.25,mi,"TEMP, PRECIP, SNOW",,,"MMTS, SRG, SNOWBOARD",,,WFO CHS,,,,,,,,,,,,,,,,,,,,,,,,,,,30.01,58,82,0.00,,+0.02,5,44,30.01,SCT:04 60 SCT:04 250,29.96,10.00,67,160,18,14,,,,,,,,,,,,,,,,,,,,,,,,,,,,,,,,,,,,,SYN086AAXX  08214 72208 32766 41612 10278 20144 30146 40161 55006 92056 333 91016 555 90821;MET11506/08/12 15:56:02 METAR KCHS 082056Z 16012G16KT 10SM SCT060 SCT250 28/14 A3001 RMK AO2 SLP161 T02780144 55006 (BBE),,,,,,,,,,,,,,,,,,,,,,,,,,,,
72208013880,2012-06-08T16:56:00,FM-15,7,,SE,0.25,mi,"TEMP, PRECIP, SNOW",,,"MMTS, SRG, SNOWBOARD",,,WFO CHS,,,,,,,,,,,,,,,,,,,,,,,,,,,30.01,58,78,0.00,,,,50,30.01,FEW:02 65 SCT:04 90 SCT:04 250,29.96,10.00,66,150,,10,,,,,,,,,,,,,,,,,,,,,,,,,,,,,,,,,,,,,MET11306/08/12 16:56:02 METAR KCHS 082156Z 15009KT 10SM FEW065 SCT090 SCT250 26/14 A3001 RMK AO2 SLP162 T02560144 (BBE),,,,,,,,,,,,,,,,,,,,,,,,,,,,
72208013880,2012-06-08T17:56:00,FM-15,7,,SE,0.25,mi,"TEMP, PRECIP, SNOW",,,"MMTS, SRG, SNOWBOARD",,,WFO CHS,,,,,,,,,,,,,,,,,,,,,,,,,,,30.02,59,78,0.00,,,,52,30.02,FEW:02 90 SCT:04 250,29.97,10.00,66,160,,10,,,,,,,,,,,,,,,,,,,,,,,,,,,,,,,,,,,,,MET10806/08/12 17:56:02 METAR KCHS 082256Z 16009KT 10SM FEW090 SCT250 26/15 A3002 RMK AO2 SLP165 T02560150 $ (BBE),,,,,,,,,,,,,,,,,,,,,,,,,,,,
72208013880,2012-06-09T11:56:00,FM-15,7,,SE,0.25,mi,"TEMP, PRECIP, SNOW",,,"MMTS, SRG, SNOWBOARD",,,WFO CHS,,,,,,,,,,,,,,,,,,,,,,,,,,,30.09,60,83,0.00,,,,46,30.09,SCT:04 50 SCT:04 120,30.04,10.00,68,170,,10,,,,,,,,,,,,,,,,,,,,,,,,,,,,,,,,,,,,,MET10806/09/12 11:56:02 METAR KCHS 091656Z 17009KT 10SM SCT050 SCT120 28/16 A3009 RMK AO2 SLP190 T02830156 $ (KLL),,,,,,,,,,,,,,,,,,,,,,,,,,,,
72208013880,2012-06-09T12:56:00,FM-15,7,,SE,0.25,mi,"TEMP, PRECIP, SNOW",,,"MMTS, SRG, SNOWBOARD",,,WFO CHS,,,,,,,,,,,,,,,,,,,,,,,,,,,30.08,60,83,0.00,,+0.02,8,46,30.08,SCT:04 53 SCT:04 120,30.03,10.00,68,150,,11,,,,,,,,,,,,,,,,,,,,,,,,,,,,,,,,,,,,,MET12606/09/12 12:56:02 METAR KCHS 091756Z 15010KT 10SM SCT053 SCT120 28/16 A3008 RMK AO2 SLP187 T02830156 10289 20206 58007 $ (KLL),,,,,,,,,,,,,,,,,,,,,,,,,,,,
72208013880,2012-06-09T13:00:00,FM-12,4,,SE,0.25,mi,"TEMP, PRECIP, SNOW",,,"MMTS, SRG, SNOWBOARD",,,WFO CHS,,,,,,,,,,,,,,,,,,,,,,,,,,,,60,83,,,+0.02,8,46,30.08,,30.03,9.94,68,150,,11,,,,,,,,,,,,,,,,,,,,,,,,,,,,,,,,,,,,,SYN092AAXX  09184 72208 32766 41510 10283 20156 30170 40187 58007 91756 333 10289 20206 555 90918;,,,,,,,,,,,,,,,,,,,,,,,,,,,,
72208013880,2012-06-09T13:56:00,FM-15,7,,SE,0.25,mi,"TEMP, PRECIP, SNOW",,,"MMTS, SRG, SNOWBOARD",,,WFO CHS,,,,,,,,,,,,,,,,,,,,,,,,,,,30.07,60,83,0.00,,,,46,30.07,FEW:02 50 BKN:07 250,30.02,10.00,68,150,,11,,,,,,,,,,,,,,,,,,,,,,,,,,,,,,,,,,,,,MET10806/09/12 13:56:02 METAR KCHS 091856Z 15010KT 10SM FEW050 BKN250 28/16 A3007 RMK AO2 SLP182 T02830156 $ (KLL),,,,,,,,,,,,,,,,,,,,,,,,,,,,
72208013880,2012-06-09T15:56:00,SY-MT,7,,SE,0.25,mi,"TEMP, PRECIP, SNOW",,,"MMTS, SRG, SNOWBOARD",,,WFO CHS,,,,,,,,,,,,,,,,,,,,,,,,,,,30.07,63,81,0.00,,+0.02,6,54,30.06,FEW:02 55 SCT:04 140 BKN:07 200,30.02,10.00,69,150,,10,,,,,,,,,,,,,,,,,,,,,,,,,,,,,,,,,,,,,SYN076AAXX  09214 72208 32766 61509 10272 20172 30167 40180 56006 92056 555 90921;MET12106/09/12 15:56:02 METAR KCHS 092056Z 15009KT 10SM FEW055 SCT140 BKN200 27/17 A3007 RMK AO2 SLP180 T02720172 56006 $ (JRS),,,,,,,,,,,,,,,,,,,,,,,,,,,,
72208013880,2012-06-09T16:56:00,FM-15,7,,SE,0.25,mi,"TEMP, PRECIP, SNOW",,,"MMTS, SRG, SNOWBOARD",,,WFO CHS,,,,,,,,,,,,,,,,,,,,,,,,,,,30.06,61,82,0.00,,,,49,30.05,FEW:02 45 SCT:04 150 BKN:07 200,30.01,10.00,69,160,,14,,,,,,,,,,,,,,,,,,,,,,,,,,,,,,,,,,,,,MET11506/09/12 16:56:02 METAR KCHS 092156Z 16012KT 10SM FEW045 SCT150 BKN200 28/16 A3006 RMK AO2 SLP177 T02780161 $ (JRS),,,,,,,,,,,,,,,,,,,,,,,,,,,,
72208013880,2012-06-09T17:56:00,FM-15,7,,SE,0.25,mi,"TEMP, PRECIP, SNOW",,,"MMTS, SRG, SNOWBOARD",,,WFO CHS,,,,,,,,,,,,,,,,,,,,,,,,,,,30.06,62,79,0.00,,,,56,30.05,FEW:02 38 BKN:07 180,30.01,10.00,68,160,,11,,,,,,,,,,,,,,,,,,,,,,,,,,,,,,,,,,,,,MET10806/09/12 17:56:02 METAR KCHS 092256Z 16010KT 10SM FEW038 BKN180 26/17 A3006 RMK AO2 SLP177 T02610167 $ (JRS),,,,,,,,,,,,,,,,,,,,,,,,,,,,
72208013880,2012-06-10T10:56:00,FM-15,7,,SE,0.25,mi,"TEMP, PRECIP, SNOW",,,"MMTS, SRG, SNOWBOARD",,,WFO CHS,,,,,,,,,,,,,,,,,,,,,,,,,,,30.12,70,81,0.00,,,,69,30.12,BKN:07 25 BKN:07 35 BKN:07 43,30.07,10.00,74,170,,15,,,,,,,,,,,,,,,,,,,,,,,,,,,,,,,,,,,,,MET11506/10/12 10:56:02 METAR KCHS 101556Z 17013KT 10SM BKN025 BKN035 BKN043 27/21 A3012 RMK AO2 SLP200 T02720211 $ (KLL),,,,,,,,,,,,,,,,,,,,,,,,,,,,
72208013880,2012-06-10T11:56:00,FM-15,7,,SE,0.25,mi,"TEMP, PRECIP, SNOW",,,"MMTS, SRG, SNOWBOARD",,,WFO CHS,,,,,,,,,,,,,,,,,,,,,,,,,,,30.12,70,82,0.00,,,,67,30.12,BKN:07 25 BKN:07 35 BKN:07 40,30.07,10.00,74,160,,17,,,,,,,,,,,,,,,,,,,,,,,,,,,,,,,,,,,,,MET11506/10/12 11:56:02 METAR KCHS 101656Z 16015KT 10SM BKN025 BKN035 BKN040 28/21 A3012 RMK AO2 SLP199 T02780211 $ (KLL),,,,,,,,,,,,,,,,,,,,,,,,,,,,
72208013880,2012-06-10T12:56:00,FM-15,7,,SE,0.25,mi,"TEMP, PRECIP, SNOW",,,"MMTS, SRG, SNOWBOARD",,,WFO CHS,,,,,,,,,,,,,,,,,,,,,,,,,,,30.11,71,79,T,,+0.01,8,77,30.11,BKN:07 24 OVC:08 29,30.06,10.00,74,150,,15,,,,,,,,,,,,,,,,,,,,,,,,,,,,,,,,,,,,,MET14706/10/12 12:56:02 METAR KCHS 101756Z 15013KT 10SM BKN024 OVC029 26/22 A3011 RMK AO2 RAB13E52 SLP196 P0000 60000 T02610217 10283 20250 58005 $ (KLL),,,,,,,,,,,,,,,,,,,,,,,,,,,,
72208013880,2012-06-10T13:00:00,FM-12,4,,SE,0.25,mi,"TEMP, PRECIP, SNOW",,,"MMTS, SRG, SNOWBOARD",,,WFO CHS,,,,,,,,,,,,,,,,,,,,,,,,,,,,71,79,,,+0.01,8,77,30.11,,30.06,9.94,74,150,,15,,,,,,,,,,,,,,,,,,,,,,,,,,,,,,,,,,,,,SYN098AAXX  10184 72208 12566 81513 10261 20217 30180 40196 58005 69901 91756 333 10283 20250 555 91018;,,,,,,,,,,,,,,,,,,,,,,,,,,,,
72208013880,2012-06-10T13:54:00,FM-16,6,,SE,0.25,mi,"TEMP, PRECIP, SNOW",,,"MMTS, SRG, SNOWBOARD",,,WFO CHS,,,,,,,,,,,,,,,,,,,,,,,,,,,30.11,73,79,,,,,84,,SCT:04 23 BKN:07 34 OVC:08 80,30.06,10.00,75,150,,8,,,,,,,,,,,,,,,,,,,,,,,,,,,,,,,,,,,,,MET11806/10/12 13:54:02 SPECI KCHS 101854Z 15007KT 10SM SCT023 BKN034 OVC080 26/23 A3011 RMK AO2 RAB28E38 P0000 $ FIBI (KLL),,,,,,,,,,,,,,,,,,,,,,,,,,,,
72208013880,2012-06-10T13:56:00,FM-15,7,,SE,0.25,mi,"TEMP, PRECIP, SNOW",,,"MMTS, SRG, SNOWBOARD",,,WFO CHS,,,,,,,,,,,,,,,,,,,,,,,,,,,30.11,73,79,T,,,,82,30.11,SCT:04 23 BKN:07 34 OVC:08 80,30.06,10.00,75,160,,7,,,,,,,,,,,,,,,,,,,,,,,,,,,,,,,,,,,,,MET13006/10/12 13:56:02 METAR KCHS 101856Z 16006KT 10SM SCT023 BKN034 OVC080 26/23 A3011 RMK AO2 RAB28E38 SLP196 P0000 T02610228 $ (KLL),,,,,,,,,,,,,,,,,,,,,,,,,,,,
72208013880,2012-06-10T14:12:00,FM-16,7,,SE,0.25,mi,"TEMP, PRECIP, SNOW",,,"MMTS, SRG, SNOWBOARD",,,WFO CHS,,,,,,,,,,,,,,,,,,,,,,,,,,,30.10,72,79,T,-RA:02 |RA |RA,,,79,,BKN:07 18 OVC:08 30,30.05,10.00,74,150,18,13,,,,,,,,,,,,,,,,,,,,,,,,,,,,,,,,,,,,,MET12306/10/12 14:12:02 SPECI KCHS 101912Z 15011G16KT 10SM -RA BKN018 OVC030TCU 26/22 A3010 RMK AO2 RAB1858 TCU W-N P0000 $ (JRS),,,,,,,,,,,,,,,,,,,,,,,,,,,,
72208013880,2012-06-10T14:56:00,FM-15,7,,SE,0.25,mi,"TEMP, PRECIP, SNOW",,,"MMTS, SRG, SNOWBOARD",,,WFO CHS,,,,,,,,,,,,,,,,,,,,,,,,,,,30.10,73,78,T,-RA:02 |RA |RA,,,85,30.10,BKN:07 20 OVC:08 26,30.05,10.00,75,150,,14,,,,,,,,,,,,,,,,,,,,,,,,,,,,,,,,,,,,,MET12606/10/12 14:56:02 METAR KCHS 101956Z 15012KT 10SM -RA BKN020 OVC026 26/23 A3010 RMK AO2 RAB1858 SLP192 P0000 T02560228 $ (JRS),,,,,,,,,,,,,,,,,,,,,,,,,,,,
72208013880,2012-06-10T15:56:00,SY-MT,7,,SE,0.25,mi,"TEMP, PRECIP, SNOW",,,"MMTS, SRG, SNOWBOARD",,,WFO CHS,,,,,,,,,,,,,,,,,,,,,,,,,,,30.11,73,78,T,,+0.01,5,85,30.10,SCT:04 18 BKN:07 26 OVC:08 42,30.06,10.00,75,160,,10,,,,,,,,,,,,,,,,,,,,,,,,,,,,,,,,,,,,,SYN082AAXX  10214 72208 12466 81609 10256 20228 30180 40194 55002 69907 92056 555 91021;MET15006/10/12 15:56:02 METAR KCHS 102056Z 16009KT 10SM SCT018 BKN026TCU OVC042 26/23 A3011 RMK AO2 RAE48 SLP194 TCU N-E P0000 60000 T02560228 55002 $ (JRS),,,,,,,,,,,,,,,,,,,,,,,,,,,,
72208013880,2012-06-10T16:56:00,FM-15,7,,SE,0.25,mi,"TEMP, PRECIP, SNOW",,,"MMTS, SRG, SNOWBOARD",,,WFO CHS,,,,,,,,,,,,,,,,,,,,,,,,,,,30.11,73,78,0.02,,,,85,30.11,SCT:04 18 BKN:07 25 OVC:08 80,30.06,10.00,75,160,,9,,,,,,,,,,,,,,,,,,,,,,,,,,,,,,,,,,,,,MET15006/10/12 16:56:02 METAR KCHS 102156Z 16008KT 10SM SCT018 BKN025TCU OVC080 26/23 A3011 RMK AO2 RAB08E26 SLP197 TCU N-NE AND S-W P0002 T02560228 $ (JRS),,,,,,,,,,,,,,,,,,,,,,,,,,,,
72208013880,2012-06-10T17:56:00,FM-15,7,,SE,0.25,mi,"TEMP, PRECIP, SNOW",,,"MMTS, SRG, SNOWBOARD",,,WFO CHS,,,,,,,,,,,,,,,,,,,,,,,,,,,30.13,74,76,0.02,-RA:02 |RA |RA,,,94,30.12,BKN:07 18 BKN:07 28 OVC:08 70,30.08,9.00,75,170,,9,,,,,,,,,,,,,,,,,,,,,,,,,,,,,,,,,,,,,MET13006/10/12 17:56:02 METAR KCHS 102256Z 17008KT 9SM -RA BKN018 BKN028 OVC070 24/23 A3013 RMK AO2 RAB16 SLP201 P0002 T02440233 $ (JRS),,,,,,,,,,,,,,,,,,,,,,,,,,,,
72208013880,2012-06-18T13:56:00,FM-15,7,,SE,0.25,mi,"TEMP, PRECIP, SNOW",,,"MMTS, SRG, SNOWBOARD",,,WFO CHS,,,,,,,,,,,,,,,,,,,,,,,,,,,30.09,64,83,0.00,,,,53,30.08,SCT:04 50,30.04,10.00,71,160,,7,,,,,,,,,,,,,,,,,,,,,,,,,,,,,,,,,,,,,MET09806/18/12 13:56:02 METAR KCHS 181856Z 16006KT 10SM SCT050 28/18 A3009 RMK AO2 SLP187 T02830178 (DD),,,,,,,,,,,,,,,,,,,,,,,,,,,,
72208013880,2012-06-18T15:56:00,FM-15,7,,SE,0.25,mi,"TEMP, PRECIP, SNOW",,,"MMTS, SRG, SNOWBOARD",,,WFO CHS,,,,,,,,,,,,,,,,,,,,,,,,,,,30.07,62,83,0.00,,+0.02,6,49,30.07,FEW:02 50,30.02,10.00,70,150,,13,,,,,,,,,,,,,,,,,,,,,,,,,,,,,,,,,,,,,MET10506/18/12 15:56:02 METAR KCHS 182056Z 15011KT 10SM FEW050 28/17 A3007 RMK AO2 SLP183 T02830167 56007 (BBE),,,,,,,,,,,,,,,,,,,,,,,,,,,,
72208013880,2012-06-18T16:00:00,FM-12,4,,SE,0.25,mi,"TEMP, PRECIP, SNOW",,,"MMTS, SRG, SNOWBOARD",,,WFO CHS,,,,,,,,,,,,,,,,,,,,,,,,,,,,62,83,,,+0.02,6,49,30.07,,30.02,9.94,70,150,,13,,,,,,,,,,,,,,,,,,,,,,,,,,,,,,,,,,,,,SYN076AAXX  18214 72208 32766 21511 10283 20167 30167 40183 56007 92056 555 91821;,,,,,,,,,,,,,,,,,,,,,,,,,,,,
72208013880,2012-06-18T16:56:00,FM-15,7,,SE,0.25,mi,"TEMP, PRECIP, SNOW",,,"MMTS, SRG, SNOWBOARD",,,WFO CHS,,,,,,,,,,,,,,,,,,,,,,,,,,,30.07,61,82,0.00,,,,49,30.07,FEW:02 50,30.02,10.00,69,150,,14,,,,,,,,,,,,,,,,,,,,,,,,,,,,,,,,,,,,,MET09906/18/12 16:56:02 METAR KCHS 182156Z 15012KT 10SM FEW050 28/16 A3007 RMK AO2 SLP183 T02780161 (BBE),,,,,,,,,,,,,,,,,,,,,,,,,,,,
72208013880,2012-06-18T17:56:00,FM-15,7,,SE,0.25,mi,"TEMP, PRECIP, SNOW",,,"MMTS, SRG, SNOWBOARD",,,WFO CHS,,,,,,,,,,,,,,,,,,,,,,,,,,,30.08,62,80,0.00,,,,54,30.07,FEW:02 50,30.03,10.00,69,160,,11,,,,,,,,,,,,,,,,,,,,,,,,,,,,,,,,,,,,,MET09906/18/12 17:56:02 METAR KCHS 182256Z 16010KT 10SM FEW050 27/17 A3008 RMK AO2 SLP184 T02670167 (BBE),,,,,,,,,,,,,,,,,,,,,,,,,,,,
72208013880,2012-06-19T14:56:00,FM-15,7,,SE,0.25,mi,"TEMP, PRECIP, SNOW",,,"MMTS, SRG, SNOWBOARD",,,WFO CHS,,,,,,,,,,,,,,,,,,,,,,,,,,,30.14,66,86,0.00,,,,51,30.14,SCT:04 50,30.09,10.00,73,160,,10,,,,,,,,,,,,,,,,,,,,,,,,,,,,,,,,,,,,,MET09906/19/12 14:56:02 METAR KCHS 191956Z 16009KT 10SM SCT050 30/19 A3014 RMK AO2 SLP206 T03000189 (BBE),,,,,,,,,,,,,,,,,,,,,,,,,,,,
72208013880,2012-06-19T16:56:00,FM-15,7,,SE,0.25,mi,"TEMP, PRECIP, SNOW",,,"MMTS, SRG, SNOWBOARD",,,WFO CHS,,,,,,,,,,,,,,,,,,,,,,,,,,,30.13,64,84,0.00,,,,51,30.13,FEW:02 50,30.08,10.00,71,150,,10,,,,,,,,,,,,,,,,,,,,,,,,,,,,,,,,,,,,,MET09906/19/12 16:56:02 METAR KCHS 192156Z 15009KT 10SM FEW050 29/18 A3013 RMK AO2 SLP202 T02890178 (BBE),,,,,,,,,,,,,,,,,,,,,,,,,,,,
72208013880,2012-06-19T17:56:00,FM-15,7,,SE,0.25,mi,"TEMP, PRECIP, SNOW",,,"MMTS, SRG, SNOWBOARD",,,WFO CHS,,,,,,,,,,,,,,,,,,,,,,,,,,,30.15,65,82,0.00,,,,56,30.14,FEW:02 45,30.10,10.00,71,150,,11,,,,,,,,,,,,,,,,,,,,,,,,,,,,,,,,,,,,,MET09906/19/12 17:56:02 METAR KCHS 192256Z 15010KT 10SM FEW045 28/18 A3015 RMK AO2 SLP208 T02780183 (BBE),,,,,,,,,,,,,,,,,,,,,,,,,,,,
72208013880,2012-06-20T12:56:00,FM-15,7,,SE,0.25,mi,"TEMP, PRECIP, SNOW",,,"MMTS, SRG, SNOWBOARD",,,WFO CHS,,,,,,,,,,,,,,,,,,,,,,,,,,,30.15,67,85,0.00,,+0.02,8,55,30.15,SCT:04 40 SCT:04 55,30.10,10.00,73,160,17,11,,,,,,,,,,,,,,,,,,,,,,,,,,,,,,,,,,,,,MET12606/20/12 12:56:02 METAR KCHS 201756Z 16010G15KT 10SM SCT040 SCT055 29/19 A3015 RMK AO2 SLP209 T02940194 10300 20239 58007 (DD),,,,,,,,,,,,,,,,,,,,,,,,,,,,
72208013880,2012-06-20T13:00:00,FM-12,4,,SE,0.25,mi,"TEMP, PRECIP, SNOW",,,"MMTS, SRG, SNOWBOARD",,,WFO CHS,,,,,,,,,,,,,,,,,,,,,,,,,,,,67,85,,,+0.02,8,55,30.15,,30.10,9.94,73,160,,11,,,,,,,,,,,,,,,,,,,,,,,,,,,,,,,,,,,,,SYN098AAXX  20184 72208 32666 41610 10294 20194 30194 40209 58007 91756 333 10300 20239 91015 555 92018;,,,,,,,,,,,,,,,,,,,,,,,,,,,,
72208013880,2012-06-20T13:56:00,FM-15,7,,SE,0.25,mi,"TEMP, PRECIP, SNOW",,,"MMTS, SRG, SNOWBOARD",,,WFO CHS,,,,,,,,,,,,,,,,,,,,,,,,,,,30.14,66,86,0.00,,,,51,30.14,FEW:02 40 SCT:04 55 SCT:04 250,30.09,10.00,73,150,,10,,,,,,,,,,,,,,,,,,,,,,,,,,,,,,,,,,,,,MET11206/20/12 13:56:02 METAR KCHS 201856Z 15009KT 10SM FEW040 SCT055 SCT250 30/19 A3014 RMK AO2 SLP207 T03000189 (DD),,,,,,,,,,,,,,,,,,,,,,,,,,,,
72208013880,2012-06-20T15:56:00,SY-MT,7,,SE,0.25,mi,"TEMP, PRECIP, SNOW",,,"MMTS, SRG, SNOWBOARD",,,WFO CHS,,,,,,,,,,,,,,,,,,,,,,,,,,,30.12,63,85,0.00,,+0.03,8,48,30.12,FEW:02 40 SCT:04 250,30.07,10.00,71,170,,14,,,,,,,,,,,,,,,,,,,,,,,,,,,,,,,,,,,,,SYN076AAXX  20214 72208 32666 41712 10294 20172 30184 40199 58010 92056 555 92021;MET11206/20/12 15:56:02 METAR KCHS 202056Z 17012KT 10SM FEW040 SCT250 29/17 A3012 RMK AO2 SLP199 T02940172 58010 (BBE),,,,,,,,,,,,,,,,,,,,,,,,,,,,
72208013880,2012-06-20T16:56:00,FM-15,7,,SE,0.25,mi,"TEMP, PRECIP, SNOW",,,"MMTS, SRG, SNOWBOARD",,,WFO CHS,,,,,,,,,,,,,,,,,,,,,,,,,,,30.11,65,84,0.00,,,,53,30.11,FEW:02 40 SCT:04 60 SCT:04 250,30.06,10.00,72,160,,9,,,,,,,,,,,,,,,,,,,,,,,,,,,,,,,,,,,,,MET11306/20/12 16:56:02 METAR KCHS 202156Z 16008KT 10SM FEW040 SCT060 SCT250 29/18 A3011 RMK AO2 SLP196 T02890183 (BBE),,,,,,,,,,,,,,,,,,,,,,,,,,,,
72208013880,2012-06-20T17:56:00,FM-15,7,,SE,0.25,mi,"TEMP, PRECIP, SNOW",,,"MMTS, SRG, SNOWBOARD",,,WFO CHS,,,,,,,,,,,,,,,,,,,,,,,,,,,30.12,66,81,0.00,,,,61,30.11,SCT:04 250,30.07,10.00,71,150,,10,,,,,,,,,,,,,,,,,,,,,,,,,,,,,,,,,,,,,MET09906/20/12 17:56:02 METAR KCHS 202256Z 15009KT 10SM SCT250 27/19 A3012 RMK AO2 SLP198 T02720189 (BBE),,,,,,,,,,,,,,,,,,,,,,,,,,,,
72208013880,2012-06-21T14:56:00,FM-15,7,,SE,0.25,mi,"TEMP, PRECIP, SNOW",,,"MMTS, SRG, SNOWBOARD",,,WFO CHS,,,,,,,,,,,,,,,,,,,,,,,,,,,30.00,65,86,0.00,,,,49,29.99,FEW:02 45,29.95,10.00,72,160,,9,,,,,,,,,,,,,,,,,,,,,,,,,,,,,,,,,,,,,MET09906/21/12 14:56:02 METAR KCHS 211956Z 16008KT 10SM FEW045 30/18 A3000 RMK AO2 SLP157 T03000183 (BBE),,,,,,,,,,,,,,,,,,,,,,,,,,,,
72208013880,2012-06-21T15:56:00,SY-MT,7,,SE,0.25,mi,"TEMP, PRECIP, SNOW",,,"MMTS, SRG, SNOWBOARD",,,WFO CHS,,,,,,,,,,,,,,,,,,,,,,,,,,,29.98,64,86,0.00,,+0.06,6,48,29.98,FEW:02 45 SCT:04 200,29.93,10.00,72,160,,9,,,,,,,,,,,,,,,,,,,,,,,,,,,,,,,,,,,,,SYN076AAXX  21214 72208 32666 41608 10300 20178 30136 40151 56019 92056 555 92121;MET11206/21/12 15:56:02 METAR KCHS 212056Z 16008KT 10SM FEW045 SCT200 30/18 A2998 RMK AO2 SLP151 T03000178 56019 (BBE),,,,,,,,,,,,,,,,,,,,,,,,,,,,
72208013880,2012-06-22T13:56:00,FM-15,7,,SE,0.25,mi,"TEMP, PRECIP, SNOW",,,"MMTS, SRG, SNOWBOARD",,,WFO CHS,,,,,,,,,,,,,,,,,,,,,,,,,,,29.93,67,88,0.00,,,,50,29.92,FEW:02 45 SCT:04 250,29.88,10.00,74,170,,14,,,,,,,,,,,,,,,,,,,,,,,,,,,,,,,,,,,,,MET10506/22/12 13:56:02 METAR KCHS 221856Z 17012KT 10SM FEW045 SCT250 31/19 A2993 RMK AO2 SLP133 T03110194 (DD),,,,,,,,,,,,,,,,,,,,,,,,,,,,
72208013880,2012-06-23T12:56:00,FM-15,7,,SE,0.25,mi,"TEMP, PRECIP, SNOW",,,"MMTS, SRG, SNOWBOARD",,,WFO CHS,,,,,,,,,,,,,,,,,,,,,,,,,,,29.96,70,90,0.00,,+0.01,8,52,29.96,SCT:04 48 SCT:04 54,29.91,10.00,76,170,,8,,,,,,,,,,,,,,,,,,,,,,,,,,,,,,,,,,,,,MET12606/23/12 12:56:02 METAR KCHS 231756Z 17007KT 10SM SCT048 SCT054 32/21 A2996 RMK AO2 SLP144 T03220211 10322 20250 58003 $ (KLL),,,,,,,,,,,,,,,,,,,,,,,,,,,,
72208013880,2012-06-23T13:00:00,FM-12,4,,SE,0.25,mi,"TEMP, PRECIP, SNOW",,,"MMTS, SRG, SNOWBOARD",,,WFO CHS,,,,,,,,,,,,,,,,,,,,,,,,,,,,70,90,,,+0.01,8,52,29.96,,29.91,9.94,76,170,,8,,,,,,,,,,,,,,,,,,,,,,,,,,,,,,,,,,,,,SYN092AAXX  23184 72208 32666 41707 10322 20211 30129 40144 58003 91756 333 10322 20250 555 92318;,,,,,,,,,,,,,,,,,,,,,,,,,,,,
72208013880,2012-06-23T13:56:00,FM-15,7,,SE,0.25,mi,"TEMP, PRECIP, SNOW",,,"MMTS, SRG, SNOWBOARD",,,WFO CHS,,,,,,,,,,,,,,,,,,,,,,,,,,,29.96,71,89,0.00,,,,55,29.95,SCT:04 42,29.91,10.00,76,160,,8,,,,,,,,,,,,,,,,,,,,,,,,,,,,,,,,,,,,,MET10106/23/12 13:56:02 METAR KCHS 231856Z 16007KT 10SM SCT042 32/22 A2996 RMK AO2 SLP143 T03170217 $ (KLL),,,,,,,,,,,,,,,,,,,,,,,,,,,,
72208013880,2012-06-24T12:56:00,SY-MT,7,,SE,0.25,mi,"TEMP, PRECIP, SNOW",,,"MMTS, SRG, SNOWBOARD",,,WFO CHS,,,,,,,,,,,,,,,,,,,,,,,,,,,29.95,73,89,0.00,,+0.04,8,59,29.95,BKN:07 37,29.90,10.00,78,150,,13,,,,,,,,,,,,,,,,,,,,,,,,,,,,,,,,,,,,,SYN092AAXX  24184 72208 32666 61511 10317 20228 30126 40141 58013 91756 333 10317 20256 555 92418;MET13506/24/12 12:56:02 METAR KCHS 241756Z 15011KT 10SM BKN037TCU 32/23 A2995 RMK AO2 SLP141 BKN037TCU TCUS T03170228 10317 20256 58013 (KLL),,,,,,,,,,,,,,,,,,,,,,,,,,,,
72208013880,2012-06-24T13:56:00,FM-15,7,,SE,0.25,mi,"TEMP, PRECIP, SNOW",,,"MMTS, SRG, SNOWBOARD",,,WFO CHS,,,,,,,,,,,,,,,,,,,,,,,,,,,29.94,74,87,0.00,,,,65,29.93,FEW:02 27 SCT:04 38 OVC:08 200,29.89,10.00,78,160,,11,,,,,,,,,,,,,,,,,,,,,,,,,,,,,,,,,,,,,MET12506/24/12 13:56:02 METAR KCHS 241856Z 16010KT 10SM FEW027 SCT038TCU OVC200 31/23 A2994 RMK AO2 SLP137 TCU NW-N T03060233 (KLL),,,,,,,,,,,,,,,,,,,,,,,,,,,,
72208013880,2012-06-24T15:56:00,SY-MT,7,,SE,0.25,mi,"TEMP, PRECIP, SNOW",,,"MMTS, SRG, SNOWBOARD",,,WFO CHS,,,,,,,,,,,,,,,,,,,,,,,,,,,29.91,73,86,0.00,,+0.04,6,65,29.91,FEW:02 28 OVC:08 200,29.86,10.00,77,150,,9,,,,,,,,,,,,,,,,,,,,,,,,,,,,,,,,,,,,,SYN076AAXX  24214 72208 32566 81508 10300 20228 30113 40128 56013 92056 555 92421;MET11206/24/12 15:56:02 METAR KCHS 242056Z 15008KT 10SM FEW028 OVC200 30/23 A2991 RMK AO2 SLP128 T03000228 56013 (JRS),,,,,,,,,,,,,,,,,,,,,,,,,,,,
72208013880,2012-06-24T16:56:00,FM-15,7,,SE,0.25,mi,"TEMP, PRECIP, SNOW",,,"MMTS, SRG, SNOWBOARD",,,WFO CHS,,,,,,,,,,,,,,,,,,,,,,,,,,,29.91,73,85,0.00,,,,68,29.91,FEW:02 26 SCT:04 30 OVC:08 200,29.86,10.00,77,170,,10,,,,,,,,,,,,,,,,,,,,,,,,,,,,,,,,,,,,,MET11306/24/12 16:56:02 METAR KCHS 242156Z 17009KT 10SM FEW026 SCT030 OVC200 29/23 A2991 RMK AO2 SLP127 T02940228 (JRS),,,,,,,,,,,,,,,,,,,,,,,,,,,,
72208013880,2012-06-24T17:56:00,FM-15,7,,SE,0.25,mi,"TEMP, PRECIP, SNOW",,,"MMTS, SRG, SNOWBOARD",,,WFO CHS,,,,,,,,,,,,,,,,,,,,,,,,,,,29.93,74,84,0.00,,,,72,29.93,SCT:04 23 BKN:07 30 OVC:08 200,29.88,10.00,77,160,,10,,,,,,,,,,,,,,,,,,,,,,,,,,,,,,,,,,,,,MET11306/24/12 17:56:02 METAR KCHS 242256Z 16009KT 10SM SCT023 BKN030 OVC200 29/23 A2993 RMK AO2 SLP134 T02890233 (JRS),,,,,,,,,,,,,,,,,,,,,,,,,,,,
72208013880,2012-06-25T14:56:00,FM-15,7,,SE,0.25,mi,"TEMP, PRECIP, SNOW",,,"MMTS, SRG, SNOWBOARD",,,WFO CHS,,,,,,,,,,,,,,,,,,,,,,,,,,,29.78,72,82,0.00,,,,72,29.78,SCT:04 20 BKN:07 50 BKN:07 100,29.73,10.00,75,170,,13,,,,,,,,,,,,,,,,,,,,,,,,,,,,,,,,,,,,,MET11306/25/12 14:56:02 METAR KCHS 251956Z 17011KT 10SM SCT020 BKN050 BKN100 28/22 A2978 RMK AO2 SLP085 T02780222 (BBE),,,,,,,,,,,,,,,,,,,,,,,,,,,,
72208013880,2012-06-25T15:56:00,SY-MT,7,,SE,0.25,mi,"TEMP, PRECIP, SNOW",,,"MMTS, SRG, SNOWBOARD",,,WFO CHS,,,,,,,,,,,,,,,,,,,,,,,,,,,29.77,72,83,0.00,,+0.04,7,70,29.77,SCT:04 25 BKN:07 40 BKN:07 60,29.72,10.00,75,150,,13,,,,,,,,,,,,,,,,,,,,,,,,,,,,,,,,,,,,,SYN076AAXX  25214 72208 32566 61511 10283 20222 30065 40081 57014 92056 555 92521;MET11906/25/12 15:56:02 METAR KCHS 252056Z 15011KT 10SM SCT025 BKN040 BKN060 28/22 A2977 RMK AO2 SLP081 T02830222 57014 (BBE),,,,,,,,,,,,,,,,,,,,,,,,,,,,
72208013880,2012-06-25T16:56:00,FM-15,7,,SE,0.25,mi,"TEMP, PRECIP, SNOW",,,"MMTS, SRG, SNOWBOARD",,,WFO CHS,,,,,,,,,,,,,,,,,,,,,,,,,,,29.76,71,81,0.00,,,,72,29.76,FEW:02 20 SCT:04 25 BKN:07 100,29.71,10.00,74,160,,13,,,,,,,,,,,,,,,,,,,,,,,,,,,,,,,,,,,,,MET11306/25/12 16:56:02 METAR KCHS 252156Z 16011KT 10SM FEW020 SCT025 BKN100 27/22 A2976 RMK AO2 SLP077 T02720217 (BBE),,,,,,,,,,,,,,,,,,,,,,,,,,,,
72208013880,2012-06-25T17:56:00,FM-15,7,,SE,0.25,mi,"TEMP, PRECIP, SNOW",,,"MMTS, SRG, SNOWBOARD",,,WFO CHS,,,,,,,,,,,,,,,,,,,,,,,,,,,29.75,70,80,0.00,,,,71,29.75,FEW:02 20 SCT:04 50 BKN:07 200,29.70,10.00,73,170,,11,,,,,,,,,,,,,,,,,,,,,,,,,,,,,,,,,,,,,MET11506/25/12 17:56:02 METAR KCHS 252256Z 17010KT 10SM FEW020 SCT050 BKN200 27/21 A2975 RMK AO2 SLP074 T02670211 $ (BBE),,,,,,,,,,,,,,,,,,,,,,,,,,,,
72208013880,2012-06-30T12:56:00,SY-MT,7,,SE,0.25,mi,"TEMP, PRECIP, SNOW",,,"MMTS, SRG, SNOWBOARD",,,WFO CHS,,,,,,,,,,,,,,,,,,,,,,,,,,,29.86,77,97,0.00,,+0.01,8,53,29.86,FEW:02 180,29.81,10.00,82,160,,10,,,,,,,,,,,,,,,,,,,,,,,,,,,,,,,,,,,,,SYN092AAXX  30184 72208 32966 21609 10361 20250 30096 40112 58004 91756 333 10367 20267 555 93018;MET11606/30/12 12:56:02 METAR KCHS 301756Z 16009KT 10SM FEW180 36/25 A2986 RMK AO2 SLP112 T03610250 10367 20267 58004 (DK),,,,,,,,,,,,,,,,,,,,,,,,,,,,
72208013880,2012-07-12T13:56:00,FM-15,7,,SE,0.25,mi,"TEMP, PRECIP, SNOW",,,"MMTS, SRG, SNOWBOARD",,,WFO CHS,,,,,,,,,,,,,,,,,,,,,,,,,,,30.08,71,90,0.00,,,,54,30.07,SCT:04 35 SCT:04 50 SCT:04 100,30.03,10.00,77,160,,17,,,,,,,,,,,,,,,,,,,,,,,,,,,,,,,,,,,,,MET14007/12/12 13:56:02 METAR KCHS 121856Z 16015KT 10SM SCT035 SCT050 SCT100 32/22 A3008 RMK AO2 SLP184 CB DSNT N-NE AND NW MOVG NW T03220217 (DD),,,,,,,,,,,,,,,,,,,,,,,,,,,,
72208013880,2012-07-12T15:56:00,FM-15,7,,SE,0.25,mi,"TEMP, PRECIP, SNOW",,,"MMTS, SRG, SNOWBOARD",,,WFO CHS,,,,,,,,,,,,,,,,,,,,,,,,,,,30.06,71,85,0.00,,+0.03,8,63,30.06,SCT:04 30 SCT:04 60 BKN:07 250,30.01,10.00,75,150,,11,,,,,,,,,,,,,,,,,,,,,,,,,,,,,,,,,,,,,MET13607/12/12 15:56:02 METAR KCHS 122056Z 15010KT 10SM SCT030 SCT060 BKN250 29/22 A3006 RMK AO2 SLP178 MDT CU NE AND SE T02940217 58010 (JMB),,,,,,,,,,,,,,,,,,,,,,,,,,,,
72208013880,2012-07-12T16:00:00,FM-12,4,,SE,0.25,mi,"TEMP, PRECIP, SNOW",,,"MMTS, SRG, SNOWBOARD",,,WFO CHS,,,,,,,,,,,,,,,,,,,,,,,,,,,,71,85,,,+0.03,8,63,30.06,,30.01,9.94,75,150,,11,,,,,,,,,,,,,,,,,,,,,,,,,,,,,,,,,,,,,SYN076AAXX  12214 72208 32566 61510 10294 20217 30163 40178 58010 92056 555 91221;,,,,,,,,,,,,,,,,,,,,,,,,,,,,
72208013880,2012-07-13T10:56:00,FM-15,7,,SE,0.25,mi,"TEMP, PRECIP, SNOW",,,"MMTS, SRG, SNOWBOARD",,,WFO CHS,,,,,,,,,,,,,,,,,,,,,,,,,,,30.14,73,85,T,-RA:02 |RA |RA,,,68,30.14,FEW:02 30 SCT:04 75 SCT:04 150,30.09,10.00,77,150,,13,,,,,,,,,,,,,,,,,,,,,,,,,,,,,,,,,,,,,MET14907/13/12 10:56:02 METAR KCHS 131556Z 15011KT 10SM -RA FEW030 SCT075 SCT150 29/23 A3014 RMK AO2 RAB50 SLP205 CB DSNT W-NW MOVG NW P0000 T02940228 (DD),,,,,,,,,,,,,,,,,,,,,,,,,,,,
72208013880,2012-07-13T11:56:00,FM-15,7,,SE,0.25,mi,"TEMP, PRECIP, SNOW",,,"MMTS, SRG, SNOWBOARD",,,WFO CHS,,,,,,,,,,,,,,,,,,,,,,,,,,,30.13,73,88,0.00,,,,61,30.13,SCT:04 35 SCT:04 70 BKN:07 150,30.08,10.00,77,150,20,15,,,,,,,,,,,,,,,,,,,,,,,,,,,,,,,,,,,,,MET14307/13/12 11:56:02 METAR KCHS 131656Z 15013G17KT 10SM SCT035 SCT070 BKN150 31/23 A3013 RMK AO2 RAE1557 SLP203 CB DSNT W-N MOVG NW T03110228 (DD),,,,,,,,,,,,,,,,,,,,,,,,,,,,
72208013880,2012-07-13T12:56:00,SY-MT,7,,SE,0.25,mi,"TEMP, PRECIP, SNOW",,,"MMTS, SRG, SNOWBOARD",,,WFO CHS,,,,,,,,,,,,,,,,,,,,,,,,,,,30.13,73,89,0.00,,+0.01,6,59,30.13,SCT:04 35 SCT:04 50 BKN:07 180,30.08,10.00,78,150,,14,,,,,,,,,,,,,,,,,,,,,,,,,,,,,,,,,,,,,SYN098AAXX  13184 72208 12666 61512 10317 20228 30187 40203 56005 69901 91756 333 10322 20256 555 91318;MET14707/13/12 12:56:02 METAR KCHS 131756Z 15012KT 10SM SCT035 SCT050 BKN180 32/23 A3013 RMK AO2 SLP203 CB MOVD NW 60000 T03170228 10322 20256 56005 (DD),,,,,,,,,,,,,,,,,,,,,,,,,,,,
72208013880,2012-07-13T13:56:00,FM-15,7,,SE,0.25,mi,"TEMP, PRECIP, SNOW",,,"MMTS, SRG, SNOWBOARD",,,WFO CHS,,,,,,,,,,,,,,,,,,,,,,,,,,,30.13,76,85,T,-RA:02 |RA |RA,,,75,30.12,SCT:04 35 SCT:04 50 BKN:07 180,30.08,10.00,79,160,16,11,,,,,,,,,,,,,,,,,,,,,,,,,,,,,,,,,,,,,MET14407/13/12 13:56:02 METAR KCHS 131856Z 16010G14KT 10SM -RA SCT035 SCT050 BKN180 29/24 A3013 RMK AO2 RAB45 SLP201 MDT CU ALQDS P0000 T02940244 (DD),,,,,,,,,,,,,,,,,,,,,,,,,,,,
72208013880,2012-07-13T14:56:00,FM-15,7,,SE,0.25,mi,"TEMP, PRECIP, SNOW",,,"MMTS, SRG, SNOWBOARD",,,WFO CHS,,,,,,,,,,,,,,,,,,,,,,,,,,,30.12,73,88,T,,,,61,30.12,SCT:04 35 SCT:04 50 BKN:07 250,30.07,10.00,77,150,,13,,,,,,,,,,,,,,,,,,,,,,,,,,,,,,,,,,,,,MET13207/13/12 14:56:02 METAR KCHS 131956Z 15011KT 10SM SCT035 SCT050 BKN250 31/23 A3012 RMK AO2 RAE01 SLP199 MDT CU ALQDS P0000 T03110228,,,,,,,,,,,,,,,,,,,,,,,,,,,,
72208013880,2012-07-13T15:56:00,FM-15,7,,SE,0.25,mi,"TEMP, PRECIP, SNOW",,,"MMTS, SRG, SNOWBOARD",,,WFO CHS,,,,,,,,,,,,,,,,,,,,,,,,,,,30.12,70,87,0.00,,+0.01,5,57,30.12,SCT:04 30 SCT:04 50 BKN:07 250,30.07,10.00,75,160,,15,,,,,,,,,,,,,,,,,,,,,,,,,,,,,,,,,,,,,MET14807/13/12 15:56:02 METAR KCHS 132056Z 16013KT 10SM SCT030TCU SCT050 BKN250 31/21 A3012 RMK AO2 SLP200 TCU NW MDT CU ALQDS 60000 T03060211 55003 (JMB),,,,,,,,,,,,,,,,,,,,,,,,,,,,
72208013880,2012-07-13T16:00:00,FM-12,4,,SE,0.25,mi,"TEMP, PRECIP, SNOW",,,"MMTS, SRG, SNOWBOARD",,,WFO CHS,,,,,,,,,,,,,,,,,,,,,,,,,,,,70,87,,,+0.01,5,57,30.12,,30.07,9.94,75,160,,15,,,,,,,,,,,,,,,,,,,,,,,,,,,,,,,,,,,,,SYN082AAXX  13214 72208 12566 61613 10306 20211 30184 40200 55003 69907 92056 555 91321;,,,,,,,,,,,,,,,,,,,,,,,,,,,,
72208013880,2012-07-13T16:56:00,FM-15,7,,SE,0.25,mi,"TEMP, PRECIP, SNOW",,,"MMTS, SRG, SNOWBOARD",,,WFO CHS,,,,,,,,,,,,,,,,,,,,,,,,,,,30.11,72,86,0.00,,,,63,30.10,SCT:04 30 SCT:04 50 BKN:07 250,30.06,10.00,76,150,,10,,,,,,,,,,,,,,,,,,,,,,,,,,,,,,,,,,,,,MET12607/13/12 16:56:02 METAR KCHS 132156Z 15009KT 10SM SCT030 SCT050 BKN250 30/22 A3011 RMK AO2 SLP194 MDT CU ALQDS T03000222 (JMB),,,,,,,,,,,,,,,,,,,,,,,,,,,,
72208013880,2012-07-13T17:56:00,FM-15,7,,SE,0.25,mi,"TEMP, PRECIP, SNOW",,,"MMTS, SRG, SNOWBOARD",,,WFO CHS,,,,,,,,,,,,,,,,,,,,,,,,,,,30.10,73,84,0.00,,,,70,30.09,FEW:02 26,30.05,10.00,76,170,,11,,,,,,,,,,,,,,,,,,,,,,,,,,,,,,,,,,,,,MET09907/13/12 17:56:02 METAR KCHS 132256Z 17010KT 10SM FEW026 29/23 A3010 RMK AO2 SLP190 T02890228 (JMB),,,,,,,,,,,,,,,,,,,,,,,,,,,,
72208013880,2012-07-14T13:56:00,FM-15,7,,SE,0.25,mi,"TEMP, PRECIP, SNOW",,,"MMTS, SRG, SNOWBOARD",,,WFO CHS,,,,,,,,,,,,,,,,,,,,,,,,,,,30.16,72,88,0.00,,,,59,30.16,FEW:02 35 SCT:04 42 SCT:04 75,30.11,10.00,77,160,21,14,,,,,,,,,,,,,,,,,,,,,,,,,,,,,,,,,,,,,MET11607/14/12 13:56:02 METAR KCHS 141856Z 16012G18KT 10SM FEW035 SCT042 SCT075 31/22 A3016 RMK AO2 SLP213 T03110222 (KLL),,,,,,,,,,,,,,,,,,,,,,,,,,,,
72208013880,2012-07-14T14:56:00,FM-15,7,,SE,0.25,mi,"TEMP, PRECIP, SNOW",,,"MMTS, SRG, SNOWBOARD",,,WFO CHS,,,,,,,,,,,,,,,,,,,,,,,,,,,30.15,72,88,0.00,,,,59,30.14,SCT:04 36 SCT:04 250,30.10,10.00,77,150,,13,,,,,,,,,,,,,,,,,,,,,,,,,,,,,,,,,,,,,MET10607/14/12 14:56:02 METAR KCHS 141956Z 15011KT 10SM SCT036 SCT250 31/22 A3015 RMK AO2 SLP208 T03110222 (JRS),,,,,,,,,,,,,,,,,,,,,,,,,,,,
72208013880,2012-07-14T16:56:00,FM-15,7,,SE,0.25,mi,"TEMP, PRECIP, SNOW",,,"MMTS, SRG, SNOWBOARD",,,WFO CHS,,,,,,,,,,,,,,,,,,,,,,,,,,,30.12,72,87,0.00,,,,61,30.12,FEW:02 36 SCT:04 250,30.07,10.00,77,150,,13,,,,,,,,,,,,,,,,,,,,,,,,,,,,,,,,,,,,,MET10607/14/12 16:56:02 METAR KCHS 142156Z 15011KT 10SM FEW036 SCT250 31/22 A3012 RMK AO2 SLP199 T03060222 (JRS),,,,,,,,,,,,,,,,,,,,,,,,,,,,
72208013880,2012-07-14T17:56:00,FM-15,7,,SE,0.25,mi,"TEMP, PRECIP, SNOW",,,"MMTS, SRG, SNOWBOARD",,,WFO CHS,,,,,,,,,,,,,,,,,,,,,,,,,,,30.12,71,85,0.00,,,,63,30.12,FEW:02 28 SCT:04 250,30.07,10.00,75,160,,9,,,,,,,,,,,,,,,,,,,,,,,,,,,,,,,,,,,,,MET10607/14/12 17:56:02 METAR KCHS 142256Z 16008KT 10SM FEW028 SCT250 29/22 A3012 RMK AO2 SLP199 T02940217 (JRS),,,,,,,,,,,,,,,,,,,,,,,,,,,,
72208013880,2012-07-15T12:56:00,SY-MT,7,,SE,0.25,mi,"TEMP, PRECIP, SNOW",,,"MMTS, SRG, SNOWBOARD",,,WFO CHS,,,,,,,,,,,,,,,,,,,,,,,,,,,30.16,71,89,0.00,,+0.03,8,55,30.16,SCT:04 31 SCT:04 41,30.11,10.00,76,170,22,16,,,,,,,,,,,,,,,,,,,,,,,,,,,,,,,,,,,,,SYN104AAXX  15184 72208 12566 41714 10317 20217 30197 40212 58009 69901 91756 333 10322 20256 91019 555 91518;MET13307/15/12 12:56:02 METAR KCHS 151756Z 17014G19KT 10SM SCT031 SCT041 32/22 A3016 RMK AO2 SLP212 60000 T03170217 10322 20256 58009 (KLL),,,,,,,,,,,,,,,,,,,,,,,,,,,,
72208013880,2012-07-15T13:56:00,FM-15,7,,SE,0.25,mi,"TEMP, PRECIP, SNOW",,,"MMTS, SRG, SNOWBOARD",,,WFO CHS,,,,,,,,,,,,,,,,,,,,,,,,,,,30.16,70,84,0.00,,,,63,30.15,FEW:02 16 SCT:04 33 BKN:07 60,30.11,10.00,74,150,,9,,,,,,,,,,,,,,,,,,,,,,,,,,,,,,,,,,,,,MET13207/15/12 13:56:02 METAR KCHS 151856Z 15008KT 10SM FEW016 SCT033 BKN060 29/21 A3016 RMK AO2 SLP211 CB DSNT N-NE AND W T02890211 (KLL),,,,,,,,,,,,,,,,,,,,,,,,,,,,
72208013880,2012-07-15T14:56:00,FM-15,7,,SE,0.25,mi,"TEMP, PRECIP, SNOW",,,"MMTS, SRG, SNOWBOARD",,,WFO CHS,,,,,,,,,,,,,,,,,,,,,,,,,,,30.13,70,88,0.00,,,,55,30.12,SCT:04 33 BKN:07 300,30.08,10.00,76,160,,7,,,,,,,,,,,,,,,,,,,,,,,,,,,,,,,,,,,,,MET10607/15/12 14:56:02 METAR KCHS 151956Z 16006KT 10SM SCT033 BKN300 31/21 A3013 RMK AO2 SLP201 T03110211 (JRS),,,,,,,,,,,,,,,,,,,,,,,,,,,,
72208013880,2012-07-15T16:56:00,FM-15,7,,SE,0.25,mi,"TEMP, PRECIP, SNOW",,,"MMTS, SRG, SNOWBOARD",,,WFO CHS,,,,,,,,,,,,,,,,,,,,,,,,,,,30.11,71,84,0.00,,,,65,30.10,SCT:04 30 SCT:04 250,30.06,10.00,75,160,18,11,,,,,,,,,,,,,,,,,,,,,,,,,,,,,,,,,,,,,MET11907/15/12 16:56:02 METAR KCHS 152156Z 16010G16KT 10SM SCT030 SCT250 29/22 A3011 RMK AO2 SLP194 CB DSNT W T02890217 (JRS),,,,,,,,,,,,,,,,,,,,,,,,,,,,
72208013880,2012-07-15T17:56:00,FM-15,7,,SE,0.25,mi,"TEMP, PRECIP, SNOW",,,"MMTS, SRG, SNOWBOARD",,,WFO CHS,,,,,,,,,,,,,,,,,,,,,,,,,,,30.10,71,85,0.00,,,,63,30.09,FEW:02 28 SCT:04 250,30.05,10.00,75,160,,9,,,,,,,,,,,,,,,,,,,,,,,,,,,,,,,,,,,,,MET10607/15/12 17:56:02 METAR KCHS 152256Z 16008KT 10SM FEW028 SCT250 29/22 A3010 RMK AO2 SLP191 T02940217 (JRS),,,,,,,,,,,,,,,,,,,,,,,,,,,,
72208013880,2012-07-16T12:56:00,SY-MT,7,,SE,0.25,mi,"TEMP, PRECIP, SNOW",,,"MMTS, SRG, SNOWBOARD",,,WFO CHS,,,,,,,,,,,,,,,,,,,,,,,,,,,30.04,72,88,0.00,,+0.04,8,59,30.03,SCT:04 40 SCT:04 60 BKN:07 120,29.99,10.00,77,160,,9,,,,,,,,,,,,,,,,,,,,,,,,,,,,,,,,,,,,,SYN092AAXX  16184 72208 32666 61608 10311 20222 30157 40171 58014 91756 333 10317 20261 555 91618;MET14507/16/12 12:56:02 METAR KCHS 161756Z 16008KT 10SM SCT040 SCT060 BKN120 31/22 A3004 RMK AO2 SLP171 TCU DSNT ALQDS T03110222 10317 20261 58014 (DD),,,,,,,,,,,,,,,,,,,,,,,,,,,,
72208013880,2012-07-19T15:33:00,FM-16,7,,SE,0.25,mi,"TEMP, PRECIP, SNOW",,,"MMTS, SRG, SNOWBOARD",,,WFO CHS,,,,,,,,,,,,,,,,,,,,,,,,,,,30.04,73,82,T,-RA:02 |RA |RA,,,74,,SCT:04 30 BKN:07 50 BKN:07 120,29.99,10.00,76,170,,9,,,,,,,,,,,,,,,,,,,,,,,,,,,,,,,,,,,,,MET15207/19/12 15:33:02 SPECI KCHS 192033Z 17008KT 10SM -RA SCT030TCU BKN050 BKN120 28/23 A3004 RMK AO2 TSB1958E32RAE1958B32 TS SE-S DSIPTD TCU SW P0000 (JMB),,,,,,,,,,,,,,,,,,,,,,,,,,,,
72208013880,2012-07-19T15:44:00,FM-16,7,,SE,0.25,mi,"TEMP, PRECIP, SNOW",,,"MMTS, SRG, SNOWBOARD",,,WFO CHS,,,,,,,,,,,,,,,,,,,,,,,,,,,30.04,73,81,T,TS:7 |TS |TS,,,79,,SCT:04 30 BKN:07 50 BKN:07 120,29.99,10.00,75,170,,10,,,,,,,,,,,,,,,,,,,,,,,,,,,,,,,,,,,,,MET16707/19/12 15:44:02 SPECI KCHS 192044Z 17009KT 10SM TS SCT030CB BKN050 BKN120 27/23 A3004 RMK AO2 TSB1958E32B43RAE1958B32E43 OCNL LTGICCA S-SW TS S-SW MOV NE P0000 (JMB),,,,,,,,,,,,,,,,,,,,,,,,,,,,
72208013880,2012-07-25T13:56:00,FM-15,7,,SE,0.25,mi,"TEMP, PRECIP, SNOW",,,"MMTS, SRG, SNOWBOARD",,,WFO CHS,,,,,,,,,,,,,,,,,,,,,,,,,,,29.95,74,91,0.00,,,,57,29.95,FEW:02 50 SCT:04 150 SCT:04 200,29.90,10.00,79,160,,7,,,,,,,,,,,,,,,,,,,,,,,,,,,,,,,,,,,,,MET11207/25/12 13:56:02 METAR KCHS 251856Z 16006KT 10SM FEW050 SCT150 SCT200 33/23 A2995 RMK AO2 SLP141 T03280233 (DD),,,,,,,,,,,,,,,,,,,,,,,,,,,,
72208013880,2012-07-25T14:56:00,FM-15,7,,SE,0.25,mi,"TEMP, PRECIP, SNOW",,,"MMTS, SRG, SNOWBOARD",,,WFO CHS,,,,,,,,,,,,,,,,,,,,,,,,,,,29.95,75,88,0.00,,,,66,29.95,SCT:04 40 BKN:07 150 OVC:08 250,29.90,10.00,79,150,,10,,,,,,,,,,,,,,,,,,,,,,,,,,,,,,,,,,,,,MET11307/25/12 14:56:02 METAR KCHS 251956Z 15009KT 10SM SCT040 BKN150 OVC250 31/24 A2995 RMK AO2 SLP142 T03110239 (JMB),,,,,,,,,,,,,,,,,,,,,,,,,,,,
72208013880,2012-07-29T15:52:00,FM-16,7,,SE,0.25,mi,"TEMP, PRECIP, SNOW",,,"MMTS, SRG, SNOWBOARD",,,WFO CHS,,,,,,,,,,,,,,,,,,,,,,,,,,,29.96,72,75,0.94,TS:7 -RA:02 |RA TS |SHRA TS,,,89,,FEW:02 32 SCT:04 60 OVC:08 300,29.91,9.00,73,150,,11,,,,,,,,,,,,,,,,,,,,,,,,,,,,,,,,,,,,,MET17007/29/12 15:52:02 SPECI KCHS 292052Z 15010KT 9SM -TSRA FEW032CB SCT060 OVC300 24/22 A2996 RMK AO2 PK WND 33029/2019 OCNL LTGCGIC E-S TS E-S MOV E CB DSNT NE P0094 $ (JRS),,,,,,,,,,,,,,,,,,,,,,,,,,,,
72208013880,2012-07-30T15:56:00,SY-MT,7,,SE,0.25,mi,"TEMP, PRECIP, SNOW",,,"MMTS, SRG, SNOWBOARD",,,WFO CHS,,,,,,,,,,,,,,,,,,,,,,,,,,,29.91,73,85,0.00,,+0.04,5,68,29.91,SCT:04 21 BKN:07 250,29.86,10.00,77,170,,11,,,,,,,,,,,,,,,,,,,,,,,,,,,,,,,,,,,,,SYN076AAXX  30214 72208 32566 61710 10294 20228 30113 40129 55012 92056 555 93021;MET11207/30/12 15:56:02 METAR KCHS 302056Z 17010KT 10SM SCT021 BKN250 29/23 A2991 RMK AO2 SLP129 T02940228 55012 (JRS),,,,,,,,,,,,,,,,,,,,,,,,,,,,
72208013880,2012-07-30T16:35:00,FM-16,7,,SE,0.25,mi,"TEMP, PRECIP, SNOW",,,"MMTS, SRG, SNOWBOARD",,,WFO CHS,,,,,,,,,,,,,,,,,,,,,,,,,,,29.92,73,82,,,,,74,,BKN:07 21 BKN:07 28,29.87,10.00,76,150,,10,,,,,,,,,,,,,,,,,,,,,,,,,,,,,,,,,,,,,MET10207/30/12 16:35:02 SPECI KCHS 302135Z 15009KT 10SM BKN021 BKN028 28/23 A2992 RMK AO2 CB DSNT NW-N (JRS),,,,,,,,,,,,,,,,,,,,,,,,,,,,
72208013880,2012-07-30T16:56:00,FM-15,7,,SE,0.25,mi,"TEMP, PRECIP, SNOW",,,"MMTS, SRG, SNOWBOARD",,,WFO CHS,,,,,,,,,,,,,,,,,,,,,,,,,,,29.94,74,81,T,-RA:02 |RA |RA,,,79,29.94,BKN:07 19 BKN:07 31 OVC:08 50,29.89,9.00,76,160,,11,,,,,,,,,,,,,,,,,,,,,,,,,,,,,,,,,,,,,MET14107/30/12 16:56:02 METAR KCHS 302156Z 16010KT 9SM -RA BKN019 BKN031 OVC050 27/23 A2994 RMK AO2 RAB53 SLP138 CB DSNT NW-N P0000 T02720233 (JRS),,,,,,,,,,,,,,,,,,,,,,,,,,,,
72208013880,2012-07-30T17:09:00,FM-16,7,,SE,0.25,mi,"TEMP, PRECIP, SNOW",,,"MMTS, SRG, SNOWBOARD",,,WFO CHS,,,,,,,,,,,,,,,,,,,,,,,,,,,29.94,75,81,0.03,-RA:02 |RA |RA,,,84,,SCT:04 19 BKN:07 47 OVC:08 75,29.89,4.00,77,170,,9,,,,,,,,,,,,,,,,,,,,,,,,,,,,,,,,,,,,,MET11807/30/12 17:09:02 SPECI KCHS 302209Z 17008KT 4SM -RA SCT019 BKN047 OVC075 27/24 A2994 RMK AO2 CB DSNT NW-N P0003 (JRS),,,,,,,,,,,,,,,,,,,,,,,,,,,,
72208013880,2012-07-30T17:16:00,FM-16,7,,SE,0.25,mi,"TEMP, PRECIP, SNOW",,,"MMTS, SRG, SNOWBOARD",,,WFO CHS,,,,,,,,,,,,,,,,,,,,,,,,,,,29.94,75,81,0.03,TS:7 |TS |TS,,,84,,FEW:02 19 BKN:07 30 OVC:08 90,29.89,9.00,77,170,,10,,,,,,,,,,,,,,,,,,,,,,,,,,,,,,,,,,,,,MET14807/30/12 17:16:02 SPECI KCHS 302216Z 17009KT 9SM TS FEW019 BKN030CB OVC090 27/24 A2994 RMK AO2 TSB16RAE16 OCNL LTGCGIC W-N TS W-N MOV SE P0003 (JRS),,,,,,,,,,,,,,,,,,,,,,,,,,,,
72208013880,2012-08-02T15:56:00,FM-15,7,,SE,0.25,mi,"TEMP, PRECIP, SNOW",,,"MMTS, SRG, SNOWBOARD",,,WFO CHS,,,,,,,,,,,,,,,,,,,,,,,,,,,29.89,72,89,0.00,,+0.04,5,57,29.89,FEW:02 35 BKN:07 200,29.84,10.00,77,170,,13,,,,,,,,,,,,,,,,,,,,,,,,,,,,,,,,,,,,,MET12508/02/12 15:56:02 METAR KCHS 022056Z 17011KT 10SM FEW035 BKN200 32/22 A2989 RMK AO2 SLP121 CB DSNT SW-W T03170222 55012 (BBE),,,,,,,,,,,,,,,,,,,,,,,,,,,,
72208013880,2012-08-02T16:00:00,FM-12,4,,SE,0.25,mi,"TEMP, PRECIP, SNOW",,,"MMTS, SRG, SNOWBOARD",,,WFO CHS,,,,,,,,,,,,,,,,,,,,,,,,,,,,72,89,,,+0.04,5,57,29.89,,29.84,9.94,77,170,,13,,,,,,,,,,,,,,,,,,,,,,,,,,,,,,,,,,,,,SYN076AAXX  02214 72208 32666 61711 10317 20222 30106 40121 55012 92056 555 90221;,,,,,,,,,,,,,,,,,,,,,,,,,,,,
72208013880,2012-08-03T17:56:00,FM-15,7,,SE,0.25,mi,"TEMP, PRECIP, SNOW",,,"MMTS, SRG, SNOWBOARD",,,WFO CHS,,,,,,,,,,,,,,,,,,,,,,,,,,,30.02,74,85,0.00,,,,70,30.01,FEW:02 30 SCT:04 120 SCT:04 200,29.97,10.00,77,170,,11,,,,,,,,,,,,,,,,,,,,,,,,,,,,,,,,,,,,,MET11308/03/12 17:56:02 METAR KCHS 032256Z 17010KT 10SM FEW030 SCT120 SCT200 29/23 A3002 RMK AO2 SLP164 T02940233 (BBE),,,,,,,,,,,,,,,,,,,,,,,,,,,,
72208013880,2012-08-04T14:56:00,FM-15,7,,SE,0.25,mi,"TEMP, PRECIP, SNOW",,,"MMTS, SRG, SNOWBOARD",,,WFO CHS,,,,,,,,,,,,,,,,,,,,,,,,,,,30.14,71,88,0.00,,,,57,30.14,SCT:04 35 BKN:07 250,30.09,10.00,76,150,,14,,,,,,,,,,,,,,,,,,,,,,,,,,,,,,,,,,,,,MET12008/04/12 14:56:02 METAR KCHS 041956Z 15012KT 10SM SCT035 BKN250 31/22 A3014 RMK AO2 SLP206 TCU DSNT SE-S T03110217 (JRS),,,,,,,,,,,,,,,,,,,,,,,,,,,,
72208013880,2012-08-04T15:56:00,FM-15,7,,SE,0.25,mi,"TEMP, PRECIP, SNOW",,,"MMTS, SRG, SNOWBOARD",,,WFO CHS,,,,,,,,,,,,,,,,,,,,,,,,,,,30.16,72,82,0.00,,+0.00,5,72,30.15,FEW:02 26 SCT:04 120 BKN:07 250,30.11,10.00,75,150,25,17,,,,,,,,,,,,,,,,,,,,,,,,,,,,,,,,,,,,,MET14908/04/12 15:56:02 METAR KCHS 042056Z 15015G22KT 10SM FEW026TCU SCT120 BKN250 28/22 A3016 RMK AO2 PK WND 13031/2036 SLP211 TCU W T02780222 55000 (JRS),,,,,,,,,,,,,,,,,,,,,,,,,,,,
72208013880,2012-08-04T16:00:00,FM-12,4,,SE,0.25,mi,"TEMP, PRECIP, SNOW",,,"MMTS, SRG, SNOWBOARD",,,WFO CHS,,,,,,,,,,,,,,,,,,,,,,,,,,,,72,82,,,+0.00,5,72,30.15,,30.11,9.94,75,150,,17,,,,,,,,,,,,,,,,,,,,,,,,,,,,,,,,,,,,,SYN086AAXX  04214 72208 32566 61515 10278 20222 30197 40211 55000 92056 333 91022 555 90421;,,,,,,,,,,,,,,,,,,,,,,,,,,,,
72208013880,2012-08-04T16:56:00,FM-15,7,,SE,0.25,mi,"TEMP, PRECIP, SNOW",,,"MMTS, SRG, SNOWBOARD",,,WFO CHS,,,,,,,,,,,,,,,,,,,,,,,,,,,30.14,70,84,0.00,,,,63,30.14,FEW:02 26 SCT:04 140 BKN:07 250,30.09,10.00,74,160,,14,,,,,,,,,,,,,,,,,,,,,,,,,,,,,,,,,,,,,MET11308/04/12 16:56:02 METAR KCHS 042156Z 16012KT 10SM FEW026 SCT140 BKN250 29/21 A3014 RMK AO2 SLP207 T02890211 (JRS),,,,,,,,,,,,,,,,,,,,,,,,,,,,
72208013880,2012-08-05T10:56:00,FM-15,7,,SE,0.25,mi,"TEMP, PRECIP, SNOW",,,"MMTS, SRG, SNOWBOARD",,,WFO CHS,,,,,,,,,,,,,,,,,,,,,,,,,,,30.19,74,88,0.00,,,,63,30.19,SCT:04 28 SCT:04 38,30.14,10.00,78,160,,10,,,,,,,,,,,,,,,,,,,,,,,,,,,,,,,,,,,,,MET10608/05/12 10:56:02 METAR KCHS 051556Z 16009KT 10SM SCT028 SCT038 31/23 A3019 RMK AO2 SLP224 T03110233 (KLL),,,,,,,,,,,,,,,,,,,,,,,,,,,,
72208013880,2012-08-05T11:56:00,FM-15,7,,SE,0.25,mi,"TEMP, PRECIP, SNOW",,,"MMTS, SRG, SNOWBOARD",,,WFO CHS,,,,,,,,,,,,,,,,,,,,,,,,,,,30.18,74,89,0.00,,,,61,30.18,BKN:07 33,30.13,10.00,78,150,22,16,,,,,,,,,,,,,,,,,,,,,,,,,,,,,,,,,,,,,MET11508/05/12 11:56:02 METAR KCHS 051656Z 15014G19KT 10SM BKN033TCU 32/23 A3018 RMK AO2 SLP219 TCU W-N-E T03170233 (KLL),,,,,,,,,,,,,,,,,,,,,,,,,,,,
72208013880,2012-08-07T15:56:00,SY-MT,7,,SE,0.25,mi,"TEMP, PRECIP, SNOW",,,"MMTS, SRG, SNOWBOARD",,,WFO CHS,,,,,,,,,,,,,,,,,,,,,,,,,,,29.99,75,83,0.00,,+0.04,6,77,29.99,SCT:04 25 BKN:07 35 BKN:07 100,29.94,10.00,77,160,,7,,,,,,,,,,,,,,,,,,,,,,,,,,,,,,,,,,,,,SYN082AAXX  07214 72208 12566 61606 10283 20239 30140 40155 56014 69907 92056 555 90721;MET16108/07/12 15:56:02 METAR KCHS 072056Z 16006KT 10SM SCT025 BKN035 BKN100 28/24 A2999 RMK AO2 SLP155 CB DSNT SW-W MOVG SLO NE TCU DSNT N 60000 T02830239 56014 (BBE),,,,,,,,,,,,,,,,,,,,,,,,,,,,
72208013880,2012-08-08T15:56:00,FM-15,7,,SE,0.25,mi,"TEMP, PRECIP, SNOW",,,"MMTS, SRG, SNOWBOARD",,,WFO CHS,,,,,,,,,,,,,,,,,,,,,,,,,,,29.98,73,85,0.00,,+0.03,6,68,29.98,FEW:02 20 SCT:04 35 SCT:04 250,29.93,10.00,77,150,,11,,,,,,,,,,,,,,,,,,,,,,,,,,,,,,,,,,,,,MET12808/08/12 15:56:02 METAR KCHS 082056Z 15010KT 10SM FEW020 SCT035 SCT250 29/23 A2998 RMK AO2 SLP151 T02940228 56011 RTX FIBI (BBE),,,,,,,,,,,,,,,,,,,,,,,,,,,,
72208013880,2012-08-08T16:00:00,FM-12,4,,SE,0.25,mi,"TEMP, PRECIP, SNOW",,,"MMTS, SRG, SNOWBOARD",,,WFO CHS,,,,,,,,,,,,,,,,,,,,,,,,,,,,73,85,,,+0.03,6,68,29.98,,29.93,9.94,77,150,,11,,,,,,,,,,,,,,,,,,,,,,,,,,,,,,,,,,,,,SYN076AAXX  08214 72208 32566 41510 10294 20228 30136 40151 56011 92056 555 90821;,,,,,,,,,,,,,,,,,,,,,,,,,,,,
72208013880,2012-08-09T12:56:00,SY-MT,7,,SE,0.25,mi,"TEMP, PRECIP, SNOW",,,"MMTS, SRG, SNOWBOARD",,,WFO CHS,,,,,,,,,,,,,,,,,,,,,,,,,,,29.96,75,88,0.00,,+0.04,8,66,29.96,FEW:02 35 SCT:04 50 SCT:04 65,29.91,10.00,79,160,,13,,,,,,,,,,,,,,,,,,,,,,,,,,,,,,,,,,,,,SYN092AAXX  09184 72208 32666 41611 10311 20239 30129 40146 58013 91756 333 10322 20244 555 90918;MET14808/09/12 12:56:02 METAR KCHS 091756Z 16011KT 10SM FEW035 SCT050 SCT065 31/24 A2996 RMK AO2 SLP146 TCU DSNT N AND SW T03110239 10322 20244 58013 (DD),,,,,,,,,,,,,,,,,,,,,,,,,,,,
72208013880,2012-08-09T13:56:00,FM-15,7,,SE,0.25,mi,"TEMP, PRECIP, SNOW",,,"MMTS, SRG, SNOWBOARD",,,WFO CHS,,,,,,,,,,,,,,,,,,,,,,,,,,,29.93,74,89,0.00,,,,61,29.93,FEW:02 30 SCT:04 40 SCT:04 55,29.88,10.00,78,160,,13,,,,,,,,,,,,,,,,,,,,,,,,,,,,,,,,,,,,,MET13508/09/12 13:56:02 METAR KCHS 091856Z 16011KT 10SM FEW030 SCT040 SCT055 32/23 A2993 RMK AO2 SLP135 TCU DSNT N-NE AND SW-W T03170233 (DD),,,,,,,,,,,,,,,,,,,,,,,,,,,,
72208013880,2012-08-09T14:56:00,FM-15,7,,SE,0.25,mi,"TEMP, PRECIP, SNOW",,,"MMTS, SRG, SNOWBOARD",,,WFO CHS,,,,,,,,,,,,,,,,,,,,,,,,,,,29.91,73,89,0.00,,,,59,29.91,FEW:02 30 SCT:04 40 SCT:04 250,29.86,10.00,78,170,,16,,,,,,,,,,,,,,,,,,,,,,,,,,,,,,,,,,,,,MET11308/09/12 14:56:02 METAR KCHS 091956Z 17014KT 10SM FEW030 SCT040 SCT250 32/23 A2991 RMK AO2 SLP128 T03170228 (BBE),,,,,,,,,,,,,,,,,,,,,,,,,,,,
72208013880,2012-08-10T17:41:00,FM-16,7,,SE,0.25,mi,"TEMP, PRECIP, SNOW",,,"MMTS, SRG, SNOWBOARD",,,WFO CHS,,,,,,,,,,,,,,,,,,,,,,,,,,,29.89,75,81,T,TS:7 |TS |TS,,,84,,SCT:04 30 SCT:04 50 BKN:07 150,29.84,10.00,77,160,,7,,,,,,,,,,,,,,,,,,,,,,,,,,,,,,,,,,,,,MET15208/10/12 17:41:02 SPECI KCHS 102241Z 16006KT 10SM TS SCT030CB SCT050 BKN150 27/24 A2989 RMK AO2 RAE25 FRQ LTGCGIC NE-SE-S TS NE-SE-S MOVG NE P0000 (BBE),,,,,,,,,,,,,,,,,,,,,,,,,,,,
72208013880,2012-08-27T14:56:00,FM-15,7,,SE,0.25,mi,"TEMP, PRECIP, SNOW",,,"MMTS, SRG, SNOWBOARD",,,WFO CHS,,,,,,,,,,,,,,,,,,,,,,,,,,,30.02,76,80,0.01,RA:02 BR:1 |RA |RA,,,87,30.02,SCT:04 15 BKN:07 25 OVC:08 70,29.97,5.00,77,150,,10,,,,,,,,,,,,,,,,,,,,,,,,,,,,,,,,,,,,,MET14308/27/12 14:56:02 METAR KCHS 271956Z 15009KT 5SM RA BR SCT015TCU BKN025 OVC070 27/24 A3002 RMK AO2 RAB34 SLP166 TCU NW-NE P0001 T02670244 (BBE),,,,,,,,,,,,,,,,,,,,,,,,,,,,
72208013880,2012-08-27T15:54:00,FM-16,6,,SE,0.25,mi,"TEMP, PRECIP, SNOW",,,"MMTS, SRG, SNOWBOARD",,,WFO CHS,,,,,,,,,,,,,,,,,,,,,,,,,,,30.01,75,82,,,,,79,,FEW:02 15 SCT:04 30 BKN:07 70,29.96,10.00,77,150,,14,,,,,,,,,,,,,,,,,,,,,,,,,,,,,,,,,,,,,MET12908/27/12 15:54:02 SPECI KCHS 272054Z 15012KT 10SM FEW015 SCT030 BKN070 28/24 A3001 RMK AO2 RAE12 TCU DSNT W-N-NE P0000 FIBI (BBE),,,,,,,,,,,,,,,,,,,,,,,,,,,,
72208013880,2012-08-27T15:56:00,SY-MT,7,,SE,0.25,mi,"TEMP, PRECIP, SNOW",,,"MMTS, SRG, SNOWBOARD",,,WFO CHS,,,,,,,,,,,,,,,,,,,,,,,,,,,30.01,75,81,T,,+0.02,8,82,30.00,FEW:02 15 SCT:04 30 BKN:07 70,29.96,10.00,77,150,,13,,,,,,,,,,,,,,,,,,,,,,,,,,,,,,,,,,,,,SYN082AAXX  27214 72208 12466 61511 10272 20239 30146 40160 58008 69937 92056 555 92721;MET15308/27/12 15:56:02 METAR KCHS 272056Z 15011KT 10SM FEW015 SCT030 BKN070 27/24 A3001 RMK AO2 RAE12 SLP160 TCU DSNT W-N-NE P0000 60001 T02720239 58008 (BBE),,,,,,,,,,,,,,,,,,,,,,,,,,,,
72208013880,2012-08-27T16:56:00,FM-15,7,,SE,0.25,mi,"TEMP, PRECIP, SNOW",,,"MMTS, SRG, SNOWBOARD",,,WFO CHS,,,,,,,,,,,,,,,,,,,,,,,,,,,30.01,75,81,0.00,,,,82,30.00,FEW:02 20 SCT:04 70 BKN:07 150,29.96,10.00,77,160,,7,,,,,,,,,,,,,,,,,,,,,,,,,,,,,,,,,,,,,MET11308/27/12 16:56:02 METAR KCHS 272156Z 16006KT 10SM FEW020 SCT070 BKN150 27/24 A3001 RMK AO2 SLP160 T02720239 (BBE),,,,,,,,,,,,,,,,,,,,,,,,,,,,
72208013880,2012-08-27T17:56:00,FM-15,7,,SE,0.25,mi,"TEMP, PRECIP, SNOW",,,"MMTS, SRG, SNOWBOARD",,,WFO CHS,,,,,,,,,,,,,,,,,,,,,,,,,,,30.01,75,81,0.00,,,,82,30.01,SCT:04 15 SCT:04 70 BKN:07 150,29.96,10.00,77,160,,9,,,,,,,,,,,,,,,,,,,,,,,,,,,,,,,,,,,,,MET11308/27/12 17:56:02 METAR KCHS 272256Z 16008KT 10SM SCT015 SCT070 BKN150 27/24 A3001 RMK AO2 SLP161 T02720239 (BBE),,,,,,,,,,,,,,,,,,,,,,,,,,,,
72208013880,2012-08-31T16:56:00,FM-15,7,,SE,0.25,mi,"TEMP, PRECIP, SNOW",,,"MMTS, SRG, SNOWBOARD",,,WFO CHS,,,,,,,,,,,,,,,,,,,,,,,,,,,30.14,75,85,0.00,,,,72,30.14,SCT:04 35 SCT:04 45,30.09,10.00,78,170,,11,,,,,,,,,,,,,,,,,,,,,,,,,,,,,,,,,,,,,MET10608/31/12 16:56:02 METAR KCHS 312156Z 17010KT 10SM SCT035 SCT045 29/24 A3014 RMK AO2 SLP205 T02940239 (BBE),,,,,,,,,,,,,,,,,,,,,,,,,,,,
72208013880,2012-08-31T17:56:00,FM-15,7,,SE,0.25,mi,"TEMP, PRECIP, SNOW",,,"MMTS, SRG, SNOWBOARD",,,WFO CHS,,,,,,,,,,,,,,,,,,,,,,,,,,,30.14,74,83,0.00,,,,74,30.13,FEW:02 35,30.09,10.00,77,170,,7,,,,,,,,,,,,,,,,,,,,,,,,,,,,,,,,,,,,,MET09908/31/12 17:56:02 METAR KCHS 312256Z 17006KT 10SM FEW035 28/23 A3014 RMK AO2 SLP204 T02830233 (BBE),,,,,,,,,,,,,,,,,,,,,,,,,,,,
72208013880,2012-09-03T13:56:00,FM-15,7,,SE,0.25,mi,"TEMP, PRECIP, SNOW",,,"MMTS, SRG, SNOWBOARD",,,WFO CHS,,,,,,,,,,,,,,,,,,,,,,,,,,,29.99,73,89,0.00,,,,59,29.99,FEW:02 35 SCT:04 65 SCT:04 180,29.94,10.00,78,170,,17,,,,,,,,,,,,,,,,,,,,,,,,,,,,,,,,,,,,,MET13409/03/12 13:56:02 METAR KCHS 031856Z 17015KT 10SM FEW035 SCT065 SCT180 32/23 A2999 RMK AO2 SLP156 CB DSNT SW-NW MOVG NE T03170228 (DD),,,,,,,,,,,,,,,,,,,,,,,,,,,,
72208013880,2012-09-04T11:56:00,FM-15,7,,SE,0.25,mi,"TEMP, PRECIP, SNOW",,,"MMTS, SRG, SNOWBOARD",,,WFO CHS,,,,,,,,,,,,,,,,,,,,,,,,,,,30.00,72,85,0.00,,,,65,30.00,SCT:04 30 SCT:04 45,29.95,10.00,76,170,,8,,,,,,,,,,,,,,,,,,,,,,,,,,,,,,,,,,,,,MET11709/04/12 11:56:02 METAR KCHS 041656Z 17007KT 10SM SCT030 SCT045 29/22 A3000 RMK AO2 SLP159 TCU DSNT SW T02940222 (DD),,,,,,,,,,,,,,,,,,,,,,,,,,,,
72208013880,2012-09-04T12:56:00,SY-MT,7,,SE,0.25,mi,"TEMP, PRECIP, SNOW",,,"MMTS, SRG, SNOWBOARD",,,WFO CHS,,,,,,,,,,,,,,,,,,,,,,,,,,,29.98,73,85,0.00,,+0.04,8,68,29.98,SCT:04 30 SCT:04 45,29.93,10.00,77,150,,9,,,,,,,,,,,,,,,,,,,,,,,,,,,,,,,,,,,,,SYN092AAXX  04184 72208 32566 41508 10294 20228 30136 40152 58013 91756 333 10317 20250 555 90418;MET13809/04/12 12:56:02 METAR KCHS 041756Z 15008KT 10SM SCT030 SCT045 29/23 A2998 RMK AO2 SLP152 TCU DSNT SW-NW T02940228 10317 20250 58013 (DD),,,,,,,,,,,,,,,,,,,,,,,,,,,,
72208013880,2012-09-04T13:56:00,FM-15,7,,SE,0.25,mi,"TEMP, PRECIP, SNOW",,,"MMTS, SRG, SNOWBOARD",,,WFO CHS,,,,,,,,,,,,,,,,,,,,,,,,,,,29.97,73,87,0.00,,,,63,29.96,SCT:04 30 BKN:07 45,29.92,10.00,77,160,,15,,,,,,,,,,,,,,,,,,,,,,,,,,,,,,,,,,,,,MET12009/04/12 13:56:02 METAR KCHS 041856Z 16013KT 10SM SCT030 BKN045 31/23 A2997 RMK AO2 SLP147 TCU DSNT SW-NW T03060228 (DD),,,,,,,,,,,,,,,,,,,,,,,,,,,,
72208013880,2012-09-04T14:56:00,FM-15,7,,SE,0.25,mi,"TEMP, PRECIP, SNOW",,,"MMTS, SRG, SNOWBOARD",,,WFO CHS,,,,,,,,,,,,,,,,,,,,,,,,,,,29.95,73,86,0.00,,,,65,29.95,SCT:04 30 BKN:07 45,29.90,10.00,77,170,,13,,,,,,,,,,,,,,,,,,,,,,,,,,,,,,,,,,,,,MET12509/04/12 14:56:02 METAR KCHS 041956Z 17011KT 10SM SCT030 BKN045 30/23 A2995 RMK AO2 SLP142 TCU DSNT SW AND NW T03000228 (JMB),,,,,,,,,,,,,,,,,,,,,,,,,,,,
72208013880,2012-09-05T12:56:00,SY-MT,7,,SE,0.25,mi,"TEMP, PRECIP, SNOW",,,"MMTS, SRG, SNOWBOARD",,,WFO CHS,,,,,,,,,,,,,,,,,,,,,,,,,,,29.96,72,89,0.00,,+0.04,8,57,29.96,FEW:02 40 SCT:04 55 SCT:04 70,29.91,10.00,77,170,,8,,,,,,,,,,,,,,,,,,,,,,,,,,,,,,,,,,,,,SYN092AAXX  05184 72208 32666 41707 10317 20222 30129 40144 58012 91756 333 10322 20256 555 90518;MET15609/05/12 12:56:02 METAR KCHS 051756Z 17007KT 10SM FEW040 SCT055 SCT070 32/22 A2996 RMK AO2 SLP144 TCU DSNT SW-W SHRA DSNT W T03170222 10322 20256 58012 (DD),,,,,,,,,,,,,,,,,,,,,,,,,,,,
72208013880,2012-09-07T14:48:00,FM-16,7,,SE,0.25,mi,"TEMP, PRECIP, SNOW",,,"MMTS, SRG, SNOWBOARD",,,WFO CHS,,,,,,,,,,,,,,,,,,,,,,,,,,,29.89,73,88,,,,,62,,SCT:04 35 SCT:04 70 BKN:07 120,29.84,10.00,77,150,21,13,,,,,,,,,,,,,,,,,,,,,,,,,,,,,,,,,,,,,MET15009/07/12 14:48:02 SPECI KCHS 071948Z 15011G18KT 10SM SCT035 SCT070 BKN120 31/23 A2989 RMK AO2 TSB22E47 TS DSIPTD CB DSNT N AND SW-W MDT CU ALQDS (JMB),,,,,,,,,,,,,,,,,,,,,,,,,,,,
72208013880,2012-09-07T14:56:00,FM-15,7,,SE,0.25,mi,"TEMP, PRECIP, SNOW",,,"MMTS, SRG, SNOWBOARD",,,WFO CHS,,,,,,,,,,,,,,,,,,,,,,,,,,,29.88,74,87,0.00,,,,65,29.88,SCT:04 35 SCT:04 70 BKN:07 120,29.83,10.00,78,150,,14,,,,,,,,,,,,,,,,,,,,,,,,,,,,,,,,,,,,,MET15409/07/12 14:56:02 METAR KCHS 071956Z 15012KT 10SM SCT035 SCT070 BKN120 31/23 A2988 RMK AO2 TSB22E47 SLP118 CB DSNT N AND SW-W MDT CU ALQDS T03060233 (JMB),,,,,,,,,,,,,,,,,,,,,,,,,,,,
72208013880,2012-09-07T15:30:00,FM-16,7,,SE,0.25,mi,"TEMP, PRECIP, SNOW",,,"MMTS, SRG, SNOWBOARD",,,WFO CHS,,,,,,,,,,,,,,,,,,,,,,,,,,,29.90,70,79,0.41,TS:7 +RA:02 |RA TS |SHRA TS,,,74,,SCT:04 9 BKN:07 20 BKN:07 30,29.85,3.00,73,160,25,9,,,,,,,,,,,,,,,,,,,,,,,,,,,,,,,,,,,,,MET15309/07/12 15:30:02 SPECI KCHS 072030Z 16008G22KT 3SM +TSRA SCT009 BKN020 BKN030CB 26/21 A2990 RMK AO2 TSB03RAB15 FRQ LTGICCA OHD TS OHD MOV SE P0041 (JMB),,,,,,,,,,,,,,,,,,,,,,,,,,,,
72208013880,2012-09-07T16:56:00,FM-15,7,,SE,0.25,mi,"TEMP, PRECIP, SNOW",,,"MMTS, SRG, SNOWBOARD",,,WFO CHS,,,,,,,,,,,,,,,,,,,,,,,,,,,29.89,73,76,0.04,,,,91,29.88,FEW:02 15 SCT:04 35 BKN:07 70,29.84,10.00,74,170,,7,,,,,,,,,,,,,,,,,,,,,,,,,,,,,,,,,,,,,MET15909/07/12 16:56:02 METAR KCHS 072156Z 17006KT 10SM FEW015 SCT035 BKN070 24/23 A2989 RMK AO2 TSE39RAE27 SLP120 TS MOVD SE CB DSNT SE AND NW P0004 T02440228 (JMB),,,,,,,,,,,,,,,,,,,,,,,,,,,,
72208013880,2012-09-16T13:56:00,FM-15,7,,SE,0.25,mi,"TEMP, PRECIP, SNOW",,,"MMTS, SRG, SNOWBOARD",,,WFO CHS,,,,,,,,,,,,,,,,,,,,,,,,,,,30.07,66,86,0.00,,,,51,30.06,SCT:04 48 SCT:04 55,30.02,10.00,73,160,,9,,,,,,,,,,,,,,,,,,,,,,,,,,,,,,,,,,,,,MET10609/16/12 13:56:02 METAR KCHS 161856Z 16008KT 10SM SCT048 SCT055 30/19 A3007 RMK AO2 SLP180 T03000189 (KLL),,,,,,,,,,,,,,,,,,,,,,,,,,,,
72208013880,2012-09-16T15:56:00,SY-MT,7,,SE,0.25,mi,"TEMP, PRECIP, SNOW",,,"MMTS, SRG, SNOWBOARD",,,WFO CHS,,,,,,,,,,,,,,,,,,,,,,,,,,,30.04,66,83,0.00,,+0.04,6,57,30.04,FEW:02 42 SCT:04 55 SCT:04 120,29.99,10.00,72,170,,8,,,,,,,,,,,,,,,,,,,,,,,,,,,,,,,,,,,,,SYN076AAXX  16214 72208 32666 41707 10283 20189 30157 40172 56015 92056 555 91621;MET11909/16/12 15:56:02 METAR KCHS 162056Z 17007KT 10SM FEW042 SCT055 SCT120 28/19 A3004 RMK AO2 SLP172 T02830189 56015 (JRS),,,,,,,,,,,,,,,,,,,,,,,,,,,,
72208013880,2012-09-16T16:56:00,FM-15,7,,SE,0.25,mi,"TEMP, PRECIP, SNOW",,,"MMTS, SRG, SNOWBOARD",,,WFO CHS,,,,,,,,,,,,,,,,,,,,,,,,,,,30.04,68,81,0.00,,,,65,30.03,FEW:02 45 SCT:04 120 BKN:07 250,29.99,10.00,72,150,,11,,,,,,,,,,,,,,,,,,,,,,,,,,,,,,,,,,,,,MET12509/16/12 16:56:02 METAR KCHS 162156Z 15010KT 10SM FEW045 SCT120 BKN250 27/20 A3004 RMK AO2 SLP171 TCU DSNT NW T02720200 (JRS),,,,,,,,,,,,,,,,,,,,,,,,,,,,
72208013880,2012-09-16T17:56:00,FM-15,7,,SE,0.25,mi,"TEMP, PRECIP, SNOW",,,"MMTS, SRG, SNOWBOARD",,,WFO CHS,,,,,,,,,,,,,,,,,,,,,,,,,,,30.05,68,79,0.00,,,,69,30.04,FEW:02 80 BKN:07 250,30.00,10.00,72,150,,8,,,,,,,,,,,,,,,,,,,,,,,,,,,,,,,,,,,,,MET10609/16/12 17:56:02 METAR KCHS 162256Z 15007KT 10SM FEW080 BKN250 26/20 A3005 RMK AO2 SLP174 T02610200 (JRS),,,,,,,,,,,,,,,,,,,,,,,,,,,,
72208013880,2012-09-17T11:56:00,FM-15,7,,SE,0.25,mi,"TEMP, PRECIP, SNOW",,,"MMTS, SRG, SNOWBOARD",,,WFO CHS,,,,,,,,,,,,,,,,,,,,,,,,,,,30.04,68,86,0.00,,,,55,30.03,SCT:04 40 SCT:04 55,29.99,10.00,74,150,,10,,,,,,,,,,,,,,,,,,,,,,,,,,,,,,,,,,,,,MET10509/17/12 11:56:02 METAR KCHS 171656Z 15009KT 10SM SCT040 SCT055 30/20 A3004 RMK AO2 SLP170 T03000200 (DD),,,,,,,,,,,,,,,,,,,,,,,,,,,,
72208013880,2012-09-17T12:56:00,SY-MT,7,,SE,0.25,mi,"TEMP, PRECIP, SNOW",,,"MMTS, SRG, SNOWBOARD",,,WFO CHS,,,,,,,,,,,,,,,,,,,,,,,,,,,30.02,69,83,0.00,,+0.04,6,63,30.02,FEW:02 40 SCT:04 55 SCT:04 100,29.97,10.00,74,150,,14,,,,,,,,,,,,,,,,,,,,,,,,,,,,,,,,,,,,,SYN092AAXX  17184 72208 32666 41512 10283 20206 30150 40166 56015 91756 333 10306 20217 555 91718;MET14409/17/12 12:56:02 METAR KCHS 171756Z 15012KT 10SM FEW040 SCT055 SCT100 28/21 A3002 RMK AO2 SLP166 TCU DSNT E-SE T02830206 10306 20217 56015 (DD),,,,,,,,,,,,,,,,,,,,,,,,,,,,
72208013880,2012-09-17T14:56:00,FM-15,7,,SE,0.25,mi,"TEMP, PRECIP, SNOW",,,"MMTS, SRG, SNOWBOARD",,,WFO CHS,,,,,,,,,,,,,,,,,,,,,,,,,,,29.99,69,83,0.00,,,,63,29.98,FEW:02 35 SCT:04 55 SCT:04 250,29.94,10.00,74,150,24,15,,,,,,,,,,,,,,,,,,,,,,,,,,,,,,,,,,,,,MET11609/17/12 14:56:02 METAR KCHS 171956Z 15013G21KT 10SM FEW035 SCT055 SCT250 28/21 A2999 RMK AO2 SLP153 T02830206 (JMB),,,,,,,,,,,,,,,,,,,,,,,,,,,,
72208013880,2012-09-17T15:56:00,SY-MT,7,,SE,0.25,mi,"TEMP, PRECIP, SNOW",,,"MMTS, SRG, SNOWBOARD",,,WFO CHS,,,,,,,,,,,,,,,,,,,,,,,,,,,29.98,68,80,0.00,,+0.05,6,67,29.97,FEW:02 30 SCT:04 60 BKN:07 250,29.93,10.00,72,170,,10,,,,,,,,,,,,,,,,,,,,,,,,,,,,,,,,,,,,,SYN076AAXX  17214 72208 32566 61709 10267 20200 30136 40150 56016 92056 555 91721;MET11909/17/12 15:56:02 METAR KCHS 172056Z 17009KT 10SM FEW030 SCT060 BKN250 27/20 A2998 RMK AO2 SLP150 T02670200 56016 (JMB),,,,,,,,,,,,,,,,,,,,,,,,,,,,
72208013880,2012-09-17T17:56:00,FM-15,7,,SE,0.25,mi,"TEMP, PRECIP, SNOW",,,"MMTS, SRG, SNOWBOARD",,,WFO CHS,,,,,,,,,,,,,,,,,,,,,,,,,,,29.97,71,75,T,,,,88,29.96,FEW:02 35 SCT:04 60 BKN:07 250,29.92,10.00,72,160,,7,,,,,,,,,,,,,,,,,,,,,,,,,,,,,,,,,,,,,MET13009/17/12 17:56:02 METAR KCHS 172256Z 16006KT 10SM FEW035 SCT060 BKN250 24/22 A2997 RMK AO2 RAB2159E30 SLP146 P0000 T02390217 (JMB),,,,,,,,,,,,,,,,,,,,,,,,,,,,
72208013880,2012-09-21T15:56:00,SY-MT,7,,SE,0.25,mi,"TEMP, PRECIP, SNOW",,,"MMTS, SRG, SNOWBOARD",,,WFO CHS,,,,,,,,,,,,,,,,,,,,,,,,,,,30.02,64,80,0.00,,+0.02,6,58,30.01,SCT:04 40 BKN:07 250,29.97,10.00,70,160,,7,,,,,,,,,,,,,,,,,,,,,,,,,,,,,,,,,,,,,SYN076AAXX  21214 72208 32666 61606 10267 20178 30150 40163 56008 92056 555 92121;MET11209/21/12 15:56:02 METAR KCHS 212056Z 16006KT 10SM SCT040 BKN250 27/18 A3002 RMK AO2 SLP163 T02670178 56008 (JMB),,,,,,,,,,,,,,,,,,,,,,,,,,,,
72208013880,2012-09-22T14:56:00,FM-15,7,,SE,0.25,mi,"TEMP, PRECIP, SNOW",,,"MMTS, SRG, SNOWBOARD",,,WFO CHS,,,,,,,,,,,,,,,,,,,,,,,,,,,29.97,67,84,0.00,,,,57,29.97,FEW:02 50,29.92,10.00,73,170,,15,,,,,,,,,,,,,,,,,,,,,,,,,,,,,,,,,,,,,MET09909/22/12 14:56:02 METAR KCHS 221956Z 17013KT 10SM FEW050 29/19 A2997 RMK AO2 SLP149 T02890194 (JRS),,,,,,,,,,,,,,,,,,,,,,,,,,,,
72208013880,2012-09-26T12:56:00,FM-15,7,,SE,0.25,mi,"TEMP, PRECIP, SNOW",,,"MMTS, SRG, SNOWBOARD",,,WFO CHS,,,,,,,,,,,,,,,,,,,,,,,,,,,30.18,66,84,0.00,,+0.04,8,55,30.18,SCT:04 35 SCT:04 45,30.13,10.00,72,150,,8,,,,,,,,,,,,,,,,,,,,,,,,,,,,,,,,,,,,,MET12309/26/12 12:56:02 METAR KCHS 261756Z 15007KT 10SM SCT035 SCT045 29/19 A3018 RMK AO2 SLP219 T02890189 10294 20172 58012 (DD),,,,,,,,,,,,,,,,,,,,,,,,,,,,
72208013880,2012-09-26T13:00:00,FM-12,4,,SE,0.25,mi,"TEMP, PRECIP, SNOW",,,"MMTS, SRG, SNOWBOARD",,,WFO CHS,,,,,,,,,,,,,,,,,,,,,,,,,,,,66,84,,,+0.04,8,55,30.18,,30.13,9.94,72,150,,8,,,,,,,,,,,,,,,,,,,,,,,,,,,,,,,,,,,,,SYN092AAXX  26184 72208 32666 41507 10289 20189 30204 40219 58012 91756 333 10294 20172 555 92618;,,,,,,,,,,,,,,,,,,,,,,,,,,,,
72208013880,2012-10-01T15:56:00,SY-MT,7,,SE,0.25,mi,"TEMP, PRECIP, SNOW",,,"MMTS, SRG, SNOWBOARD",,,WFO CHS,,,,,,,,,,,,,,,,,,,,,,,,,,,29.77,73,85,0.00,,+0.02,6,68,29.77,SCT:04 24 SCT:04 200,29.72,10.00,77,170,,15,,,,,,,,,,,,,,,,,,,,,,,,,,,,,,,,,,,,,SYN076AAXX  01214 72208 32566 41713 10294 20228 30065 40082 56007 92056 555 90121;MET11210/01/12 15:56:02 METAR KCHS 012056Z 17013KT 10SM SCT024 SCT200 29/23 A2977 RMK AO2 SLP082 T02940228 56007 (KPL),,,,,,,,,,,,,,,,,,,,,,,,,,,,
72208013880,2012-10-01T17:56:00,FM-15,7,,SE,0.25,mi,"TEMP, PRECIP, SNOW",,,"MMTS, SRG, SNOWBOARD",,,WFO CHS,,,,,,,,,,,,,,,,,,,,,,,,,,,29.78,74,81,0.00,,,,79,29.78,SCT:04 24 SCT:04 200,29.73,10.00,76,160,,11,,,,,,,,,,,,,,,,,,,,,,,,,,,,,,,,,,,,,MET10610/01/12 17:56:02 METAR KCHS 012256Z 16010KT 10SM SCT024 SCT200 27/23 A2978 RMK AO2 SLP084 T02720233 (KPL),,,,,,,,,,,,,,,,,,,,,,,,,,,,
72208013880,2012-10-02T11:56:00,FM-15,7,,SE,0.25,mi,"TEMP, PRECIP, SNOW",,,"MMTS, SRG, SNOWBOARD",,,WFO CHS,,,,,,,,,,,,,,,,,,,,,,,,,,,29.86,74,85,0.00,,,,70,29.86,FEW:02 25 SCT:04 50 SCT:04 100,29.81,10.00,77,170,,14,,,,,,,,,,,,,,,,,,,,,,,,,,,,,,,,,,,,,MET14810/02/12 11:56:02 METAR KCHS 021656Z 17012KT 10SM FEW025 SCT050 SCT100 29/23 A2986 RMK AO2 SLP112 CB DSNT NW MOVG NE TCU DSNT SW-NW-N T02940233 (DD),,,,,,,,,,,,,,,,,,,,,,,,,,,,
72208013880,2012-10-05T14:56:00,FM-15,7,,SE,0.25,mi,"TEMP, PRECIP, SNOW",,,"MMTS, SRG, SNOWBOARD",,,WFO CHS,,,,,,,,,,,,,,,,,,,,,,,,,,,30.06,65,81,0.00,,,,58,30.06,FEW:02 50 BKN:07 150 BKN:07 250,30.01,10.00,71,150,,9,,,,,,,,,,,,,,,,,,,,,,,,,,,,,,,,,,,,,MET11310/05/12 14:56:02 METAR KCHS 051956Z 15008KT 10SM FEW050 BKN150 BKN250 27/18 A3006 RMK AO2 SLP178 T02720183 (BBE),,,,,,,,,,,,,,,,,,,,,,,,,,,,
72208013880,2012-10-18T10:56:00,FM-15,7,,SE,0.25,mi,"TEMP, PRECIP, SNOW",,,"MMTS, SRG, SNOWBOARD",,,WFO CHS,,,,,,,,,,,,,,,,,,,,,,,,,,,29.87,66,76,0.00,,,,72,29.86,FEW:02 30 SCT:04 80 BKN:07 250,29.82,10.00,70,160,,9,,,,,,,,,,,,,,,,,,,,,,,,,,,,,,,,,,,,,MET11210/18/12 10:56:02 METAR KCHS 181556Z 16008KT 10SM FEW030 SCT080 BKN250 24/19 A2987 RMK AO2 SLP113 T02440189 (DD),,,,,,,,,,,,,,,,,,,,,,,,,,,,
72208013880,2012-10-18T11:56:00,FM-15,7,,SE,0.25,mi,"TEMP, PRECIP, SNOW",,,"MMTS, SRG, SNOWBOARD",,,WFO CHS,,,,,,,,,,,,,,,,,,,,,,,,,,,29.85,65,78,0.00,,,,64,29.85,FEW:02 25 SCT:04 100 BKN:07 250,29.80,10.00,70,170,,13,,,,,,,,,,,,,,,,,,,,,,,,,,,,,,,,,,,,,MET11210/18/12 11:56:02 METAR KCHS 181656Z 17011KT 10SM FEW025 SCT100 BKN250 26/18 A2985 RMK AO2 SLP107 T02560183 (DD),,,,,,,,,,,,,,,,,,,,,,,,,,,,
72208013880,2012-10-23T15:56:00,SY-MT,7,,SE,0.25,mi,"TEMP, PRECIP, SNOW",,,"MMTS, SRG, SNOWBOARD",,,WFO CHS,,,,,,,,,,,,,,,,,,,,,,,,,,,30.12,59,77,0.00,,+0.02,5,54,30.11,SCT:04 45,30.07,10.00,66,170,,9,,,,,,,,,,,,,,,,,,,,,,,,,,,,,,,,,,,,,SYN076AAXX  23214 72208 32666 41708 10250 20150 30184 40198 55008 92056 555 92321;MET10510/23/12 15:56:02 METAR KCHS 232056Z 17008KT 10SM SCT045 25/15 A3012 RMK AO2 SLP198 T02500150 55008 (BBE),,,,,,,,,,,,,,,,,,,,,,,,,,,,
72208013880,2012-11-03T15:56:00,SY-MT,7,,SE,0.25,mi,"TEMP, PRECIP, SNOW",,,"MMTS, SRG, SNOWBOARD",,,WFO CHS,,,,,,,,,,,,,,,,,,,,,,,,,,,30.05,43,68,0.00,,+0.03,5,40,30.04,,30.00,10.00,55,170,,10,,,,,,,,,,,,,,,,,,,,,,,,,,,,,,,,,,,,,SYN076AAXX  03214 72208 32966 01709 10200 20061 30160 40174 55009 92056 555 90321;MET10211/03/12 15:56:02 METAR KCHS 032056Z 17009KT 10SM CLR 20/06 A3005 RMK AO2 SLP174 T02000061 55009 (JRS),,,,,,,,,,,,,,,,,,,,,,,,,,,,
72208013880,2012-11-09T16:56:00,FM-15,7,,SE,0.25,mi,"TEMP, PRECIP, SNOW",,,"MMTS, SRG, SNOWBOARD",,,WFO CHS,,,,,,,,,,,,,,,,,,,,,,,,,,,30.22,40,60,0.00,,,,47,30.22,FEW:02 250,30.17,10.00,50,170,,7,,,,,,,,,,,,,,,,,,,,,,,,,,,,,,,,,,,,,MET09911/09/12 16:56:02 METAR KCHS 092156Z 17006KT 10SM FEW250 16/04 A3022 RMK AO2 SLP232 T01560044 (JMB),,,,,,,,,,,,,,,,,,,,,,,,,,,,
72208013880,2012-11-10T14:56:00,FM-15,7,,SE,0.25,mi,"TEMP, PRECIP, SNOW",,,"MMTS, SRG, SNOWBOARD",,,WFO CHS,,,,,,,,,,,,,,,,,,,,,,,,,,,30.32,39,70,0.00,,,,32,30.32,,30.27,10.00,54,160,,8,,,,,,,,,,,,,,,,,,,,,,,,,,,,,,,,,,,,,MET09611/10/12 14:56:02 METAR KCHS 101956Z 16007KT 10SM CLR 21/04 A3032 RMK AO2 SLP266 T02110039 (WRB),,,,,,,,,,,,,,,,,,,,,,,,,,,,
72208013880,2012-11-10T15:56:00,SY-MT,7,,SE,0.25,mi,"TEMP, PRECIP, SNOW",,,"MMTS, SRG, SNOWBOARD",,,WFO CHS,,,,,,,,,,,,,,,,,,,,,,,,,,,30.33,35,68,0.00,,+0.01,5,30,30.32,,30.28,10.00,52,150,,9,,,,,,,,,,,,,,,,,,,,,,,,,,,,,,,,,,,,,SYN076AAXX  10214 72208 32966 01508 10200 20017 30255 40269 55004 92056 555 91021;MET10211/10/12 15:56:02 METAR KCHS 102056Z 15008KT 10SM CLR 20/02 A3033 RMK AO2 SLP269 T02000017 55004 (JRS),,,,,,,,,,,,,,,,,,,,,,,,,,,,
72208013880,2012-11-10T16:56:00,FM-15,7,,SE,0.25,mi,"TEMP, PRECIP, SNOW",,,"MMTS, SRG, SNOWBOARD",,,WFO CHS,,,,,,,,,,,,,,,,,,,,,,,,,,,30.34,37,63,0.00,,,,38,30.33,,30.29,10.00,50,160,,8,,,,,,,,,,,,,,,,,,,,,,,,,,,,,,,,,,,,,MET09611/10/12 16:56:02 METAR KCHS 102156Z 16007KT 10SM CLR 17/03 A3034 RMK AO2 SLP272 T01720028 (JRS),,,,,,,,,,,,,,,,,,,,,,,,,,,,
72208013880,2012-11-12T10:56:00,FM-15,7,,SE,0.25,mi,"TEMP, PRECIP, SNOW",,,"MMTS, SRG, SNOWBOARD",,,WFO CHS,,,,,,,,,,,,,,,,,,,,,,,,,,,30.33,58,79,0.00,,,,49,30.32,FEW:02 45 SCT:04 85 SCT:04 250,30.28,10.00,66,160,,14,,,,,,,,,,,,,,,,,,,,,,,,,,,,,,,,,,,,,MET11211/12/12 10:56:02 METAR KCHS 121556Z 16012KT 10SM FEW045 SCT085 SCT250 26/14 A3033 RMK AO2 SLP268 T02610144 (DD),,,,,,,,,,,,,,,,,,,,,,,,,,,,
72208013880,2012-11-12T11:56:00,FM-15,7,,SE,0.25,mi,"TEMP, PRECIP, SNOW",,,"MMTS, SRG, SNOWBOARD",,,WFO CHS,,,,,,,,,,,,,,,,,,,,,,,,,,,30.31,58,79,0.00,,,,49,30.30,FEW:02 45 SCT:04 85 SCT:04 250,30.26,10.00,66,170,,14,,,,,,,,,,,,,,,,,,,,,,,,,,,,,,,,,,,,,MET11211/12/12 11:56:02 METAR KCHS 121656Z 17012KT 10SM FEW045 SCT085 SCT250 26/14 A3031 RMK AO2 SLP262 T02610144 (DD),,,,,,,,,,,,,,,,,,,,,,,,,,,,
72208013880,2012-11-12T14:56:00,FM-15,7,,SE,0.25,mi,"TEMP, PRECIP, SNOW",,,"MMTS, SRG, SNOWBOARD",,,WFO CHS,,,,,,,,,,,,,,,,,,,,,,,,,,,30.25,62,76,0.00,,,,62,30.24,SCT:04 35 SCT:04 50 BKN:07 250,30.20,10.00,67,150,,13,,,,,,,,,,,,,,,,,,,,,,,,,,,,,,,,,,,,,MET11211/12/12 14:56:02 METAR KCHS 121956Z 15011KT 10SM SCT035 SCT050 BKN250 24/17 A3025 RMK AO2 SLP241 T02440167 (DD),,,,,,,,,,,,,,,,,,,,,,,,,,,,
72208013880,2012-11-12T15:56:00,SY-MT,7,,SE,0.25,mi,"TEMP, PRECIP, SNOW",,,"MMTS, SRG, SNOWBOARD",,,WFO CHS,,,,,,,,,,,,,,,,,,,,,,,,,,,30.24,63,74,0.00,,+0.04,6,69,30.24,FEW:02 30 SCT:04 50 BKN:07 250,30.19,10.00,67,170,,8,,,,,,,,,,,,,,,,,,,,,,,,,,,,,,,,,,,,,SYN076AAXX  12214 72208 32566 61707 10233 20172 30224 40239 56015 92056 555 91221;MET11911/12/12 15:56:02 METAR KCHS 122056Z 17007KT 10SM FEW030 SCT050 BKN250 23/17 A3024 RMK AO2 SLP239 T02330172 56015 (JMB),,,,,,,,,,,,,,,,,,,,,,,,,,,,
72208013880,2012-11-25T16:56:00,FM-15,7,,SE,0.25,mi,"TEMP, PRECIP, SNOW",,,"MMTS, SRG, SNOWBOARD",,,WFO CHS,,,,,,,,,,,,,,,,,,,,,,,,,,,30.11,42,54,0.00,,,,64,30.10,FEW:02 60,30.06,10.00,48,160,,8,,,,,,,,,,,,,,,,,,,,,,,,,,,,,,,,,,,,,MET10911/25/12 16:56:02 METAR KCHS 252156Z 16007KT 10SM FEW060 12/06 A3011 RMK AO2 SLP194 FU FEW060 T01220056 (JRS),,,,,,,,,,,,,,,,,,,,,,,,,,,,
72208013880,2012-12-02T13:56:00,FM-15,7,,SE,0.25,mi,"TEMP, PRECIP, SNOW",,,"MMTS, SRG, SNOWBOARD",,,WFO CHS,,,,,,,,,,,,,,,,,,,,,,,,,,,30.30,56,73,0.00,,,,55,30.30,FEW:02 40 SCT:04 100 BKN:07 200,30.25,10.00,63,160,,7,,,,,,,,,,,,,,,,,,,,,,,,,,,,,,,,,,,,,MET11312/02/12 13:56:02 METAR KCHS 021856Z 16006KT 10SM FEW040 SCT100 BKN200 23/13 A3030 RMK AO2 SLP260 T02280133 (WRB),,,,,,,,,,,,,,,,,,,,,,,,,,,,
72208013880,2012-12-02T14:56:00,FM-15,7,,SE,0.25,mi,"TEMP, PRECIP, SNOW",,,"MMTS, SRG, SNOWBOARD",,,WFO CHS,,,,,,,,,,,,,,,,,,,,,,,,,,,30.29,57,73,0.00,,,,57,30.29,FEW:02 40 SCT:04 100 BKN:07 200,30.24,10.00,63,150,,7,,,,,,,,,,,,,,,,,,,,,,,,,,,,,,,,,,,,,MET11312/02/12 14:56:02 METAR KCHS 021956Z 15006KT 10SM FEW040 SCT100 BKN200 23/14 A3029 RMK AO2 SLP256 T02280139 (WRB),,,,,,,,,,,,,,,,,,,,,,,,,,,,
72208013880,2012-12-02T15:56:00,SY-MT,7,,SE,0.25,mi,"TEMP, PRECIP, SNOW",,,"MMTS, SRG, SNOWBOARD",,,WFO CHS,,,,,,,,,,,,,,,,,,,,,,,,,,,30.29,57,72,0.00,,+0.03,5,59,30.29,FEW:02 40 SCT:04 90 BKN:07 200,30.24,10.00,63,170,,8,,,,,,,,,,,,,,,,,,,,,,,,,,,,,,,,,,,,,SYN076AAXX  02214 72208 32666 61707 10222 20139 30241 40257 55011 92056 555 90221;MET11912/02/12 15:56:02 METAR KCHS 022056Z 17007KT 10SM FEW040 SCT090 BKN200 22/14 A3029 RMK AO2 SLP257 T02220139 55011 (WRB),,,,,,,,,,,,,,,,,,,,,,,,,,,,
72208013880,2012-12-02T16:56:00,FM-15,7,,SE,0.25,mi,"TEMP, PRECIP, SNOW",,,"MMTS, SRG, SNOWBOARD",,,WFO CHS,,,,,,,,,,,,,,,,,,,,,,,,,,,30.29,58,69,0.00,,,,68,30.29,SCT:04 85 BKN:07 200,30.24,10.00,62,160,,7,,,,,,,,,,,,,,,,,,,,,,,,,,,,,,,,,,,,,MET10612/02/12 16:56:02 METAR KCHS 022156Z 16006KT 10SM SCT085 BKN200 21/14 A3029 RMK AO2 SLP258 T02060144 (JRS),,,,,,,,,,,,,,,,,,,,,,,,,,,,
72208013880,2012-12-03T14:56:00,FM-15,7,,SE,0.25,mi,"TEMP, PRECIP, SNOW",,,"MMTS, SRG, SNOWBOARD",,,WFO CHS,,,,,,,,,,,,,,,,,,,,,,,,,,,30.26,59,74,0.00,,,,60,30.25,SCT:04 45 BKN:07 65,30.21,10.00,65,160,,7,,,,,,,,,,,,,,,,,,,,,,,,,,,,,,,,,,,,,MET10512/03/12 14:56:02 METAR KCHS 031956Z 16006KT 10SM SCT045 BKN065 23/15 A3026 RMK AO2 SLP245 T02330150 (DD),,,,,,,,,,,,,,,,,,,,,,,,,,,,
72208013880,2012-12-03T15:56:00,SY-MT,7,,SE,0.25,mi,"TEMP, PRECIP, SNOW",,,"MMTS, SRG, SNOWBOARD",,,WFO CHS,,,,,,,,,,,,,,,,,,,,,,,,,,,30.27,60,71,0.00,,+0.02,5,68,30.26,SCT:04 30 BKN:07 35 BKN:07 80,30.22,10.00,64,160,,8,,,,,,,,,,,,,,,,,,,,,,,,,,,,,,,,,,,,,SYN076AAXX  03214 72208 32566 61607 10217 20156 30234 40248 55006 92056 555 90321;MET11912/03/12 15:56:02 METAR KCHS 032056Z 16007KT 10SM SCT030 BKN035 BKN080 22/16 A3027 RMK AO2 SLP248 T02170156 55006 (BBE),,,,,,,,,,,,,,,,,,,,,,,,,,,,
72208013880,2012-12-03T16:56:00,FM-15,7,,SE,0.25,mi,"TEMP, PRECIP, SNOW",,,"MMTS, SRG, SNOWBOARD",,,WFO CHS,,,,,,,,,,,,,,,,,,,,,,,,,,,30.28,59,70,0.00,,,,68,30.27,SCT:04 35 SCT:04 75,30.23,10.00,63,170,,9,,,,,,,,,,,,,,,,,,,,,,,,,,,,,,,,,,,,,MET10612/03/12 16:56:02 METAR KCHS 032156Z 17008KT 10SM SCT035 SCT075 21/15 A3028 RMK AO2 SLP251 T02110150 (BBE),,,,,,,,,,,,,,,,,,,,,,,,,,,,
72208013880,2012-12-09T15:56:00,SY-MT,7,,SE,0.25,mi,"TEMP, PRECIP, SNOW",,,"MMTS, SRG, SNOWBOARD",,,WFO CHS,,,,,,,,,,,,,,,,,,,,,,,,,,,30.05,64,74,0.00,,+0.00,7,71,30.05,FEW:02 35 SCT:04 70 BKN:07 85,30.00,10.00,68,160,,8,,,,,,,,,,,,,,,,,,,,,,,,,,,,,,,,,,,,,SYN076AAXX  09214 72208 32666 61607 10233 20178 30160 40176 57000 92056 555 90921;MET11912/09/12 15:56:02 METAR KCHS 092056Z 16007KT 10SM FEW035 SCT070 BKN085 23/18 A3005 RMK AO2 SLP176 T02330178 57000 (JRS),,,,,,,,,,,,,,,,,,,,,,,,,,,,
72208013880,2012-12-16T17:56:00,FM-15,7,,SE,0.25,mi,"TEMP, PRECIP, SNOW",,,"MMTS, SRG, SNOWBOARD",,,WFO CHS,,,,,,,,,,,,,,,,,,,,,,,,,,,29.97,60,67,0.00,,,,79,29.96,SCT:04 65 OVC:08 110,29.92,10.00,63,160,,8,,,,,,,,,,,,,,,,,,,,,,,,,,,,,,,,,,,,,MET10612/16/12 17:56:02 METAR KCHS 162256Z 16007KT 10SM SCT065 OVC110 19/16 A2997 RMK AO2 SLP147 T01940156 (JRS),,,,,,,,,,,,,,,,,,,,,,,,,,,,
72208013880,2012-12-20T10:56:00,FM-15,7,,SE,0.25,mi,"TEMP, PRECIP, SNOW",,,"MMTS, SRG, SNOWBOARD",,,WFO CHS,,,,,,,,,,,,,,,,,,,,,,,,,,,30.06,54,69,0.00,,,,59,30.05,SCT:04 40 BKN:07 250,30.01,10.00,60,170,,8,,,,,,,,,,,,,,,,,,,,,,,,,,,,,,,,,,,,,MET10512/20/12 10:56:02 METAR KCHS 201556Z 17007KT 10SM SCT040 BKN250 21/12 A3006 RMK AO2 SLP177 T02060122 (DD),,,,,,,,,,,,,,,,,,,,,,,,,,,,
72208013880,2012-12-20T11:56:00,FM-15,7,,SE,0.25,mi,"TEMP, PRECIP, SNOW",,,"MMTS, SRG, SNOWBOARD",,,WFO CHS,,,,,,,,,,,,,,,,,,,,,,,,,,,30.00,52,72,0.00,,,,50,30.00,BKN:07 45 BKN:07 250,29.95,10.00,61,170,,16,,,,,,,,,,,,,,,,,,,,,,,,,,,,,,,,,,,,,MET11212/20/12 11:56:02 METAR KCHS 201656Z 17014KT 10SM BKN045 BKN250 22/11 A3000 RMK AO2 PRESFR SLP158 T02220111 (DD),,,,,,,,,,,,,,,,,,,,,,,,,,,,
72208013880,2013-01-17T10:56:00,FM-15,7,,SE,0.25,mi,"TEMP, PRECIP, SNOW",,,"MMTS, SRG, SNOWBOARD",,,WFO CHS,,,,,,,,,,,,,,,,,,,,,,,,,,,29.93,58,77,0.00,,,,52,29.92,FEW:02 80,29.88,10.00,65,170,,13,,,,,,,,,,,,,,,,,,,,,,,,,,,,,,,,,,,,,MET09801/17/13 10:56:02 METAR KCHS 171556Z 17011KT 10SM FEW080 25/14 A2993 RMK AO2 SLP133 T02500144 (DD),,,,,,,,,,,,,,,,,,,,,,,,,,,,
72208013880,2013-01-28T17:56:00,FM-15,7,,SE,0.25,mi,"TEMP, PRECIP, SNOW",,,"MMTS, SRG, SNOWBOARD",,,WFO CHS,,,,,,,,,,,,,,,,,,,,,,,,,,,30.32,50,58,0.00,,,,75,30.32,FEW:02 80 SCT:04 250,30.27,10.00,54,160,,7,,,,,,,,,,,,,,,,,,,,,,,,,,,,,,,,,,,,,MET10601/28/13 17:56:02 METAR KCHS 282256Z 16006KT 10SM FEW080 SCT250 14/10 A3032 RMK AO2 SLP268 T01440100 (JMB),,,,,,,,,,,,,,,,,,,,,,,,,,,,
72208013880,2013-02-02T13:56:00,FM-15,7,,SE,0.25,mi,"TEMP, PRECIP, SNOW",,,"MMTS, SRG, SNOWBOARD",,,WFO CHS,,,,,,,,,,,,,,,,,,,,,,,,,,,30.23,36,59,0.00,,,,42,30.22,FEW:02 49,30.18,10.00,48,170,16,10,,,,,,,,,,,,,,,,,,,,,,,,,,,,,,,,,,,,,MET10202/02/13 13:56:02 METAR KCHS 021856Z 17009G14KT 10SM FEW049 15/02 A3023 RMK AO2 SLP235 T01500022 (WRB),,,,,,,,,,,,,,,,,,,,,,,,,,,,
72208013880,2013-02-04T16:56:00,FM-15,7,,SE,0.25,mi,"TEMP, PRECIP, SNOW",,,"MMTS, SRG, SNOWBOARD",,,WFO CHS,,,,,,,,,,,,,,,,,,,,,,,,,,,30.09,31,53,0.00,,,,43,30.09,BKN:07 150 OVC:08 250,30.04,10.00,43,150,,7,,,,,,,,,,,,,,,,,,,,,,,,,,,,,,,,,,,,,MET10702/04/13 16:56:02 METAR KCHS 042156Z 15006KT 10SM BKN150 OVC250 12/M01 A3009 RMK AO2 SLP190 T01171006 (BBE),,,,,,,,,,,,,,,,,,,,,,,,,,,,
72208013880,2013-02-04T17:56:00,FM-15,7,,SE,0.25,mi,"TEMP, PRECIP, SNOW",,,"MMTS, SRG, SNOWBOARD",,,WFO CHS,,,,,,,,,,,,,,,,,,,,,,,,,,,30.08,35,51,0.00,,,,54,30.08,BKN:07 150 OVC:08 200,30.03,10.00,44,150,,7,,,,,,,,,,,,,,,,,,,,,,,,,,,,,,,,,,,,,MET10602/04/13 17:56:02 METAR KCHS 042256Z 15006KT 10SM BKN150 OVC200 11/02 A3008 RMK AO2 SLP185 T01060017 (BBE),,,,,,,,,,,,,,,,,,,,,,,,,,,,
72208013880,2013-02-06T16:56:00,FM-15,7,,SE,0.25,mi,"TEMP, PRECIP, SNOW",,,"MMTS, SRG, SNOWBOARD",,,WFO CHS,,,,,,,,,,,,,,,,,,,,,,,,,,,30.11,48,67,0.00,,,,51,30.11,FEW:02 50,30.06,10.00,57,170,,11,,,,,,,,,,,,,,,,,,,,,,,,,,,,,,,,,,,,,MET09902/06/13 16:56:02 METAR KCHS 062156Z 17010KT 10SM FEW050 19/09 A3011 RMK AO2 SLP197 T01940089 (BBE),,,,,,,,,,,,,,,,,,,,,,,,,,,,
72208013880,2013-02-15T15:56:00,FM-15,7,,SE,0.25,mi,"TEMP, PRECIP, SNOW",,,"MMTS, SRG, SNOWBOARD",,,WFO CHS,,,,,,,,,,,,,,,,,,,,,,,,,,,30.00,39,61,0.00,,+0.07,6,44,29.99,,29.95,10.00,50,160,,10,,,,,,,,,,,,,,,,,,,,,,,,,,,,,,,,,,,,,MET10202/15/13 15:56:02 METAR KCHS 152056Z 16009KT 10SM CLR 16/04 A3000 RMK AO2 SLP157 T01610039 56025 (JRS),,,,,,,,,,,,,,,,,,,,,,,,,,,,
72208013880,2013-02-15T16:00:00,FM-12,4,,SE,0.25,mi,"TEMP, PRECIP, SNOW",,,"MMTS, SRG, SNOWBOARD",,,WFO CHS,,,,,,,,,,,,,,,,,,,,,,,,,,,,39,61,,,+0.07,6,44,29.99,CLR:00,29.95,9.94,50,160,,10,,,,,,,,,,,,,,,,,,,,,,,,,,,,,,,,,,,,,SYN076AAXX  15214 72208 32966 01609 10161 20039 30143 40157 56025 92056 555 91521;,,,,,,,,,,,,,,,,,,,,,,,,,,,,
72208013880,2013-02-15T16:56:00,FM-15,7,,SE,0.25,mi,"TEMP, PRECIP, SNOW",,,"MMTS, SRG, SNOWBOARD",,,WFO CHS,,,,,,,,,,,,,,,,,,,,,,,,,,,29.99,40,59,0.00,,,,49,29.99,,29.94,10.00,50,160,,10,,,,,,,,,,,,,,,,,,,,,,,,,,,,,,,,,,,,,MET09602/15/13 16:56:02 METAR KCHS 152156Z 16009KT 10SM CLR 15/04 A2999 RMK AO2 SLP156 T01500044 (JRS),,,,,,,,,,,,,,,,,,,,,,,,,,,,
72208013880,2013-02-15T17:56:00,FM-15,7,,SE,0.25,mi,"TEMP, PRECIP, SNOW",,,"MMTS, SRG, SNOWBOARD",,,WFO CHS,,,,,,,,,,,,,,,,,,,,,,,,,,,30.00,40,53,0.00,,,,61,29.99,,29.95,10.00,47,160,,9,,,,,,,,,,,,,,,,,,,,,,,,,,,,,,,,,,,,,MET09602/15/13 17:56:02 METAR KCHS 152256Z 16008KT 10SM CLR 12/04 A3000 RMK AO2 SLP157 T01170044 (JRS),,,,,,,,,,,,,,,,,,,,,,,,,,,,
72208013880,2013-02-18T12:56:00,FM-15,7,,SE,0.25,mi,"TEMP, PRECIP, SNOW",,,"MMTS, SRG, SNOWBOARD",,,WFO CHS,,,,,,,,,,,,,,,,,,,,,,,,,,,30.41,20,53,0.00,,+0.03,8,27,30.41,SCT:04 250,30.36,10.00,40,150,,8,,,,,,,,,,,,,,,,,,,,,,,,,,,,,,,,,,,,,MET11702/18/13 12:56:02 METAR KCHS 181756Z 15007KT 10SM SCT250 12/M07 A3041 RMK AO2 SLP298 T01171067 10122 21022 58009 (DD),,,,,,,,,,,,,,,,,,,,,,,,,,,,
72208013880,2013-02-18T13:00:00,FM-12,4,,SE,0.25,mi,"TEMP, PRECIP, SNOW",,,"MMTS, SRG, SNOWBOARD",,,WFO CHS,,,,,,,,,,,,,,,,,,,,,,,,,,,,20,53,,,+0.03,8,27,30.41,,30.36,9.94,40,150,,8,,,,,,,,,,,,,,,,,,,,,,,,,,,,,,,,,,,,,SYN092AAXX  18184 72208 32966 41507 10117 21067 30282 40298 58009 91756 333 10122 21022 555 91818;,,,,,,,,,,,,,,,,,,,,,,,,,,,,
72208013880,2013-02-18T14:56:00,FM-15,7,,SE,0.25,mi,"TEMP, PRECIP, SNOW",,,"MMTS, SRG, SNOWBOARD",,,WFO CHS,,,,,,,,,,,,,,,,,,,,,,,,,,,30.38,19,52,0.00,,,,27,30.38,BKN:07 250,30.33,10.00,39,160,,9,,,,,,,,,,,,,,,,,,,,,,,,,,,,,,,,,,,,,MET09902/18/13 14:56:02 METAR KCHS 181956Z 16008KT 10SM BKN250 11/M07 A3038 RMK AO2 SLP287 T01111072 (DD),,,,,,,,,,,,,,,,,,,,,,,,,,,,
72208013880,2013-02-18T15:56:00,SY-MT,7,,SE,0.25,mi,"TEMP, PRECIP, SNOW",,,"MMTS, SRG, SNOWBOARD",,,WFO CHS,,,,,,,,,,,,,,,,,,,,,,,,,,,30.38,19,51,0.00,,+0.04,6,28,30.38,BKN:07 250,30.33,10.00,39,160,,8,,,,,,,,,,,,,,,,,,,,,,,,,,,,,,,,,,,,,SYN076AAXX  18214 72208 32966 61607 10106 21072 30272 40287 56012 92056 555 91821;MET10602/18/13 15:56:02 METAR KCHS 182056Z 16007KT 10SM BKN250 11/M07 A3038 RMK AO2 SLP287 T01061072 56012 (BBE),,,,,,,,,,,,,,,,,,,,,,,,,,,,
72208013880,2013-02-18T16:56:00,FM-15,7,,SE,0.25,mi,"TEMP, PRECIP, SNOW",,,"MMTS, SRG, SNOWBOARD",,,WFO CHS,,,,,,,,,,,,,,,,,,,,,,,,,,,30.38,21,50,0.00,,,,32,30.37,SCT:04 250,30.33,10.00,39,160,,11,,,,,,,,,,,,,,,,,,,,,,,,,,,,,,,,,,,,,MET10002/18/13 16:56:02 METAR KCHS 182156Z 16010KT 10SM SCT250 10/M06 A3038 RMK AO2 SLP285 T01001061 (BBE),,,,,,,,,,,,,,,,,,,,,,,,,,,,
72208013880,2013-02-20T15:56:00,FM-15,7,,SE,0.25,mi,"TEMP, PRECIP, SNOW",,,"MMTS, SRG, SNOWBOARD",,,WFO CHS,,,,,,,,,,,,,,,,,,,,,,,,,,,30.08,31,57,0.00,,+0.03,5,37,30.08,SCT:04 250,30.03,10.00,45,160,,10,,,,,,,,,,,,,,,,,,,,,,,,,,,,,,,,,,,,,MET10602/20/13 15:56:02 METAR KCHS 202056Z 16009KT 10SM SCT250 14/M01 A3008 RMK AO2 SLP186 T01391006 55010 (BBE),,,,,,,,,,,,,,,,,,,,,,,,,,,,
72208013880,2013-02-21T14:56:00,FM-15,7,,SE,0.25,mi,"TEMP, PRECIP, SNOW",,,"MMTS, SRG, SNOWBOARD",,,WFO CHS,,,,,,,,,,,,,,,,,,,,,,,,,,,30.11,38,63,0.00,,,,40,30.10,SCT:04 250,30.06,10.00,51,150,,9,,,,,,,,,,,,,,,,,,,,,,,,,,,,,,,,,,,,,MET09802/21/13 14:56:02 METAR KCHS 211956Z 15008KT 10SM SCT250 17/03 A3011 RMK AO2 SLP194 T01720033 (DD),,,,,,,,,,,,,,,,,,,,,,,,,,,,
72208013880,2013-02-21T16:56:00,FM-15,7,,SE,0.25,mi,"TEMP, PRECIP, SNOW",,,"MMTS, SRG, SNOWBOARD",,,WFO CHS,,,,,,,,,,,,,,,,,,,,,,,,,,,30.11,38,58,0.00,,,,48,30.10,BKN:07 200,30.06,10.00,48,170,,10,,,,,,,,,,,,,,,,,,,,,,,,,,,,,,,,,,,,,MET09902/21/13 16:56:02 METAR KCHS 212156Z 17009KT 10SM BKN200 14/03 A3011 RMK AO2 SLP194 T01440033 (BBE),,,,,,,,,,,,,,,,,,,,,,,,,,,,
72208013880,2013-02-22T15:40:00,FM-16,7,,SE,0.25,mi,"TEMP, PRECIP, SNOW",,,"MMTS, SRG, SNOWBOARD",,,WFO CHS,,,,,,,,,,,,,,,,,,,,,,,,,,,30.09,61,63,,,,,94,,OVC:08 12,30.04,10.00,62,150,,10,,,,,,,,,,,,,,,,,,,,,,,,,,,,,,,,,,,,,MET08202/22/13 15:40:02 SPECI KCHS 222040Z 15009KT 10SM OVC012 17/16 A3009 RMK AO2 (BBE),,,,,,,,,,,,,,,,,,,,,,,,,,,,
72208013880,2013-03-09T16:56:00,FM-15,7,,SE,0.25,mi,"TEMP, PRECIP, SNOW",,,"MMTS, SRG, SNOWBOARD",,,WFO CHS,,,,,,,,,,,,,,,,,,,,,,,,,,,30.25,37,60,0.00,,,,42,30.24,FEW:02 250,30.20,10.00,49,160,,9,,,,,,,,,,,,,,,,,,,,,,,,,,,,,,,,,,,,,MET09903/09/13 16:56:02 METAR KCHS 092156Z 16008KT 10SM FEW250 16/03 A3025 RMK AO2 SLP242 T01560028 (JRS),,,,,,,,,,,,,,,,,,,,,,,,,,,,
72208013880,2013-03-11T10:56:00,FM-15,7,,SE,0.25,mi,"TEMP, PRECIP, SNOW",,,"MMTS, SRG, SNOWBOARD",,,WFO CHS,,,,,,,,,,,,,,,,,,,,,,,,,,,30.12,52,70,0.00,,,,53,30.12,FEW:02 35 BKN:07 50 BKN:07 250,30.07,10.00,60,150,,10,,,,,,,,,,,,,,,,,,,,,,,,,,,,,,,,,,,,,MET11203/11/13 10:56:02 METAR KCHS 111556Z 15009KT 10SM FEW035 BKN050 BKN250 21/11 A3012 RMK AO2 SLP199 T02110111 (DD),,,,,,,,,,,,,,,,,,,,,,,,,,,,
72208013880,2013-03-11T11:56:00,FM-15,7,,SE,0.25,mi,"TEMP, PRECIP, SNOW",,,"MMTS, SRG, SNOWBOARD",,,WFO CHS,,,,,,,,,,,,,,,,,,,,,,,,,,,30.10,52,71,0.00,,,,51,30.09,FEW:02 40 BKN:07 55 BKN:07 250,30.05,10.00,60,170,20,9,,,,,,,,,,,,,,,,,,,,,,,,,,,,,,,,,,,,,MET11503/11/13 11:56:02 METAR KCHS 111656Z 17008G17KT 10SM FEW040 BKN055 BKN250 22/11 A3010 RMK AO2 SLP191 T02170111 (DD),,,,,,,,,,,,,,,,,,,,,,,,,,,,
72208013880,2013-03-11T13:56:00,FM-15,6,,SE,0.25,mi,"TEMP, PRECIP, SNOW",,,"MMTS, SRG, SNOWBOARD",,,WFO CHS,,,,,,,,,,,,,,,,,,,,,,,,,,,30.04,51,70,0.00,,,,51,30.04,SCT:04 45 BKN:07 60 BKN:07 250,29.99,10.00,59,170,,14,,,,,,,,,,,,,,,,,,,,,,,,,,,,,,,,,,,,,MET11203/11/13 13:56:02 METAR KCHS 111856Z 17012KT 10SM SCT045 BKN060 BKN250 21/11 A3004 RMK AO2 SLP173 T02110106 (DD),,,,,,,,,,,,,,,,,,,,,,,,,,,,
72208013880,2013-03-11T14:56:00,FM-15,6,,SE,0.25,mi,"TEMP, PRECIP, SNOW",,,"MMTS, SRG, SNOWBOARD",,,WFO CHS,,,,,,,,,,,,,,,,,,,,,,,,,,,30.02,52,70,0.00,,,,53,30.01,SCT:04 40 BKN:07 50 BKN:07 250,29.97,10.00,60,170,,16,,,,,,,,,,,,,,,,,,,,,,,,,,,,,,,,,,,,,MET11303/11/13 14:56:02 METAR KCHS 111956Z 17014KT 10SM SCT040 BKN050 BKN250 21/11 A3002 RMK AO2 SLP163 T02110111 (JMB),,,,,,,,,,,,,,,,,,,,,,,,,,,,
72208013880,2013-03-11T15:56:00,SY-MT,7,,SE,0.25,mi,"TEMP, PRECIP, SNOW",,,"MMTS, SRG, SNOWBOARD",,,WFO CHS,,,,,,,,,,,,,,,,,,,,,,,,,,,30.01,53,70,0.00,,+0.07,6,55,30.01,SCT:04 40 BKN:07 70 BKN:07 250,29.96,10.00,60,170,,17,,,,,,,,,,,,,,,,,,,,,,,,,,,,,,,,,,,,,SYN076AAXX  11214 72208 32666 61715 10211 20117 30146 40162 56023 92056 555 91121;MET11903/11/13 15:56:02 METAR KCHS 112056Z 17015KT 10SM SCT040 BKN070 BKN250 21/12 A3001 RMK AO2 SLP162 T02110117 56023 (JMB),,,,,,,,,,,,,,,,,,,,,,,,,,,,
72208013880,2013-03-11T17:56:00,FM-15,7,,SE,0.25,mi,"TEMP, PRECIP, SNOW",,,"MMTS, SRG, SNOWBOARD",,,WFO CHS,,,,,,,,,,,,,,,,,,,,,,,,,,,29.99,53,68,0.00,,,,59,29.98,FEW:02 40 BKN:07 70 BKN:07 250,29.94,10.00,59,160,,14,,,,,,,,,,,,,,,,,,,,,,,,,,,,,,,,,,,,,MET11303/11/13 17:56:02 METAR KCHS 112256Z 16012KT 10SM FEW040 BKN070 BKN250 20/12 A2999 RMK AO2 SLP154 T02000117 (JMB),,,,,,,,,,,,,,,,,,,,,,,,,,,,
72208013880,2013-03-18T17:17:00,FM-16,7,,SE,0.25,mi,"TEMP, PRECIP, SNOW",,,"MMTS, SRG, SNOWBOARD",,,WFO CHS,,,,,,,,,,,,,,,,,,,,,,,,,,,29.93,57,64,,,,,78,,BKN:07 20 BKN:07 30 OVC:08 40,29.88,10.00,60,150,,10,,,,,,,,,,,,,,,,,,,,,,,,,,,,,,,,,,,,,MET09603/18/13 17:17:02 SPECI KCHS 182217Z 15009KT 10SM BKN020 BKN030 OVC040 18/14 A2993 RMK AO2 (JMB),,,,,,,,,,,,,,,,,,,,,,,,,,,,
72208013880,2013-03-23T14:24:00,FM-16,7,,SE,0.25,mi,"TEMP, PRECIP, SNOW",,,"MMTS, SRG, SNOWBOARD",,,WFO CHS,,,,,,,,,,,,,,,,,,,,,,,,,,,29.92,48,52,0.01,BR:1 ||,,,88,,FEW:02 3 SCT:04 36 BKN:07 60,29.87,5.00,50,150,,7,,,,,,,,,,,,,,,,,,,,,,,,,,,,,,,,,,,,,MET11003/23/13 14:24:02 SPECI KCHS 231924Z 15006KT 5SM BR FEW003 SCT036 BKN060 11/09 A2992 RMK AO2 RAE19 P0001 (JRS),,,,,,,,,,,,,,,,,,,,,,,,,,,,
72208013880,2013-03-24T12:20:00,FM-16,7,,SE,0.25,mi,"TEMP, PRECIP, SNOW",,,"MMTS, SRG, SNOWBOARD",,,WFO CHS,,,,,,,,,,,,,,,,,,,,,,,,,,,29.51,57,61,0.01,,,,88,,BKN:07 8 OVC:08 14,29.46,10.00,59,150,,7,,,,,,,,,,,,,,,,,,,,,,,,,,,,,,,,,,,,,MET10703/24/13 12:20:02 SPECI KCHS 241720Z 15006KT 10SM BKN008 OVC014 16/14 A2951 RMK AO2 CIG 005V011 P0001 (WRB),,,,,,,,,,,,,,,,,,,,,,,,,,,,
72208013880,2013-04-02T15:56:00,FM-15,7,,SE,0.25,mi,"TEMP, PRECIP, SNOW",,,"MMTS, SRG, SNOWBOARD",,,WFO CHS,,,,,,,,,,,,,,,,,,,,,,,,,,,30.09,42,64,0.00,,+0.02,5,45,30.09,FEW:02 200,30.04,10.00,53,170,,15,,,,,,,,,,,,,,,,,,,,,,,,,,,,,,,,,,,,,MET10504/02/13 15:56:02 METAR KCHS 022056Z 17013KT 10SM FEW200 18/06 A3009 RMK AO2 SLP189 T01780056 55007 (BBE),,,,,,,,,,,,,,,,,,,,,,,,,,,,
72208013880,2013-04-02T16:00:00,FM-12,4,,SE,0.25,mi,"TEMP, PRECIP, SNOW",,,"MMTS, SRG, SNOWBOARD",,,WFO CHS,,,,,,,,,,,,,,,,,,,,,,,,,,,,42,64,,,+0.02,5,45,30.09,,30.04,9.94,53,170,,15,,,,,,,,,,,,,,,,,,,,,,,,,,,,,,,,,,,,,SYN076AAXX  02214 72208 32966 21713 10178 20056 30173 40189 55007 92056 555 90221;,,,,,,,,,,,,,,,,,,,,,,,,,,,,
72208013880,2013-04-02T16:56:00,FM-15,7,,SE,0.25,mi,"TEMP, PRECIP, SNOW",,,"MMTS, SRG, SNOWBOARD",,,WFO CHS,,,,,,,,,,,,,,,,,,,,,,,,,,,30.09,42,62,0.00,,,,48,30.09,FEW:02 200,30.04,10.00,52,150,,10,,,,,,,,,,,,,,,,,,,,,,,,,,,,,,,,,,,,,MET09904/02/13 16:56:02 METAR KCHS 022156Z 15009KT 10SM FEW200 17/06 A3009 RMK AO2 SLP189 T01670056 (BBE),,,,,,,,,,,,,,,,,,,,,,,,,,,,
72208013880,2013-04-02T17:56:00,FM-15,7,,SE,0.25,mi,"TEMP, PRECIP, SNOW",,,"MMTS, SRG, SNOWBOARD",,,WFO CHS,,,,,,,,,,,,,,,,,,,,,,,,,,,30.10,43,59,0.00,,,,56,30.09,FEW:02 200,30.05,10.00,51,160,,10,,,,,,,,,,,,,,,,,,,,,,,,,,,,,,,,,,,,,MET10104/02/13 17:56:02 METAR KCHS 022256Z 16009KT 10SM FEW200 15/06 A3010 RMK AO2 SLP190 T01500061 $ (BBE),,,,,,,,,,,,,,,,,,,,,,,,,,,,
72208013880,2013-04-07T12:56:00,SY-MT,7,,SE,0.25,mi,"TEMP, PRECIP, SNOW",,,"MMTS, SRG, SNOWBOARD",,,WFO CHS,,,,,,,,,,,,,,,,,,,,,,,,,,,30.21,54,74,0.00,,+0.05,8,50,30.21,SCT:04 39 SCT:04 55,30.16,10.00,62,150,21,9,,,,,,,,,,,,,,,,,,,,,,,,,,,,,,,,,,,,,SYN098AAXX  07184 72208 32666 41508 10233 20122 30214 40230 58017 91756 333 10239 20117 91018 555 90718;MET12904/07/13 12:56:02 METAR KCHS 071756Z 15008G18KT 10SM SCT039 SCT055 23/12 A3021 RMK AO2 SLP230 T02330122 10239 20117 58017 $ (WRB),,,,,,,,,,,,,,,,,,,,,,,,,,,,
72208013880,2013-04-07T13:56:00,FM-15,7,,SE,0.25,mi,"TEMP, PRECIP, SNOW",,,"MMTS, SRG, SNOWBOARD",,,WFO CHS,,,,,,,,,,,,,,,,,,,,,,,,,,,30.19,52,75,0.00,,,,45,30.19,SCT:04 50,30.14,10.00,62,150,20,16,,,,,,,,,,,,,,,,,,,,,,,,,,,,,,,,,,,,,MET10404/07/13 13:56:02 METAR KCHS 071856Z 15014G17KT 10SM SCT050 24/11 A3019 RMK AO2 SLP224 T02390111 $ (WRB),,,,,,,,,,,,,,,,,,,,,,,,,,,,
72208013880,2013-04-07T16:56:00,FM-15,7,,SE,0.25,mi,"TEMP, PRECIP, SNOW",,,"MMTS, SRG, SNOWBOARD",,,WFO CHS,,,,,,,,,,,,,,,,,,,,,,,,,,,30.16,56,71,0.00,,,,59,30.16,FEW:02 50 SCT:04 250,30.11,10.00,62,150,,15,,,,,,,,,,,,,,,,,,,,,,,,,,,,,,,,,,,,,MET10804/07/13 16:56:02 METAR KCHS 072156Z 15013KT 10SM FEW050 SCT250 22/13 A3016 RMK AO2 SLP213 T02170133 $ (JRS),,,,,,,,,,,,,,,,,,,,,,,,,,,,
72208013880,2013-04-07T17:56:00,FM-15,7,,SE,0.25,mi,"TEMP, PRECIP, SNOW",,,"MMTS, SRG, SNOWBOARD",,,WFO CHS,,,,,,,,,,,,,,,,,,,,,,,,,,,30.16,55,69,0.00,,,,61,30.16,SCT:04 250,30.11,10.00,61,150,,14,,,,,,,,,,,,,,,,,,,,,,,,,,,,,,,,,,,,,MET10104/07/13 17:56:02 METAR KCHS 072256Z 15012KT 10SM SCT250 21/13 A3016 RMK AO2 SLP212 T02060128 $ (JRS),,,,,,,,,,,,,,,,,,,,,,,,,,,,
72208013880,2013-04-08T13:56:00,FM-15,7,,SE,0.25,mi,"TEMP, PRECIP, SNOW",,,"MMTS, SRG, SNOWBOARD",,,WFO CHS,,,,,,,,,,,,,,,,,,,,,,,,,,,30.15,58,80,0.00,,,,47,30.15,SCT:04 45 SCT:04 65,30.10,10.00,66,160,18,13,,,,,,,,,,,,,,,,,,,,,,,,,,,,,,,,,,,,,MET10804/08/13 13:56:02 METAR KCHS 081856Z 16011G16KT 10SM SCT045 SCT065 27/14 A3015 RMK AO2 SLP210 T02670144 (DD),,,,,,,,,,,,,,,,,,,,,,,,,,,,
72208013880,2013-04-08T14:56:00,FM-15,7,,SE,0.25,mi,"TEMP, PRECIP, SNOW",,,"MMTS, SRG, SNOWBOARD",,,WFO CHS,,,,,,,,,,,,,,,,,,,,,,,,,,,30.14,57,77,0.00,,,,50,30.14,FEW:02 50 SCT:04 65,30.09,10.00,65,160,,14,,,,,,,,,,,,,,,,,,,,,,,,,,,,,,,,,,,,,MET10604/08/13 14:56:02 METAR KCHS 081956Z 16012KT 10SM FEW050 SCT065 25/14 A3014 RMK AO2 SLP206 T02500139 (BBE),,,,,,,,,,,,,,,,,,,,,,,,,,,,
72208013880,2013-04-08T15:56:00,SY-MT,7,,SE,0.25,mi,"TEMP, PRECIP, SNOW",,,"MMTS, SRG, SNOWBOARD",,,WFO CHS,,,,,,,,,,,,,,,,,,,,,,,,,,,30.14,58,76,0.00,,+0.03,6,54,30.14,SCT:04 40 SCT:04 65,30.09,10.00,65,170,,14,,,,,,,,,,,,,,,,,,,,,,,,,,,,,,,,,,,,,SYN076AAXX  08214 72208 32666 41712 10244 20144 30190 40205 56011 92056 555 90821;MET11204/08/13 15:56:02 METAR KCHS 082056Z 17012KT 10SM SCT040 SCT065 24/14 A3014 RMK AO2 SLP205 T02440144 56011 (BBE),,,,,,,,,,,,,,,,,,,,,,,,,,,,
72208013880,2013-04-08T16:56:00,FM-15,7,,SE,0.25,mi,"TEMP, PRECIP, SNOW",,,"MMTS, SRG, SNOWBOARD",,,WFO CHS,,,,,,,,,,,,,,,,,,,,,,,,,,,30.14,59,74,0.00,,,,60,30.14,FEW:02 40 BKN:07 65,30.09,10.00,65,170,,16,,,,,,,,,,,,,,,,,,,,,,,,,,,,,,,,,,,,,MET10604/08/13 16:56:02 METAR KCHS 082156Z 17014KT 10SM FEW040 BKN065 23/15 A3014 RMK AO2 SLP206 T02330150 (BBE),,,,,,,,,,,,,,,,,,,,,,,,,,,,
72208013880,2013-04-08T17:56:00,FM-15,7,,SE,0.25,mi,"TEMP, PRECIP, SNOW",,,"MMTS, SRG, SNOWBOARD",,,WFO CHS,,,,,,,,,,,,,,,,,,,,,,,,,,,30.15,59,73,0.00,,,,62,30.15,FEW:02 40 SCT:04 65,30.10,10.00,65,170,,11,,,,,,,,,,,,,,,,,,,,,,,,,,,,,,,,,,,,,MET10604/08/13 17:56:02 METAR KCHS 082256Z 17010KT 10SM FEW040 SCT065 23/15 A3015 RMK AO2 SLP209 T02280150 (BBE),,,,,,,,,,,,,,,,,,,,,,,,,,,,
72208013880,2013-04-13T15:56:00,SY-MT,7,,SE,0.25,mi,"TEMP, PRECIP, SNOW",,,"MMTS, SRG, SNOWBOARD",,,WFO CHS,,,,,,,,,,,,,,,,,,,,,,,,,,,29.94,49,74,0.00,,+0.03,5,41,29.94,SCT:04 250,29.89,10.00,60,160,,13,,,,,,,,,,,,,,,,,,,,,,,,,,,,,,,,,,,,,SYN076AAXX  13214 72208 32966 41611 10233 20094 30123 40138 55010 92056 555 91321;MET10504/13/13 15:56:02 METAR KCHS 132056Z 16011KT 10SM SCT250 23/09 A2994 RMK AO2 SLP138 T02330094 55010 (JRS),,,,,,,,,,,,,,,,,,,,,,,,,,,,
72208013880,2013-04-13T16:56:00,FM-15,7,,SE,0.25,mi,"TEMP, PRECIP, SNOW",,,"MMTS, SRG, SNOWBOARD",,,WFO CHS,,,,,,,,,,,,,,,,,,,,,,,,,,,29.94,47,72,0.00,,,,41,29.94,SCT:04 250,29.89,10.00,58,150,,9,,,,,,,,,,,,,,,,,,,,,,,,,,,,,,,,,,,,,MET09904/13/13 16:56:02 METAR KCHS 132156Z 15008KT 10SM SCT250 22/08 A2994 RMK AO2 SLP139 T02220083 (JRS),,,,,,,,,,,,,,,,,,,,,,,,,,,,
72208013880,2013-04-13T17:56:00,FM-15,7,,SE,0.25,mi,"TEMP, PRECIP, SNOW",,,"MMTS, SRG, SNOWBOARD",,,WFO CHS,,,,,,,,,,,,,,,,,,,,,,,,,,,29.96,47,69,0.00,,,,45,29.96,FEW:02 250,29.91,10.00,57,160,,7,,,,,,,,,,,,,,,,,,,,,,,,,,,,,,,,,,,,,MET09904/13/13 17:56:02 METAR KCHS 132256Z 16006KT 10SM FEW250 21/08 A2996 RMK AO2 SLP144 T02060083 (JRS),,,,,,,,,,,,,,,,,,,,,,,,,,,,
72208013880,2013-04-14T13:56:00,FM-15,7,,SE,0.25,mi,"TEMP, PRECIP, SNOW",,,"MMTS, SRG, SNOWBOARD",,,WFO CHS,,,,,,,,,,,,,,,,,,,,,,,,,,,30.07,57,72,0.00,,,,59,30.07,FEW:02 120 OVC:08 150,30.02,10.00,63,150,,8,,,,,,,,,,,,,,,,,,,,,,,,,,,,,,,,,,,,,MET10504/14/13 13:56:02 METAR KCHS 141856Z 15007KT 10SM FEW120 OVC150 22/14 A3007 RMK AO2 SLP183 T02220139 (TF),,,,,,,,,,,,,,,,,,,,,,,,,,,,
72208013880,2013-04-17T16:56:00,FM-15,7,,SE,0.25,mi,"TEMP, PRECIP, SNOW",,,"MMTS, SRG, SNOWBOARD",,,WFO CHS,,,,,,,,,,,,,,,,,,,,,,,,,,,30.15,59,77,0.00,,,,54,30.15,SCT:04 55 BKN:07 250,30.10,10.00,66,150,,11,,,,,,,,,,,,,,,,,,,,,,,,,,,,,,,,,,,,,MET10604/17/13 16:56:02 METAR KCHS 172156Z 15010KT 10SM SCT055 BKN250 25/15 A3015 RMK AO2 SLP210 T02500150 (BBE),,,,,,,,,,,,,,,,,,,,,,,,,,,,
72208013880,2013-04-18T12:56:00,FM-15,7,,SE,0.25,mi,"TEMP, PRECIP, SNOW",,,"MMTS, SRG, SNOWBOARD",,,WFO CHS,,,,,,,,,,,,,,,,,,,,,,,,,,,30.13,63,82,0.00,,+0.03,8,53,30.12,SCT:04 35 BKN:07 50,30.08,10.00,70,150,22,15,,,,,,,,,,,,,,,,,,,,,,,,,,,,,,,,,,,,,MET12604/18/13 12:56:02 METAR KCHS 181756Z 15013G19KT 10SM SCT035 BKN050 28/17 A3013 RMK AO2 SLP201 T02780172 10278 20206 58009 (DD),,,,,,,,,,,,,,,,,,,,,,,,,,,,
72208013880,2013-04-18T13:00:00,FM-12,4,,SE,0.25,mi,"TEMP, PRECIP, SNOW",,,"MMTS, SRG, SNOWBOARD",,,WFO CHS,,,,,,,,,,,,,,,,,,,,,,,,,,,,63,82,,,+0.03,8,53,30.12,,30.08,9.94,70,150,,15,,,,,,,,,,,,,,,,,,,,,,,,,,,,,,,,,,,,,SYN098AAXX  18184 72208 32666 61513 10278 20172 30187 40201 58009 91756 333 10278 20206 91019 555 91818;,,,,,,,,,,,,,,,,,,,,,,,,,,,,
72208013880,2013-04-18T13:56:00,FM-15,7,,SE,0.25,mi,"TEMP, PRECIP, SNOW",,,"MMTS, SRG, SNOWBOARD",,,WFO CHS,,,,,,,,,,,,,,,,,,,,,,,,,,,30.11,62,80,0.00,,,,54,30.11,SCT:04 35 SCT:04 50,30.06,10.00,69,150,23,16,,,,,,,,,,,,,,,,,,,,,,,,,,,,,,,,,,,,,MET10804/18/13 13:56:02 METAR KCHS 181856Z 15014G20KT 10SM SCT035 SCT050 27/17 A3011 RMK AO2 SLP196 T02670167 (DD),,,,,,,,,,,,,,,,,,,,,,,,,,,,
72208013880,2013-04-18T17:56:00,FM-15,7,,SE,0.25,mi,"TEMP, PRECIP, SNOW",,,"MMTS, SRG, SNOWBOARD",,,WFO CHS,,,,,,,,,,,,,,,,,,,,,,,,,,,30.05,62,76,0.00,,,,62,30.05,FEW:02 30,30.00,10.00,67,150,21,13,,,,,,,,,,,,,,,,,,,,,,,,,,,,,,,,,,,,,MET10204/18/13 17:56:02 METAR KCHS 182256Z 15011G18KT 10SM FEW030 24/17 A3005 RMK AO2 SLP177 T02440167 (BBE),,,,,,,,,,,,,,,,,,,,,,,,,,,,
72208013880,2013-04-28T12:56:00,FM-15,7,,SE,0.25,mi,"TEMP, PRECIP, SNOW",,,"MMTS, SRG, SNOWBOARD",,,WFO CHS,,,,,,,,,,,,,,,,,,,,,,,,,,,30.15,62,77,0.00,,+0.05,8,60,30.14,SCT:04 30 SCT:04 60 BKN:07 110,30.10,10.00,68,160,,17,,,,,,,,,,,,,,,,,,,,,,,,,,,,,,,,,,,,,MET13304/28/13 12:56:02 METAR KCHS 281756Z 16015KT 10SM SCT030 SCT060 BKN110 25/17 A3015 RMK AO2 SLP208 T02500167 10256 20189 58016 $ (WRB),,,,,,,,,,,,,,,,,,,,,,,,,,,,
72208013880,2013-04-28T13:00:00,FM-12,4,,SE,0.25,mi,"TEMP, PRECIP, SNOW",,,"MMTS, SRG, SNOWBOARD",,,WFO CHS,,,,,,,,,,,,,,,,,,,,,,,,,,,,62,77,,,+0.05,8,60,30.14,,30.10,9.94,68,160,,17,,,,,,,,,,,,,,,,,,,,,,,,,,,,,,,,,,,,,SYN092AAXX  28184 72208 32566 61615 10250 20167 30194 40208 58016 91756 333 10256 20189 555 92818;,,,,,,,,,,,,,,,,,,,,,,,,,,,,
72208013880,2013-04-28T13:56:00,FM-15,7,,SE,0.25,mi,"TEMP, PRECIP, SNOW",,,"MMTS, SRG, SNOWBOARD",,,WFO CHS,,,,,,,,,,,,,,,,,,,,,,,,,,,30.13,61,75,0.00,,,,62,30.13,BKN:07 26 BKN:07 60 BKN:07 130,30.08,10.00,66,160,,17,,,,,,,,,,,,,,,,,,,,,,,,,,,,,,,,,,,,,MET11504/28/13 13:56:02 METAR KCHS 281856Z 16015KT 10SM BKN026 BKN060 BKN130 24/16 A3013 RMK AO2 SLP203 T02390161 $ (WRB),,,,,,,,,,,,,,,,,,,,,,,,,,,,
72208013880,2013-04-28T14:54:00,FM-16,6,,SE,0.25,mi,"TEMP, PRECIP, SNOW",,,"MMTS, SRG, SNOWBOARD",,,WFO CHS,,,,,,,,,,,,,,,,,,,,,,,,,,,30.11,61,73,,-RA:02 |RA |,,,65,,SCT:04 28 BKN:07 40 BKN:07 200,30.06,10.00,66,170,21,14,,,,,,,,,,,,,,,,,,,,,,,,,,,,,,,,,,,,,MET12204/28/13 14:54:02 SPECI KCHS 281954Z 17012G18KT 10SM -RA SCT028 BKN040 BKN200 23/16 A3011 RMK AO2 RAB54 P0000 $ FIBI (JRS),,,,,,,,,,,,,,,,,,,,,,,,,,,,
72208013880,2013-04-28T14:56:00,FM-15,7,,SE,0.25,mi,"TEMP, PRECIP, SNOW",,,"MMTS, SRG, SNOWBOARD",,,WFO CHS,,,,,,,,,,,,,,,,,,,,,,,,,,,30.11,61,74,T,-RA:02 |RA |RA,,,64,30.11,SCT:04 28 BKN:07 40 BKN:07 200,30.06,10.00,66,170,21,15,,,,,,,,,,,,,,,,,,,,,,,,,,,,,,,,,,,,,MET13404/28/13 14:56:02 METAR KCHS 281956Z 17013G18KT 10SM -RA SCT028 BKN040 BKN200 23/16 A3011 RMK AO2 RAB54 SLP196 P0000 T02330161 $ (JRS),,,,,,,,,,,,,,,,,,,,,,,,,,,,
72208013880,2013-04-28T17:56:00,FM-15,7,,SE,0.25,mi,"TEMP, PRECIP, SNOW",,,"MMTS, SRG, SNOWBOARD",,,WFO CHS,,,,,,,,,,,,,,,,,,,,,,,,,,,30.06,61,72,0.00,,,,68,30.06,SCT:04 33 BKN:07 46 BKN:07 200,30.01,10.00,65,150,,11,,,,,,,,,,,,,,,,,,,,,,,,,,,,,,,,,,,,,MET11504/28/13 17:56:02 METAR KCHS 282256Z 15010KT 10SM SCT033 BKN046 BKN200 22/16 A3006 RMK AO2 SLP179 T02220161 $ (JRS),,,,,,,,,,,,,,,,,,,,,,,,,,,,
72208013880,2013-05-07T12:56:00,FM-15,7,,SE,0.25,mi,"TEMP, PRECIP, SNOW",,,"MMTS, SRG, SNOWBOARD",,,WFO CHS,,,,,,,,,,,,,,,,,,,,,,,,,,,29.95,56,69,T,,+0.04,6,63,29.94,SCT:04 25 SCT:04 50 BKN:07 75,29.90,10.00,61,160,,8,,,,,,,,,,,,,,,,,,,,,,,,,,,,,,,,,,,,,MET18405/07/13 12:56:02 METAR KCHS 071756Z 16007KT 10SM SCT025TCU SCT050 BKN075 21/13 A2995 RMK AO2 RAE28 SLP140 TCU NW-N AND DSNT N-NE SHRA NW-N P0000 60004 T02060133 10211 20144 56013 (DD),,,,,,,,,,,,,,,,,,,,,,,,,,,,
72208013880,2013-05-07T13:00:00,FM-12,4,,SE,0.25,mi,"TEMP, PRECIP, SNOW",,,"MMTS, SRG, SNOWBOARD",,,WFO CHS,,,,,,,,,,,,,,,,,,,,,,,,,,,,56,69,,,+0.04,6,63,29.94,,29.90,9.94,61,160,,8,,,,,,,,,,,,,,,,,,,,,,,,,,,,,,,,,,,,,SYN08672208 12566 61607 10206 20133 30126 40140 56013 60011 91756 333 10211 20144 555 90718=,,,,,,,,,,,,,,,,,,,,,,,,,,,,
72208013880,2013-05-14T13:56:00,FM-15,7,,SE,0.25,mi,"TEMP, PRECIP, SNOW",,,"MMTS, SRG, SNOWBOARD",,,WFO CHS,,,,,,,,,,,,,,,,,,,,,,,,,,,30.21,45,74,0.00,,,,36,30.21,FEW:02 60,30.16,10.00,58,160,,9,,,,,,,,,,,,,,,,,,,,,,,,,,,,,,,,,,,,,MET09805/14/13 13:56:02 METAR KCHS 141856Z 16008KT 10SM FEW060 23/07 A3021 RMK AO2 SLP231 T02330072 (DD),,,,,,,,,,,,,,,,,,,,,,,,,,,,
72208013880,2013-05-18T14:56:00,FM-15,7,,SE,0.25,mi,"TEMP, PRECIP, SNOW",,,"MMTS, SRG, SNOWBOARD",,,WFO CHS,,,,,,,,,,,,,,,,,,,,,,,,,,,30.09,63,82,0.00,,,,53,30.09,FEW:02 35 SCT:04 140 BKN:07 250,30.04,10.00,70,150,,14,,,,,,,,,,,,,,,,,,,,,,,,,,,,,,,,,,,,,MET11505/18/13 14:56:02 METAR KCHS 181956Z 15012KT 10SM FEW035 SCT140 BKN250 28/17 A3009 RMK AO2 SLP189 T02780172 $ (JRS),,,,,,,,,,,,,,,,,,,,,,,,,,,,
72208013880,2013-05-19T11:56:00,FM-15,7,,SE,0.25,mi,"TEMP, PRECIP, SNOW",,,"MMTS, SRG, SNOWBOARD",,,WFO CHS,,,,,,,,,,,,,,,,,,,,,,,,,,,30.10,67,82,0.00,,,,60,30.10,FEW:02 30 SCT:04 36 BKN:07 50,30.05,10.00,72,150,20,13,,,,,,,,,,,,,,,,,,,,,,,,,,,,,,,,,,,,,MET12605/19/13 11:56:02 METAR KCHS 191656Z 15011G17KT 10SM FEW030TCU SCT036 BKN050 28/19 A3010 RMK AO2 SLP192 TCU S T02780194 $ (TF),,,,,,,,,,,,,,,,,,,,,,,,,,,,
72208013880,2013-05-19T12:56:00,FM-15,7,,SE,0.25,mi,"TEMP, PRECIP, SNOW",,,"MMTS, SRG, SNOWBOARD",,,WFO CHS,,,,,,,,,,,,,,,,,,,,,,,,,,,30.10,66,80,0.00,,+0.04,6,62,30.09,SCT:04 32 BKN:07 130 BKN:07 250,30.05,10.00,71,170,,15,,,,,,,,,,,,,,,,,,,,,,,,,,,,,,,,,,,,,MET13205/19/13 12:56:02 METAR KCHS 191756Z 17013KT 10SM SCT032 BKN130 BKN250 27/19 A3010 RMK AO2 SLP191 T02670189 10300 20222 56012 $ (TF),,,,,,,,,,,,,,,,,,,,,,,,,,,,
72208013880,2013-05-19T13:00:00,FM-12,4,,SE,0.25,mi,"TEMP, PRECIP, SNOW",,,"MMTS, SRG, SNOWBOARD",,,WFO CHS,,,,,,,,,,,,,,,,,,,,,,,,,,,,66,80,,,+0.04,6,62,30.09,,30.05,9.94,71,170,,15,,,,,,,,,,,,,,,,,,,,,,,,,,,,,,,,,,,,,SYN08072208 32566 61713 10267 20189 30177 40191 56012 91756 333 10300 20222 555 91918=,,,,,,,,,,,,,,,,,,,,,,,,,,,,
72208013880,2013-05-19T17:56:00,FM-15,7,,SE,0.25,mi,"TEMP, PRECIP, SNOW",,,"MMTS, SRG, SNOWBOARD",,,WFO CHS,,,,,,,,,,,,,,,,,,,,,,,,,,,30.08,67,78,0.00,,,,69,30.07,FEW:02 22 SCT:04 50 OVC:08 200,30.03,10.00,71,170,,9,,,,,,,,,,,,,,,,,,,,,,,,,,,,,,,,,,,,,MET11505/19/13 17:56:02 METAR KCHS 192256Z 17008KT 10SM FEW022 SCT050 OVC200 26/19 A3008 RMK AO2 SLP184 T02560194 $ (JRS),,,,,,,,,,,,,,,,,,,,,,,,,,,,
72208013880,2013-05-20T12:56:00,FM-15,7,,SE,0.25,mi,"TEMP, PRECIP, SNOW",,,"MMTS, SRG, SNOWBOARD",,,WFO CHS,,,,,,,,,,,,,,,,,,,,,,,,,,,30.10,72,78,0.04,-RA:02 |RA |,+0.01,8,82,30.10,FEW:02 20 BKN:07 50 BKN:07 120,30.05,10.00,74,170,,8,,,,,,,,,,,,,,,,,,,,,,,,,,,,,,,,,,,,,MET16405/20/13 12:56:02 METAR KCHS 201756Z 17007KT 10SM -RA FEW020 BKN050 BKN120 26/22 A3010 RMK AO2 SLP193 TCU DSNT SW-NW-NE P0005 60008 T02560222 10283 20233 58004 (DD),,,,,,,,,,,,,,,,,,,,,,,,,,,,
72208013880,2013-05-20T13:00:00,FM-12,4,,SE,0.25,mi,"TEMP, PRECIP, SNOW",,,"MMTS, SRG, SNOWBOARD",,,WFO CHS,,,,,,,,,,,,,,,,,,,,,,,,,,,,72,78,,||RA,+0.01,8,82,30.10,,30.05,9.94,74,170,,8,,,,,,,,,,,,,,,,,,,,,,,,,,,,,,,,,,,,,SYN09272208 11566 61707 10256 20222 30177 40193 58004 60021 761// 91756 333 10283 20233 555 92018=,,,,,,,,,,,,,,,,,,,,,,,,,,,,
72208013880,2013-05-22T12:56:00,FM-15,7,,SE,0.25,mi,"TEMP, PRECIP, SNOW",,,"MMTS, SRG, SNOWBOARD",,,WFO CHS,,,,,,,,,,,,,,,,,,,,,,,,,,,30.01,67,83,0.00,,+0.03,8,59,30.00,FEW:02 35 SCT:04 50 SCT:04 65,29.96,10.00,72,150,,11,,,,,,,,,,,,,,,,,,,,,,,,,,,,,,,,,,,,,MET14105/22/13 12:56:02 METAR KCHS 221756Z 15010KT 10SM FEW035 SCT050 SCT065 28/19 A3001 RMK AO2 SLP160 TCU DSNT N T02830194 10294 20217 58010 (DD),,,,,,,,,,,,,,,,,,,,,,,,,,,,
72208013880,2013-05-22T13:00:00,FM-12,4,,SE,0.25,mi,"TEMP, PRECIP, SNOW",,,"MMTS, SRG, SNOWBOARD",,,WFO CHS,,,,,,,,,,,,,,,,,,,,,,,,,,,,67,83,,,+0.03,8,59,30.00,,29.96,9.94,72,150,,11,,,,,,,,,,,,,,,,,,,,,,,,,,,,,,,,,,,,,SYN08072208 32666 41510 10283 20194 30146 40160 58010 91756 333 10294 20200 555 92218=,,,,,,,,,,,,,,,,,,,,,,,,,,,,
72208013880,2013-05-22T13:56:00,FM-15,7,,SE,0.25,mi,"TEMP, PRECIP, SNOW",,,"MMTS, SRG, SNOWBOARD",,,WFO CHS,,,,,,,,,,,,,,,,,,,,,,,,,,,29.99,66,84,0.00,,,,55,29.98,FEW:02 35 SCT:04 50 SCT:04 65,29.94,10.00,72,160,,10,,,,,,,,,,,,,,,,,,,,,,,,,,,,,,,,,,,,,MET12305/22/13 13:56:02 METAR KCHS 221856Z 16009KT 10SM FEW035 SCT050 SCT065 29/19 A2999 RMK AO2 SLP154 TCU DSNT N T02890189 (DD),,,,,,,,,,,,,,,,,,,,,,,,,,,,
72208013880,2013-05-22T14:56:00,FM-15,7,,SE,0.25,mi,"TEMP, PRECIP, SNOW",,,"MMTS, SRG, SNOWBOARD",,,WFO CHS,,,,,,,,,,,,,,,,,,,,,,,,,,,29.98,64,83,0.00,,,,53,29.97,FEW:02 35 SCT:04 50 SCT:04 80,29.93,10.00,71,150,,13,,,,,,,,,,,,,,,,,,,,,,,,,,,,,,,,,,,,,MET12305/22/13 14:56:02 METAR KCHS 221956Z 15011KT 10SM FEW035 SCT050 SCT080 28/18 A2998 RMK AO2 SLP150 CB DSNT N T02830178 (JMB),,,,,,,,,,,,,,,,,,,,,,,,,,,,
72208013880,2013-05-22T16:56:00,FM-15,7,,SE,0.25,mi,"TEMP, PRECIP, SNOW",,,"MMTS, SRG, SNOWBOARD",,,WFO CHS,,,,,,,,,,,,,,,,,,,,,,,,,,,29.95,66,81,0.00,,,,61,29.95,FEW:02 35 SCT:04 50 SCT:04 200,29.90,10.00,71,150,,13,,,,,,,,,,,,,,,,,,,,,,,,,,,,,,,,,,,,,MET11305/22/13 16:56:02 METAR KCHS 222156Z 15011KT 10SM FEW035 SCT050 SCT200 27/19 A2995 RMK AO2 SLP142 T02720189 (JMB),,,,,,,,,,,,,,,,,,,,,,,,,,,,
72208013880,2013-05-27T12:56:00,FM-15,7,,SE,0.25,mi,"TEMP, PRECIP, SNOW",,,"MMTS, SRG, SNOWBOARD",,,WFO CHS,,,,,,,,,,,,,,,,,,,,,,,,,,,30.23,62,81,0.00,,+0.02,8,53,30.23,FEW:02 40 SCT:04 55,30.18,10.00,69,160,,9,,,,,,,,,,,,,,,,,,,,,,,,,,,,,,,,,,,,,MET12305/27/13 12:56:02 METAR KCHS 271756Z 16008KT 10SM FEW040 SCT055 27/17 A3023 RMK AO2 SLP236 T02720167 10289 20222 58008 (DD),,,,,,,,,,,,,,,,,,,,,,,,,,,,
72208013880,2013-05-27T13:00:00,FM-12,4,,SE,0.25,mi,"TEMP, PRECIP, SNOW",,,"MMTS, SRG, SNOWBOARD",,,WFO CHS,,,,,,,,,,,,,,,,,,,,,,,,,,,,62,81,,,+0.02,8,53,30.23,,30.18,9.94,69,160,,9,,,,,,,,,,,,,,,,,,,,,,,,,,,,,,,,,,,,,SYN08072208 32666 41608 10272 20167 30221 40236 58008 91756 333 10289 20222 555 92718=,,,,,,,,,,,,,,,,,,,,,,,,,,,,
72208013880,2013-05-27T16:56:00,FM-15,7,,SE,0.25,mi,"TEMP, PRECIP, SNOW",,,"MMTS, SRG, SNOWBOARD",,,WFO CHS,,,,,,,,,,,,,,,,,,,,,,,,,,,30.19,60,80,0.00,,,,51,30.19,FEW:02 60 SCT:04 250,30.14,10.00,68,170,,11,,,,,,,,,,,,,,,,,,,,,,,,,,,,,,,,,,,,,MET10605/27/13 16:56:02 METAR KCHS 272156Z 17010KT 10SM FEW060 SCT250 27/16 A3019 RMK AO2 SLP222 T02670156 (JMB),,,,,,,,,,,,,,,,,,,,,,,,,,,,
72208013880,2013-05-27T17:56:00,FM-15,7,,SE,0.25,mi,"TEMP, PRECIP, SNOW",,,"MMTS, SRG, SNOWBOARD",,,WFO CHS,,,,,,,,,,,,,,,,,,,,,,,,,,,30.18,59,78,0.00,,,,52,30.18,FEW:02 60 SCT:04 250,30.13,10.00,66,170,,10,,,,,,,,,,,,,,,,,,,,,,,,,,,,,,,,,,,,,MET10605/27/13 17:56:02 METAR KCHS 272256Z 17009KT 10SM FEW060 SCT250 26/15 A3018 RMK AO2 SLP220 T02560150 (JMB),,,,,,,,,,,,,,,,,,,,,,,,,,,,
72208013880,2013-05-28T10:56:00,FM-15,7,,SE,0.25,mi,"TEMP, PRECIP, SNOW",,,"MMTS, SRG, SNOWBOARD",,,WFO CHS,,,,,,,,,,,,,,,,,,,,,,,,,,,30.26,62,83,0.00,,,,49,30.26,SCT:04 45 SCT:04 55,30.21,10.00,70,150,,9,,,,,,,,,,,,,,,,,,,,,,,,,,,,,,,,,,,,,MET10505/28/13 10:56:02 METAR KCHS 281556Z 15008KT 10SM SCT045 SCT055 28/17 A3026 RMK AO2 SLP247 T02830167 (DD),,,,,,,,,,,,,,,,,,,,,,,,,,,,
72208013880,2013-05-28T12:56:00,FM-15,7,,SE,0.25,mi,"TEMP, PRECIP, SNOW",,,"MMTS, SRG, SNOWBOARD",,,WFO CHS,,,,,,,,,,,,,,,,,,,,,,,,,,,30.25,60,83,0.00,,-0.00,0,46,30.24,FEW:02 50 SCT:04 60 SCT:04 250,30.20,10.00,69,170,,13,,,,,,,,,,,,,,,,,,,,,,,,,,,,,,,,,,,,,MET13005/28/13 12:56:02 METAR KCHS 281756Z 17011KT 10SM FEW050 SCT060 SCT250 28/16 A3025 RMK AO2 SLP241 T02830156 10289 20222 50000 (DD),,,,,,,,,,,,,,,,,,,,,,,,,,,,
72208013880,2013-05-28T13:00:00,FM-12,4,,SE,0.25,mi,"TEMP, PRECIP, SNOW",,,"MMTS, SRG, SNOWBOARD",,,WFO CHS,,,,,,,,,,,,,,,,,,,,,,,,,,,,60,83,,,0.00,9,46,30.24,,30.20,9.94,69,170,,13,,,,,,,,,,,,,,,,,,,,,,,,,,,,,,,,,,,,,SYN08072208 32766 41711 10283 20156 30228 40241 50000 91756 333 10289 20222 555 92818=,,,,,,,,,,,,,,,,,,,,,,,,,,,,
72208013880,2013-05-28T13:56:00,FM-15,7,,SE,0.25,mi,"TEMP, PRECIP, SNOW",,,"MMTS, SRG, SNOWBOARD",,,WFO CHS,,,,,,,,,,,,,,,,,,,,,,,,,,,30.24,59,83,0.00,,,,44,30.24,FEW:02 50 SCT:04 60 SCT:04 250,30.19,10.00,68,160,20,11,,,,,,,,,,,,,,,,,,,,,,,,,,,,,,,,,,,,,MET11505/28/13 13:56:02 METAR KCHS 281856Z 16010G17KT 10SM FEW050 SCT060 SCT250 28/15 A3024 RMK AO2 SLP239 T02830150 (DD),,,,,,,,,,,,,,,,,,,,,,,,,,,,
72208013880,2013-05-28T14:56:00,FM-15,7,,SE,0.25,mi,"TEMP, PRECIP, SNOW",,,"MMTS, SRG, SNOWBOARD",,,WFO CHS,,,,,,,,,,,,,,,,,,,,,,,,,,,30.23,61,84,0.00,,,,46,30.22,FEW:02 50 SCT:04 60 SCT:04 250,30.18,10.00,69,160,18,11,,,,,,,,,,,,,,,,,,,,,,,,,,,,,,,,,,,,,MET11605/28/13 14:56:02 METAR KCHS 281956Z 16010G16KT 10SM FEW050 SCT060 SCT250 29/16 A3023 RMK AO2 SLP235 T02890161 (JMB),,,,,,,,,,,,,,,,,,,,,,,,,,,,
72208013880,2013-05-28T15:56:00,FM-15,7,,SE,0.25,mi,"TEMP, PRECIP, SNOW",,,"MMTS, SRG, SNOWBOARD",,,WFO CHS,,,,,,,,,,,,,,,,,,,,,,,,,,,30.22,63,80,0.00,,+0.02,6,56,30.22,SCT:04 40 SCT:04 50 BKN:07 250,30.17,10.00,69,150,,16,,,,,,,,,,,,,,,,,,,,,,,,,,,,,,,,,,,,,MET13205/28/13 15:56:02 METAR KCHS 282056Z 15014KT 10SM SCT040 SCT050 BKN250 27/17 A3022 RMK AO2 SLP233 MDT CU NW-NE T02670172 56008 (JMB),,,,,,,,,,,,,,,,,,,,,,,,,,,,
72208013880,2013-05-28T16:00:00,FM-12,4,,SE,0.25,mi,"TEMP, PRECIP, SNOW",,,"MMTS, SRG, SNOWBOARD",,,WFO CHS,,,,,,,,,,,,,,,,,,,,,,,,,,,,63,80,,,+0.02,6,56,30.22,,30.17,9.94,69,150,,16,,,,,,,,,,,,,,,,,,,,,,,,,,,,,,,,,,,,,SYN06472208 32666 61514 10267 20172 30217 40233 56008 92056 555 92821=,,,,,,,,,,,,,,,,,,,,,,,,,,,,
72208013880,2013-05-28T16:56:00,FM-15,7,,SE,0.25,mi,"TEMP, PRECIP, SNOW",,,"MMTS, SRG, SNOWBOARD",,,WFO CHS,,,,,,,,,,,,,,,,,,,,,,,,,,,30.22,62,80,0.00,,,,54,30.22,SCT:04 40 SCT:04 60 BKN:07 250,30.17,10.00,69,160,,13,,,,,,,,,,,,,,,,,,,,,,,,,,,,,,,,,,,,,MET11305/28/13 16:56:02 METAR KCHS 282156Z 16011KT 10SM SCT040 SCT060 BKN250 27/17 A3022 RMK AO2 SLP232 T02670167 (JMB),,,,,,,,,,,,,,,,,,,,,,,,,,,,
72208013880,2013-05-28T17:56:00,FM-15,7,,SE,0.25,mi,"TEMP, PRECIP, SNOW",,,"MMTS, SRG, SNOWBOARD",,,WFO CHS,,,,,,,,,,,,,,,,,,,,,,,,,,,30.20,61,79,0.00,,,,54,30.20,FEW:02 40 BKN:07 250,30.15,10.00,68,160,,10,,,,,,,,,,,,,,,,,,,,,,,,,,,,,,,,,,,,,MET10605/28/13 17:56:02 METAR KCHS 282256Z 16009KT 10SM FEW040 BKN250 26/16 A3020 RMK AO2 SLP227 T02610161 (JMB),,,,,,,,,,,,,,,,,,,,,,,,,,,,
72208013880,2013-05-29T10:56:00,FM-15,7,,SE,0.25,mi,"TEMP, PRECIP, SNOW",,,"MMTS, SRG, SNOWBOARD",,,WFO CHS,,,,,,,,,,,,,,,,,,,,,,,,,,,30.27,61,81,0.00,,,,51,30.27,SCT:04 40 SCT:04 250,30.22,10.00,68,170,,10,,,,,,,,,,,,,,,,,,,,,,,,,,,,,,,,,,,,,MET10505/29/13 10:56:02 METAR KCHS 291556Z 17009KT 10SM SCT040 SCT250 27/16 A3027 RMK AO2 SLP249 T02720161 (DD),,,,,,,,,,,,,,,,,,,,,,,,,,,,
72208013880,2013-05-29T12:56:00,FM-15,7,,SE,0.25,mi,"TEMP, PRECIP, SNOW",,,"MMTS, SRG, SNOWBOARD",,,WFO CHS,,,,,,,,,,,,,,,,,,,,,,,,,,,30.25,61,82,0.00,,+0.01,8,49,30.24,SCT:04 40 SCT:04 50,30.20,10.00,69,160,,11,,,,,,,,,,,,,,,,,,,,,,,,,,,,,,,,,,,,,MET12305/29/13 12:56:02 METAR KCHS 291756Z 16010KT 10SM SCT040 SCT050 28/16 A3025 RMK AO2 SLP242 T02780161 10289 20222 58005 (DD),,,,,,,,,,,,,,,,,,,,,,,,,,,,
72208013880,2013-05-29T13:00:00,FM-12,4,,SE,0.25,mi,"TEMP, PRECIP, SNOW",,,"MMTS, SRG, SNOWBOARD",,,WFO CHS,,,,,,,,,,,,,,,,,,,,,,,,,,,,61,82,,,+0.01,8,49,30.24,,30.20,9.94,69,160,,11,,,,,,,,,,,,,,,,,,,,,,,,,,,,,,,,,,,,,SYN08072208 32666 41610 10278 20161 30228 40242 58005 91756 333 10289 20222 555 92918=,,,,,,,,,,,,,,,,,,,,,,,,,,,,
72208013880,2013-05-29T13:56:00,FM-15,7,,SE,0.25,mi,"TEMP, PRECIP, SNOW",,,"MMTS, SRG, SNOWBOARD",,,WFO CHS,,,,,,,,,,,,,,,,,,,,,,,,,,,30.23,62,82,0.00,,,,51,30.23,SCT:04 45,30.18,10.00,69,160,,13,,,,,,,,,,,,,,,,,,,,,,,,,,,,,,,,,,,,,MET09805/29/13 13:56:02 METAR KCHS 291856Z 16011KT 10SM SCT045 28/17 A3023 RMK AO2 SLP236 T02780167 (DD),,,,,,,,,,,,,,,,,,,,,,,,,,,,
72208013880,2013-05-29T14:56:00,FM-15,7,,SE,0.25,mi,"TEMP, PRECIP, SNOW",,,"MMTS, SRG, SNOWBOARD",,,WFO CHS,,,,,,,,,,,,,,,,,,,,,,,,,,,30.22,61,82,0.00,,,,49,30.22,SCT:04 40 SCT:04 250,30.17,10.00,69,150,16,9,,,,,,,,,,,,,,,,,,,,,,,,,,,,,,,,,,,,,MET10905/29/13 14:56:02 METAR KCHS 291956Z 15008G14KT 10SM SCT040 SCT250 28/16 A3022 RMK AO2 SLP233 T02780161 (JMB),,,,,,,,,,,,,,,,,,,,,,,,,,,,
72208013880,2013-05-29T15:56:00,FM-15,7,,SE,0.25,mi,"TEMP, PRECIP, SNOW",,,"MMTS, SRG, SNOWBOARD",,,WFO CHS,,,,,,,,,,,,,,,,,,,,,,,,,,,30.22,61,82,0.00,,+0.03,6,49,30.22,SCT:04 40 SCT:04 250,30.17,10.00,69,160,,11,,,,,,,,,,,,,,,,,,,,,,,,,,,,,,,,,,,,,MET11205/29/13 15:56:02 METAR KCHS 292056Z 16010KT 10SM SCT040 SCT250 28/16 A3022 RMK AO2 SLP232 T02780161 56010 (JMB),,,,,,,,,,,,,,,,,,,,,,,,,,,,
72208013880,2013-05-29T16:00:00,FM-12,4,,SE,0.25,mi,"TEMP, PRECIP, SNOW",,,"MMTS, SRG, SNOWBOARD",,,WFO CHS,,,,,,,,,,,,,,,,,,,,,,,,,,,,61,82,,,+0.03,6,49,30.22,,30.17,9.94,69,160,,11,,,,,,,,,,,,,,,,,,,,,,,,,,,,,,,,,,,,,SYN06472208 32666 41610 10278 20161 30217 40232 56010 92056 555 92921=,,,,,,,,,,,,,,,,,,,,,,,,,,,,
72208013880,2013-05-29T16:56:00,FM-15,7,,SE,0.25,mi,"TEMP, PRECIP, SNOW",,,"MMTS, SRG, SNOWBOARD",,,WFO CHS,,,,,,,,,,,,,,,,,,,,,,,,,,,30.21,61,81,0.00,,,,51,30.21,SCT:04 45 SCT:04 250,30.16,10.00,68,150,,10,,,,,,,,,,,,,,,,,,,,,,,,,,,,,,,,,,,,,MET10605/29/13 16:56:02 METAR KCHS 292156Z 15009KT 10SM SCT045 SCT250 27/16 A3021 RMK AO2 SLP230 T02720161 (JMB),,,,,,,,,,,,,,,,,,,,,,,,,,,,
72208013880,2013-05-29T17:56:00,FM-15,7,,SE,0.25,mi,"TEMP, PRECIP, SNOW",,,"MMTS, SRG, SNOWBOARD",,,WFO CHS,,,,,,,,,,,,,,,,,,,,,,,,,,,30.21,63,79,0.00,,,,58,30.21,FEW:02 35 SCT:04 45 SCT:04 250,30.16,10.00,69,160,,13,,,,,,,,,,,,,,,,,,,,,,,,,,,,,,,,,,,,,MET11305/29/13 17:56:02 METAR KCHS 292256Z 16011KT 10SM FEW035 SCT045 SCT250 26/17 A3021 RMK AO2 SLP230 T02610172 (JMB),,,,,,,,,,,,,,,,,,,,,,,,,,,,
72208013880,2013-05-30T13:56:00,FM-15,7,,SE,0.25,mi,"TEMP, PRECIP, SNOW",,,"MMTS, SRG, SNOWBOARD",,,WFO CHS,,,,,,,,,,,,,,,,,,,,,,,,,,,30.21,65,86,0.00,,,,49,30.21,FEW:02 40 SCT:04 60 SCT:04 75,30.16,10.00,72,160,,10,,,,,,,,,,,,,,,,,,,,,,,,,,,,,,,,,,,,,MET12105/30/13 13:56:02 METAR KCHS 301856Z 16009KT 10SM FEW040 SCT060 SCT075 30/18 A3021 RMK AO2 SLP229 MDT CU N T03000183 (DD),,,,,,,,,,,,,,,,,,,,,,,,,,,,
72208013880,2013-05-30T14:56:00,FM-15,7,,SE,0.25,mi,"TEMP, PRECIP, SNOW",,,"MMTS, SRG, SNOWBOARD",,,WFO CHS,,,,,,,,,,,,,,,,,,,,,,,,,,,30.20,64,85,0.00,,,,50,30.19,FEW:02 40 SCT:04 60 SCT:04 250,30.15,10.00,71,150,,14,,,,,,,,,,,,,,,,,,,,,,,,,,,,,,,,,,,,,MET11305/30/13 14:56:02 METAR KCHS 301956Z 15012KT 10SM FEW040 SCT060 SCT250 29/18 A3020 RMK AO2 SLP224 T02940178 (JMB),,,,,,,,,,,,,,,,,,,,,,,,,,,,
72208013880,2013-05-31T10:56:00,FM-15,7,,SE,0.25,mi,"TEMP, PRECIP, SNOW",,,"MMTS, SRG, SNOWBOARD",,,WFO CHS,,,,,,,,,,,,,,,,,,,,,,,,,,,30.23,68,82,0.00,,,,63,30.23,SCT:04 30 SCT:04 45 BKN:07 60,30.18,10.00,73,160,,10,,,,,,,,,,,,,,,,,,,,,,,,,,,,,,,,,,,,,MET11205/31/13 10:56:02 METAR KCHS 311556Z 16009KT 10SM SCT030 SCT045 BKN060 28/20 A3023 RMK AO2 SLP237 T02780200 (DD),,,,,,,,,,,,,,,,,,,,,,,,,,,,
72208013880,2013-05-31T12:56:00,FM-15,7,,SE,0.25,mi,"TEMP, PRECIP, SNOW",,,"MMTS, SRG, SNOWBOARD",,,WFO CHS,,,,,,,,,,,,,,,,,,,,,,,,,,,30.20,69,86,0.00,,+0.04,8,57,30.20,FEW:02 40 SCT:04 55 SCT:04 70,30.15,10.00,74,150,,13,,,,,,,,,,,,,,,,,,,,,,,,,,,,,,,,,,,,,MET14105/31/13 12:56:02 METAR KCHS 311756Z 15011KT 10SM FEW040 SCT055 SCT070 30/21 A3020 RMK AO2 SLP226 TCU DSNT N T03000206 10306 20250 58012 (DD),,,,,,,,,,,,,,,,,,,,,,,,,,,,
72208013880,2013-05-31T13:00:00,FM-12,4,,SE,0.25,mi,"TEMP, PRECIP, SNOW",,,"MMTS, SRG, SNOWBOARD",,,WFO CHS,,,,,,,,,,,,,,,,,,,,,,,,,,,,69,86,,,+0.04,8,57,30.20,,30.15,9.94,74,150,,13,,,,,,,,,,,,,,,,,,,,,,,,,,,,,,,,,,,,,SYN08072208 32666 41511 10300 20206 30211 40226 58012 91756 333 10306 20250 555 93118=,,,,,,,,,,,,,,,,,,,,,,,,,,,,
72208013880,2013-05-31T13:56:00,FM-15,7,,SE,0.25,mi,"TEMP, PRECIP, SNOW",,,"MMTS, SRG, SNOWBOARD",,,WFO CHS,,,,,,,,,,,,,,,,,,,,,,,,,,,30.19,68,84,0.00,,,,59,30.19,FEW:02 40 SCT:04 250,30.14,10.00,73,160,17,14,,,,,,,,,,,,,,,,,,,,,,,,,,,,,,,,,,,,,MET10805/31/13 13:56:02 METAR KCHS 311856Z 16012G15KT 10SM FEW040 SCT250 29/20 A3019 RMK AO2 SLP222 T02890200 (DD),,,,,,,,,,,,,,,,,,,,,,,,,,,,
72208013880,2013-05-31T14:56:00,FM-15,7,,SE,0.25,mi,"TEMP, PRECIP, SNOW",,,"MMTS, SRG, SNOWBOARD",,,WFO CHS,,,,,,,,,,,,,,,,,,,,,,,,,,,30.18,67,85,0.00,,,,55,30.18,FEW:02 35 SCT:04 250,30.13,10.00,73,160,,13,,,,,,,,,,,,,,,,,,,,,,,,,,,,,,,,,,,,,MET10605/31/13 14:56:02 METAR KCHS 311956Z 16011KT 10SM FEW035 SCT250 29/19 A3018 RMK AO2 SLP219 T02940194 (JRS),,,,,,,,,,,,,,,,,,,,,,,,,,,,
72208013880,2013-05-31T15:56:00,FM-15,7,,SE,0.25,mi,"TEMP, PRECIP, SNOW",,,"MMTS, SRG, SNOWBOARD",,,WFO CHS,,,,,,,,,,,,,,,,,,,,,,,,,,,30.17,67,84,0.00,,+0.04,8,57,30.16,FEW:02 29 SCT:04 250,30.12,10.00,73,150,,13,,,,,,,,,,,,,,,,,,,,,,,,,,,,,,,,,,,,,MET11205/31/13 15:56:02 METAR KCHS 312056Z 15011KT 10SM FEW029 SCT250 29/19 A3017 RMK AO2 SLP214 T02890194 58013 (JRS),,,,,,,,,,,,,,,,,,,,,,,,,,,,
72208013880,2013-05-31T16:00:00,FM-12,4,,SE,0.25,mi,"TEMP, PRECIP, SNOW",,,"MMTS, SRG, SNOWBOARD",,,WFO CHS,,,,,,,,,,,,,,,,,,,,,,,,,,,,67,84,,,+0.04,8,57,30.16,,30.12,9.94,73,150,,13,,,,,,,,,,,,,,,,,,,,,,,,,,,,,,,,,,,,,SYN06472208 32566 41511 10289 20194 30201 40214 58013 92056 555 93121=,,,,,,,,,,,,,,,,,,,,,,,,,,,,
72208013880,2013-05-31T17:56:00,FM-15,7,,SE,0.25,mi,"TEMP, PRECIP, SNOW",,,"MMTS, SRG, SNOWBOARD",,,WFO CHS,,,,,,,,,,,,,,,,,,,,,,,,,,,30.15,68,80,0.00,,,,67,30.15,FEW:02 30,30.10,10.00,72,150,,11,,,,,,,,,,,,,,,,,,,,,,,,,,,,,,,,,,,,,MET09905/31/13 17:56:02 METAR KCHS 312256Z 15010KT 10SM FEW030 27/20 A3015 RMK AO2 SLP210 T02670200 (JRS),,,,,,,,,,,,,,,,,,,,,,,,,,,,
72208013880,2013-06-01T10:56:00,FM-15,7,,SE,0.25,mi,"TEMP, PRECIP, SNOW",,,"MMTS, SRG, SNOWBOARD",,,WFO CHS,,,,,,,,,,,,,,,,,,,,,,,,,,,30.15,68,85,0.00,,,,57,30.15,SCT:04 30,30.10,10.00,74,170,,11,,,,,,,,,,,,,,,,,,,,,,,,,,,,,,,,,,,,,MET09806/01/13 10:56:02 METAR KCHS 011556Z 17010KT 10SM SCT030 29/20 A3015 RMK AO2 SLP210 T02940200 (TF),,,,,,,,,,,,,,,,,,,,,,,,,,,,
72208013880,2013-06-01T11:56:00,FM-15,7,,SE,0.25,mi,"TEMP, PRECIP, SNOW",,,"MMTS, SRG, SNOWBOARD",,,WFO CHS,,,,,,,,,,,,,,,,,,,,,,,,,,,30.15,67,84,0.00,,,,57,30.14,BKN:07 32,30.10,10.00,73,150,20,14,,,,,,,,,,,,,,,,,,,,,,,,,,,,,,,,,,,,,MET10106/01/13 11:56:02 METAR KCHS 011656Z 15012G17KT 10SM BKN032 29/19 A3015 RMK AO2 SLP208 T02890194 (TF),,,,,,,,,,,,,,,,,,,,,,,,,,,,
72208013880,2013-06-01T13:56:00,FM-15,7,,SE,0.25,mi,"TEMP, PRECIP, SNOW",,,"MMTS, SRG, SNOWBOARD",,,WFO CHS,,,,,,,,,,,,,,,,,,,,,,,,,,,30.12,66,85,0.00,,,,53,30.12,SCT:04 36,30.07,10.00,72,170,18,11,,,,,,,,,,,,,,,,,,,,,,,,,,,,,,,,,,,,,MET10106/01/13 13:56:02 METAR KCHS 011856Z 17010G16KT 10SM SCT036 29/19 A3012 RMK AO2 SLP200 T02940189 (TF),,,,,,,,,,,,,,,,,,,,,,,,,,,,
72208013880,2013-06-01T14:56:00,FM-15,7,,SE,0.25,mi,"TEMP, PRECIP, SNOW",,,"MMTS, SRG, SNOWBOARD",,,WFO CHS,,,,,,,,,,,,,,,,,,,,,,,,,,,30.12,67,84,0.00,,,,57,30.11,SCT:04 38,30.07,10.00,73,150,18,15,,,,,,,,,,,,,,,,,,,,,,,,,,,,,,,,,,,,,MET10206/01/13 14:56:02 METAR KCHS 011956Z 15013G16KT 10SM SCT038 29/19 A3012 RMK AO2 SLP198 T02890194 (JRS),,,,,,,,,,,,,,,,,,,,,,,,,,,,
72208013880,2013-06-01T15:56:00,FM-15,7,,SE,0.25,mi,"TEMP, PRECIP, SNOW",,,"MMTS, SRG, SNOWBOARD",,,WFO CHS,,,,,,,,,,,,,,,,,,,,,,,,,,,30.11,67,83,0.00,,+0.02,8,59,30.10,FEW:02 38,30.06,10.00,72,160,,10,,,,,,,,,,,,,,,,,,,,,,,,,,,,,,,,,,,,,MET10506/01/13 15:56:02 METAR KCHS 012056Z 16009KT 10SM FEW038 28/19 A3011 RMK AO2 SLP194 T02830194 58008 (JRS),,,,,,,,,,,,,,,,,,,,,,,,,,,,
72208013880,2013-06-01T16:00:00,FM-12,4,,SE,0.25,mi,"TEMP, PRECIP, SNOW",,,"MMTS, SRG, SNOWBOARD",,,WFO CHS,,,,,,,,,,,,,,,,,,,,,,,,,,,,67,83,,,+0.02,8,59,30.10,,30.06,9.94,72,160,,10,,,,,,,,,,,,,,,,,,,,,,,,,,,,,,,,,,,,,SYN06472208 32666 21609 10283 20194 30180 40194 58008 92056 555 90121=,,,,,,,,,,,,,,,,,,,,,,,,,,,,
72208013880,2013-06-01T16:56:00,FM-15,7,,SE,0.25,mi,"TEMP, PRECIP, SNOW",,,"MMTS, SRG, SNOWBOARD",,,WFO CHS,,,,,,,,,,,,,,,,,,,,,,,,,,,30.10,67,83,0.00,,,,59,30.09,FEW:02 30,30.05,10.00,72,150,,11,,,,,,,,,,,,,,,,,,,,,,,,,,,,,,,,,,,,,MET09906/01/13 16:56:02 METAR KCHS 012156Z 15010KT 10SM FEW030 28/19 A3010 RMK AO2 SLP191 T02830194 (JRS),,,,,,,,,,,,,,,,,,,,,,,,,,,,
72208013880,2013-06-01T17:56:00,FM-15,7,,SE,0.25,mi,"TEMP, PRECIP, SNOW",,,"MMTS, SRG, SNOWBOARD",,,WFO CHS,,,,,,,,,,,,,,,,,,,,,,,,,,,30.10,67,82,0.00,,,,60,30.09,FEW:02 27,30.05,10.00,72,150,,10,,,,,,,,,,,,,,,,,,,,,,,,,,,,,,,,,,,,,MET09906/01/13 17:56:02 METAR KCHS 012256Z 15009KT 10SM FEW027 28/19 A3010 RMK AO2 SLP191 T02780194 (JRS),,,,,,,,,,,,,,,,,,,,,,,,,,,,
72208013880,2013-06-02T11:56:00,FM-15,7,,SE,0.25,mi,"TEMP, PRECIP, SNOW",,,"MMTS, SRG, SNOWBOARD",,,WFO CHS,,,,,,,,,,,,,,,,,,,,,,,,,,,30.03,69,84,0.00,,,,61,30.03,BKN:07 30,29.98,10.00,74,170,,10,,,,,,,,,,,,,,,,,,,,,,,,,,,,,,,,,,,,,MET10006/02/13 11:56:02 METAR KCHS 021656Z 17009KT 10SM BKN030 29/21 A3003 RMK AO2 SLP168 T02890206 $ (TF),,,,,,,,,,,,,,,,,,,,,,,,,,,,
72208013880,2013-06-02T12:56:00,FM-15,7,,SE,0.25,mi,"TEMP, PRECIP, SNOW",,,"MMTS, SRG, SNOWBOARD",,,WFO CHS,,,,,,,,,,,,,,,,,,,,,,,,,,,30.01,69,85,0.00,,+0.03,8,59,30.01,FEW:02 27 BKN:07 33 BKN:07 42,29.96,10.00,74,170,,16,,,,,,,,,,,,,,,,,,,,,,,,,,,,,,,,,,,,,MET14306/02/13 12:56:02 METAR KCHS 021756Z 17014KT 10SM FEW027 BKN033 BKN042 29/21 A3001 RMK AO2 SLP163 CB DSNT NW T02940206 10306 20244 58011 $ (TF),,,,,,,,,,,,,,,,,,,,,,,,,,,,
72208013880,2013-06-02T13:00:00,FM-12,4,,SE,0.25,mi,"TEMP, PRECIP, SNOW",,,"MMTS, SRG, SNOWBOARD",,,WFO CHS,,,,,,,,,,,,,,,,,,,,,,,,,,,,69,85,,,+0.03,8,59,30.01,,29.96,9.94,74,170,,16,,,,,,,,,,,,,,,,,,,,,,,,,,,,,,,,,,,,,SYN08072208 32566 61714 10294 20206 30146 40163 58011 91756 333 10306 20244 555 90218=,,,,,,,,,,,,,,,,,,,,,,,,,,,,
72208013880,2013-06-02T13:56:00,FM-15,7,,SE,0.25,mi,"TEMP, PRECIP, SNOW",,,"MMTS, SRG, SNOWBOARD",,,WFO CHS,,,,,,,,,,,,,,,,,,,,,,,,,,,30.00,71,83,0.00,,,,67,30.00,SCT:04 27 BKN:07 35 BKN:07 250,29.95,10.00,75,160,,17,,,,,,,,,,,,,,,,,,,,,,,,,,,,,,,,,,,,,MET11406/02/13 13:56:02 METAR KCHS 021856Z 16015KT 10SM SCT027 BKN035 BKN250 28/22 A3000 RMK AO2 SLP158 T02830217 $ (TF),,,,,,,,,,,,,,,,,,,,,,,,,,,,
72208013880,2013-06-04T12:56:00,FM-15,7,,SE,0.25,mi,"TEMP, PRECIP, SNOW",,,"MMTS, SRG, SNOWBOARD",,,WFO CHS,,,,,,,,,,,,,,,,,,,,,,,,,,,30.00,75,84,0.00,,+0.01,8,74,29.99,SCT:04 25 SCT:04 50 BKN:07 75,29.95,10.00,78,160,,13,,,,,,,,,,,,,,,,,,,,,,,,,,,,,,,,,,,,,MET18606/04/13 12:56:02 METAR KCHS 041756Z 16011KT 10SM SCT025TCU SCT050 BKN075 29/24 A3000 RMK AO2 TSE13 SLP157 TCU SW CB DSNT SE-SW MOVG SE TCU DSNT NE 60000 T02890239 10311 20233 58002 (DD),,,,,,,,,,,,,,,,,,,,,,,,,,,,
72208013880,2013-06-04T13:00:00,FM-12,4,,SE,0.25,mi,"TEMP, PRECIP, SNOW",,,"MMTS, SRG, SNOWBOARD",,,WFO CHS,,,,,,,,,,,,,,,,,,,,,,,,,,,,75,84,,,+0.01,8,74,29.99,,29.95,9.94,78,160,,13,,,,,,,,,,,,,,,,,,,,,,,,,,,,,,,,,,,,,SYN08672208 12566 61611 10289 20239 30143 40157 58002 69901 91756 333 10311 20228 555 90418=,,,,,,,,,,,,,,,,,,,,,,,,,,,,
72208013880,2013-06-04T13:56:00,FM-15,7,,SE,0.25,mi,"TEMP, PRECIP, SNOW",,,"MMTS, SRG, SNOWBOARD",,,WFO CHS,,,,,,,,,,,,,,,,,,,,,,,,,,,29.97,73,82,0.00,,,,74,29.97,FEW:02 10 SCT:04 20 BKN:07 35,29.92,10.00,76,160,,11,,,,,,,,,,,,,,,,,,,,,,,,,,,,,,,,,,,,,MET14506/04/13 13:56:02 METAR KCHS 041856Z 16010KT 10SM FEW010 SCT020 BKN035 28/23 A2997 RMK AO2 SLP148 CB DSNT S-SW MOVG E TCU DSNT W-N T02780228 (DD),,,,,,,,,,,,,,,,,,,,,,,,,,,,
72208013880,2013-06-06T13:56:00,FM-15,7,,SE,0.25,mi,"TEMP, PRECIP, SNOW",,,"MMTS, SRG, SNOWBOARD",,,WFO CHS,,,,,,,,,,,,,,,,,,,,,,,,,,,29.89,71,80,T,,,,74,29.88,SCT:04 20 BKN:07 35 BKN:07 85,29.84,10.00,74,150,,10,,,,,,,,,,,,,,,,,,,,,,,,,,,,,,,,,,,,,MET13206/06/13 13:56:02 METAR KCHS 061856Z 15009KT 10SM SCT020 BKN035 BKN085 27/22 A2989 RMK AO2 RAE1758B34E54 SLP120 P0000 T02670217 (DD),,,,,,,,,,,,,,,,,,,,,,,,,,,,
72208013880,2013-06-06T14:56:00,FM-15,7,,SE,0.25,mi,"TEMP, PRECIP, SNOW",,,"MMTS, SRG, SNOWBOARD",,,WFO CHS,,,,,,,,,,,,,,,,,,,,,,,,,,,29.87,71,79,T,-RA:02 |RA |,,,77,29.86,FEW:02 20 SCT:04 35 OVC:08 150,29.82,10.00,74,160,,10,,,,,,,,,,,,,,,,,,,,,,,,,,,,,,,,,,,,,MET12906/06/13 14:56:02 METAR KCHS 061956Z 16009KT 10SM -RA FEW020 SCT035 OVC150 26/22 A2987 RMK AO2 RAB16 SLP112 P0000 T02610217 (BBE),,,,,,,,,,,,,,,,,,,,,,,,,,,,
72208013880,2013-06-09T10:56:00,FM-15,7,,SE,0.25,mi,"TEMP, PRECIP, SNOW",,,"MMTS, SRG, SNOWBOARD",,,WFO CHS,,,,,,,,,,,,,,,,,,,,,,,,,,,30.14,73,86,0.00,,,,65,30.14,SCT:04 23 SCT:04 150 BKN:07 250,30.09,10.00,77,150,,11,,,,,,,,,,,,,,,,,,,,,,,,,,,,,,,,,,,,,MET11206/09/13 10:56:02 METAR KCHS 091556Z 15010KT 10SM SCT023 SCT150 BKN250 30/23 A3014 RMK AO2 SLP206 T03000228 (TF),,,,,,,,,,,,,,,,,,,,,,,,,,,,
72208013880,2013-06-09T17:56:00,FM-15,7,,SE,0.25,mi,"TEMP, PRECIP, SNOW",,,"MMTS, SRG, SNOWBOARD",,,WFO CHS,,,,,,,,,,,,,,,,,,,,,,,,,,,30.09,70,82,0.00,,,,67,30.09,FEW:02 26 BKN:07 200,30.04,10.00,74,170,,10,,,,,,,,,,,,,,,,,,,,,,,,,,,,,,,,,,,,,MET10606/09/13 17:56:02 METAR KCHS 092256Z 17009KT 10SM FEW026 BKN200 28/21 A3009 RMK AO2 SLP188 T02780211 (JRS),,,,,,,,,,,,,,,,,,,,,,,,,,,,
72208013880,2013-06-15T17:56:00,FM-15,7,,SE,0.25,mi,"TEMP, PRECIP, SNOW",,,"MMTS, SRG, SNOWBOARD",,,WFO CHS,,,,,,,,,,,,,,,,,,,,,,,,,,,30.11,54,80,0.00,,,,41,30.11,FEW:02 250,30.06,10.00,64,160,,8,,,,,,,,,,,,,,,,,,,,,,,,,,,,,,,,,,,,,MET09906/15/13 17:56:02 METAR KCHS 152256Z 16007KT 10SM FEW250 27/12 A3011 RMK AO2 SLP195 T02670122 (JRS),,,,,,,,,,,,,,,,,,,,,,,,,,,,
72208013880,2013-06-16T15:56:00,FM-15,7,,SE,0.25,mi,"TEMP, PRECIP, SNOW",,,"MMTS, SRG, SNOWBOARD",,,WFO CHS,,,,,,,,,,,,,,,,,,,,,,,,,,,30.09,63,82,0.00,,+0.03,6,53,30.09,FEW:02 45 SCT:04 55,30.04,10.00,70,170,,10,,,,,,,,,,,,,,,,,,,,,,,,,,,,,,,,,,,,,MET11206/16/13 15:56:02 METAR KCHS 162056Z 17009KT 10SM FEW045 SCT055 28/17 A3009 RMK AO2 SLP189 T02780172 56011 (JRS),,,,,,,,,,,,,,,,,,,,,,,,,,,,
72208013880,2013-06-16T16:00:00,FM-12,4,,SE,0.25,mi,"TEMP, PRECIP, SNOW",,,"MMTS, SRG, SNOWBOARD",,,WFO CHS,,,,,,,,,,,,,,,,,,,,,,,,,,,,63,82,,,+0.03,6,53,30.09,,30.04,9.94,70,170,,10,,,,,,,,,,,,,,,,,,,,,,,,,,,,,,,,,,,,,SYN06472208 32666 41709 10278 20172 30173 40189 56011 92056 555 91621=,,,,,,,,,,,,,,,,,,,,,,,,,,,,
72208013880,2013-06-22T17:56:00,FM-15,7,,SE,0.25,mi,"TEMP, PRECIP, SNOW",,,"MMTS, SRG, SNOWBOARD",,,WFO CHS,,,,,,,,,,,,,,,,,,,,,,,,,,,30.12,72,81,0.00,,,,74,30.12,FEW:02 30 SCT:04 130 BKN:07 200,30.07,10.00,75,160,,10,,,,,,,,,,,,,,,,,,,,,,,,,,,,,,,,,,,,,MET12406/22/13 17:56:02 METAR KCHS 222256Z 16009KT 10SM FEW030 SCT130 BKN200 27/22 A3012 RMK AO2 SLP199 TCU DSNT N T02720222 (JRS),,,,,,,,,,,,,,,,,,,,,,,,,,,,
72208013880,2013-06-23T12:19:00,FM-16,7,,SE,0.25,mi,"TEMP, PRECIP, SNOW",,,"MMTS, SRG, SNOWBOARD",,,WFO CHS,,,,,,,,,,,,,,,,,,,,,,,,,,,30.19,73,81,T,-RA:02 |RA |,,,79,,BKN:07 33 BKN:07 44 BKN:07 60,30.14,10.00,75,150,,8,,,,,,,,,,,,,,,,,,,,,,,,,,,,,,,,,,,,,MET12506/23/13 12:19:02 SPECI KCHS 231719Z 15007KT 10SM -RA BKN033 BKN044 BKN060 27/23 A3019 RMK AO2 TSE19RAB02 TS DSIPD P0000 (TF),,,,,,,,,,,,,,,,,,,,,,,,,,,,
72208013880,2013-06-23T16:56:00,FM-15,7,,SE,0.25,mi,"TEMP, PRECIP, SNOW",,,"MMTS, SRG, SNOWBOARD",,,WFO CHS,,,,,,,,,,,,,,,,,,,,,,,,,,,30.14,70,83,0.00,,,,65,30.13,FEW:02 17 SCT:04 30 BKN:07 250,30.09,10.00,74,150,,11,,,,,,,,,,,,,,,,,,,,,,,,,,,,,,,,,,,,,MET12406/23/13 16:56:02 METAR KCHS 232156Z 15010KT 10SM FEW017 SCT030 BKN250 28/21 A3014 RMK AO2 SLP204 CB DSNT NW T02830211 (JRS),,,,,,,,,,,,,,,,,,,,,,,,,,,,
72208013880,2013-06-23T17:56:00,FM-15,7,,SE,0.25,mi,"TEMP, PRECIP, SNOW",,,"MMTS, SRG, SNOWBOARD",,,WFO CHS,,,,,,,,,,,,,,,,,,,,,,,,,,,30.15,72,82,0.00,,,,72,30.15,FEW:02 17 BKN:07 250,30.10,10.00,75,150,,10,,,,,,,,,,,,,,,,,,,,,,,,,,,,,,,,,,,,,MET10606/23/13 17:56:02 METAR KCHS 232256Z 15009KT 10SM FEW017 BKN250 28/22 A3015 RMK AO2 SLP210 T02780222 (JRS),,,,,,,,,,,,,,,,,,,,,,,,,,,,
72208013880,2013-06-24T17:56:00,FM-15,7,,SE,0.25,mi,"TEMP, PRECIP, SNOW",,,"MMTS, SRG, SNOWBOARD",,,WFO CHS,,,,,,,,,,,,,,,,,,,,,,,,,,,30.16,72,83,0.00,,,,70,30.16,FEW:02 30 SCT:04 50 BKN:07 200,30.11,10.00,75,170,,10,,,,,,,,,,,,,,,,,,,,,,,,,,,,,,,,,,,,,MET12506/24/13 17:56:02 METAR KCHS 242256Z 17009KT 10SM FEW030 SCT050 BKN200 28/22 A3016 RMK AO2 SLP213 TCU DSNT NE T02830222 (BBE),,,,,,,,,,,,,,,,,,,,,,,,,,,,
72208013880,2013-06-26T15:46:00,FM-16,7,,SE,0.25,mi,"TEMP, PRECIP, SNOW",,,"MMTS, SRG, SNOWBOARD",,,WFO CHS,,,,,,,,,,,,,,,,,,,,,,,,,,,30.00,72,82,,TS:7 |TS TS |,,,70,,SCT:04 35 SCT:04 70 BKN:07 200,29.95,10.00,75,160,,11,,,,,,,,,,,,,,,,,,,,,,,,,,,,,,,,,,,,,MET15006/26/13 15:46:02 SPECI KCHS 262046Z 16010KT 10SM TS SCT035CB SCT070 BKN200 28/22 A3000 RMK AO2 TSB46 FRQ LTGCGIC OHD-SE-S TS OHD-SE-S LTL MOVMT (BBE),,,,,,,,,,,,,,,,,,,,,,,,,,,,
72208013880,2013-06-26T16:21:00,FM-16,7,,SE,0.25,mi,"TEMP, PRECIP, SNOW",,,"MMTS, SRG, SNOWBOARD",,,WFO CHS,,,,,,,,,,,,,,,,,,,,,,,,,,,30.02,70,75,0.12,TS:7 -RA:02 BR:1 |RA TS |,,,83,,BKN:07 20 BKN:07 40 OVC:08 100,29.97,6.00,72,150,21,9,,,,,,,,,,,,,,,,,,,,,,,,,,,,,,,,,,,,,MET18406/26/13 16:21:02 SPECI KCHS 262121Z 15008G18KT 6SM -TSRA BR BKN020CB BKN040 OVC100 24/21 A3002 RMK AO2 PK WND 13027/2100 GSB01E16 OCNL LTGCGIC NE-SE-S TS NE-SE-S LTL MOVMT P0012 (BBE),,,,,,,,,,,,,,,,,,,,,,,,,,,,
72208013880,2013-06-26T16:51:00,FM-16,7,,SE,0.25,mi,"TEMP, PRECIP, SNOW",,,"MMTS, SRG, SNOWBOARD",,,WFO CHS,,,,,,,,,,,,,,,,,,,,,,,,,,,30.01,70,73,0.23,TS:7 -RA:02 BR:1 |RA TS |,,,89,,SCT:04 9 BKN:07 45 OVC:08 60,29.96,5.00,71,150,,15,,,,,,,,,,,,,,,,,,,,,,,,,,,,,,,,,,,,,MET20106/26/13 16:51:02 SPECI KCHS 262151Z 15013KT 5SM -TSRA BR SCT009CB BKN045 OVC060 23/21 A3001 RMK AO2 PK WND 13027/2100 WSHFT 2135 GSB01E16 PRESFR OCNL LTGCGIC NE-SE-SW TS NE-SE-SW LTL MOVMT P0023 (BBE),,,,,,,,,,,,,,,,,,,,,,,,,,,,
72208013880,2013-06-30T12:07:00,FM-16,7,,SE,0.25,mi,"TEMP, PRECIP, SNOW",,,"MMTS, SRG, SNOWBOARD",,,WFO CHS,,,,,,,,,,,,,,,,,,,,,,,,,,,29.83,73,79,0.15,TS:7 -RA:02 |RA TS TS |,,,84,,FEW:02 10 BKN:07 23 BKN:07 34,29.78,5.00,75,160,,8,,,,,,,,,,,,,,,,,,,,,,,,,,,,,,,,,,,,,MET13906/30/13 12:07:02 SPECI KCHS 301707Z 16007KT 5SM -TSRA FEW010 BKN023CB BKN034 26/23 A2983 RMK AO2 OCNL LTGICCG N TS NE MOVG NE P0015 $ (TF),,,,,,,,,,,,,,,,,,,,,,,,,,,,
72208013880,2013-06-30T14:56:00,FM-15,7,,SE,0.25,mi,"TEMP, PRECIP, SNOW",,,"MMTS, SRG, SNOWBOARD",,,WFO CHS,,,,,,,,,,,,,,,,,,,,,,,,,,,29.82,72,79,T,-RA:02 |RA |,,,79,29.81,FEW:02 15 SCT:04 38 BKN:07 120,29.77,10.00,74,160,,8,,,,,,,,,,,,,,,,,,,,,,,,,,,,,,,,,,,,,MET14806/30/13 14:56:02 METAR KCHS 301956Z 16007KT 10SM -RA FEW015 SCT038 BKN120 26/22 A2982 RMK AO2 RAB45 SLP095 CB DSNT W MOVG NE P0000 T02610222 $ (TF),,,,,,,,,,,,,,,,,,,,,,,,,,,,
72208013880,2013-07-02T10:56:00,FM-15,7,,SE,0.25,mi,"TEMP, PRECIP, SNOW",,,"MMTS, SRG, SNOWBOARD",,,WFO CHS,,,,,,,,,,,,,,,,,,,,,,,,,,,30.14,73,77,0.27,-RA:02 |RA |,,,88,30.14,SCT:04 15 BKN:07 30 BKN:07 75,30.09,8.00,74,170,23,14,,,,,,,,,,,,,,,,,,,,,,,,,,,,,,,,,,,,,MET13407/02/13 10:56:02 METAR KCHS 021556Z 17012G20KT 8SM -RA SCT015 BKN030 BKN075 25/23 A3014 RMK AO2 SLP205 SCT V BKN P0031 T02500228 (DD),,,,,,,,,,,,,,,,,,,,,,,,,,,,
72208013880,2013-07-02T11:56:00,FM-15,7,,SE,0.25,mi,"TEMP, PRECIP, SNOW",,,"MMTS, SRG, SNOWBOARD",,,WFO CHS,,,,,,,,,,,,,,,,,,,,,,,,,,,30.12,73,78,0.05,,,,85,30.11,FEW:02 15 SCT:04 45 BKN:07 120,30.07,10.00,75,160,,10,,,,,,,,,,,,,,,,,,,,,,,,,,,,,,,,,,,,,MET12407/02/13 11:56:02 METAR KCHS 021656Z 16009KT 10SM FEW015 SCT045 BKN120 26/23 A3012 RMK AO2 RAE48 SLP198 P0005 T02560228 (DD),,,,,,,,,,,,,,,,,,,,,,,,,,,,
72208013880,2013-07-02T12:56:00,FM-15,7,,SE,0.25,mi,"TEMP, PRECIP, SNOW",,,"MMTS, SRG, SNOWBOARD",,,WFO CHS,,,,,,,,,,,,,,,,,,,,,,,,,,,30.11,74,80,T,,+0.00,8,82,30.11,FEW:02 15 SCT:04 50 BKN:07 120,30.06,10.00,76,160,,10,,,,,,,,,,,,,,,,,,,,,,,,,,,,,,,,,,,,,MET15107/02/13 12:56:02 METAR KCHS 021756Z 16009KT 10SM FEW015 SCT050 BKN120 27/23 A3011 RMK AO2 RAB12E40 SLP197 P0000 60070 T02670233 10278 20239 58001 (DD),,,,,,,,,,,,,,,,,,,,,,,,,,,,
72208013880,2013-07-02T13:00:00,FM-12,4,,SE,0.25,mi,"TEMP, PRECIP, SNOW",,,"MMTS, SRG, SNOWBOARD",,,WFO CHS,,,,,,,,,,,,,,,,,,,,,,,,,,,,74,80,,,+0.00,8,82,30.11,,30.06,9.94,76,160,,10,,,,,,,,,,,,,,,,,,,,,,,,,,,,,,,,,,,,,SYN08072208 12466 61609 10267 20233 30180 40197 58001 60181 91756 333 20239 555 90218=,,,,,,,,,,,,,,,,,,,,,,,,,,,,
72208013880,2013-07-02T13:56:00,FM-15,7,,SE,0.25,mi,"TEMP, PRECIP, SNOW",,,"MMTS, SRG, SNOWBOARD",,,WFO CHS,,,,,,,,,,,,,,,,,,,,,,,,,,,30.10,73,80,0.00,,,,79,30.10,FEW:02 15 SCT:04 50 BKN:07 120,30.05,10.00,75,160,,7,,,,,,,,,,,,,,,,,,,,,,,,,,,,,,,,,,,,,MET11207/02/13 13:56:02 METAR KCHS 021856Z 16006KT 10SM FEW015 SCT050 BKN120 27/23 A3010 RMK AO2 SLP192 T02670228 (DD),,,,,,,,,,,,,,,,,,,,,,,,,,,,
72208013880,2013-07-02T15:50:00,FM-16,7,,SE,0.25,mi,"TEMP, PRECIP, SNOW",,,"MMTS, SRG, SNOWBOARD",,,WFO CHS,,,,,,,,,,,,,,,,,,,,,,,,,,,30.10,72,81,T,,,,74,,FEW:02 15 SCT:04 20 BKN:07 70,30.05,10.00,75,160,21,11,,,,,,,,,,,,,,,,,,,,,,,,,,,,,,,,,,,,,MET11607/02/13 15:50:02 SPECI KCHS 022050Z 16010G18KT 10SM FEW015 SCT020 BKN070 27/22 A3010 RMK AO2 RAB1958E11 P0000 (JMB),,,,,,,,,,,,,,,,,,,,,,,,,,,,
72208013880,2013-07-02T17:56:00,FM-15,7,,SE,0.25,mi,"TEMP, PRECIP, SNOW",,,"MMTS, SRG, SNOWBOARD",,,WFO CHS,,,,,,,,,,,,,,,,,,,,,,,,,,,30.12,72,81,0.00,,,,74,30.11,FEW:02 20 SCT:04 80 BKN:07 250,30.07,10.00,75,170,,11,,,,,,,,,,,,,,,,,,,,,,,,,,,,,,,,,,,,,MET11307/02/13 17:56:02 METAR KCHS 022256Z 17010KT 10SM FEW020 SCT080 BKN250 27/22 A3012 RMK AO2 SLP197 T02720222 (JMB),,,,,,,,,,,,,,,,,,,,,,,,,,,,
72208013880,2013-07-03T11:56:00,FM-15,7,,SE,0.25,mi,"TEMP, PRECIP, SNOW",,,"MMTS, SRG, SNOWBOARD",,,WFO CHS,,,,,,,,,,,,,,,,,,,,,,,,,,,30.19,75,84,0.01,,,,74,30.19,SCT:04 25 BKN:07 50 BKN:07 120,30.14,10.00,78,170,,15,,,,,,,,,,,,,,,,,,,,,,,,,,,,,,,,,,,,,MET16407/03/13 11:56:02 METAR KCHS 031656Z 17013KT 10SM SCT025TCU BKN050 BKN120 29/24 A3019 RMK AO2 RAB07E17B45E55 SLP223 TCU E-SE CB DSNT W-N MOVG N P0001 T02890239 (DD),,,,,,,,,,,,,,,,,,,,,,,,,,,,
72208013880,2013-07-03T12:56:00,FM-15,7,,SE,0.25,mi,"TEMP, PRECIP, SNOW",,,"MMTS, SRG, SNOWBOARD",,,WFO CHS,,,,,,,,,,,,,,,,,,,,,,,,,,,30.20,73,80,T,,+0.00,5,79,30.19,FEW:02 25 SCT:04 50 SCT:04 120,30.15,10.00,75,160,,11,,,,,,,,,,,,,,,,,,,,,,,,,,,,,,,,,,,,,MET17407/03/13 12:56:02 METAR KCHS 031756Z 16010KT 10SM FEW025 SCT050 SCT120 27/23 A3020 RMK AO2 RAB03E46 SLP225 TCU DSNT E-S CB MOVD N P0000 60021 T02670228 10311 20250 55001 (DD),,,,,,,,,,,,,,,,,,,,,,,,,,,,
72208013880,2013-07-03T13:00:00,FM-12,4,,SE,0.25,mi,"TEMP, PRECIP, SNOW",,,"MMTS, SRG, SNOWBOARD",,,WFO CHS,,,,,,,,,,,,,,,,,,,,,,,,,,,,73,80,,,+0.00,5,79,30.19,,30.15,9.94,75,160,,11,,,,,,,,,,,,,,,,,,,,,,,,,,,,,,,,,,,,,SYN08672208 12566 41610 10267 20228 30211 40225 55001 60051 91756 333 10311 20250 555 90318=,,,,,,,,,,,,,,,,,,,,,,,,,,,,
72208013880,2013-07-03T13:56:00,FM-15,7,,SE,0.25,mi,"TEMP, PRECIP, SNOW",,,"MMTS, SRG, SNOWBOARD",,,WFO CHS,,,,,,,,,,,,,,,,,,,,,,,,,,,30.18,74,82,T,,,,77,30.18,FEW:02 45 SCT:04 120 BKN:07 180,30.13,10.00,76,150,,8,,,,,,,,,,,,,,,,,,,,,,,,,,,,,,,,,,,,,MET14707/03/13 13:56:02 METAR KCHS 031856Z 15007KT 10SM FEW045 SCT120 BKN180 28/23 A3018 RMK AO2 RAB13E48 SLP220 TCU DSNT SE-S AND W P0000 T02780233 (DD),,,,,,,,,,,,,,,,,,,,,,,,,,,,
72208013880,2013-07-03T14:56:00,FM-15,7,,SE,0.25,mi,"TEMP, PRECIP, SNOW",,,"MMTS, SRG, SNOWBOARD",,,WFO CHS,,,,,,,,,,,,,,,,,,,,,,,,,,,30.18,73,84,0.00,,,,70,30.18,FEW:02 20 BKN:07 45 BKN:07 100,30.13,10.00,76,170,,16,,,,,,,,,,,,,,,,,,,,,,,,,,,,,,,,,,,,,MET12407/03/13 14:56:02 METAR KCHS 031956Z 17014KT 10SM FEW020 BKN045 BKN100 29/23 A3018 RMK AO2 SLP220 TCU DSNT S T02890228 (JMB),,,,,,,,,,,,,,,,,,,,,,,,,,,,
72208013880,2013-07-03T15:56:00,FM-15,7,,SE,0.25,mi,"TEMP, PRECIP, SNOW",,,"MMTS, SRG, SNOWBOARD",,,WFO CHS,,,,,,,,,,,,,,,,,,,,,,,,,,,30.18,73,82,T,,+0.02,6,74,30.18,SCT:04 20 BKN:07 35 BKN:07 100,30.13,10.00,76,170,,15,,,,,,,,,,,,,,,,,,,,,,,,,,,,,,,,,,,,,MET15207/03/13 15:56:02 METAR KCHS 032056Z 17013KT 10SM SCT020 BKN035 BKN100 28/23 A3018 RMK AO2 RAB08E23 SLP219 TCU DSNT SE P0000 60000 T02780228 56006 (JMB),,,,,,,,,,,,,,,,,,,,,,,,,,,,
72208013880,2013-07-03T16:00:00,FM-12,4,,SE,0.25,mi,"TEMP, PRECIP, SNOW",,,"MMTS, SRG, SNOWBOARD",,,WFO CHS,,,,,,,,,,,,,,,,,,,,,,,,,,,,73,82,,,+0.02,6,74,30.18,,30.13,9.94,76,170,,15,,,,,,,,,,,,,,,,,,,,,,,,,,,,,,,,,,,,,SYN07072208 12566 61713 10278 20228 30204 40219 56006 69907 92056 555 90321=,,,,,,,,,,,,,,,,,,,,,,,,,,,,
72208013880,2013-07-03T17:56:00,FM-15,7,,SE,0.25,mi,"TEMP, PRECIP, SNOW",,,"MMTS, SRG, SNOWBOARD",,,WFO CHS,,,,,,,,,,,,,,,,,,,,,,,,,,,30.18,72,81,0.00,,,,74,30.18,FEW:02 20 SCT:04 35 BKN:07 100,30.13,10.00,75,160,,7,,,,,,,,,,,,,,,,,,,,,,,,,,,,,,,,,,,,,MET13407/03/13 17:56:02 METAR KCHS 032256Z 16006KT 10SM FEW020 SCT035 BKN100 27/22 A3018 RMK AO2 SLP219 TCU DSNT N-NE AND SE T02720222 (JMB),,,,,,,,,,,,,,,,,,,,,,,,,,,,
72208013880,2013-07-04T10:56:00,FM-15,7,,SE,0.25,mi,"TEMP, PRECIP, SNOW",,,"MMTS, SRG, SNOWBOARD",,,WFO CHS,,,,,,,,,,,,,,,,,,,,,,,,,,,30.23,74,85,0.00,,,,70,30.23,SCT:04 25 BKN:07 40 BKN:07 55,30.18,10.00,77,150,,15,,,,,,,,,,,,,,,,,,,,,,,,,,,,,,,,,,,,,MET11207/04/13 10:56:02 METAR KCHS 041556Z 15013KT 10SM SCT025 BKN040 BKN055 29/23 A3023 RMK AO2 SLP236 T02940233 (DD),,,,,,,,,,,,,,,,,,,,,,,,,,,,
72208013880,2013-07-04T11:56:00,FM-15,7,,SE,0.25,mi,"TEMP, PRECIP, SNOW",,,"MMTS, SRG, SNOWBOARD",,,WFO CHS,,,,,,,,,,,,,,,,,,,,,,,,,,,30.23,75,85,0.01,,,,72,30.23,SCT:04 25 BKN:07 50,30.18,10.00,78,150,,16,,,,,,,,,,,,,,,,,,,,,,,,,,,,,,,,,,,,,MET12007/04/13 11:56:02 METAR KCHS 041656Z 15014KT 10SM SCT025 BKN050 29/24 A3023 RMK AO2 RAB00E42 SLP237 P0001 T02940239 (DD),,,,,,,,,,,,,,,,,,,,,,,,,,,,
72208013880,2013-07-04T13:56:00,FM-15,7,,SE,0.25,mi,"TEMP, PRECIP, SNOW",,,"MMTS, SRG, SNOWBOARD",,,WFO CHS,,,,,,,,,,,,,,,,,,,,,,,,,,,30.20,73,86,0.00,,,,65,30.20,FEW:02 20 SCT:04 28 SCT:04 180,30.15,10.00,77,150,22,16,,,,,,,,,,,,,,,,,,,,,,,,,,,,,,,,,,,,,MET11607/04/13 13:56:02 METAR KCHS 041856Z 15014G19KT 10SM FEW020 SCT028 SCT180 30/23 A3020 RMK AO2 SLP227 T03000228 (KPL),,,,,,,,,,,,,,,,,,,,,,,,,,,,
72208013880,2013-07-04T14:56:00,FM-15,7,,SE,0.25,mi,"TEMP, PRECIP, SNOW",,,"MMTS, SRG, SNOWBOARD",,,WFO CHS,,,,,,,,,,,,,,,,,,,,,,,,,,,30.19,74,86,0.00,,,,67,30.19,FEW:02 20 BKN:07 25,30.14,10.00,78,150,25,16,,,,,,,,,,,,,,,,,,,,,,,,,,,,,,,,,,,,,MET10907/04/13 14:56:02 METAR KCHS 041956Z 15014G22KT 10SM FEW020 BKN025 30/23 A3019 RMK AO2 SLP222 T03000233 (KPL),,,,,,,,,,,,,,,,,,,,,,,,,,,,
72208013880,2013-07-04T15:56:00,FM-15,7,,SE,0.25,mi,"TEMP, PRECIP, SNOW",,,"MMTS, SRG, SNOWBOARD",,,WFO CHS,,,,,,,,,,,,,,,,,,,,,,,,,,,30.18,76,84,T,-RA:02 |RA |,+0.02,6,77,30.18,FEW:02 22 BKN:07 28,30.13,10.00,78,160,22,15,,,,,,,,,,,,,,,,,,,,,,,,,,,,,,,,,,,,,MET13107/04/13 15:56:02 METAR KCHS 042056Z 16013G19KT 10SM -RA FEW022 BKN028 29/24 A3018 RMK AO2 SLP220 P0000 60000 T02890244 56007 (KPL),,,,,,,,,,,,,,,,,,,,,,,,,,,,
72208013880,2013-07-04T16:00:00,FM-12,4,,SE,0.25,mi,"TEMP, PRECIP, SNOW",,,"MMTS, SRG, SNOWBOARD",,,WFO CHS,,,,,,,,,,,,,,,,,,,,,,,,,,,,76,84,,||RA,+0.02,6,77,30.18,,30.13,9.94,78,160,,15,,,,,,,,,,,,,,,,,,,,,,,,,,,,,,,,,,,,,SYN08672208 11566 61613 10289 20244 30204 40220 56007 69907 761// 92056 333 91019 555 90421=,,,,,,,,,,,,,,,,,,,,,,,,,,,,
72208013880,2013-07-05T13:56:00,FM-15,7,,SE,0.25,mi,"TEMP, PRECIP, SNOW",,,"MMTS, SRG, SNOWBOARD",,,WFO CHS,,,,,,,,,,,,,,,,,,,,,,,,,,,30.21,74,87,0.00,,,,65,30.20,SCT:04 30 SCT:04 75,30.16,10.00,78,150,,16,,,,,,,,,,,,,,,,,,,,,,,,,,,,,,,,,,,,,MET11907/05/13 13:56:02 METAR KCHS 051856Z 15014KT 10SM SCT030 SCT075 31/23 A3021 RMK AO2 SLP228 TCU DSNT NW-N T03060233 (DD),,,,,,,,,,,,,,,,,,,,,,,,,,,,
72208013880,2013-07-05T15:56:00,FM-15,7,,SE,0.25,mi,"TEMP, PRECIP, SNOW",,,"MMTS, SRG, SNOWBOARD",,,WFO CHS,,,,,,,,,,,,,,,,,,,,,,,,,,,30.17,76,83,T,,+0.05,8,79,30.17,SCT:04 23 BKN:07 250,30.12,10.00,78,150,17,10,,,,,,,,,,,,,,,,,,,,,,,,,,,,,,,,,,,,,MET15307/05/13 15:56:02 METAR KCHS 052056Z 15009G15KT 10SM SCT023TCU BKN250 28/24 A3017 RMK AO2 RAB32E56 SLP217 TCU E-S AND W P0000 60000 T02830244 58016 (JRS),,,,,,,,,,,,,,,,,,,,,,,,,,,,
72208013880,2013-07-05T16:00:00,FM-12,4,,SE,0.25,mi,"TEMP, PRECIP, SNOW",,,"MMTS, SRG, SNOWBOARD",,,WFO CHS,,,,,,,,,,,,,,,,,,,,,,,,,,,,76,83,,,+0.05,8,79,30.17,,30.12,9.94,78,150,,10,,,,,,,,,,,,,,,,,,,,,,,,,,,,,,,,,,,,,SYN08072208 12566 61509 10283 20244 30201 40217 58016 69907 92056 333 91015 555 90521=,,,,,,,,,,,,,,,,,,,,,,,,,,,,
72208013880,2013-07-05T16:24:00,FM-16,7,,SE,0.25,mi,"TEMP, PRECIP, SNOW",,,"MMTS, SRG, SNOWBOARD",,,WFO CHS,,,,,,,,,,,,,,,,,,,,,,,,,,,30.19,73,77,0.13,-RA:02 |RA |,,,89,,SCT:04 21 BKN:07 38,30.14,8.00,74,150,,8,,,,,,,,,,,,,,,,,,,,,,,,,,,,,,,,,,,,,MET13607/05/13 16:24:02 SPECI KCHS 052124Z 15007KT 8SM -RA SCT021TCU BKN038 25/23 A3019 RMK AO2 PK WND 14030/2104 RAB10 TCU NW-N P0013 $ (JRS),,,,,,,,,,,,,,,,,,,,,,,,,,,,
72208013880,2013-07-05T16:56:00,FM-15,7,,SE,0.25,mi,"TEMP, PRECIP, SNOW",,,"MMTS, SRG, SNOWBOARD",,,WFO CHS,,,,,,,,,,,,,,,,,,,,,,,,,,,30.18,76,81,0.13,,,,85,30.17,FEW:02 21 SCT:04 38 SCT:04 250,30.13,10.00,77,150,,9,,,,,,,,,,,,,,,,,,,,,,,,,,,,,,,,,,,,,MET16407/05/13 16:56:02 METAR KCHS 052156Z 15008KT 10SM FEW021 SCT038 SCT250 27/24 A3018 RMK AO2 PK WND 14030/2104 RAB10RAE20 SLP218 TCU DSNT NW-N P0013 T02720244 $ (JRS),,,,,,,,,,,,,,,,,,,,,,,,,,,,
72208013880,2013-07-05T17:56:00,FM-15,7,,SE,0.25,mi,"TEMP, PRECIP, SNOW",,,"MMTS, SRG, SNOWBOARD",,,WFO CHS,,,,,,,,,,,,,,,,,,,,,,,,,,,30.19,73,82,T,-RA:02 |RA |,,,74,30.18,FEW:02 23 SCT:04 30 BKN:07 250,30.14,10.00,76,170,24,16,,,,,,,,,,,,,,,,,,,,,,,,,,,,,,,,,,,,,MET13407/05/13 17:56:02 METAR KCHS 052256Z 17014G21KT 10SM -RA FEW023 SCT030 BKN250 28/23 A3019 RMK AO2 RAB55 SLP221 P0000 T02780228 $ (JRS),,,,,,,,,,,,,,,,,,,,,,,,,,,,
72208013880,2013-07-06T11:56:00,FM-15,7,,SE,0.25,mi,"TEMP, PRECIP, SNOW",,,"MMTS, SRG, SNOWBOARD",,,WFO CHS,,,,,,,,,,,,,,,,,,,,,,,,,,,30.21,71,87,0.00,,,,59,30.21,SCT:04 35 BKN:07 150,30.16,10.00,76,150,,16,,,,,,,,,,,,,,,,,,,,,,,,,,,,,,,,,,,,,MET10707/06/13 11:56:02 METAR KCHS 061656Z 15014KT 10SM SCT035 BKN150 31/22 A3021 RMK AO2 SLP230 T03060217 $ (TF),,,,,,,,,,,,,,,,,,,,,,,,,,,,
72208013880,2013-07-06T16:56:00,FM-15,7,,SE,0.25,mi,"TEMP, PRECIP, SNOW",,,"MMTS, SRG, SNOWBOARD",,,WFO CHS,,,,,,,,,,,,,,,,,,,,,,,,,,,30.15,71,85,0.00,,,,63,30.15,SCT:04 28 SCT:04 250,30.10,10.00,75,160,,15,,,,,,,,,,,,,,,,,,,,,,,,,,,,,,,,,,,,,MET10807/06/13 16:56:02 METAR KCHS 062156Z 16013KT 10SM SCT028 SCT250 29/22 A3015 RMK AO2 SLP210 T02940217 $ (JRS),,,,,,,,,,,,,,,,,,,,,,,,,,,,
72208013880,2013-07-06T17:56:00,FM-15,7,,SE,0.25,mi,"TEMP, PRECIP, SNOW",,,"MMTS, SRG, SNOWBOARD",,,WFO CHS,,,,,,,,,,,,,,,,,,,,,,,,,,,30.15,71,83,0.00,,,,67,30.15,FEW:02 27 SCT:04 250,30.10,10.00,75,150,,15,,,,,,,,,,,,,,,,,,,,,,,,,,,,,,,,,,,,,MET10807/06/13 17:56:02 METAR KCHS 062256Z 15013KT 10SM FEW027 SCT250 28/22 A3015 RMK AO2 SLP210 T02830217 $ (JRS),,,,,,,,,,,,,,,,,,,,,,,,,,,,
72208013880,2013-07-07T10:56:00,FM-15,7,,SE,0.25,mi,"TEMP, PRECIP, SNOW",,,"MMTS, SRG, SNOWBOARD",,,WFO CHS,,,,,,,,,,,,,,,,,,,,,,,,,,,30.20,70,87,0.00,,,,57,30.19,SCT:04 35 SCT:04 250,30.15,10.00,75,150,17,11,,,,,,,,,,,,,,,,,,,,,,,,,,,,,,,,,,,,,MET11007/07/13 10:56:02 METAR KCHS 071556Z 15010G15KT 10SM SCT035 SCT250 31/21 A3020 RMK AO2 SLP225 T03060211 $ (TF),,,,,,,,,,,,,,,,,,,,,,,,,,,,
72208013880,2013-07-07T12:56:00,FM-15,7,,SE,0.25,mi,"TEMP, PRECIP, SNOW",,,"MMTS, SRG, SNOWBOARD",,,WFO CHS,,,,,,,,,,,,,,,,,,,,,,,,,,,30.18,70,89,0.00,,+0.01,8,53,30.18,SCT:04 39 SCT:04 250,30.13,10.00,76,170,,10,,,,,,,,,,,,,,,,,,,,,,,,,,,,,,,,,,,,,MET12507/07/13 12:56:02 METAR KCHS 071756Z 17009KT 10SM SCT039 SCT250 32/21 A3018 RMK AO2 SLP221 T03170211 10317 20267 58004 $ (TF),,,,,,,,,,,,,,,,,,,,,,,,,,,,
72208013880,2013-07-07T13:00:00,FM-12,4,,SE,0.25,mi,"TEMP, PRECIP, SNOW",,,"MMTS, SRG, SNOWBOARD",,,WFO CHS,,,,,,,,,,,,,,,,,,,,,,,,,,,,70,89,,,+0.01,8,53,30.18,,30.13,9.94,76,170,,10,,,,,,,,,,,,,,,,,,,,,,,,,,,,,,,,,,,,,SYN08072208 32666 41709 10317 20211 30204 40221 58004 91756 333 10317 20267 555 90718=,,,,,,,,,,,,,,,,,,,,,,,,,,,,
72208013880,2013-07-07T15:56:00,FM-15,7,,SE,0.25,mi,"TEMP, PRECIP, SNOW",,,"MMTS, SRG, SNOWBOARD",,,WFO CHS,,,,,,,,,,,,,,,,,,,,,,,,,,,30.14,73,87,0.00,,+0.05,6,63,30.14,FEW:02 34 SCT:04 250,30.09,10.00,77,150,,13,,,,,,,,,,,,,,,,,,,,,,,,,,,,,,,,,,,,,MET11407/07/13 15:56:02 METAR KCHS 072056Z 15011KT 10SM FEW034 SCT250 31/23 A3014 RMK AO2 SLP205 T03060228 56016 $ (JRS),,,,,,,,,,,,,,,,,,,,,,,,,,,,
72208013880,2013-07-07T16:00:00,FM-12,4,,SE,0.25,mi,"TEMP, PRECIP, SNOW",,,"MMTS, SRG, SNOWBOARD",,,WFO CHS,,,,,,,,,,,,,,,,,,,,,,,,,,,,73,87,,,+0.05,6,63,30.14,,30.09,9.94,77,150,,13,,,,,,,,,,,,,,,,,,,,,,,,,,,,,,,,,,,,,SYN06472208 32666 41511 10306 20228 30190 40205 56016 92056 555 90721=,,,,,,,,,,,,,,,,,,,,,,,,,,,,
72208013880,2013-07-09T13:56:00,FM-15,7,,SE,0.25,mi,"TEMP, PRECIP, SNOW",,,"MMTS, SRG, SNOWBOARD",,,WFO CHS,,,,,,,,,,,,,,,,,,,,,,,,,,,30.15,70,89,0.00,,,,53,30.14,FEW:02 40 SCT:04 65 SCT:04 100,30.10,10.00,76,160,,11,,,,,,,,,,,,,,,,,,,,,,,,,,,,,,,,,,,,,MET12407/09/13 13:56:02 METAR KCHS 091856Z 16010KT 10SM FEW040 SCT065 SCT100 32/21 A3015 RMK AO2 SLP208 TCU DSNT NW T03170211 (DD),,,,,,,,,,,,,,,,,,,,,,,,,,,,
72208013880,2013-07-09T15:56:00,FM-15,7,,SE,0.25,mi,"TEMP, PRECIP, SNOW",,,"MMTS, SRG, SNOWBOARD",,,WFO CHS,,,,,,,,,,,,,,,,,,,,,,,,,,,30.13,70,87,0.00,,+0.05,5,57,30.13,FEW:02 35 SCT:04 65 BKN:07 250,30.08,10.00,75,170,,10,,,,,,,,,,,,,,,,,,,,,,,,,,,,,,,,,,,,,MET12907/09/13 15:56:02 METAR KCHS 092056Z 17009KT 10SM FEW035 SCT065 BKN250 31/21 A3013 RMK AO2 SLP203 CB DSNT W T03060211 55016 (JMB),,,,,,,,,,,,,,,,,,,,,,,,,,,,
72208013880,2013-07-09T16:00:00,FM-12,4,,SE,0.25,mi,"TEMP, PRECIP, SNOW",,,"MMTS, SRG, SNOWBOARD",,,WFO CHS,,,,,,,,,,,,,,,,,,,,,,,,,,,,70,87,,,+0.05,5,57,30.13,,30.08,9.94,75,170,,10,,,,,,,,,,,,,,,,,,,,,,,,,,,,,,,,,,,,,SYN06472208 32666 61709 10306 20211 30187 40203 55016 92056 555 90921=,,,,,,,,,,,,,,,,,,,,,,,,,,,,
72208013880,2013-07-10T14:56:00,FM-15,7,,SE,0.25,mi,"TEMP, PRECIP, SNOW",,,"MMTS, SRG, SNOWBOARD",,,WFO CHS,,,,,,,,,,,,,,,,,,,,,,,,,,,30.03,70,89,0.00,,,,53,30.03,FEW:02 40 SCT:04 60 BKN:07 120,29.98,10.00,76,170,,11,,,,,,,,,,,,,,,,,,,,,,,,,,,,,,,,,,,,,MET12207/10/13 14:56:02 METAR KCHS 101956Z 17010KT 10SM FEW040 SCT060 BKN120 32/21 A3003 RMK AO2 SLP168 MDT CU N T03170211 (JMB),,,,,,,,,,,,,,,,,,,,,,,,,,,,
72208013880,2013-07-11T17:56:00,FM-15,7,,SE,0.25,mi,"TEMP, PRECIP, SNOW",,,"MMTS, SRG, SNOWBOARD",,,WFO CHS,,,,,,,,,,,,,,,,,,,,,,,,,,,29.91,73,84,0.00,,,,70,29.91,SCT:04 20 BKN:07 30 BKN:07 100,29.86,10.00,76,170,,15,,,,,,,,,,,,,,,,,,,,,,,,,,,,,,,,,,,,,MET11307/11/13 17:56:02 METAR KCHS 112256Z 17013KT 10SM SCT020 BKN030 BKN100 29/23 A2991 RMK AO2 SLP128 T02890228 (JMB),,,,,,,,,,,,,,,,,,,,,,,,,,,,
72208013880,2013-07-13T17:56:00,FM-15,7,,SE,0.25,mi,"TEMP, PRECIP, SNOW",,,"MMTS, SRG, SNOWBOARD",,,WFO CHS,,,,,,,,,,,,,,,,,,,,,,,,,,,30.03,72,84,0.00,,,,67,30.03,FEW:02 18 SCT:04 26 BKN:07 140,29.98,10.00,76,150,,16,,,,,,,,,,,,,,,,,,,,,,,,,,,,,,,,,,,,,MET14507/13/13 17:56:02 METAR KCHS 132256Z 15014KT 10SM FEW018 SCT026 BKN140 29/22 A3003 RMK AO2 SLP169 CB DSNT NW AND DSNT SE MOV NW T02890222 $ (JRS),,,,,,,,,,,,,,,,,,,,,,,,,,,,
72208013880,2013-07-16T17:56:00,FM-15,7,,SE,0.25,mi,"TEMP, PRECIP, SNOW",,,"MMTS, SRG, SNOWBOARD",,,WFO CHS,,,,,,,,,,,,,,,,,,,,,,,,,,,30.22,72,86,0.00,,,,63,30.22,FEW:02 40 SCT:04 250,30.17,10.00,76,150,,8,,,,,,,,,,,,,,,,,,,,,,,,,,,,,,,,,,,,,MET10607/16/13 17:56:02 METAR KCHS 162256Z 15007KT 10SM FEW040 SCT250 30/22 A3022 RMK AO2 SLP232 T03000222 (JMB),,,,,,,,,,,,,,,,,,,,,,,,,,,,
72208013880,2013-07-17T14:56:00,FM-15,7,,SE,0.25,mi,"TEMP, PRECIP, SNOW",,,"MMTS, SRG, SNOWBOARD",,,WFO CHS,,,,,,,,,,,,,,,,,,,,,,,,,,,30.13,76,87,T,TS:7 -RA:02 |RA TS TS |,,,70,30.12,SCT:04 45 BKN:07 90 BKN:07 250,30.08,10.00,79,160,,13,,,,,,,,,,,,,,,,,,,,,,,,,,,,,,,,,,,,,MET16607/17/13 14:56:02 METAR KCHS 171956Z 16011KT 10SM -TSRA SCT045CB BKN090 BKN250 31/24 A3013 RMK AO2 TSB45RAB44 SLP201 OCNL LTGICCG SW TS SW MOV E P0000 T03060244 (JMB),,,,,,,,,,,,,,,,,,,,,,,,,,,,
72208013880,2013-07-18T15:56:00,FM-15,7,,SE,0.25,mi,"TEMP, PRECIP, SNOW",,,"MMTS, SRG, SNOWBOARD",,,WFO CHS,,,,,,,,,,,,,,,,,,,,,,,,,,,30.10,70,89,0.00,,+0.04,6,53,30.10,SCT:04 35 BKN:07 50 BKN:07 250,30.05,10.00,76,170,,10,,,,,,,,,,,,,,,,,,,,,,,,,,,,,,,,,,,,,MET13107/18/13 15:56:02 METAR KCHS 182056Z 17009KT 10SM SCT035 BKN050 BKN250 32/21 A3010 RMK AO2 SLP192 CB DSNT N T03170211 56013 $ (JMB),,,,,,,,,,,,,,,,,,,,,,,,,,,,
72208013880,2013-07-18T16:00:00,FM-12,4,,SE,0.25,mi,"TEMP, PRECIP, SNOW",,,"MMTS, SRG, SNOWBOARD",,,WFO CHS,,,,,,,,,,,,,,,,,,,,,,,,,,,,70,89,,,+0.04,6,53,30.10,,30.05,9.94,76,170,,10,,,,,,,,,,,,,,,,,,,,,,,,,,,,,,,,,,,,,SYN06472208 32666 61709 10317 20211 30177 40192 56013 92056 555 91821=,,,,,,,,,,,,,,,,,,,,,,,,,,,,
72208013880,2013-07-19T11:56:00,FM-15,7,,SE,0.25,mi,"TEMP, PRECIP, SNOW",,,"MMTS, SRG, SNOWBOARD",,,WFO CHS,,,,,,,,,,,,,,,,,,,,,,,,,,,30.13,73,85,T,,,,68,30.12,FEW:02 25 SCT:04 75 BKN:07 120,30.08,10.00,77,150,20,15,,,,,,,,,,,,,,,,,,,,,,,,,,,,,,,,,,,,,MET16007/19/13 11:56:02 METAR KCHS 191656Z 15013G17KT 10SM FEW025 SCT075 BKN120 29/23 A3013 RMK AO2 WSHFT 1612 RAB01E11B39E49 SLP201 TCU DSNT N-E P0000 T02940228 (DD),,,,,,,,,,,,,,,,,,,,,,,,,,,,
72208013880,2013-07-20T12:56:00,FM-15,7,,SE,0.25,mi,"TEMP, PRECIP, SNOW",,,"MMTS, SRG, SNOWBOARD",,,WFO CHS,,,,,,,,,,,,,,,,,,,,,,,,,,,30.05,71,88,0.00,,+0.05,8,57,30.05,SCT:04 34 SCT:04 42 SCT:04 250,30.00,10.00,76,170,,13,,,,,,,,,,,,,,,,,,,,,,,,,,,,,,,,,,,,,MET13807/20/13 12:56:02 METAR KCHS 201756Z 17011KT 10SM SCT034 SCT042 SCT250 31/22 A3005 RMK AO2 SLP176 60000 T03110217 10311 20256 58016 $ (TF),,,,,,,,,,,,,,,,,,,,,,,,,,,,
72208013880,2013-07-20T13:00:00,FM-12,4,,SE,0.25,mi,"TEMP, PRECIP, SNOW",,,"MMTS, SRG, SNOWBOARD",,,WFO CHS,,,,,,,,,,,,,,,,,,,,,,,,,,,,71,88,,,+0.05,8,57,30.05,,30.00,9.94,76,170,,13,,,,,,,,,,,,,,,,,,,,,,,,,,,,,,,,,,,,,SYN08672208 12666 41711 10311 20217 30160 40176 58016 69901 91756 333 10311 20256 555 92018=,,,,,,,,,,,,,,,,,,,,,,,,,,,,
72208013880,2013-07-21T15:56:00,FM-15,7,,SE,0.25,mi,"TEMP, PRECIP, SNOW",,,"MMTS, SRG, SNOWBOARD",,,WFO CHS,,,,,,,,,,,,,,,,,,,,,,,,,,,29.97,75,84,T,,+0.06,6,74,29.97,FEW:02 18 SCT:04 30 BKN:07 70,29.92,10.00,78,150,,8,,,,,,,,,,,,,,,,,,,,,,,,,,,,,,,,,,,,,MET14607/21/13 15:56:02 METAR KCHS 212056Z 15007KT 10SM FEW018 SCT030 BKN070 29/24 A2997 RMK AO2 SLP149 CB DSNT SW-W MOV E 60032 T02890239 56020 $ (JRS),,,,,,,,,,,,,,,,,,,,,,,,,,,,
72208013880,2013-07-21T16:00:00,FM-12,4,,SE,0.25,mi,"TEMP, PRECIP, SNOW",,,"MMTS, SRG, SNOWBOARD",,,WFO CHS,,,,,,,,,,,,,,,,,,,,,,,,,,,,75,84,,,+0.06,6,74,29.97,,29.92,9.94,78,150,,8,,,,,,,,,,,,,,,,,,,,,,,,,,,,,,,,,,,,,SYN07072208 12466 61507 10289 20239 30133 40149 56020 60087 92056 555 92121=,,,,,,,,,,,,,,,,,,,,,,,,,,,,
72208013880,2013-07-25T15:56:00,FM-15,7,,SE,0.25,mi,"TEMP, PRECIP, SNOW",,,"MMTS, SRG, SNOWBOARD",,,WFO CHS,,,,,,,,,,,,,,,,,,,,,,,,,,,29.88,76,86,0.00,,+0.01,5,72,29.88,SCT:04 40 BKN:07 65 BKN:07 250,29.83,10.00,79,150,,9,,,,,,,,,,,,,,,,,,,,,,,,,,,,,,,,,,,,,MET14207/25/13 15:56:02 METAR KCHS 252056Z 15008KT 10SM SCT040TCU BKN065 BKN250 30/24 A2988 RMK AO2 SLP118 TCU SE-S TCU DSNT N T03000244 55002 (JMB),,,,,,,,,,,,,,,,,,,,,,,,,,,,
72208013880,2013-07-25T16:00:00,FM-12,4,,SE,0.25,mi,"TEMP, PRECIP, SNOW",,,"MMTS, SRG, SNOWBOARD",,,WFO CHS,,,,,,,,,,,,,,,,,,,,,,,,,,,,76,86,,,+0.01,5,72,29.88,,29.83,9.94,79,150,,9,,,,,,,,,,,,,,,,,,,,,,,,,,,,,,,,,,,,,SYN06472208 32666 61508 10300 20244 30102 40118 55002 92056 555 92521=,,,,,,,,,,,,,,,,,,,,,,,,,,,,
72208013880,2013-07-25T16:17:00,FM-16,7,,SE,0.25,mi,"TEMP, PRECIP, SNOW",,,"MMTS, SRG, SNOWBOARD",,,WFO CHS,,,,,,,,,,,,,,,,,,,,,,,,,,,29.89,75,88,,TS:7 |TS TS |,,,66,,SCT:04 45 BKN:07 60 BKN:07 250,29.84,10.00,79,150,,10,,,,,,,,,,,,,,,,,,,,,,,,,,,,,,,,,,,,,MET14107/25/13 16:17:02 SPECI KCHS 252117Z 15009KT 10SM TS SCT045CB BKN060 BKN250 31/24 A2989 RMK AO2 TSB16 OCNL LTGIC SE-S TS SE-S LTL MOVMT (JMB),,,,,,,,,,,,,,,,,,,,,,,,,,,,
72208013880,2013-07-27T11:56:00,FM-15,7,,SE,0.25,mi,"TEMP, PRECIP, SNOW",,,"MMTS, SRG, SNOWBOARD",,,WFO CHS,,,,,,,,,,,,,,,,,,,,,,,,,,,29.99,74,86,0.00,,,,67,29.99,FEW:02 24 BKN:07 34 BKN:07 48,29.94,10.00,78,150,,13,,,,,,,,,,,,,,,,,,,,,,,,,,,,,,,,,,,,,MET12607/27/13 11:56:02 METAR KCHS 271656Z 15011KT 10SM FEW024 BKN034 BKN048 30/23 A2999 RMK AO2 RAE1559 SLP155 P0000 T03000233 (TF),,,,,,,,,,,,,,,,,,,,,,,,,,,,
72208013880,2013-07-27T12:56:00,FM-15,7,,SE,0.25,mi,"TEMP, PRECIP, SNOW",,,"MMTS, SRG, SNOWBOARD",,,WFO CHS,,,,,,,,,,,,,,,,,,,,,,,,,,,29.97,73,87,0.00,,+0.04,8,63,29.96,SCT:04 30 SCT:04 90 BKN:07 250,29.92,10.00,77,170,17,8,,,,,,,,,,,,,,,,,,,,,,,,,,,,,,,,,,,,,MET13907/27/13 12:56:02 METAR KCHS 271756Z 17007G15KT 10SM SCT030 SCT090 BKN250 31/23 A2997 RMK AO2 SLP147 60005 T03060228 10311 20261 58015 (TF),,,,,,,,,,,,,,,,,,,,,,,,,,,,
72208013880,2013-07-27T13:00:00,FM-12,4,,SE,0.25,mi,"TEMP, PRECIP, SNOW",,,"MMTS, SRG, SNOWBOARD",,,WFO CHS,,,,,,,,,,,,,,,,,,,,,,,,,,,,73,87,,,+0.04,8,63,29.96,,29.92,9.94,77,170,,8,,,,,,,,,,,,,,,,,,,,,,,,,,,,,,,,,,,,,SYN09272208 12566 61707 10306 20228 30133 40147 58015 60011 91756 333 10311 20261 91015 555 92718=,,,,,,,,,,,,,,,,,,,,,,,,,,,,
72208013880,2013-07-27T13:56:00,FM-15,7,,SE,0.25,mi,"TEMP, PRECIP, SNOW",,,"MMTS, SRG, SNOWBOARD",,,WFO CHS,,,,,,,,,,,,,,,,,,,,,,,,,,,29.94,74,88,0.00,,,,63,29.94,SCT:04 30 SCT:04 90 BKN:07 250,29.89,10.00,78,170,,14,,,,,,,,,,,,,,,,,,,,,,,,,,,,,,,,,,,,,MET11207/27/13 13:56:02 METAR KCHS 271856Z 17012KT 10SM SCT030 SCT090 BKN250 31/23 A2994 RMK AO2 SLP138 T03110233 (TF),,,,,,,,,,,,,,,,,,,,,,,,,,,,
72208013880,2013-07-27T14:56:00,FM-15,7,,SE,0.25,mi,"TEMP, PRECIP, SNOW",,,"MMTS, SRG, SNOWBOARD",,,WFO CHS,,,,,,,,,,,,,,,,,,,,,,,,,,,29.93,73,88,0.00,,,,61,29.93,SCT:04 28 BKN:07 250,29.88,10.00,77,170,,10,,,,,,,,,,,,,,,,,,,,,,,,,,,,,,,,,,,,,MET10607/27/13 14:56:02 METAR KCHS 271956Z 17009KT 10SM SCT028 BKN250 31/23 A2993 RMK AO2 SLP135 T03110228 (JRS),,,,,,,,,,,,,,,,,,,,,,,,,,,,
72208013880,2013-07-27T15:56:00,FM-15,7,,SE,0.25,mi,"TEMP, PRECIP, SNOW",,,"MMTS, SRG, SNOWBOARD",,,WFO CHS,,,,,,,,,,,,,,,,,,,,,,,,,,,29.94,75,86,0.00,,+0.03,5,70,29.93,SCT:04 28 SCT:04 48 BKN:07 250,29.89,10.00,78,150,,11,,,,,,,,,,,,,,,,,,,,,,,,,,,,,,,,,,,,,MET11907/27/13 15:56:02 METAR KCHS 272056Z 15010KT 10SM SCT028 SCT048 BKN250 30/24 A2994 RMK AO2 SLP137 T03000239 55010 (JRS),,,,,,,,,,,,,,,,,,,,,,,,,,,,
72208013880,2013-07-27T16:00:00,FM-12,4,,SE,0.25,mi,"TEMP, PRECIP, SNOW",,,"MMTS, SRG, SNOWBOARD",,,WFO CHS,,,,,,,,,,,,,,,,,,,,,,,,,,,,75,86,,,+0.03,5,70,29.93,,29.89,9.94,78,150,,11,,,,,,,,,,,,,,,,,,,,,,,,,,,,,,,,,,,,,SYN06472208 32566 61510 10300 20239 30123 40137 55010 92056 555 92721=,,,,,,,,,,,,,,,,,,,,,,,,,,,,
72208013880,2013-07-27T16:56:00,FM-15,7,,SE,0.25,mi,"TEMP, PRECIP, SNOW",,,"MMTS, SRG, SNOWBOARD",,,WFO CHS,,,,,,,,,,,,,,,,,,,,,,,,,,,29.94,73,84,0.00,,,,70,29.93,FEW:02 22 SCT:04 32 BKN:07 250,29.89,10.00,76,150,,7,,,,,,,,,,,,,,,,,,,,,,,,,,,,,,,,,,,,,MET13307/27/13 16:56:02 METAR KCHS 272156Z 15006KT 10SM FEW022 SCT032 BKN250 29/23 A2994 RMK AO2 SLP137 CB DSNT W-NW MOV NE T02890228 (JRS),,,,,,,,,,,,,,,,,,,,,,,,,,,,
72208013880,2013-07-27T17:56:00,FM-15,7,,SE,0.25,mi,"TEMP, PRECIP, SNOW",,,"MMTS, SRG, SNOWBOARD",,,WFO CHS,,,,,,,,,,,,,,,,,,,,,,,,,,,29.93,74,83,0.00,,,,74,29.93,FEW:02 19 SCT:04 120 BKN:07 250,29.88,10.00,77,150,,11,,,,,,,,,,,,,,,,,,,,,,,,,,,,,,,,,,,,,MET11507/27/13 17:56:02 METAR KCHS 272256Z 15010KT 10SM FEW019 SCT120 BKN250 28/23 A2993 RMK AO2 SLP135 T02830233 $ (JRS),,,,,,,,,,,,,,,,,,,,,,,,,,,,
72208013880,2013-07-30T14:54:00,FM-16,6,,SE,0.25,mi,"TEMP, PRECIP, SNOW",,,"MMTS, SRG, SNOWBOARD",,,WFO CHS,,,,,,,,,,,,,,,,,,,,,,,,,,,30.13,73,79,,TS:7 -RA:02 |RA TS |,,,84,,SCT:04 25 BKN:07 35 BKN:07 95,30.08,10.00,75,160,,9,,,,,,,,,,,,,,,,,,,,,,,,,,,,,,,,,,,,,MET16407/30/13 14:54:02 SPECI KCHS 301954Z 16008KT 10SM -TSRA SCT025CB BKN035 BKN095 26/23 A3013 RMK AO2 TSB43RAB36 OCNL LTGIC OHD-SE TS OHD-SE LTL MOVMT P0000 FIBI (BBE),,,,,,,,,,,,,,,,,,,,,,,,,,,,
72208013880,2013-07-30T14:56:00,FM-15,7,,SE,0.25,mi,"TEMP, PRECIP, SNOW",,,"MMTS, SRG, SNOWBOARD",,,WFO CHS,,,,,,,,,,,,,,,,,,,,,,,,,,,30.13,73,80,T,TS:7 -RA:02 |RA TS TS |,,,79,30.13,SCT:04 25 BKN:07 35 BKN:07 95,30.08,10.00,75,170,,14,,,,,,,,,,,,,,,,,,,,,,,,,,,,,,,,,,,,,MET17607/30/13 14:56:02 METAR KCHS 301956Z 17012KT 10SM -TSRA SCT025CB BKN035 BKN095 27/23 A3013 RMK AO2 TSB43RAB36 SLP203 OCNL LTGIC OHD-SE TS OHD-SE LTL MOVMT P0000 T02670228 (BBE),,,,,,,,,,,,,,,,,,,,,,,,,,,,
72208013880,2013-07-30T15:26:00,FM-16,7,,SE,0.25,mi,"TEMP, PRECIP, SNOW",,,"MMTS, SRG, SNOWBOARD",,,WFO CHS,,,,,,,,,,,,,,,,,,,,,,,,,,,30.13,73,81,T,-RA:02 |RA |,,,79,,FEW:02 25 SCT:04 40 BKN:07 65,30.08,10.00,75,160,,11,,,,,,,,,,,,,,,,,,,,,,,,,,,,,,,,,,,,,MET14307/30/13 15:26:02 SPECI KCHS 302026Z 16010KT 10SM -RA FEW025 SCT040 BKN065 27/23 A3013 RMK AO2 TSE26 TS DSIPTD CB DSNT NW LTL MOVMT P0000 (BBE),,,,,,,,,,,,,,,,,,,,,,,,,,,,
72208013880,2013-07-30T16:56:00,FM-15,7,,SE,0.25,mi,"TEMP, PRECIP, SNOW",,,"MMTS, SRG, SNOWBOARD",,,WFO CHS,,,,,,,,,,,,,,,,,,,,,,,,,,,30.13,76,82,T,TS:7 |TS TS |,,,82,30.13,SCT:04 20 SCT:04 50 BKN:07 250,30.08,10.00,78,160,,8,,,,,,,,,,,,,,,,,,,,,,,,,,,,,,,,,,,,,MET16507/30/13 16:56:02 METAR KCHS 302156Z 16007KT 10SM TS SCT020CB SCT050 BKN250 28/24 A3013 RMK AO2 RAE10 SLP203 OCNL LTGIC S-SW TS S-SW MOVG SLO S P0000 T02780244 (BBE),,,,,,,,,,,,,,,,,,,,,,,,,,,,
72208013880,2013-07-30T17:07:00,FM-16,7,,SE,0.25,mi,"TEMP, PRECIP, SNOW",,,"MMTS, SRG, SNOWBOARD",,,WFO CHS,,,,,,,,,,,,,,,,,,,,,,,,,,,30.13,75,82,,,,,79,,FEW:02 20 SCT:04 55 SCT:04 250,30.08,10.00,77,150,,8,,,,,,,,,,,,,,,,,,,,,,,,,,,,,,,,,,,,,MET13307/30/13 17:07:02 SPECI KCHS 302207Z 15007KT 10SM FEW020 SCT055 SCT250 28/24 A3013 RMK AO2 TSE07 TS MOVD S CB DSNT S MOVG SLO S (BBE),,,,,,,,,,,,,,,,,,,,,,,,,,,,
72208013880,2013-08-02T13:56:00,FM-15,7,,SE,0.25,mi,"TEMP, PRECIP, SNOW",,,"MMTS, SRG, SNOWBOARD",,,WFO CHS,,,,,,,,,,,,,,,,,,,,,,,,,,,30.00,74,88,0.00,,,,63,30.00,SCT:04 30 SCT:04 50 BKN:07 250,29.95,10.00,78,170,,13,,,,,,,,,,,,,,,,,,,,,,,,,,,,,,,,,,,,,MET11208/02/13 13:56:02 METAR KCHS 021856Z 17011KT 10SM SCT030 SCT050 BKN250 31/23 A3000 RMK AO2 SLP160 T03110233 (DD),,,,,,,,,,,,,,,,,,,,,,,,,,,,
72208013880,2013-08-03T16:56:00,FM-15,7,,SE,0.25,mi,"TEMP, PRECIP, SNOW",,,"MMTS, SRG, SNOWBOARD",,,WFO CHS,,,,,,,,,,,,,,,,,,,,,,,,,,,29.95,74,88,0.00,,,,63,29.95,FEW:02 28 BKN:07 250,29.90,10.00,78,170,,8,,,,,,,,,,,,,,,,,,,,,,,,,,,,,,,,,,,,,MET10608/03/13 16:56:02 METAR KCHS 032156Z 17007KT 10SM FEW028 BKN250 31/23 A2995 RMK AO2 SLP141 T03110233 (JRS),,,,,,,,,,,,,,,,,,,,,,,,,,,,
72208013880,2013-08-06T11:56:00,FM-15,7,,SE,0.25,mi,"TEMP, PRECIP, SNOW",,,"MMTS, SRG, SNOWBOARD",,,WFO CHS,,,,,,,,,,,,,,,,,,,,,,,,,,,30.05,68,87,0.00,,,,53,30.05,FEW:02 40 SCT:04 80 SCT:04 200,30.00,10.00,74,160,,7,,,,,,,,,,,,,,,,,,,,,,,,,,,,,,,,,,,,,MET11208/06/13 11:56:02 METAR KCHS 061656Z 16006KT 10SM FEW040 SCT080 SCT200 31/20 A3005 RMK AO2 SLP176 T03060200 (DD),,,,,,,,,,,,,,,,,,,,,,,,,,,,
72208013880,2013-08-06T13:56:00,FM-15,7,,SE,0.25,mi,"TEMP, PRECIP, SNOW",,,"MMTS, SRG, SNOWBOARD",,,WFO CHS,,,,,,,,,,,,,,,,,,,,,,,,,,,30.04,68,85,0.00,,,,57,30.03,FEW:02 40 SCT:04 80 SCT:04 250,29.99,10.00,74,160,,9,,,,,,,,,,,,,,,,,,,,,,,,,,,,,,,,,,,,,MET11208/06/13 13:56:02 METAR KCHS 061856Z 16008KT 10SM FEW040 SCT080 SCT250 29/20 A3004 RMK AO2 SLP170 T02940200 (DD),,,,,,,,,,,,,,,,,,,,,,,,,,,,
72208013880,2013-08-06T15:56:00,FM-15,7,,SE,0.25,mi,"TEMP, PRECIP, SNOW",,,"MMTS, SRG, SNOWBOARD",,,WFO CHS,,,,,,,,,,,,,,,,,,,,,,,,,,,30.03,68,84,0.00,,+0.01,5,59,30.02,FEW:02 40 BKN:07 70 BKN:07 150,29.98,10.00,73,150,,11,,,,,,,,,,,,,,,,,,,,,,,,,,,,,,,,,,,,,MET11908/06/13 15:56:02 METAR KCHS 062056Z 15010KT 10SM FEW040 BKN070 BKN150 29/20 A3003 RMK AO2 SLP167 T02890200 55005 (BBE),,,,,,,,,,,,,,,,,,,,,,,,,,,,
72208013880,2013-08-06T16:00:00,FM-12,4,,SE,0.25,mi,"TEMP, PRECIP, SNOW",,,"MMTS, SRG, SNOWBOARD",,,WFO CHS,,,,,,,,,,,,,,,,,,,,,,,,,,,,68,84,,,+0.01,5,59,30.02,,29.98,9.94,73,150,,11,,,,,,,,,,,,,,,,,,,,,,,,,,,,,,,,,,,,,SYN06472208 32666 61510 10289 20200 30153 40167 55005 92056 555 90621=,,,,,,,,,,,,,,,,,,,,,,,,,,,,
72208013880,2013-08-18T15:56:00,FM-15,7,,SE,0.25,mi,"TEMP, PRECIP, SNOW",,,"MMTS, SRG, SNOWBOARD",,,WFO CHS,,,,,,,,,,,,,,,,,,,,,,,,,,,30.12,71,88,0.00,,+0.04,6,57,30.12,FEW:02 38 SCT:04 250,30.07,10.00,76,150,,10,,,,,,,,,,,,,,,,,,,,,,,,,,,,,,,,,,,,,MET13208/18/13 15:56:02 METAR KCHS 182056Z 15009KT 10SM FEW038 SCT250 31/22 A3012 RMK AO2 SLP199 CB DSNT NW-N MOV NE T03110217 56013 (JRS),,,,,,,,,,,,,,,,,,,,,,,,,,,,
72208013880,2013-08-18T16:00:00,FM-12,4,,SE,0.25,mi,"TEMP, PRECIP, SNOW",,,"MMTS, SRG, SNOWBOARD",,,WFO CHS,,,,,,,,,,,,,,,,,,,,,,,,,,,,71,88,,,+0.04,6,57,30.12,,30.07,9.94,76,150,,10,,,,,,,,,,,,,,,,,,,,,,,,,,,,,,,,,,,,,SYN06472208 32666 41509 10311 20217 30184 40199 56013 92056 555 91821=,,,,,,,,,,,,,,,,,,,,,,,,,,,,
72208013880,2013-08-27T15:56:00,FM-15,7,,SE,0.25,mi,"TEMP, PRECIP, SNOW",,,"MMTS, SRG, SNOWBOARD",,,WFO CHS,,,,,,,,,,,,,,,,,,,,,,,,,,,30.03,66,83,0.00,,+0.04,6,57,30.03,SCT:04 50 BKN:07 60 BKN:07 250,29.98,10.00,72,160,,9,,,,,,,,,,,,,,,,,,,,,,,,,,,,,,,,,,,,,MET11908/27/13 15:56:02 METAR KCHS 272056Z 16008KT 10SM SCT050 BKN060 BKN250 28/19 A3003 RMK AO2 SLP169 T02830189 56014 (BBE),,,,,,,,,,,,,,,,,,,,,,,,,,,,
72208013880,2013-08-27T16:00:00,FM-12,4,,SE,0.25,mi,"TEMP, PRECIP, SNOW",,,"MMTS, SRG, SNOWBOARD",,,WFO CHS,,,,,,,,,,,,,,,,,,,,,,,,,,,,66,83,,,+0.04,6,57,30.03,,29.98,9.94,72,160,,9,,,,,,,,,,,,,,,,,,,,,,,,,,,,,,,,,,,,,SYN06472208 32766 61608 10283 20189 30153 40169 56014 92056 555 92721=,,,,,,,,,,,,,,,,,,,,,,,,,,,,
72208013880,2013-09-01T13:56:00,FM-15,7,,SE,0.25,mi,"TEMP, PRECIP, SNOW",,,"MMTS, SRG, SNOWBOARD",,,WFO CHS,,,,,,,,,,,,,,,,,,,,,,,,,,,29.90,74,90,0.00,,,,59,29.90,SCT:04 42,29.85,10.00,79,170,,10,,,,,,,,,,,,,,,,,,,,,,,,,,,,,,,,,,,,,MET10009/01/13 13:56:02 METAR KCHS 011856Z 17009KT 10SM SCT042 32/23 A2990 RMK AO2 SLP125 T03220233 $ (TF),,,,,,,,,,,,,,,,,,,,,,,,,,,,
72208013880,2013-09-02T14:56:00,FM-15,7,,SE,0.25,mi,"TEMP, PRECIP, SNOW",,,"MMTS, SRG, SNOWBOARD",,,WFO CHS,,,,,,,,,,,,,,,,,,,,,,,,,,,29.89,76,86,T,TS:7 |TS TS |,,,72,29.88,SCT:04 35 BKN:07 45 BKN:07 70,29.84,10.00,79,150,,14,,,,,,,,,,,,,,,,,,,,,,,,,,,,,,,,,,,,,MET17109/02/13 14:56:02 METAR KCHS 021956Z 15012KT 10SM TS SCT035CB BKN045 BKN070 30/24 A2989 RMK AO2 TSB00RAE11 SLP119 OCNL LTGIC NE-SE TS NE-SE MOVG NE P0000 T03000244 $ (JMB),,,,,,,,,,,,,,,,,,,,,,,,,,,,
72208013880,2013-09-02T15:56:00,FM-15,7,,SE,0.25,mi,"TEMP, PRECIP, SNOW",,,"MMTS, SRG, SNOWBOARD",,,WFO CHS,,,,,,,,,,,,,,,,,,,,,,,,,,,29.86,73,85,0.00,,+0.05,8,68,29.86,SCT:04 35 SCT:04 60 BKN:07 250,29.81,10.00,77,160,,14,,,,,,,,,,,,,,,,,,,,,,,,,,,,,,,,,,,,,MET13309/02/13 15:56:02 METAR KCHS 022056Z 16012KT 10SM SCT035 SCT060 BKN250 29/23 A2986 RMK AO2 TSE28 SLP112 60004 T02940228 58016 $ (JMB),,,,,,,,,,,,,,,,,,,,,,,,,,,,
72208013880,2013-09-02T16:00:00,FM-12,4,,SE,0.25,mi,"TEMP, PRECIP, SNOW",,,"MMTS, SRG, SNOWBOARD",,,WFO CHS,,,,,,,,,,,,,,,,,,,,,,,,,,,,73,85,,,+0.05,8,68,29.86,,29.81,9.94,77,160,,14,,,,,,,,,,,,,,,,,,,,,,,,,,,,,,,,,,,,,SYN07072208 12666 61612 10294 20228 30096 40112 58016 60017 92056 555 90221=,,,,,,,,,,,,,,,,,,,,,,,,,,,,
72208013880,2013-09-04T17:26:00,FM-16,7,,SE,0.25,mi,"TEMP, PRECIP, SNOW",,,"MMTS, SRG, SNOWBOARD",,,WFO CHS,,,,,,,,,,,,,,,,,,,,,,,,,,,30.01,72,81,0.66,-RA:02 |RA |,,,74,,SCT:04 15 BKN:07 35 BKN:07 60,29.96,4.00,75,150,17,11,,,,,,,,,,,,,,,,,,,,,,,,,,,,,,,,,,,,,MET12709/04/13 17:26:02 SPECI KCHS 042226Z 15010G15KT 4SM -RA SCT015 BKN035 BKN060 27/22 A3001 RMK AO2 MDT CU N AND SE-SW P0066 (JMB),,,,,,,,,,,,,,,,,,,,,,,,,,,,
72208013880,2013-09-09T11:56:00,FM-15,7,,SE,0.25,mi,"TEMP, PRECIP, SNOW",,,"MMTS, SRG, SNOWBOARD",,,WFO CHS,,,,,,,,,,,,,,,,,,,,,,,,,,,30.09,71,88,0.00,,,,57,30.09,FEW:02 35 SCT:04 70 SCT:04 100,30.04,10.00,76,150,,8,,,,,,,,,,,,,,,,,,,,,,,,,,,,,,,,,,,,,MET11209/09/13 11:56:02 METAR KCHS 091656Z 15007KT 10SM FEW035 SCT070 SCT100 31/22 A3009 RMK AO2 SLP188 T03110217 (DD),,,,,,,,,,,,,,,,,,,,,,,,,,,,
72208013880,2013-09-16T16:37:00,FM-16,7,,SE,0.25,mi,"TEMP, PRECIP, SNOW",,,"MMTS, SRG, SNOWBOARD",,,WFO CHS,,,,,,,,,,,,,,,,,,,,,,,,,,,30.10,68,72,0.68,TS:7 +RA:02 |RA TS TS |,,,88,,SCT:04 5 BKN:07 15 OVC:08 25,30.05,1.00,69,170,39,15,,,,,,,,,,,,,,,,,,,,,,,,,,,,,,,,,,,,,MET18009/16/13 16:37:02 SPECI KCHS 162137Z 17013G34KT 1SM +TSRA SCT005 BKN015 OVC025CB 22/20 A3010 RMK AO2 PK WND 20035/2127 TSB16RAB27 PRESRR CONS LTGICCA OHD TS OHD MOVG SE P0068 (JMB),,,,,,,,,,,,,,,,,,,,,,,,,,,,
72208013880,2013-09-19T16:56:00,FM-15,7,,SE,0.25,mi,"TEMP, PRECIP, SNOW",,,"MMTS, SRG, SNOWBOARD",,,WFO CHS,,,,,,,,,,,,,,,,,,,,,,,,,,,30.09,65,79,0.00,,,,62,30.09,SCT:04 55 SCT:04 250,30.04,10.00,70,160,,9,,,,,,,,,,,,,,,,,,,,,,,,,,,,,,,,,,,,,MET10609/19/13 16:56:02 METAR KCHS 192156Z 16008KT 10SM SCT055 SCT250 26/18 A3009 RMK AO2 SLP188 T02610183 (JMB),,,,,,,,,,,,,,,,,,,,,,,,,,,,
72208013880,2013-09-19T17:56:00,FM-15,7,,SE,0.25,mi,"TEMP, PRECIP, SNOW",,,"MMTS, SRG, SNOWBOARD",,,WFO CHS,,,,,,,,,,,,,,,,,,,,,,,,,,,30.10,65,78,0.00,,,,64,30.09,BKN:07 50 BKN:07 250,30.05,10.00,70,150,,8,,,,,,,,,,,,,,,,,,,,,,,,,,,,,,,,,,,,,MET10609/19/13 17:56:02 METAR KCHS 192256Z 15007KT 10SM BKN050 BKN250 26/18 A3010 RMK AO2 SLP191 T02560183 (JMB),,,,,,,,,,,,,,,,,,,,,,,,,,,,
72208013880,2013-09-20T14:56:00,FM-15,7,,SE,0.25,mi,"TEMP, PRECIP, SNOW",,,"MMTS, SRG, SNOWBOARD",,,WFO CHS,,,,,,,,,,,,,,,,,,,,,,,,,,,29.99,65,83,0.00,,,,55,29.98,BKN:07 40 BKN:07 55,29.94,10.00,71,150,,11,,,,,,,,,,,,,,,,,,,,,,,,,,,,,,,,,,,,,MET10609/20/13 14:56:02 METAR KCHS 201956Z 15010KT 10SM BKN040 BKN055 28/18 A2999 RMK AO2 SLP154 T02830183 (JMB),,,,,,,,,,,,,,,,,,,,,,,,,,,,
72208013880,2013-09-20T15:56:00,FM-15,7,,SE,0.25,mi,"TEMP, PRECIP, SNOW",,,"MMTS, SRG, SNOWBOARD",,,WFO CHS,,,,,,,,,,,,,,,,,,,,,,,,,,,29.98,63,82,0.00,,+0.05,6,53,29.98,FEW:02 40 BKN:07 120 BKN:07 250,29.93,10.00,70,160,,9,,,,,,,,,,,,,,,,,,,,,,,,,,,,,,,,,,,,,MET12909/20/13 15:56:02 METAR KCHS 202056Z 16008KT 10SM FEW040 BKN120 BKN250 28/17 A2998 RMK AO2 SLP152 MDT CU NW T02780172 56017 (JMB),,,,,,,,,,,,,,,,,,,,,,,,,,,,
72208013880,2013-09-20T16:00:00,FM-12,4,,SE,0.25,mi,"TEMP, PRECIP, SNOW",,,"MMTS, SRG, SNOWBOARD",,,WFO CHS,,,,,,,,,,,,,,,,,,,,,,,,,,,,63,82,,,+0.05,6,53,29.98,,29.93,9.94,70,160,,9,,,,,,,,,,,,,,,,,,,,,,,,,,,,,,,,,,,,,SYN06472208 32666 61608 10278 20172 30136 40152 56017 92056 555 92021=,,,,,,,,,,,,,,,,,,,,,,,,,,,,
72208013880,2013-10-04T16:56:00,FM-15,7,,SE,0.25,mi,"TEMP, PRECIP, SNOW",,,"MMTS, SRG, SNOWBOARD",,,WFO CHS,,,,,,,,,,,,,,,,,,,,,,,,,,,30.08,69,80,0.00,,,,69,30.07,FEW:02 50 SCT:04 60,30.03,10.00,73,150,,9,,,,,,,,,,,,,,,,,,,,,,,,,,,,,,,,,,,,,MET10610/04/13 16:56:02 METAR KCHS 042156Z 15008KT 10SM FEW050 SCT060 27/21 A3008 RMK AO2 SLP184 T02670206 (BBE),,,,,,,,,,,,,,,,,,,,,,,,,,,,
72208013880,2013-10-06T11:56:00,FM-15,7,,SE,0.25,mi,"TEMP, PRECIP, SNOW",,,"MMTS, SRG, SNOWBOARD",,,WFO CHS,,,,,,,,,,,,,,,,,,,,,,,,,,,30.01,74,79,0.03,-RA:02 |RA |,,,85,30.01,SCT:04 38 BKN:07 50 BKN:07 70,29.96,7.00,76,170,,7,,,,,,,,,,,,,,,,,,,,,,,,,,,,,,,,,,,,,MET14710/06/13 11:56:02 METAR KCHS 061656Z 17006KT 7SM -RA SCT038TCU BKN050 BKN070 26/23 A3001 RMK AO2 RAE16B32 SLP161 TCU N-E AND S P0003 T02610233 (TF),,,,,,,,,,,,,,,,,,,,,,,,,,,,
72208013880,2013-10-06T17:56:00,FM-15,7,,SE,0.25,mi,"TEMP, PRECIP, SNOW",,,"MMTS, SRG, SNOWBOARD",,,WFO CHS,,,,,,,,,,,,,,,,,,,,,,,,,,,29.94,71,78,0.00,,,,79,29.93,FEW:02 27 SCT:04 110 BKN:07 200,29.89,10.00,73,150,,9,,,,,,,,,,,,,,,,,,,,,,,,,,,,,,,,,,,,,MET11310/06/13 17:56:02 METAR KCHS 062256Z 15008KT 10SM FEW027 SCT110 BKN200 26/22 A2994 RMK AO2 SLP137 T02560217 (JRS),,,,,,,,,,,,,,,,,,,,,,,,,,,,
72208013880,2013-10-07T12:56:00,FM-15,7,,SE,0.25,mi,"TEMP, PRECIP, SNOW",,,"MMTS, SRG, SNOWBOARD",,,WFO CHS,,,,,,,,,,,,,,,,,,,,,,,,,,,29.85,75,80,T,,+0.04,6,85,29.85,SCT:04 10 BKN:07 35 BKN:07 100,29.80,10.00,77,150,,8,,,,,,,,,,,,,,,,,,,,,,,,,,,,,,,,,,,,,MET17710/07/13 12:56:02 METAR KCHS 071756Z 15007KT 10SM SCT010 BKN035 BKN100 27/24 A2985 RMK AO2 RAE12B32E55 SLP107 SCT V BKN TCU DSNT W-N P0001 60056 T02670239 10278 20239 56014 (DD),,,,,,,,,,,,,,,,,,,,,,,,,,,,
72208013880,2013-10-07T13:00:00,FM-12,4,,SE,0.25,mi,"TEMP, PRECIP, SNOW",,,"MMTS, SRG, SNOWBOARD",,,WFO CHS,,,,,,,,,,,,,,,,,,,,,,,,,,,,75,80,,,+0.04,6,85,29.85,,29.80,9.94,77,150,,8,,,,,,,,,,,,,,,,,,,,,,,,,,,,,,,,,,,,,SYN08672208 12466 61507 10267 20239 30092 40107 56014 60141 91756 333 10278 20239 555 90718=,,,,,,,,,,,,,,,,,,,,,,,,,,,,
72208013880,2013-10-17T15:56:00,FM-15,7,,SE,0.25,mi,"TEMP, PRECIP, SNOW",,,"MMTS, SRG, SNOWBOARD",,,WFO CHS,,,,,,,,,,,,,,,,,,,,,,,,,,,29.90,66,81,0.00,,+0.03,6,61,29.90,FEW:02 30 SCT:04 200,29.85,10.00,71,170,,11,,,,,,,,,,,,,,,,,,,,,,,,,,,,,,,,,,,,,MET11210/17/13 15:56:02 METAR KCHS 172056Z 17010KT 10SM FEW030 SCT200 27/19 A2990 RMK AO2 SLP124 T02720189 56011 (BBE),,,,,,,,,,,,,,,,,,,,,,,,,,,,
72208013880,2013-10-17T16:00:00,FM-12,4,,SE,0.25,mi,"TEMP, PRECIP, SNOW",,,"MMTS, SRG, SNOWBOARD",,,WFO CHS,,,,,,,,,,,,,,,,,,,,,,,,,,,,66,81,,,+0.03,6,61,29.90,,29.85,9.94,71,170,,11,,,,,,,,,,,,,,,,,,,,,,,,,,,,,,,,,,,,,SYN06472208 32566 41710 10272 20189 30109 40124 56011 92056 555 91721=,,,,,,,,,,,,,,,,,,,,,,,,,,,,
72208013880,2013-10-29T16:56:00,FM-15,7,,SE,0.25,mi,"TEMP, PRECIP, SNOW",,,"MMTS, SRG, SNOWBOARD",,,WFO CHS,,,,,,,,,,,,,,,,,,,,,,,,,,,30.26,58,70,0.00,,,,66,30.26,FEW:02 55 SCT:04 70,30.21,10.00,63,150,,7,,,,,,,,,,,,,,,,,,,,,,,,,,,,,,,,,,,,,MET10610/29/13 16:56:02 METAR KCHS 292156Z 15006KT 10SM FEW055 SCT070 21/14 A3026 RMK AO2 SLP247 T02110144 (BBE),,,,,,,,,,,,,,,,,,,,,,,,,,,,
72208013880,2013-10-30T16:56:00,FM-15,7,,SE,0.25,mi,"TEMP, PRECIP, SNOW",,,"MMTS, SRG, SNOWBOARD",,,WFO CHS,,,,,,,,,,,,,,,,,,,,,,,,,,,30.21,58,72,0.00,,,,61,30.21,FEW:02 50 BKN:07 250,30.16,10.00,64,150,,8,,,,,,,,,,,,,,,,,,,,,,,,,,,,,,,,,,,,,MET10610/30/13 16:56:02 METAR KCHS 302156Z 15007KT 10SM FEW050 BKN250 22/14 A3021 RMK AO2 SLP230 T02220144 (BBE),,,,,,,,,,,,,,,,,,,,,,,,,,,,
72208013880,2013-10-31T14:56:00,FM-15,7,,SE,0.25,mi,"TEMP, PRECIP, SNOW",,,"MMTS, SRG, SNOWBOARD",,,WFO CHS,,,,,,,,,,,,,,,,,,,,,,,,,,,30.07,63,79,0.00,,,,58,30.07,FEW:02 35 SCT:04 60 SCT:04 250,30.02,10.00,69,170,,10,,,,,,,,,,,,,,,,,,,,,,,,,,,,,,,,,,,,,MET11310/31/13 14:56:02 METAR KCHS 311956Z 17009KT 10SM FEW035 SCT060 SCT250 26/17 A3007 RMK AO2 SLP182 T02610172 (BBE),,,,,,,,,,,,,,,,,,,,,,,,,,,,
72208013880,2013-10-31T17:56:00,FM-15,7,,SE,0.25,mi,"TEMP, PRECIP, SNOW",,,"MMTS, SRG, SNOWBOARD",,,WFO CHS,,,,,,,,,,,,,,,,,,,,,,,,,,,30.03,65,74,0.00,,,,74,30.03,FEW:02 40 BKN:07 250,29.98,10.00,68,160,,7,,,,,,,,,,,,,,,,,,,,,,,,,,,,,,,,,,,,,MET10610/31/13 17:56:02 METAR KCHS 312256Z 16006KT 10SM FEW040 BKN250 23/18 A3003 RMK AO2 SLP169 T02330183 (BBE),,,,,,,,,,,,,,,,,,,,,,,,,,,,
72208013880,2013-11-17T14:56:00,FM-15,7,,SE,0.25,mi,"TEMP, PRECIP, SNOW",,,"MMTS, SRG, SNOWBOARD",,,WFO CHS,,,,,,,,,,,,,,,,,,,,,,,,,,,30.03,69,74,0.08,-RA:02 |RA |,,,85,30.03,FEW:02 16 BKN:07 28 OVC:08 60,29.98,4.00,71,170,,10,,,,,,,,,,,,,,,,,,,,,,,,,,,,,,,,,,,,,MET14011/17/13 14:56:02 METAR KCHS 171956Z 17009KT 4SM -RA FEW016 BKN028TCU OVC060 23/21 A3003 RMK AO2 RAE29B55 SLP168 TCU NW P0008 T02330206 (TF),,,,,,,,,,,,,,,,,,,,,,,,,,,,
72208013880,2013-11-22T10:56:00,FM-15,7,,SE,0.25,mi,"TEMP, PRECIP, SNOW",,,"MMTS, SRG, SNOWBOARD",,,WFO CHS,,,,,,,,,,,,,,,,,,,,,,,,,,,30.30,63,73,0.00,,,,71,30.29,FEW:02 25 SCT:04 50 SCT:04 65,30.25,10.00,67,150,,7,,,,,,,,,,,,,,,,,,,,,,,,,,,,,,,,,,,,,MET11211/22/13 10:56:02 METAR KCHS 221556Z 15006KT 10SM FEW025 SCT050 SCT065 23/17 A3030 RMK AO2 SLP259 T02280172 (DD),,,,,,,,,,,,,,,,,,,,,,,,,,,,
72208013880,2013-11-26T12:56:00,FM-15,7,,SE,0.25,mi,"TEMP, PRECIP, SNOW",,,"MMTS, SRG, SNOWBOARD",,,WFO CHS,,,,,,,,,,,,,,,,,,,,,,,,,,,29.92,64,67,0.06,-RA:02 BR:1 |RA |,+0.11,8,91,29.92,SCT:04 20 BKN:07 35 OVC:08 50,29.87,5.00,65,160,,11,,,,,,,,,,,,,,,,,,,,,,,,,,,,,,,,,,,,,MET14811/26/13 12:56:02 METAR KCHS 261756Z 16010KT 5SM -RA BR SCT020 BKN035 OVC050 19/18 A2992 RMK AO2 SLP132 P0006 60009 T01940178 10200 20094 58037 (DD),,,,,,,,,,,,,,,,,,,,,,,,,,,,
72208013880,2013-11-26T13:00:00,FM-12,4,,SE,0.25,mi,"TEMP, PRECIP, SNOW",,,"MMTS, SRG, SNOWBOARD",,,WFO CHS,,,,,,,,,,,,,,,,,,,,,,,,,,,,64,67,,||RA,+0.11,8,91,29.92,,29.87,4.97,65,160,,11,,,,,,,,,,,,,,,,,,,,,,,,,,,,,,,,,,,,,SYN09872208 11558 81610 10194 20178 30116 40132 58037 60021 761// 91756 333 10200 20089 96010 555 92618=,,,,,,,,,,,,,,,,,,,,,,,,,,,,
72208013880,2013-11-26T13:33:00,FM-16,7,,SE,0.25,mi,"TEMP, PRECIP, SNOW",,,"MMTS, SRG, SNOWBOARD",,,WFO CHS,,,,,,,,,,,,,,,,,,,,,,,,,,,29.89,64,66,0.10,RA:02 BR:1 |RA |,,,94,,SCT:04 10 BKN:07 25 OVC:08 40,29.84,3.00,65,150,,14,,,,,,,,,,,,,,,,,,,,,,,,,,,,,,,,,,,,,MET12311/26/13 13:33:02 SPECI KCHS 261833Z 15012KT 3SM R15/5500VP6000FT RA BR SCT010 BKN025 OVC040 19/18 A2989 RMK AO2 P0010 (DD),,,,,,,,,,,,,,,,,,,,,,,,,,,,
72208013880,2013-11-26T14:37:00,FM-16,7,,SE,0.25,mi,"TEMP, PRECIP, SNOW",,,"MMTS, SRG, SNOWBOARD",,,WFO CHS,,,,,,,,,,,,,,,,,,,,,,,,,,,29.83,64,68,0.27,RA:02 BR:1 |RA |,,,88,,BKN:07 6 OVC:08 15,29.78,1.50,66,150,25,17,,,,,,,,,,,,,,,,,,,,,,,,,,,,,,,,,,,,,MET13311/26/13 14:37:02 SPECI KCHS 261937Z 15015G22KT 1 1/2SM R15/4500VP6000FT RA BR BKN006 OVC015 20/18 A2983 RMK AO2 RAB1854 P0027 $ (DD),,,,,,,,,,,,,,,,,,,,,,,,,,,,
72208013880,2013-11-26T14:52:00,FM-16,7,,SE,0.25,mi,"TEMP, PRECIP, SNOW",,,"MMTS, SRG, SNOWBOARD",,,WFO CHS,,,,,,,,,,,,,,,,,,,,,,,,,,,29.81,66,68,0.33,-RA:02 BR:1 |RA |,,,94,,BKN:07 8 BKN:07 15 OVC:08 20,29.76,3.00,67,150,24,16,,,,,,,,,,,,,,,,,,,,,,,,,,,,,,,,,,,,,MET12011/26/13 14:52:02 SPECI KCHS 261952Z 15014G21KT 3SM -RA BR BKN008 BKN015 OVC020 20/19 A2981 RMK AO2 RAB1854 P0033 $ (DD),,,,,,,,,,,,,,,,,,,,,,,,,,,,
72208013880,2013-11-26T14:56:00,FM-15,7,,SE,0.25,mi,"TEMP, PRECIP, SNOW",,,"MMTS, SRG, SNOWBOARD",,,WFO CHS,,,,,,,,,,,,,,,,,,,,,,,,,,,29.80,66,68,0.17,-RA:02 BR:1 |RA |,,,93,29.80,BKN:07 8 BKN:07 15 OVC:08 20,29.75,4.00,67,150,24,15,,,,,,,,,,,,,,,,,,,,,,,,,,,,,,,,,,,,,MET13711/26/13 14:56:02 METAR KCHS 261956Z 15013G21KT 4SM -RA BR BKN008 BKN015 OVC020 20/19 A2980 RMK AO2 RAB1854 SLP092 P0033 T02000189 $ (DD),,,,,,,,,,,,,,,,,,,,,,,,,,,,
72208013880,2013-11-26T15:33:00,FM-16,7,,SE,0.25,mi,"TEMP, PRECIP, SNOW",,,"MMTS, SRG, SNOWBOARD",,,WFO CHS,,,,,,,,,,,,,,,,,,,,,,,,,,,29.77,66,70,0.04,RA:02 BR:1 |RA |,,,88,,BKN:07 8 OVC:08 15,29.72,2.00,67,150,24,16,,,,,,,,,,,,,,,,,,,,,,,,,,,,,,,,,,,,,MET12211/26/13 15:33:02 SPECI KCHS 262033Z 15014G21KT 2SM R15/6000VP6000FT RA BR BKN008 OVC015 21/19 A2977 RMK AO2 P0004 $ (JMB),,,,,,,,,,,,,,,,,,,,,,,,,,,,
72208013880,2013-11-26T15:56:00,FM-15,7,,SE,0.25,mi,"TEMP, PRECIP, SNOW",,,"MMTS, SRG, SNOWBOARD",,,WFO CHS,,,,,,,,,,,,,,,,,,,,,,,,,,,29.76,67,70,0.25,+RA:02 BR:1 |RA |,,,90,29.76,BKN:07 8 OVC:08 15,29.71,1.50,68,160,28,17,,,,,,,,,,,,,,,,,,,,,,,,,,,,,,,,,,,,,MET15011/26/13 15:56:02 METAR KCHS 262056Z 16015G24KT 1 1/2SM R15/4500VP6000FT +RA BR BKN008 OVC015 21/19 A2976 RMK AO2 SLP077 P0021 60060 T02110194 $ (JMB),,,,,,,,,,,,,,,,,,,,,,,,,,,,
72208013880,2013-11-26T16:00:00,FM-12,4,,SE,0.25,mi,"TEMP, PRECIP, SNOW",,,"MMTS, SRG, SNOWBOARD",,,WFO CHS,,,,,,,,,,,,,,,,,,,,,,,,,,,,67,70,,||RA,,,90,29.76,,29.71,1.49,68,160,,17,,,,,,,,,,,,,,,,,,,,,,,,,,,,,,,,,,,,,SYN08672208 11324 81615 10211 20194 30062 40077 60157 765// 92056 333 91024 96010 555 92621=,,,,,,,,,,,,,,,,,,,,,,,,,,,,
72208013880,2013-11-26T17:38:00,FM-16,7,,SE,0.25,mi,"TEMP, PRECIP, SNOW",,,"MMTS, SRG, SNOWBOARD",,,WFO CHS,,,,,,,,,,,,,,,,,,,,,,,,,,,29.76,68,70,0.56,+RA:02 BR:1 |RA |,,,94,,BKN:07 8 OVC:08 15,29.71,1.00,69,170,16,13,,,,,,,,,,,,,,,,,,,,,,,,,,,,,,,,,,,,,MET13411/26/13 17:38:02 SPECI KCHS 262238Z 17011G14KT 1SM R15/3500VP6000FT +RA BR BKN008 OVC015 21/20 A2976 RMK AO2 TSB2158E31 P0056 $ (JMB),,,,,,,,,,,,,,,,,,,,,,,,,,,,
72208013880,2013-12-03T16:56:00,FM-15,7,,SE,0.25,mi,"TEMP, PRECIP, SNOW",,,"MMTS, SRG, SNOWBOARD",,,WFO CHS,,,,,,,,,,,,,,,,,,,,,,,,,,,29.95,51,64,0.00,,,,63,29.95,BKN:07 110 BKN:07 200,29.90,10.00,57,170,,8,,,,,,,,,,,,,,,,,,,,,,,,,,,,,,,,,,,,,MET10612/03/13 16:56:02 METAR KCHS 032156Z 17007KT 10SM BKN110 BKN200 18/11 A2995 RMK AO2 SLP142 T01780106 (BBE),,,,,,,,,,,,,,,,,,,,,,,,,,,,
72208013880,2013-12-03T17:56:00,FM-15,7,,SE,0.25,mi,"TEMP, PRECIP, SNOW",,,"MMTS, SRG, SNOWBOARD",,,WFO CHS,,,,,,,,,,,,,,,,,,,,,,,,,,,29.96,52,60,0.00,,,,75,29.96,SCT:04 100 BKN:07 150,29.91,10.00,56,150,,7,,,,,,,,,,,,,,,,,,,,,,,,,,,,,,,,,,,,,MET10612/03/13 17:56:02 METAR KCHS 032256Z 15006KT 10SM SCT100 BKN150 16/11 A2996 RMK AO2 SLP146 T01560111 (BBE),,,,,,,,,,,,,,,,,,,,,,,,,,,,
72208013880,2013-12-14T10:56:00,FM-15,7,,SE,0.25,mi,"TEMP, PRECIP, SNOW",,,"MMTS, SRG, SNOWBOARD",,,WFO CHS,,,,,,,,,,,,,,,,,,,,,,,,,,,30.09,58,66,0.00,,,,75,30.09,FEW:02 90 BKN:07 150 BKN:07 250,30.04,10.00,61,150,,7,,,,,,,,,,,,,,,,,,,,,,,,,,,,,,,,,,,,,MET11212/14/13 10:56:02 METAR KCHS 141556Z 15006KT 10SM FEW090 BKN150 BKN250 19/14 A3009 RMK AO2 SLP189 T01890144 (TF),,,,,,,,,,,,,,,,,,,,,,,,,,,,
72208013880,2013-12-14T11:56:00,FM-15,7,,SE,0.25,mi,"TEMP, PRECIP, SNOW",,,"MMTS, SRG, SNOWBOARD",,,WFO CHS,,,,,,,,,,,,,,,,,,,,,,,,,,,30.03,59,70,0.00,,,,68,30.02,BKN:07 48 OVC:08 60,29.98,10.00,63,150,23,16,,,,,,,,,,,,,,,,,,,,,,,,,,,,,,,,,,,,,MET10812/14/13 11:56:02 METAR KCHS 141656Z 15014G20KT 10SM BKN048 OVC060 21/15 A3003 RMK AO2 SLP167 T02110150 (TF),,,,,,,,,,,,,,,,,,,,,,,,,,,,
72208013880,2013-12-14T12:56:00,FM-15,7,,SE,0.25,mi,"TEMP, PRECIP, SNOW",,,"MMTS, SRG, SNOWBOARD",,,WFO CHS,,,,,,,,,,,,,,,,,,,,,,,,,,,29.97,61,68,0.01,-RA:02 |RA |,+0.17,8,78,29.96,BKN:07 39 OVC:08 50,29.92,6.00,64,150,,10,,,,,,,,,,,,,,,,,,,,,,,,,,,,,,,,,,,,,MET14412/14/13 12:56:02 METAR KCHS 141756Z 15009KT 6SM -RA BKN039 OVC050 20/16 A2997 RMK AO2 RAB36 SLP147 P0001 60003 T02000161 10217 20122 58058 (TF),,,,,,,,,,,,,,,,,,,,,,,,,,,,
72208013880,2013-12-14T13:00:00,FM-12,4,,SE,0.25,mi,"TEMP, PRECIP, SNOW",,,"MMTS, SRG, SNOWBOARD",,,WFO CHS,,,,,,,,,,,,,,,,,,,,,,,,,,,,61,68,,||RA,+0.17,8,78,29.96,,29.92,5.59,64,150,,10,,,,,,,,,,,,,,,,,,,,,,,,,,,,,,,,,,,,,SYN09272208 11659 81509 10200 20161 30133 40147 58058 69981 761// 91756 333 10217 20089 555 91418=,,,,,,,,,,,,,,,,,,,,,,,,,,,,
72208013880,2013-12-14T13:52:00,FM-16,7,,SE,0.25,mi,"TEMP, PRECIP, SNOW",,,"MMTS, SRG, SNOWBOARD",,,WFO CHS,,,,,,,,,,,,,,,,,,,,,,,,,,,29.92,63,66,0.09,-RA:02 BR:1 |RA |,,,88,,FEW:02 18 BKN:07 22 OVC:08 30,29.87,3.00,64,170,,10,,,,,,,,,,,,,,,,,,,,,,,,,,,,,,,,,,,,,MET10712/14/13 13:52:02 SPECI KCHS 141852Z 17009KT 3SM -RA BR FEW018 BKN022 OVC030 19/17 A2992 RMK AO2 P0009 (TF),,,,,,,,,,,,,,,,,,,,,,,,,,,,
72208013880,2013-12-21T17:56:00,FM-15,7,,SE,0.25,mi,"TEMP, PRECIP, SNOW",,,"MMTS, SRG, SNOWBOARD",,,WFO CHS,,,,,,,,,,,,,,,,,,,,,,,,,,,30.11,66,71,0.00,,,,84,30.11,FEW:02 30 BKN:07 250,30.06,10.00,68,170,,8,,,,,,,,,,,,,,,,,,,,,,,,,,,,,,,,,,,,,MET10612/21/13 17:56:02 METAR KCHS 212256Z 17007KT 10SM FEW030 BKN250 22/19 A3011 RMK AO2 SLP196 T02170189 (JRS),,,,,,,,,,,,,,,,,,,,,,,,,,,,
72208013880,2014-01-02T12:56:00,FM-15,7,,SE,0.25,mi,"TEMP, PRECIP, SNOW",,,"MMTS, SRG, SNOWBOARD",,,WFO CHS,,,,,,,,,,,,,,,,,,,,,,,,,,,29.83,52,55,0.01,-RA:02 |RA |,+0.12,8,90,29.83,BKN:07 4 OVC:08 10,29.78,3.00,53,150,,7,,,,,,,,,,,,,,,,,,,,,,,,,,,,,,,,,,,,,MET14801/02/14 12:56:02 METAR KCHS 021756Z 15006KT 3SM -RA BKN004 OVC010 13/11 A2983 RMK AO2 SFC VIS 8 SLP101 P0001 60028 T01280111 10128 20094 58042 (DD),,,,,,,,,,,,,,,,,,,,,,,,,,,,
72208013880,2014-01-02T13:00:00,FM-12,4,,SE,0.25,mi,"TEMP, PRECIP, SNOW",,,"MMTS, SRG, SNOWBOARD",,,WFO CHS,,,,,,,,,,,,,,,,,,,,,,,,,,,,52,55,,||RA,+0.12,8,90,29.83,,29.78,2.98,53,150,,7,,,,,,,,,,,,,,,,,,,,,,,,,,,,,,,,,,,,,SYN09272208 11248 81506 10128 20111 30086 40101 58042 60071 761// 91756 333 10128 20083 555 90218=,,,,,,,,,,,,,,,,,,,,,,,,,,,,
72208013880,2014-01-10T11:54:00,FM-16,6,,SE,0.25,mi,"TEMP, PRECIP, SNOW",,,"MMTS, SRG, SNOWBOARD",,,WFO CHS,,,,,,,,,,,,,,,,,,,,,,,,,,,30.23,63,73,,,,,69,,SCT:04 25 BKN:07 35 BKN:07 50,30.18,10.00,67,150,,11,,,,,,,,,,,,,,,,,,,,,,,,,,,,,,,,,,,,,MET11701/10/14 11:54:02 SPECI KCHS 101654Z 15010KT 10SM SCT025 BKN035 BKN050 23/17 A3023 RMK AO2 PRESFR SCT V BKN FIBI (DD),,,,,,,,,,,,,,,,,,,,,,,,,,,,
72208013880,2014-01-10T11:56:00,FM-15,7,,SE,0.25,mi,"TEMP, PRECIP, SNOW",,,"MMTS, SRG, SNOWBOARD",,,WFO CHS,,,,,,,,,,,,,,,,,,,,,,,,,,,30.23,63,73,0.01,,,,71,30.22,SCT:04 25 BKN:07 35 BKN:07 50,30.18,10.00,67,150,,14,,,,,,,,,,,,,,,,,,,,,,,,,,,,,,,,,,,,,MET12901/10/14 11:56:02 METAR KCHS 101656Z 15012KT 10SM SCT025 BKN035 BKN050 23/17 A3023 RMK AO2 PRESFR SLP234 SCT V BKN T02280172 (DD),,,,,,,,,,,,,,,,,,,,,,,,,,,,
72208013880,2014-01-10T13:56:00,FM-15,7,,SE,0.25,mi,"TEMP, PRECIP, SNOW",,,"MMTS, SRG, SNOWBOARD",,,WFO CHS,,,,,,,,,,,,,,,,,,,,,,,,,,,30.16,64,71,0.02,,,,79,30.16,BKN:07 20 BKN:07 35 BKN:07 50,30.11,10.00,67,150,23,14,,,,,,,,,,,,,,,,,,,,,,,,,,,,,,,,,,,,,MET13001/10/14 13:56:02 METAR KCHS 101856Z 15012G20KT 10SM BKN020 BKN035 BKN050 22/18 A3016 RMK AO2 RAB19E33 SLP213 P0002 T02170178 (DD),,,,,,,,,,,,,,,,,,,,,,,,,,,,
72208013880,2014-01-10T14:56:00,FM-15,7,,SE,0.25,mi,"TEMP, PRECIP, SNOW",,,"MMTS, SRG, SNOWBOARD",,,WFO CHS,,,,,,,,,,,,,,,,,,,,,,,,,,,30.15,65,71,0.03,,,,81,30.14,SCT:04 20 BKN:07 40 BKN:07 250,30.10,10.00,67,150,,15,,,,,,,,,,,,,,,,,,,,,,,,,,,,,,,,,,,,,MET12701/10/14 14:56:02 METAR KCHS 101956Z 15013KT 10SM SCT020 BKN040 BKN250 22/18 A3015 RMK AO2 RAB20E39 SLP208 P0003 T02170183 (DD),,,,,,,,,,,,,,,,,,,,,,,,,,,,
72208013880,2014-01-10T15:56:00,FM-15,7,,SE,0.25,mi,"TEMP, PRECIP, SNOW",,,"MMTS, SRG, SNOWBOARD",,,WFO CHS,,,,,,,,,,,,,,,,,,,,,,,,,,,30.15,65,71,T,,+0.02,6,81,30.14,SCT:04 15 BKN:07 30 BKN:07 250,30.10,10.00,67,150,22,14,,,,,,,,,,,,,,,,,,,,,,,,,,,,,,,,,,,,,MET15301/10/14 15:56:02 METAR KCHS 102056Z 15012G19KT 10SM SCT015 BKN030 BKN250 22/18 A3015 RMK AO2 RAB28E53 SLP207 SCT V BKN P0000 60005 T02170183 56006 (JMB),,,,,,,,,,,,,,,,,,,,,,,,,,,,
72208013880,2014-01-10T16:00:00,FM-12,4,,SE,0.25,mi,"TEMP, PRECIP, SNOW",,,"MMTS, SRG, SNOWBOARD",,,WFO CHS,,,,,,,,,,,,,,,,,,,,,,,,,,,,65,71,,,+0.02,6,81,30.14,,30.10,9.94,67,150,,14,,,,,,,,,,,,,,,,,,,,,,,,,,,,,,,,,,,,,SYN08072208 12466 61512 10217 20183 30194 40207 56006 60017 92056 333 91019 555 91021=,,,,,,,,,,,,,,,,,,,,,,,,,,,,
72208013880,2014-01-10T16:29:00,FM-16,7,,SE,0.25,mi,"TEMP, PRECIP, SNOW",,,"MMTS, SRG, SNOWBOARD",,,WFO CHS,,,,,,,,,,,,,,,,,,,,,,,,,,,30.15,64,70,T,,,,83,,SCT:04 10 BKN:07 20 BKN:07 250,30.10,10.00,66,170,,13,,,,,,,,,,,,,,,,,,,,,,,,,,,,,,,,,,,,,MET12101/10/14 16:29:02 SPECI KCHS 102129Z 17011KT 10SM SCT010 BKN020 BKN250 21/18 A3015 RMK AO2 RAB04E19 SCT V BKN P0000 (JMB),,,,,,,,,,,,,,,,,,,,,,,,,,,,
72208013880,2014-01-10T16:56:00,FM-15,7,,SE,0.25,mi,"TEMP, PRECIP, SNOW",,,"MMTS, SRG, SNOWBOARD",,,WFO CHS,,,,,,,,,,,,,,,,,,,,,,,,,,,30.14,63,69,T,,,,81,30.14,SCT:04 10 BKN:07 20 BKN:07 250,30.09,10.00,65,160,,9,,,,,,,,,,,,,,,,,,,,,,,,,,,,,,,,,,,,,MET13801/10/14 16:56:02 METAR KCHS 102156Z 16008KT 10SM SCT010 BKN020 BKN250 21/17 A3014 RMK AO2 RAB04E19 SLP206 SCT V BKN P0000 T02060172 (JMB),,,,,,,,,,,,,,,,,,,,,,,,,,,,
72208013880,2014-01-10T17:04:00,FM-16,7,,SE,0.25,mi,"TEMP, PRECIP, SNOW",,,"MMTS, SRG, SNOWBOARD",,,WFO CHS,,,,,,,,,,,,,,,,,,,,,,,,,,,30.14,63,68,,,,,83,,FEW:02 15 SCT:04 35 BKN:07 250,30.09,10.00,65,160,,10,,,,,,,,,,,,,,,,,,,,,,,,,,,,,,,,,,,,,MET09601/10/14 17:04:02 SPECI KCHS 102204Z 16009KT 10SM FEW015 SCT035 BKN250 20/17 A3014 RMK AO2 (JMB),,,,,,,,,,,,,,,,,,,,,,,,,,,,
72208013880,2014-01-10T17:56:00,FM-15,7,,SE,0.25,mi,"TEMP, PRECIP, SNOW",,,"MMTS, SRG, SNOWBOARD",,,WFO CHS,,,,,,,,,,,,,,,,,,,,,,,,,,,30.13,61,65,0.00,,,,87,30.13,FEW:02 15 SCT:04 35 BKN:07 250,30.08,10.00,63,160,,7,,,,,,,,,,,,,,,,,,,,,,,,,,,,,,,,,,,,,MET11301/10/14 17:56:02 METAR KCHS 102256Z 16006KT 10SM FEW015 SCT035 BKN250 18/16 A3013 RMK AO2 SLP203 T01830161 (JMB),,,,,,,,,,,,,,,,,,,,,,,,,,,,
72208013880,2014-01-13T11:56:00,FM-15,7,,SE,0.25,mi,"TEMP, PRECIP, SNOW",,,"MMTS, SRG, SNOWBOARD",,,WFO CHS,,,,,,,,,,,,,,,,,,,,,,,,,,,30.17,39,64,0.00,,,,40,30.16,FEW:02 120 BKN:07 250,30.12,10.00,52,170,,7,,,,,,,,,,,,,,,,,,,,,,,,,,,,,,,,,,,,,MET10501/13/14 11:56:02 METAR KCHS 131656Z 17006KT 10SM FEW120 BKN250 18/04 A3017 RMK AO2 SLP214 T01780039 (DD),,,,,,,,,,,,,,,,,,,,,,,,,,,,
72208013880,2014-01-13T13:56:00,FM-15,7,,SE,0.25,mi,"TEMP, PRECIP, SNOW",,,"MMTS, SRG, SNOWBOARD",,,WFO CHS,,,,,,,,,,,,,,,,,,,,,,,,,,,30.09,43,67,0.00,,,,42,30.09,FEW:02 40 SCT:04 50 BKN:07 250,30.04,10.00,54,150,,8,,,,,,,,,,,,,,,,,,,,,,,,,,,,,,,,,,,,,MET11201/13/14 13:56:02 METAR KCHS 131856Z 15007KT 10SM FEW040 SCT050 BKN250 19/06 A3009 RMK AO2 SLP190 T01940061 (DD),,,,,,,,,,,,,,,,,,,,,,,,,,,,
72208013880,2014-01-13T14:56:00,FM-15,7,,SE,0.25,mi,"TEMP, PRECIP, SNOW",,,"MMTS, SRG, SNOWBOARD",,,WFO CHS,,,,,,,,,,,,,,,,,,,,,,,,,,,30.08,43,67,0.00,,,,42,30.08,BKN:07 45 BKN:07 250,30.03,10.00,54,160,,9,,,,,,,,,,,,,,,,,,,,,,,,,,,,,,,,,,,,,MET10501/13/14 14:56:02 METAR KCHS 131956Z 16008KT 10SM BKN045 BKN250 19/06 A3008 RMK AO2 SLP186 T01940061 (DD),,,,,,,,,,,,,,,,,,,,,,,,,,,,
72208013880,2014-02-02T16:56:00,FM-15,7,,SE,0.25,mi,"TEMP, PRECIP, SNOW",,,"MMTS, SRG, SNOWBOARD",,,WFO CHS,,,,,,,,,,,,,,,,,,,,,,,,,,,30.10,52,69,0.00,,,,55,30.09,FEW:02 250,30.05,10.00,59,170,,9,,,,,,,,,,,,,,,,,,,,,,,,,,,,,,,,,,,,,MET09902/02/14 16:56:02 METAR KCHS 022156Z 17008KT 10SM FEW250 21/11 A3010 RMK AO2 SLP190 T02060111 (JRS),,,,,,,,,,,,,,,,,,,,,,,,,,,,
72208013880,2014-02-09T16:56:00,FM-15,7,,SE,0.25,mi,"TEMP, PRECIP, SNOW",,,"MMTS, SRG, SNOWBOARD",,,WFO CHS,,,,,,,,,,,,,,,,,,,,,,,,,,,30.04,38,61,0.00,,,,43,30.03,SCT:04 200,29.99,10.00,50,170,,13,,,,,,,,,,,,,,,,,,,,,,,,,,,,,,,,,,,,,MET10102/09/14 16:56:02 METAR KCHS 092156Z 17011KT 10SM SCT200 16/03 A3004 RMK AO2 SLP170 T01610033 $ (JRS),,,,,,,,,,,,,,,,,,,,,,,,,,,,
72208013880,2014-02-18T15:56:00,FM-15,7,,SE,0.25,mi,"TEMP, PRECIP, SNOW",,,"MMTS, SRG, SNOWBOARD",,,WFO CHS,,,,,,,,,,,,,,,,,,,,,,,,,,,30.16,50,74,0.00,,+0.05,5,43,30.16,SCT:04 250,30.11,10.00,60,150,,8,,,,,,,,,,,,,,,,,,,,,,,,,,,,,,,,,,,,,MET10502/18/14 15:56:02 METAR KCHS 182056Z 15007KT 10SM SCT250 23/10 A3016 RMK AO2 SLP212 T02330100 55016 (BBE),,,,,,,,,,,,,,,,,,,,,,,,,,,,
72208013880,2014-02-18T16:00:00,FM-12,4,,SE,0.25,mi,"TEMP, PRECIP, SNOW",,,"MMTS, SRG, SNOWBOARD",,,WFO CHS,,,,,,,,,,,,,,,,,,,,,,,,,,,,50,74,,,+0.05,5,43,30.16,,30.11,9.94,60,150,,8,,,,,,,,,,,,,,,,,,,,,,,,,,,,,,,,,,,,,SYN06472208 32966 41507 10233 20100 30197 40212 55016 92056 555 91821=,,,,,,,,,,,,,,,,,,,,,,,,,,,,
72208013880,2014-02-18T17:56:00,FM-15,7,,SE,0.25,mi,"TEMP, PRECIP, SNOW",,,"MMTS, SRG, SNOWBOARD",,,WFO CHS,,,,,,,,,,,,,,,,,,,,,,,,,,,30.17,50,65,0.00,,,,59,30.16,BKN:07 250,30.12,10.00,57,170,,13,,,,,,,,,,,,,,,,,,,,,,,,,,,,,,,,,,,,,MET09902/18/14 17:56:02 METAR KCHS 182256Z 17011KT 10SM BKN250 18/10 A3017 RMK AO2 SLP214 T01830100 (BBE),,,,,,,,,,,,,,,,,,,,,,,,,,,,
72208013880,2014-03-03T16:56:00,FM-15,7,,SE,0.25,mi,"TEMP, PRECIP, SNOW",,,"MMTS, SRG, SNOWBOARD",,,WFO CHS,,,,,,,,,,,,,,,,,,,,,,,,,,,29.87,58,68,T,,,,70,29.87,BKN:07 35 OVC:08 45,29.82,10.00,62,170,,7,,,,,,,,,,,,,,,,,,,,,,,,,,,,,,,,,,,,,MET12103/03/14 16:56:02 METAR KCHS 032156Z 17006KT 10SM BKN035 OVC045 20/14 A2987 RMK AO2 RAB08E18 SLP114 P0000 T02000144 (BBE),,,,,,,,,,,,,,,,,,,,,,,,,,,,
72208013880,2014-03-14T11:56:00,FM-15,7,,SE,0.25,mi,"TEMP, PRECIP, SNOW",,,"MMTS, SRG, SNOWBOARD",,,WFO CHS,,,,,,,,,,,,,,,,,,,,,,,,,,,30.36,21,62,0.00,,,,21,30.36,CLR:00,30.31,10.00,45,170,,9,,,,,,,,,,,,,,,,,,,,,,,,,,,,,,,,,,,,,MET09703/14/14 11:56:02 METAR KCHS 141656Z 17008KT 10SM CLR 17/M06 A3036 RMK AO2 SLP281 T01671061 (JMB),,,,,,,,,,,,,,,,,,,,,,,,,,,,
72208013880,2014-03-14T12:56:00,FM-15,7,,SE,0.25,mi,"TEMP, PRECIP, SNOW",,,"MMTS, SRG, SNOWBOARD",,,WFO CHS,,,,,,,,,,,,,,,,,,,,,,,,,,,30.34,27,63,0.00,,+0.04,8,26,30.34,CLR:00,30.29,10.00,47,150,20,15,,,,,,,,,,,,,,,,,,,,,,,,,,,,,,,,,,,,,MET11803/14/14 12:56:02 METAR KCHS 141756Z 15013G17KT 10SM CLR 17/M03 A3034 RMK AO2 SLP273 T01721028 10178 20006 58012 (JMB),,,,,,,,,,,,,,,,,,,,,,,,,,,,
72208013880,2014-03-14T13:00:00,FM-12,4,,SE,0.25,mi,"TEMP, PRECIP, SNOW",,,"MMTS, SRG, SNOWBOARD",,,WFO CHS,,,,,,,,,,,,,,,,,,,,,,,,,,,,27,63,,,+0.04,8,26,30.34,,30.29,9.94,47,150,,15,,,,,,,,,,,,,,,,,,,,,,,,,,,,,,,,,,,,,SYN08672208 32966 01513 10172 21028 30258 40273 58012 91756 333 10178 20006 91017 555 91418=,,,,,,,,,,,,,,,,,,,,,,,,,,,,
72208013880,2014-03-14T13:56:00,FM-15,7,,SE,0.25,mi,"TEMP, PRECIP, SNOW",,,"MMTS, SRG, SNOWBOARD",,,WFO CHS,,,,,,,,,,,,,,,,,,,,,,,,,,,30.30,31,65,0.00,,,,28,30.29,CLR:00,30.25,10.00,49,170,24,15,,,,,,,,,,,,,,,,,,,,,,,,,,,,,,,,,,,,,MET10003/14/14 13:56:02 METAR KCHS 141856Z 17013G21KT 10SM CLR 18/M01 A3030 RMK AO2 SLP259 T01831006 (JMB),,,,,,,,,,,,,,,,,,,,,,,,,,,,
72208013880,2014-03-14T14:56:00,FM-15,7,,SE,0.25,mi,"TEMP, PRECIP, SNOW",,,"MMTS, SRG, SNOWBOARD",,,WFO CHS,,,,,,,,,,,,,,,,,,,,,,,,,,,30.26,32,64,0.00,,,,30,30.26,CLR:00,30.21,10.00,49,170,22,10,,,,,,,,,,,,,,,,,,,,,,,,,,,,,,,,,,,,,MET09903/14/14 14:56:02 METAR KCHS 141956Z 17009G19KT 10SM CLR 18/00 A3026 RMK AO2 SLP247 T01780000 (BBE),,,,,,,,,,,,,,,,,,,,,,,,,,,,
72208013880,2014-03-16T10:56:00,FM-15,7,,SE,0.25,mi,"TEMP, PRECIP, SNOW",,,"MMTS, SRG, SNOWBOARD",,,WFO CHS,,,,,,,,,,,,,,,,,,,,,,,,,,,29.91,58,68,0.00,,,,70,29.91,FEW:02 40 SCT:04 75 OVC:08 150,29.86,10.00,62,150,,8,,,,,,,,,,,,,,,,,,,,,,,,,,,,,,,,,,,,,MET11203/16/14 10:56:02 METAR KCHS 161556Z 15007KT 10SM FEW040 SCT075 OVC150 20/14 A2991 RMK AO2 SLP127 T02000144 (TF),,,,,,,,,,,,,,,,,,,,,,,,,,,,
72208013880,2014-03-28T10:56:00,FM-15,7,,SE,0.25,mi,"TEMP, PRECIP, SNOW",,,"MMTS, SRG, SNOWBOARD",,,WFO CHS,,,,,,,,,,,,,,,,,,,,,,,,,,,30.22,61,74,0.00,,,,64,30.22,FEW:02 15 BKN:07 30 BKN:07 120,30.17,10.00,66,160,18,15,,,,,,,,,,,,,,,,,,,,,,,,,,,,,,,,,,,,,MET11603/28/14 10:56:02 METAR KCHS 281556Z 16013G16KT 10SM FEW015 BKN030 BKN120 23/16 A3022 RMK AO2 SLP233 T02330161 (JMB),,,,,,,,,,,,,,,,,,,,,,,,,,,,
72208013880,2014-03-28T11:56:00,FM-15,7,,SE,0.25,mi,"TEMP, PRECIP, SNOW",,,"MMTS, SRG, SNOWBOARD",,,WFO CHS,,,,,,,,,,,,,,,,,,,,,,,,,,,30.20,59,73,0.00,,,,62,30.20,FEW:02 15 SCT:04 25 BKN:07 35,30.15,10.00,65,170,,13,,,,,,,,,,,,,,,,,,,,,,,,,,,,,,,,,,,,,MET11303/28/14 11:56:02 METAR KCHS 281656Z 17011KT 10SM FEW015 SCT025 BKN035 23/15 A3020 RMK AO2 SLP227 T02280150 (JMB),,,,,,,,,,,,,,,,,,,,,,,,,,,,
72208013880,2014-03-28T12:27:00,FM-16,7,,SE,0.25,mi,"TEMP, PRECIP, SNOW",,,"MMTS, SRG, SNOWBOARD",,,WFO CHS,,,,,,,,,,,,,,,,,,,,,,,,,,,30.20,63,72,T,,,,73,,BKN:07 27 BKN:07 45,30.15,10.00,66,160,,10,,,,,,,,,,,,,,,,,,,,,,,,,,,,,,,,,,,,,MET10403/28/14 12:27:02 SPECI KCHS 281727Z 16009KT 10SM BKN027 BKN045 22/17 A3020 RMK AO2 RAB17E27 P0000 (JMB),,,,,,,,,,,,,,,,,,,,,,,,,,,,
72208013880,2014-03-28T13:02:00,FM-16,7,,SE,0.25,mi,"TEMP, PRECIP, SNOW",,,"MMTS, SRG, SNOWBOARD",,,WFO CHS,,,,,,,,,,,,,,,,,,,,,,,,,,,30.18,61,73,,,,,65,,SCT:04 25 BKN:07 35 BKN:07 70,30.13,10.00,66,160,,11,,,,,,,,,,,,,,,,,,,,,,,,,,,,,,,,,,,,,MET09603/28/14 13:02:02 SPECI KCHS 281802Z 16010KT 10SM SCT025 BKN035 BKN070 23/16 A3018 RMK AO2 (JMB),,,,,,,,,,,,,,,,,,,,,,,,,,,,
72208013880,2014-03-28T13:54:00,FM-16,6,,SE,0.25,mi,"TEMP, PRECIP, SNOW",,,"MMTS, SRG, SNOWBOARD",,,WFO CHS,,,,,,,,,,,,,,,,,,,,,,,,,,,30.16,61,72,,,,,69,,SCT:04 20 BKN:07 25 OVC:08 55,30.11,10.00,65,160,,14,,,,,,,,,,,,,,,,,,,,,,,,,,,,,,,,,,,,,MET10103/28/14 13:54:02 SPECI KCHS 281854Z 16012KT 10SM SCT020 BKN025 OVC055 22/16 A3016 RMK AO2 FIBI (JMB),,,,,,,,,,,,,,,,,,,,,,,,,,,,
72208013880,2014-03-28T13:56:00,FM-15,7,,SE,0.25,mi,"TEMP, PRECIP, SNOW",,,"MMTS, SRG, SNOWBOARD",,,WFO CHS,,,,,,,,,,,,,,,,,,,,,,,,,,,30.15,61,72,0.00,,,,68,30.15,SCT:04 20 BKN:07 25 OVC:08 55,30.10,10.00,65,170,,11,,,,,,,,,,,,,,,,,,,,,,,,,,,,,,,,,,,,,MET11303/28/14 13:56:02 METAR KCHS 281856Z 17010KT 10SM SCT020 BKN025 OVC055 22/16 A3015 RMK AO2 SLP210 T02220161 (JMB),,,,,,,,,,,,,,,,,,,,,,,,,,,,
72208013880,2014-03-28T15:54:00,FM-16,6,,SE,0.25,mi,"TEMP, PRECIP, SNOW",,,"MMTS, SRG, SNOWBOARD",,,WFO CHS,,,,,,,,,,,,,,,,,,,,,,,,,,,30.14,63,66,,,,,88,,SCT:04 10 BKN:07 50 OVC:08 75,30.09,10.00,64,160,,8,,,,,,,,,,,,,,,,,,,,,,,,,,,,,,,,,,,,,MET11603/28/14 15:54:02 SPECI KCHS 282054Z 16007KT 10SM SCT010 BKN050 OVC075 19/17 A3014 RMK AO2 RAB06E36 P0000 FIBI (BBE),,,,,,,,,,,,,,,,,,,,,,,,,,,,
72208013880,2014-03-28T15:56:00,FM-15,7,,SE,0.25,mi,"TEMP, PRECIP, SNOW",,,"MMTS, SRG, SNOWBOARD",,,WFO CHS,,,,,,,,,,,,,,,,,,,,,,,,,,,30.14,62,67,T,,+0.05,6,84,30.14,SCT:04 10 BKN:07 50 OVC:08 75,30.09,10.00,64,160,,9,,,,,,,,,,,,,,,,,,,,,,,,,,,,,,,,,,,,,MET14003/28/14 15:56:02 METAR KCHS 282056Z 16008KT 10SM SCT010 BKN050 OVC075 19/17 A3014 RMK AO2 RAB06E36 SLP205 P0000 60000 T01940167 56016 (BBE),,,,,,,,,,,,,,,,,,,,,,,,,,,,
72208013880,2014-03-28T16:00:00,FM-12,4,,SE,0.25,mi,"TEMP, PRECIP, SNOW",,,"MMTS, SRG, SNOWBOARD",,,WFO CHS,,,,,,,,,,,,,,,,,,,,,,,,,,,,62,67,,,+0.05,6,84,30.14,,30.09,9.94,64,160,,9,,,,,,,,,,,,,,,,,,,,,,,,,,,,,,,,,,,,,SYN07072208 12466 81608 10194 20167 30190 40205 56016 69907 92056 555 92821=,,,,,,,,,,,,,,,,,,,,,,,,,,,,
72208013880,2014-03-28T16:28:00,FM-16,7,,SE,0.25,mi,"TEMP, PRECIP, SNOW",,,"MMTS, SRG, SNOWBOARD",,,WFO CHS,,,,,,,,,,,,,,,,,,,,,,,,,,,30.13,63,66,,,,,88,,SCT:04 8 OVC:08 80,30.08,10.00,64,160,,9,,,,,,,,,,,,,,,,,,,,,,,,,,,,,,,,,,,,,MET08903/28/14 16:28:02 SPECI KCHS 282128Z 16008KT 10SM SCT008 OVC080 19/17 A3013 RMK AO2 (BBE),,,,,,,,,,,,,,,,,,,,,,,,,,,,
72208013880,2014-03-28T16:47:00,FM-16,7,,SE,0.25,mi,"TEMP, PRECIP, SNOW",,,"MMTS, SRG, SNOWBOARD",,,WFO CHS,,,,,,,,,,,,,,,,,,,,,,,,,,,30.13,63,66,,,,,88,,SCT:04 8 BKN:07 25 OVC:08 85,30.08,10.00,64,170,,8,,,,,,,,,,,,,,,,,,,,,,,,,,,,,,,,,,,,,MET09603/28/14 16:47:02 SPECI KCHS 282147Z 17007KT 10SM SCT008 BKN025 OVC085 19/17 A3013 RMK AO2 (BBE),,,,,,,,,,,,,,,,,,,,,,,,,,,,
72208013880,2014-03-28T17:54:00,FM-16,6,,SE,0.25,mi,"TEMP, PRECIP, SNOW",,,"MMTS, SRG, SNOWBOARD",,,WFO CHS,,,,,,,,,,,,,,,,,,,,,,,,,,,30.13,61,66,,,,,83,,FEW:02 10 SCT:04 15 OVC:08 90,30.08,10.00,63,150,,7,,,,,,,,,,,,,,,,,,,,,,,,,,,,,,,,,,,,,MET10103/28/14 17:54:02 SPECI KCHS 282254Z 15006KT 10SM FEW010 SCT015 OVC090 19/16 A3013 RMK AO2 FIBI (BBE),,,,,,,,,,,,,,,,,,,,,,,,,,,,
72208013880,2014-03-28T17:56:00,FM-15,7,,SE,0.25,mi,"TEMP, PRECIP, SNOW",,,"MMTS, SRG, SNOWBOARD",,,WFO CHS,,,,,,,,,,,,,,,,,,,,,,,,,,,30.13,61,66,T,,,,84,30.13,FEW:02 10 SCT:04 15 OVC:08 90,30.08,10.00,63,150,,8,,,,,,,,,,,,,,,,,,,,,,,,,,,,,,,,,,,,,MET11303/28/14 17:56:02 METAR KCHS 282256Z 15007KT 10SM FEW010 SCT015 OVC090 19/16 A3013 RMK AO2 SLP203 T01890161 (BBE),,,,,,,,,,,,,,,,,,,,,,,,,,,,
72208013880,2014-04-12T13:56:00,FM-15,7,,SE,0.25,mi,"TEMP, PRECIP, SNOW",,,"MMTS, SRG, SNOWBOARD",,,WFO CHS,,,,,,,,,,,,,,,,,,,,,,,,,,,30.19,54,82,0.00,,,,38,30.19,SCT:04 55,30.14,10.00,65,170,16,11,,,,,,,,,,,,,,,,,,,,,,,,,,,,,,,,,,,,,MET10204/12/14 13:56:02 METAR KCHS 121856Z 17010G14KT 10SM SCT055 28/12 A3019 RMK AO2 SLP222 T02780122 (JRS),,,,,,,,,,,,,,,,,,,,,,,,,,,,
72208013880,2014-04-12T14:56:00,FM-15,7,,SE,0.25,mi,"TEMP, PRECIP, SNOW",,,"MMTS, SRG, SNOWBOARD",,,WFO CHS,,,,,,,,,,,,,,,,,,,,,,,,,,,30.17,51,78,0.00,,,,39,30.17,FEW:02 60,30.12,10.00,62,160,,15,,,,,,,,,,,,,,,,,,,,,,,,,,,,,,,,,,,,,MET09904/12/14 14:56:02 METAR KCHS 121956Z 16013KT 10SM FEW060 26/11 A3017 RMK AO2 SLP216 T02560106 (JRS),,,,,,,,,,,,,,,,,,,,,,,,,,,,
72208013880,2014-04-12T15:56:00,FM-15,7,,SE,0.25,mi,"TEMP, PRECIP, SNOW",,,"MMTS, SRG, SNOWBOARD",,,WFO CHS,,,,,,,,,,,,,,,,,,,,,,,,,,,30.16,52,80,0.00,,+0.04,7,38,30.16,FEW:02 65,30.11,10.00,64,160,18,15,,,,,,,,,,,,,,,,,,,,,,,,,,,,,,,,,,,,,MET10804/12/14 15:56:02 METAR KCHS 122056Z 16013G16KT 10SM FEW065 27/11 A3016 RMK AO2 SLP213 T02670111 57013 (JRS),,,,,,,,,,,,,,,,,,,,,,,,,,,,
72208013880,2014-04-12T16:00:00,FM-12,4,,SE,0.25,mi,"TEMP, PRECIP, SNOW",,,"MMTS, SRG, SNOWBOARD",,,WFO CHS,,,,,,,,,,,,,,,,,,,,,,,,,,,,52,80,,,+0.04,7,38,30.16,,30.11,9.94,64,160,,15,,,,,,,,,,,,,,,,,,,,,,,,,,,,,,,,,,,,,SYN07472208 32766 21613 10267 20111 30197 40213 57013 92056 333 91016 555 91221=,,,,,,,,,,,,,,,,,,,,,,,,,,,,
72208013880,2014-04-13T10:56:00,FM-15,7,,SE,0.25,mi,"TEMP, PRECIP, SNOW",,,"MMTS, SRG, SNOWBOARD",,,WFO CHS,,,,,,,,,,,,,,,,,,,,,,,,,,,30.22,56,79,0.00,,,,45,30.22,SCT:04 50 BKN:07 250,30.17,10.00,65,150,21,11,,,,,,,,,,,,,,,,,,,,,,,,,,,,,,,,,,,,,MET11004/13/14 10:56:02 METAR KCHS 131556Z 15010G18KT 10SM SCT050 BKN250 26/13 A3022 RMK AO2 SLP234 T02610133 $ (TF),,,,,,,,,,,,,,,,,,,,,,,,,,,,
72208013880,2014-04-13T15:56:00,FM-15,7,,SE,0.25,mi,"TEMP, PRECIP, SNOW",,,"MMTS, SRG, SNOWBOARD",,,WFO CHS,,,,,,,,,,,,,,,,,,,,,,,,,,,30.15,56,79,0.00,,+0.05,6,45,30.14,FEW:02 48 SCT:04 250,30.10,10.00,65,160,,9,,,,,,,,,,,,,,,,,,,,,,,,,,,,,,,,,,,,,MET11404/13/14 15:56:02 METAR KCHS 132056Z 16008KT 10SM FEW048 SCT250 26/13 A3015 RMK AO2 SLP208 T02610133 56018 $ (JRS),,,,,,,,,,,,,,,,,,,,,,,,,,,,
72208013880,2014-04-13T16:00:00,FM-12,4,,SE,0.25,mi,"TEMP, PRECIP, SNOW",,,"MMTS, SRG, SNOWBOARD",,,WFO CHS,,,,,,,,,,,,,,,,,,,,,,,,,,,,56,79,,,+0.05,6,45,30.14,,30.10,9.94,65,160,,9,,,,,,,,,,,,,,,,,,,,,,,,,,,,,,,,,,,,,SYN06472208 32666 41608 10261 20133 30194 40208 56018 92056 555 91321=,,,,,,,,,,,,,,,,,,,,,,,,,,,,
72208013880,2014-04-14T15:56:00,FM-15,7,,SE,0.25,mi,"TEMP, PRECIP, SNOW",,,"MMTS, SRG, SNOWBOARD",,,WFO CHS,,,,,,,,,,,,,,,,,,,,,,,,,,,29.94,64,81,0.00,,+0.07,6,57,29.94,FEW:02 35 SCT:04 55 BKN:07 250,29.89,10.00,70,170,22,11,,,,,,,,,,,,,,,,,,,,,,,,,,,,,,,,,,,,,MET12204/14/14 15:56:02 METAR KCHS 142056Z 17010G19KT 10SM FEW035 SCT055 BKN250 27/18 A2994 RMK AO2 SLP138 T02720178 56025 (BBE),,,,,,,,,,,,,,,,,,,,,,,,,,,,
72208013880,2014-04-14T16:00:00,FM-12,4,,SE,0.25,mi,"TEMP, PRECIP, SNOW",,,"MMTS, SRG, SNOWBOARD",,,WFO CHS,,,,,,,,,,,,,,,,,,,,,,,,,,,,64,81,,,+0.07,6,57,29.94,,29.89,9.94,70,170,,11,,,,,,,,,,,,,,,,,,,,,,,,,,,,,,,,,,,,,SYN07472208 32666 61710 10272 20178 30123 40138 56025 92056 333 91019 555 91421=,,,,,,,,,,,,,,,,,,,,,,,,,,,,
72208013880,2014-04-26T13:56:00,FM-15,7,,SE,0.25,mi,"TEMP, PRECIP, SNOW",,,"MMTS, SRG, SNOWBOARD",,,WFO CHS,,,,,,,,,,,,,,,,,,,,,,,,,,,30.01,55,80,0.00,,,,42,30.01,FEW:02 45,29.96,10.00,65,160,,14,,,,,,,,,,,,,,,,,,,,,,,,,,,,,,,,,,,,,MET09904/26/14 13:56:02 METAR KCHS 261856Z 16012KT 10SM FEW045 27/13 A3001 RMK AO2 SLP162 T02670128 (JRS),,,,,,,,,,,,,,,,,,,,,,,,,,,,
72208013880,2014-04-26T16:56:00,FM-15,7,,SE,0.25,mi,"TEMP, PRECIP, SNOW",,,"MMTS, SRG, SNOWBOARD",,,WFO CHS,,,,,,,,,,,,,,,,,,,,,,,,,,,30.01,41,76,0.00,,,,29,30.01,FEW:02 250,29.96,10.00,57,170,,10,,,,,,,,,,,,,,,,,,,,,,,,,,,,,,,,,,,,,MET09904/26/14 16:56:02 METAR KCHS 262156Z 17009KT 10SM FEW250 24/05 A3001 RMK AO2 SLP161 T02440050 (JRS),,,,,,,,,,,,,,,,,,,,,,,,,,,,
72208013880,2014-04-26T17:56:00,FM-15,7,,SE,0.25,mi,"TEMP, PRECIP, SNOW",,,"MMTS, SRG, SNOWBOARD",,,WFO CHS,,,,,,,,,,,,,,,,,,,,,,,,,,,30.00,48,73,0.00,,,,41,30.00,FEW:02 250,29.95,10.00,59,150,,8,,,,,,,,,,,,,,,,,,,,,,,,,,,,,,,,,,,,,MET09904/26/14 17:56:02 METAR KCHS 262256Z 15007KT 10SM FEW250 23/09 A3000 RMK AO2 SLP158 T02280089 (JRS),,,,,,,,,,,,,,,,,,,,,,,,,,,,
72208013880,2014-04-27T15:56:00,FM-15,7,,SE,0.25,mi,"TEMP, PRECIP, SNOW",,,"MMTS, SRG, SNOWBOARD",,,WFO CHS,,,,,,,,,,,,,,,,,,,,,,,,,,,29.95,55,84,0.00,,+0.05,8,37,29.94,BKN:07 250,29.90,10.00,66,170,,13,,,,,,,,,,,,,,,,,,,,,,,,,,,,,,,,,,,,,MET10504/27/14 15:56:02 METAR KCHS 272056Z 17011KT 10SM BKN250 29/13 A2995 RMK AO2 SLP140 T02890128 58018 (JRS),,,,,,,,,,,,,,,,,,,,,,,,,,,,
72208013880,2014-04-27T16:00:00,FM-12,4,,SE,0.25,mi,"TEMP, PRECIP, SNOW",,,"MMTS, SRG, SNOWBOARD",,,WFO CHS,,,,,,,,,,,,,,,,,,,,,,,,,,,,55,84,,,+0.05,8,37,29.94,,29.90,9.94,66,170,,13,,,,,,,,,,,,,,,,,,,,,,,,,,,,,,,,,,,,,SYN06472208 32966 61711 10289 20128 30126 40140 58018 92056 555 92721=,,,,,,,,,,,,,,,,,,,,,,,,,,,,
72208013880,2014-04-29T13:56:00,FM-15,7,,SE,0.25,mi,"TEMP, PRECIP, SNOW",,,"MMTS, SRG, SNOWBOARD",,,WFO CHS,,,,,,,,,,,,,,,,,,,,,,,,,,,29.92,68,84,0.00,,,,59,29.92,FEW:02 90 OVC:08 200,29.87,10.00,73,170,,15,,,,,,,,,,,,,,,,,,,,,,,,,,,,,,,,,,,,,MET10604/29/14 13:56:02 METAR KCHS 291856Z 17013KT 10SM FEW090 OVC200 29/20 A2992 RMK AO2 SLP131 T02890200 (JMB),,,,,,,,,,,,,,,,,,,,,,,,,,,,
72208013880,2014-04-30T12:49:00,FM-16,7,,SE,0.25,mi,"TEMP, PRECIP, SNOW",,,"MMTS, SRG, SNOWBOARD",,,WFO CHS,,,,,,,,,,,,,,,,,,,,,,,,,,,30.03,66,72,0.24,TS:7 -RA:02 |RA TS TS |,,,83,,SCT:04 15 BKN:07 30 OVC:08 55,29.98,5.00,68,170,,13,,,,,,,,,,,,,,,,,,,,,,,,,,,,,,,,,,,,,MET15404/30/14 12:49:02 SPECI KCHS 301749Z 17011KT 5SM -TSRA SCT015 BKN030CB OVC055 22/19 A3003 RMK AO2 RAE01B20 PRESFR OCNL LTGICCA NE TS NE MOV NE P0024 (JMB),,,,,,,,,,,,,,,,,,,,,,,,,,,,
72208013880,2014-04-30T12:56:00,FM-15,7,,SE,0.25,mi,"TEMP, PRECIP, SNOW",,,"MMTS, SRG, SNOWBOARD",,,WFO CHS,,,,,,,,,,,,,,,,,,,,,,,,,,,30.02,66,71,0.25,TS:7 -RA:02 |RA TS TS |,+0.00,8,84,30.02,FEW:02 15 BKN:07 30 OVC:08 55,29.97,7.00,68,170,,14,,,,,,,,,,,,,,,,,,,,,,,,,,,,,,,,,,,,,MET18804/30/14 12:56:02 METAR KCHS 301756Z 17012KT 7SM -TSRA FEW015 BKN030CB OVC055 22/19 A3002 RMK AO2 RAE01B20 SLP166 OCNL LTGICCA NE TS NE MOV NE P0025 60108 T02170189 10272 20206 58001 (JMB),,,,,,,,,,,,,,,,,,,,,,,,,,,,
72208013880,2014-04-30T13:00:00,FM-12,4,,SE,0.25,mi,"TEMP, PRECIP, SNOW",,,"MMTS, SRG, SNOWBOARD",,,WFO CHS,,,,,,,,,,,,,,,,,,,,,,,,,,,,66,71,,,+0.00,8,84,30.02,15,29.97,6.84,68,170,,14,,,,,,,,,,,,,,,,,,,,,,,,,,,,,,,,,,,,,SYN08672208 11461 81712 10217 20189 30150 40166 58001 60271 91756 333 10272 20206 555 93018=,,,,,,,,,,,,,,,,,,,,,,,,,,,,
72208013880,2014-04-30T13:14:00,FM-16,7,,SE,0.25,mi,"TEMP, PRECIP, SNOW",,,"MMTS, SRG, SNOWBOARD",,,WFO CHS,,,,,,,,,,,,,,,,,,,,,,,,,,,29.99,68,72,T,,,,88,,FEW:02 30 SCT:04 90 BKN:07 200,29.94,10.00,69,160,,17,,,,,,,,,,,,,,,,,,,,,,,,,,,,,,,,,,,,,MET13104/30/14 13:14:02 SPECI KCHS 301814Z 16015KT 10SM FEW030 SCT090 BKN200 22/20 A2999 RMK AO2 TSE12RAE04 PRESFR CB DSNT NE P0000 (JMB),,,,,,,,,,,,,,,,,,,,,,,,,,,,
72208013880,2014-05-13T14:56:00,FM-15,7,,SE,0.25,mi,"TEMP, PRECIP, SNOW",,,"MMTS, SRG, SNOWBOARD",,,WFO CHS,,,,,,,,,,,,,,,,,,,,,,,,,,,30.14,66,87,0.00,,,,50,30.14,SCT:04 45 SCT:04 200,30.09,10.00,73,160,,11,,,,,,,,,,,,,,,,,,,,,,,,,,,,,,,,,,,,,MET10605/13/14 14:56:02 METAR KCHS 131956Z 16010KT 10SM SCT045 SCT200 31/19 A3014 RMK AO2 SLP205 T03060189 (BBE),,,,,,,,,,,,,,,,,,,,,,,,,,,,
72208013880,2014-05-13T17:56:00,FM-15,7,,SE,0.25,mi,"TEMP, PRECIP, SNOW",,,"MMTS, SRG, SNOWBOARD",,,WFO CHS,,,,,,,,,,,,,,,,,,,,,,,,,,,30.13,66,82,0.00,,,,58,30.13,FEW:02 40,30.08,10.00,71,170,,13,,,,,,,,,,,,,,,,,,,,,,,,,,,,,,,,,,,,,MET09905/13/14 17:56:02 METAR KCHS 132256Z 17011KT 10SM FEW040 28/19 A3013 RMK AO2 SLP202 T02780189 (BBE),,,,,,,,,,,,,,,,,,,,,,,,,,,,
72208013880,2014-05-14T10:56:00,FM-15,7,,SE,0.25,mi,"TEMP, PRECIP, SNOW",,,"MMTS, SRG, SNOWBOARD",,,WFO CHS,,,,,,,,,,,,,,,,,,,,,,,,,,,30.17,66,85,0.00,,,,53,30.17,SCT:04 30 BKN:07 40,30.12,10.00,72,150,21,13,,,,,,,,,,,,,,,,,,,,,,,,,,,,,,,,,,,,,MET10905/14/14 10:56:02 METAR KCHS 141556Z 15011G18KT 10SM SCT030 BKN040 29/19 A3017 RMK AO2 SLP217 T02940189 (JMB),,,,,,,,,,,,,,,,,,,,,,,,,,,,
72208013880,2014-05-14T12:56:00,FM-15,7,,SE,0.25,mi,"TEMP, PRECIP, SNOW",,,"MMTS, SRG, SNOWBOARD",,,WFO CHS,,,,,,,,,,,,,,,,,,,,,,,,,,,30.15,66,85,0.00,,+0.03,8,53,30.14,BKN:07 35 BKN:07 250,30.10,10.00,72,160,20,14,,,,,,,,,,,,,,,,,,,,,,,,,,,,,,,,,,,,,MET12705/14/14 12:56:02 METAR KCHS 141756Z 16012G17KT 10SM BKN035 BKN250 29/19 A3015 RMK AO2 SLP207 T02940189 10306 20239 58010 (JMB),,,,,,,,,,,,,,,,,,,,,,,,,,,,
72208013880,2014-05-14T13:00:00,FM-12,4,,SE,0.25,mi,"TEMP, PRECIP, SNOW",,,"MMTS, SRG, SNOWBOARD",,,WFO CHS,,,,,,,,,,,,,,,,,,,,,,,,,,,,66,85,,,+0.03,8,53,30.14,41,30.10,9.94,72,160,,14,,,,,,,,,,,,,,,,,,,,,,,,,,,,,,,,,,,,,SYN08672208 32666 61612 10294 20189 30194 40207 58010 91756 333 10306 20239 91017 555 91418=,,,,,,,,,,,,,,,,,,,,,,,,,,,,
72208013880,2014-05-15T10:56:00,FM-15,7,,SE,0.25,mi,"TEMP, PRECIP, SNOW",,,"MMTS, SRG, SNOWBOARD",,,WFO CHS,,,,,,,,,,,,,,,,,,,,,,,,,,,29.99,70,77,T,-RA:02 |RA |,,,79,29.98,SCT:04 15 BKN:07 30 BKN:07 55,29.94,10.00,72,160,25,17,,,,,,,,,,,,,,,,,,,,,,,,,,,,,,,,,,,,,MET16005/15/14 10:56:02 METAR KCHS 151556Z 16015G22KT 10SM -RA SCT015 BKN030 BKN055 25/21 A2999 RMK AO2 PK WND 18026/1520 RAB06 SLP153 SCT V BKN P0000 T02500211 (JMB),,,,,,,,,,,,,,,,,,,,,,,,,,,,
72208013880,2014-05-15T12:42:00,FM-16,7,,SE,0.25,mi,"TEMP, PRECIP, SNOW",,,"MMTS, SRG, SNOWBOARD",,,WFO CHS,,,,,,,,,,,,,,,,,,,,,,,,,,,29.99,70,73,0.14,-RA:02 BR:1 |RA |,,,89,,SCT:04 10 BKN:07 20 OVC:08 55,29.94,6.00,71,170,,14,,,,,,,,,,,,,,,,,,,,,,,,,,,,,,,,,,,,,MET12605/15/14 12:42:02 SPECI KCHS 151742Z 17012KT 6SM -RA BR SCT010 BKN020 OVC055 23/21 A2999 RMK AO2 PK WND 17032/1713 P0014 (JMB),,,,,,,,,,,,,,,,,,,,,,,,,,,,
72208013880,2014-05-15T14:48:00,FM-16,7,,SE,0.25,mi,"TEMP, PRECIP, SNOW",,,"MMTS, SRG, SNOWBOARD",,,WFO CHS,,,,,,,,,,,,,,,,,,,,,,,,,,,29.91,70,73,0.09,,,,89,,SCT:04 7 BKN:07 25 OVC:08 45,29.86,7.00,71,160,29,15,,,,,,,,,,,,,,,,,,,,,,,,,,,,,,,,,,,,,MET12805/15/14 14:48:02 SPECI KCHS 151948Z 16013G25KT 7SM SCT007 BKN025 OVC045 23/21 A2991 RMK AO2 PK WND 15027/1913 RAE47 P0009 (BBE),,,,,,,,,,,,,,,,,,,,,,,,,,,,
72208013880,2014-05-15T16:56:00,FM-15,7,,SE,0.25,mi,"TEMP, PRECIP, SNOW",,,"MMTS, SRG, SNOWBOARD",,,WFO CHS,,,,,,,,,,,,,,,,,,,,,,,,,,,29.86,73,77,0.02,-RA:02 |RA |,,,88,29.86,BKN:07 12 OVC:08 20,29.81,7.00,74,160,24,15,,,,,,,,,,,,,,,,,,,,,,,,,,,,,,,,,,,,,MET12405/15/14 16:56:02 METAR KCHS 152156Z 16013G21KT 7SM -RA BKN012 OVC020 25/23 A2986 RMK AO2 RAB19 SLP111 P0002 T02500228 (BBE),,,,,,,,,,,,,,,,,,,,,,,,,,,,
72208013880,2014-05-20T13:56:00,FM-15,7,,SE,0.25,mi,"TEMP, PRECIP, SNOW",,,"MMTS, SRG, SNOWBOARD",,,WFO CHS,,,,,,,,,,,,,,,,,,,,,,,,,,,30.24,52,80,0.00,,,,38,30.24,FEW:02 60,30.19,10.00,64,150,17,14,,,,,,,,,,,,,,,,,,,,,,,,,,,,,,,,,,,,,MET10205/20/14 13:56:02 METAR KCHS 201856Z 15012G15KT 10SM FEW060 27/11 A3024 RMK AO2 SLP239 T02670111 (JMB),,,,,,,,,,,,,,,,,,,,,,,,,,,,
72208013880,2014-05-24T16:56:00,FM-15,7,,SE,0.25,mi,"TEMP, PRECIP, SNOW",,,"MMTS, SRG, SNOWBOARD",,,WFO CHS,,,,,,,,,,,,,,,,,,,,,,,,,,,30.04,62,82,0.00,,,,51,30.04,FEW:02 150 BKN:07 250,29.99,10.00,69,150,,10,,,,,,,,,,,,,,,,,,,,,,,,,,,,,,,,,,,,,MET10605/24/14 16:56:02 METAR KCHS 242156Z 15009KT 10SM FEW150 BKN250 28/17 A3004 RMK AO2 SLP172 T02780167 (JRS),,,,,,,,,,,,,,,,,,,,,,,,,,,,
72208013880,2014-05-25T12:56:00,FM-15,7,,SE,0.25,mi,"TEMP, PRECIP, SNOW",,,"MMTS, SRG, SNOWBOARD",,,WFO CHS,,,,,,,,,,,,,,,,,,,,,,,,,,,30.17,59,82,T,,+0.02,8,46,30.17,SCT:04 30 SCT:04 80,30.12,10.00,68,150,,11,,,,,,,,,,,,,,,,,,,,,,,,,,,,,,,,,,,,,MET14505/25/14 12:56:02 METAR KCHS 251756Z 15010KT 10SM SCT030 SCT080 28/15 A3017 RMK AO2 RAB28E46 SLP217 P0000 60000 T02780150 10283 20228 58007 (JSN),,,,,,,,,,,,,,,,,,,,,,,,,,,,
72208013880,2014-05-25T13:00:00,FM-12,4,,SE,0.25,mi,"TEMP, PRECIP, SNOW",,,"MMTS, SRG, SNOWBOARD",,,WFO CHS,,,,,,,,,,,,,,,,,,,,,,,,,,,,59,82,,,+0.02,8,46,30.17,26,30.12,9.94,68,150,,11,,,,,,,,,,,,,,,,,,,,,,,,,,,,,,,,,,,,,SYN08672208 12566 41510 10278 20150 30201 40217 58007 69901 91756 333 10283 20228 555 92518=,,,,,,,,,,,,,,,,,,,,,,,,,,,,
72208013880,2014-05-25T13:56:00,FM-15,7,,SE,0.25,mi,"TEMP, PRECIP, SNOW",,,"MMTS, SRG, SNOWBOARD",,,WFO CHS,,,,,,,,,,,,,,,,,,,,,,,,,,,30.16,59,83,0.00,,,,44,30.16,FEW:02 35 SCT:04 80,30.11,10.00,68,150,,9,,,,,,,,,,,,,,,,,,,,,,,,,,,,,,,,,,,,,MET10605/25/14 13:56:02 METAR KCHS 251856Z 15008KT 10SM FEW035 SCT080 28/15 A3016 RMK AO2 SLP213 T02830150 (JSN),,,,,,,,,,,,,,,,,,,,,,,,,,,,
72208013880,2014-05-25T14:56:00,FM-15,7,,SE,0.25,mi,"TEMP, PRECIP, SNOW",,,"MMTS, SRG, SNOWBOARD",,,WFO CHS,,,,,,,,,,,,,,,,,,,,,,,,,,,30.15,58,84,0.00,,,,41,30.14,FEW:02 38 SCT:04 120 BKN:07 200,30.10,10.00,68,160,,10,,,,,,,,,,,,,,,,,,,,,,,,,,,,,,,,,,,,,MET11305/25/14 14:56:02 METAR KCHS 251956Z 16009KT 10SM FEW038 SCT120 BKN200 29/14 A3015 RMK AO2 SLP208 T02890144 (JRS),,,,,,,,,,,,,,,,,,,,,,,,,,,,
72208013880,2014-05-25T15:56:00,FM-15,7,,SE,0.25,mi,"TEMP, PRECIP, SNOW",,,"MMTS, SRG, SNOWBOARD",,,WFO CHS,,,,,,,,,,,,,,,,,,,,,,,,,,,30.14,56,81,0.00,,+0.03,6,42,30.14,FEW:02 38 SCT:04 120 BKN:07 200,30.09,10.00,66,160,,11,,,,,,,,,,,,,,,,,,,,,,,,,,,,,,,,,,,,,MET11905/25/14 15:56:02 METAR KCHS 252056Z 16010KT 10SM FEW038 SCT120 BKN200 27/13 A3014 RMK AO2 SLP207 T02720133 56010 (JRS),,,,,,,,,,,,,,,,,,,,,,,,,,,,
72208013880,2014-05-25T16:00:00,FM-12,4,,SE,0.25,mi,"TEMP, PRECIP, SNOW",,,"MMTS, SRG, SNOWBOARD",,,WFO CHS,,,,,,,,,,,,,,,,,,,,,,,,,,,,56,81,,,+0.03,6,42,30.14,41,30.09,9.94,66,160,,11,,,,,,,,,,,,,,,,,,,,,,,,,,,,,,,,,,,,,SYN06472208 32666 61610 10272 20133 30190 40207 56010 92056 555 92521=,,,,,,,,,,,,,,,,,,,,,,,,,,,,
72208013880,2014-05-26T13:56:00,FM-15,7,,SE,0.25,mi,"TEMP, PRECIP, SNOW",,,"MMTS, SRG, SNOWBOARD",,,WFO CHS,,,,,,,,,,,,,,,,,,,,,,,,,,,30.19,61,87,0.00,,,,42,30.19,SCT:04 45 SCT:04 60,30.14,10.00,70,170,,13,,,,,,,,,,,,,,,,,,,,,,,,,,,,,,,,,,,,,MET11805/26/14 13:56:02 METAR KCHS 261856Z 17011KT 10SM SCT045 SCT060 31/16 A3019 RMK AO2 SLP223 MDT CU SW-W T03060161 (JMB),,,,,,,,,,,,,,,,,,,,,,,,,,,,
72208013880,2014-05-29T14:56:00,FM-15,7,,SE,0.25,mi,"TEMP, PRECIP, SNOW",,,"MMTS, SRG, SNOWBOARD",,,WFO CHS,,,,,,,,,,,,,,,,,,,,,,,,,,,29.99,69,88,0.00,,,,54,29.99,SCT:04 45 SCT:04 55 BKN:07 70,29.94,10.00,75,170,,16,,,,,,,,,,,,,,,,,,,,,,,,,,,,,,,,,,,,,MET12605/29/14 14:56:02 METAR KCHS 291956Z 17014KT 10SM SCT045TCU SCT055 BKN070 31/21 A2999 RMK AO2 SLP156 TCU SE-SW T03110206 (BBE),,,,,,,,,,,,,,,,,,,,,,,,,,,,
72208013880,2014-05-29T15:56:00,FM-15,7,,SE,0.25,mi,"TEMP, PRECIP, SNOW",,,"MMTS, SRG, SNOWBOARD",,,WFO CHS,,,,,,,,,,,,,,,,,,,,,,,,,,,29.98,69,87,T,,+0.06,6,55,29.98,FEW:02 40 SCT:04 55 SCT:04 250,29.93,10.00,75,170,,11,,,,,,,,,,,,,,,,,,,,,,,,,,,,,,,,,,,,,MET15205/29/14 15:56:02 METAR KCHS 292056Z 17010KT 10SM FEW040 SCT055 SCT250 31/21 A2998 RMK AO2 RAB09E19 SLP152 MDT CU W-NW P0000 60000 T03060206 56021 (BBE),,,,,,,,,,,,,,,,,,,,,,,,,,,,
72208013880,2014-05-29T16:00:00,FM-12,4,,SE,0.25,mi,"TEMP, PRECIP, SNOW",,,"MMTS, SRG, SNOWBOARD",,,WFO CHS,,,,,,,,,,,,,,,,,,,,,,,,,,,,69,87,,,+0.06,6,55,29.98,41,29.93,9.94,75,170,,11,,,,,,,,,,,,,,,,,,,,,,,,,,,,,,,,,,,,,SYN07072208 12666 41710 10306 20206 30136 40152 56021 69907 92056 555 92921=,,,,,,,,,,,,,,,,,,,,,,,,,,,,
72208013880,2014-05-29T17:56:00,FM-15,7,,SE,0.25,mi,"TEMP, PRECIP, SNOW",,,"MMTS, SRG, SNOWBOARD",,,WFO CHS,,,,,,,,,,,,,,,,,,,,,,,,,,,30.00,65,84,0.00,,,,53,29.99,FEW:02 40 SCT:04 120 BKN:07 250,29.95,10.00,72,170,,13,,,,,,,,,,,,,,,,,,,,,,,,,,,,,,,,,,,,,MET12705/29/14 17:56:02 METAR KCHS 292256Z 17011KT 10SM FEW040 SCT120 BKN250 29/18 A3000 RMK AO2 SLP157 TCU DSNT NW-N T02890183 (BBE),,,,,,,,,,,,,,,,,,,,,,,,,,,,
72208013880,2014-05-31T12:56:00,FM-15,7,,SE,0.25,mi,"TEMP, PRECIP, SNOW",,,"MMTS, SRG, SNOWBOARD",,,WFO CHS,,,,,,,,,,,,,,,,,,,,,,,,,,,30.10,71,76,0.01,TS:7 -RA:02 |RA TS TS |,+0.00,5,85,30.10,BKN:07 20 BKN:07 30,30.05,9.00,73,170,,8,,,,,,,,,,,,,,,,,,,,,,,,,,,,,,,,,,,,,MET19105/31/14 12:56:02 METAR KCHS 311756Z 17007KT 9SM -TSRA BKN020 BKN030CB 24/22 A3010 RMK AO2 TSE11B18RAB50 SLP193 OCNL LTGIC NE-SE TS NE-SE MOV S P0000 60000 T02440217 10278 20239 55000 $ (JSN),,,,,,,,,,,,,,,,,,,,,,,,,,,,
72208013880,2014-05-31T13:00:00,FM-12,4,,SE,0.25,mi,"TEMP, PRECIP, SNOW",,,"MMTS, SRG, SNOWBOARD",,,WFO CHS,,,,,,,,,,,,,,,,,,,,,,,,,,,,71,76,,,+0.00,5,85,30.10,26,30.05,8.70,73,170,,8,,,,,,,,,,,,,,,,,,,,,,,,,,,,,,,,,,,,,SYN08672208 11564 61707 10244 20217 30177 40193 55000 69901 91756 333 10278 20222 555 93118=,,,,,,,,,,,,,,,,,,,,,,,,,,,,
72208013880,2014-06-06T15:56:00,FM-15,7,,SE,0.25,mi,"TEMP, PRECIP, SNOW",,,"MMTS, SRG, SNOWBOARD",,,WFO CHS,,,,,,,,,,,,,,,,,,,,,,,,,,,29.87,73,84,0.00,,+0.00,5,70,29.87,FEW:02 35 SCT:04 45 BKN:07 200,29.82,10.00,76,160,,7,,,,,,,,,,,,,,,,,,,,,,,,,,,,,,,,,,,,,MET14906/06/14 15:56:02 METAR KCHS 062056Z 16006KT 10SM FEW035 SCT045 BKN200 29/23 A2987 RMK AO2 TSE22 SLP115 TCU DSNT E AND SW 60000 T02890228 55000 (BBE),,,,,,,,,,,,,,,,,,,,,,,,,,,,
72208013880,2014-06-06T16:00:00,FM-12,4,,SE,0.25,mi,"TEMP, PRECIP, SNOW",,,"MMTS, SRG, SNOWBOARD",,,WFO CHS,,,,,,,,,,,,,,,,,,,,,,,,,,,,73,84,,,+0.00,5,70,29.87,41,29.82,9.94,76,160,,7,,,,,,,,,,,,,,,,,,,,,,,,,,,,,,,,,,,,,SYN07072208 12666 61606 10289 20228 30099 40115 55000 69907 92056 555 90621=,,,,,,,,,,,,,,,,,,,,,,,,,,,,
72208013880,2014-06-08T13:33:00,FM-16,7,,SE,0.25,mi,"TEMP, PRECIP, SNOW",,,"MMTS, SRG, SNOWBOARD",,,WFO CHS,,,,,,,,,,,,,,,,,,,,,,,,,,,29.97,70,81,T,-RA:02 |RA |,,,70,,BKN:07 23 BKN:07 40,29.92,6.00,74,160,,11,,,,,,,,,,,,,,,,,,,,,,,,,,,,,,,,,,,,,MET11506/08/14 13:33:02 SPECI KCHS 081833Z 16010KT 6SM -RA BKN023CB BKN040 27/21 A2997 RMK AO2 RAB28 CB SW-NW MOV E P0000,,,,,,,,,,,,,,,,,,,,,,,,,,,,
72208013880,2014-06-08T14:02:00,FM-16,7,,SE,0.25,mi,"TEMP, PRECIP, SNOW",,,"MMTS, SRG, SNOWBOARD",,,WFO CHS,,,,,,,,,,,,,,,,,,,,,,,,,,,29.97,72,77,0.01,RA:02 |RA |,,,83,,FEW:02 24 BKN:07 43 OVC:08 50,29.92,8.00,74,150,,7,,,,,,,,,,,,,,,,,,,,,,,,,,,,,,,,,,,,,MET09806/08/14 14:02:02 SPECI KCHS 081902Z 15006KT 8SM RA FEW024 BKN043 OVC050 25/22 A2997 RMK AO2 P0001,,,,,,,,,,,,,,,,,,,,,,,,,,,,
72208013880,2014-06-08T14:14:00,FM-16,7,,SE,0.25,mi,"TEMP, PRECIP, SNOW",,,"MMTS, SRG, SNOWBOARD",,,WFO CHS,,,,,,,,,,,,,,,,,,,,,,,,,,,29.98,72,77,0.05,+RA:02 |RA |,,,83,,BKN:07 24 OVC:08 43,29.93,2.00,74,170,,9,,,,,,,,,,,,,,,,,,,,,,,,,,,,,,,,,,,,,MET09806/08/14 14:14:02 SPECI KCHS 081914Z 17008KT 2SM +RA BKN024 OVC043 25/22 A2998 RMK AO2 P0005 (JRS),,,,,,,,,,,,,,,,,,,,,,,,,,,,
72208013880,2014-06-11T16:56:00,FM-15,7,,SE,0.25,mi,"TEMP, PRECIP, SNOW",,,"MMTS, SRG, SNOWBOARD",,,WFO CHS,,,,,,,,,,,,,,,,,,,,,,,,,,,29.89,68,86,0.00,,,,55,29.88,FEW:02 35 SCT:04 250,29.84,10.00,74,170,,17,,,,,,,,,,,,,,,,,,,,,,,,,,,,,,,,,,,,,MET10606/11/14 16:56:02 METAR KCHS 112156Z 17015KT 10SM FEW035 SCT250 30/20 A2989 RMK AO2 SLP119 T03000200 (BBE),,,,,,,,,,,,,,,,,,,,,,,,,,,,
72208013880,2014-06-11T17:56:00,FM-15,7,,SE,0.25,mi,"TEMP, PRECIP, SNOW",,,"MMTS, SRG, SNOWBOARD",,,WFO CHS,,,,,,,,,,,,,,,,,,,,,,,,,,,29.88,70,83,0.00,,,,65,29.88,FEW:02 25 SCT:04 150 SCT:04 250,29.83,10.00,74,160,,13,,,,,,,,,,,,,,,,,,,,,,,,,,,,,,,,,,,,,MET11306/11/14 17:56:02 METAR KCHS 112256Z 16011KT 10SM FEW025 SCT150 SCT250 28/21 A2988 RMK AO2 SLP119 T02830211 (BBE),,,,,,,,,,,,,,,,,,,,,,,,,,,,
72208013880,2014-06-14T16:17:00,FM-16,7,,SE,0.25,mi,"TEMP, PRECIP, SNOW",,,"MMTS, SRG, SNOWBOARD",,,WFO CHS,,,,,,,,,,,,,,,,,,,,,,,,,,,29.98,70,75,0.11,-RA:02 |RA |,,,83,,FEW:02 26 BKN:07 35 OVC:08 60,29.93,5.00,72,170,,14,,,,,,,,,,,,,,,,,,,,,,,,,,,,,,,,,,,,,MET13306/14/14 16:17:02 SPECI KCHS 142117Z 17012KT 5SM -RA FEW026 BKN035CB OVC060 24/21 A2998 RMK AO2 WSHFT 2058 CB E-S MOV E P0011 $ (JRS),,,,,,,,,,,,,,,,,,,,,,,,,,,,
72208013880,2014-06-14T16:23:00,FM-16,7,,SE,0.25,mi,"TEMP, PRECIP, SNOW",,,"MMTS, SRG, SNOWBOARD",,,WFO CHS,,,,,,,,,,,,,,,,,,,,,,,,,,,29.97,70,75,0.11,TS:7 -RA:02 |RA TS TS |,,,83,,FEW:02 26 BKN:07 35 OVC:08 60,29.92,6.00,72,170,,15,,,,,,,,,,,,,,,,,,,,,,,,,,,,,,,,,,,,,MET15606/14/14 16:23:02 SPECI KCHS 142123Z 17013KT 6SM -TSRA FEW026 BKN035CB OVC060 24/21 A2997 RMK AO2 WSHFT 2058 TSB23 OCNL LTGIC E-S TS E-S MOV E P0011 $ (JRS),,,,,,,,,,,,,,,,,,,,,,,,,,,,
72208013880,2014-06-15T13:56:00,FM-15,7,,SE,0.25,mi,"TEMP, PRECIP, SNOW",,,"MMTS, SRG, SNOWBOARD",,,WFO CHS,,,,,,,,,,,,,,,,,,,,,,,,,,,30.10,73,90,0.00,,,,58,30.09,FEW:02 32 SCT:04 45,30.05,10.00,78,170,,11,,,,,,,,,,,,,,,,,,,,,,,,,,,,,,,,,,,,,MET10806/15/14 13:56:02 METAR KCHS 151856Z 17010KT 10SM FEW032 SCT045 32/23 A3010 RMK AO2 SLP191 T03220228 $ (JSN),,,,,,,,,,,,,,,,,,,,,,,,,,,,
72208013880,2014-06-15T14:56:00,FM-15,7,,SE,0.25,mi,"TEMP, PRECIP, SNOW",,,"MMTS, SRG, SNOWBOARD",,,WFO CHS,,,,,,,,,,,,,,,,,,,,,,,,,,,30.08,71,88,0.00,,,,57,30.08,FEW:02 33 SCT:04 250,30.03,10.00,76,160,,11,,,,,,,,,,,,,,,,,,,,,,,,,,,,,,,,,,,,,MET12206/15/14 14:56:02 METAR KCHS 151956Z 16010KT 10SM FEW033TCU SCT250 31/22 A3008 RMK AO2 SLP185 TCU W-N-NE T03110217 $ (JRS),,,,,,,,,,,,,,,,,,,,,,,,,,,,
72208013880,2014-06-15T16:56:00,FM-15,7,,SE,0.25,mi,"TEMP, PRECIP, SNOW",,,"MMTS, SRG, SNOWBOARD",,,WFO CHS,,,,,,,,,,,,,,,,,,,,,,,,,,,30.08,72,88,0.00,,,,59,30.07,FEW:02 30 SCT:04 39 SCT:04 250,30.03,10.00,77,160,,11,,,,,,,,,,,,,,,,,,,,,,,,,,,,,,,,,,,,,MET11506/15/14 16:56:02 METAR KCHS 152156Z 16010KT 10SM FEW030 SCT039 SCT250 31/22 A3008 RMK AO2 SLP184 T03110222 $ (JRS),,,,,,,,,,,,,,,,,,,,,,,,,,,,
72208013880,2014-06-16T11:56:00,FM-15,7,,SE,0.25,mi,"TEMP, PRECIP, SNOW",,,"MMTS, SRG, SNOWBOARD",,,WFO CHS,,,,,,,,,,,,,,,,,,,,,,,,,,,30.18,72,89,0.00,,,,57,30.17,SCT:04 40 SCT:04 250,30.13,10.00,77,150,,9,,,,,,,,,,,,,,,,,,,,,,,,,,,,,,,,,,,,,MET10606/16/14 11:56:02 METAR KCHS 161656Z 15008KT 10SM SCT040 SCT250 32/22 A3018 RMK AO2 SLP218 T03170222 (JMB),,,,,,,,,,,,,,,,,,,,,,,,,,,,
72208013880,2014-06-16T13:56:00,FM-15,7,,SE,0.25,mi,"TEMP, PRECIP, SNOW",,,"MMTS, SRG, SNOWBOARD",,,WFO CHS,,,,,,,,,,,,,,,,,,,,,,,,,,,30.17,73,89,0.00,,,,59,30.16,FEW:02 30 SCT:04 45,30.12,10.00,78,150,,16,,,,,,,,,,,,,,,,,,,,,,,,,,,,,,,,,,,,,MET12306/16/14 13:56:02 METAR KCHS 161856Z 15014KT 10SM FEW030 SCT045 32/23 A3017 RMK AO2 SLP214 MDT CU NE AND SW T03170228 (JMB),,,,,,,,,,,,,,,,,,,,,,,,,,,,
72208013880,2014-06-16T15:56:00,FM-15,7,,SE,0.25,mi,"TEMP, PRECIP, SNOW",,,"MMTS, SRG, SNOWBOARD",,,WFO CHS,,,,,,,,,,,,,,,,,,,,,,,,,,,30.14,71,84,0.00,,+0.03,8,65,30.14,FEW:02 30 SCT:04 250,30.09,10.00,75,160,,9,,,,,,,,,,,,,,,,,,,,,,,,,,,,,,,,,,,,,MET11206/16/14 15:56:02 METAR KCHS 162056Z 16008KT 10SM FEW030 SCT250 29/22 A3014 RMK AO2 SLP206 T02890217 58010 (BBE),,,,,,,,,,,,,,,,,,,,,,,,,,,,
72208013880,2014-06-16T16:00:00,FM-12,4,,SE,0.25,mi,"TEMP, PRECIP, SNOW",,,"MMTS, SRG, SNOWBOARD",,,WFO CHS,,,,,,,,,,,,,,,,,,,,,,,,,,,,71,84,,,+0.03,8,65,30.14,26,30.09,9.94,75,160,,9,,,,,,,,,,,,,,,,,,,,,,,,,,,,,,,,,,,,,SYN06472208 32566 41608 10289 20217 30190 40206 58010 92056 555 91621=,,,,,,,,,,,,,,,,,,,,,,,,,,,,
72208013880,2014-06-16T17:56:00,FM-15,7,,SE,0.25,mi,"TEMP, PRECIP, SNOW",,,"MMTS, SRG, SNOWBOARD",,,WFO CHS,,,,,,,,,,,,,,,,,,,,,,,,,,,30.13,71,85,0.00,,,,63,30.13,FEW:02 30 SCT:04 80 SCT:04 250,30.08,10.00,75,170,,8,,,,,,,,,,,,,,,,,,,,,,,,,,,,,,,,,,,,,MET11306/16/14 17:56:02 METAR KCHS 162256Z 17007KT 10SM FEW030 SCT080 SCT250 29/22 A3013 RMK AO2 SLP203 T02940217 (BBE),,,,,,,,,,,,,,,,,,,,,,,,,,,,
72208013880,2014-06-17T12:56:00,FM-15,7,,SE,0.25,mi,"TEMP, PRECIP, SNOW",,,"MMTS, SRG, SNOWBOARD",,,WFO CHS,,,,,,,,,,,,,,,,,,,,,,,,,,,30.17,69,91,0.00,,+0.04,8,49,30.16,SCT:04 45 SCT:04 250,30.12,10.00,76,150,,11,,,,,,,,,,,,,,,,,,,,,,,,,,,,,,,,,,,,,MET12406/17/14 12:56:02 METAR KCHS 171756Z 15010KT 10SM SCT045 SCT250 33/21 A3017 RMK AO2 SLP214 T03280206 10333 20256 58012 (JMB),,,,,,,,,,,,,,,,,,,,,,,,,,,,
72208013880,2014-06-17T13:00:00,FM-12,4,,SE,0.25,mi,"TEMP, PRECIP, SNOW",,,"MMTS, SRG, SNOWBOARD",,,WFO CHS,,,,,,,,,,,,,,,,,,,,,,,,,,,,69,91,,,+0.04,8,49,30.16,41,30.12,9.94,76,150,,11,,,,,,,,,,,,,,,,,,,,,,,,,,,,,,,,,,,,,SYN08072208 32666 41510 10328 20206 30201 40214 58012 91756 333 10333 20256 555 91718=,,,,,,,,,,,,,,,,,,,,,,,,,,,,
72208013880,2014-06-17T14:56:00,FM-15,7,,SE,0.25,mi,"TEMP, PRECIP, SNOW",,,"MMTS, SRG, SNOWBOARD",,,WFO CHS,,,,,,,,,,,,,,,,,,,,,,,,,,,30.14,68,90,0.00,,,,48,30.14,FEW:02 45,30.09,10.00,75,150,,11,,,,,,,,,,,,,,,,,,,,,,,,,,,,,,,,,,,,,MET09906/17/14 14:56:02 METAR KCHS 171956Z 15010KT 10SM FEW045 32/20 A3014 RMK AO2 SLP205 T03220200 (BBE),,,,,,,,,,,,,,,,,,,,,,,,,,,,
72208013880,2014-06-17T15:56:00,FM-15,7,,SE,0.25,mi,"TEMP, PRECIP, SNOW",,,"MMTS, SRG, SNOWBOARD",,,WFO CHS,,,,,,,,,,,,,,,,,,,,,,,,,,,30.13,65,89,0.00,,+0.04,6,45,30.13,FEW:02 45,30.08,10.00,73,170,,14,,,,,,,,,,,,,,,,,,,,,,,,,,,,,,,,,,,,,MET10506/17/14 15:56:02 METAR KCHS 172056Z 17012KT 10SM FEW045 32/18 A3013 RMK AO2 SLP203 T03170183 56012 (BBE),,,,,,,,,,,,,,,,,,,,,,,,,,,,
72208013880,2014-06-17T16:00:00,FM-12,4,,SE,0.25,mi,"TEMP, PRECIP, SNOW",,,"MMTS, SRG, SNOWBOARD",,,WFO CHS,,,,,,,,,,,,,,,,,,,,,,,,,,,,65,89,,,+0.04,6,45,30.13,41,30.08,9.94,73,170,,14,,,,,,,,,,,,,,,,,,,,,,,,,,,,,,,,,,,,,SYN06472208 32666 21712 10317 20183 30187 40203 56012 92056 555 91721=,,,,,,,,,,,,,,,,,,,,,,,,,,,,
72208013880,2014-06-17T16:56:00,FM-15,7,,SE,0.25,mi,"TEMP, PRECIP, SNOW",,,"MMTS, SRG, SNOWBOARD",,,WFO CHS,,,,,,,,,,,,,,,,,,,,,,,,,,,30.13,60,88,0.00,,,,39,30.13,CLR:00,30.08,10.00,70,150,,11,,,,,,,,,,,,,,,,,,,,,,,,,,,,,,,,,,,,,MET09606/17/14 16:56:02 METAR KCHS 172156Z 15010KT 10SM CLR 31/16 A3013 RMK AO2 SLP203 T03110156 (BBE),,,,,,,,,,,,,,,,,,,,,,,,,,,,
72208013880,2014-06-18T16:56:00,FM-15,7,,SE,0.25,mi,"TEMP, PRECIP, SNOW",,,"MMTS, SRG, SNOWBOARD",,,WFO CHS,,,,,,,,,,,,,,,,,,,,,,,,,,,30.11,68,89,0.00,,,,50,30.11,FEW:02 100,30.06,10.00,75,170,,13,,,,,,,,,,,,,,,,,,,,,,,,,,,,,,,,,,,,,MET09906/18/14 16:56:02 METAR KCHS 182156Z 17011KT 10SM FEW100 32/20 A3011 RMK AO2 SLP195 T03170200 (DAW),,,,,,,,,,,,,,,,,,,,,,,,,,,,
72208013880,2014-06-21T17:56:00,FM-15,6,,SE,0.25,mi,"TEMP, PRECIP, SNOW",,,"MMTS, SRG, SNOWBOARD",,,WFO CHS,,,,,,,,,,,,,,,,,,,,,,,,,,,29.82,72,84,0.14,TS:7 |TS |,,,67,29.82,FEW:02 30 SCT:04 80 BKN:07 250,29.77,10.00,76,160,,15,,,,,,,,,,,,,,,,,,,,,,,,,,,,,,,,,,,,,MET21506/21/14 17:56:02 METAR KCHS 212256Z 16013KT 10SM TS FEW030CB SCT080 BKN250 29/22 A2982 RMK AO2 PK WND 14029/2201 RAE10GSE2159 PRESFR SLP097 OCNL LTGICCC SE-SW TS SE-SW MOV SE CB DSNT NW P0030 T02890222 $ FIBI (JRS),,,,,,,,,,,,,,,,,,,,,,,,,,,,
72208013880,2014-07-01T12:56:00,FM-15,7,,SE,0.25,mi,"TEMP, PRECIP, SNOW",,,"MMTS, SRG, SNOWBOARD",,,WFO CHS,,,,,,,,,,,,,,,,,,,,,,,,,,,29.96,69,93,0.00,,+0.05,8,46,29.95,SCT:04 40 SCT:04 250,29.91,10.00,76,170,,8,,,,,,,,,,,,,,,,,,,,,,,,,,,,,,,,,,,,,MET12407/01/14 12:56:02 METAR KCHS 011756Z 17007KT 10SM SCT040 SCT250 34/21 A2996 RMK AO2 SLP143 T03390206 10339 20267 58018 (JMB),,,,,,,,,,,,,,,,,,,,,,,,,,,,
72208013880,2014-07-01T13:00:00,FM-12,4,,SE,0.25,mi,"TEMP, PRECIP, SNOW",,,"MMTS, SRG, SNOWBOARD",,,WFO CHS,,,,,,,,,,,,,,,,,,,,,,,,,,,,69,93,,,+0.05,8,46,29.95,41,29.91,9.94,76,170,,8,,,,,,,,,,,,,,,,,,,,,,,,,,,,,,,,,,,,,SYN08072208 32666 41707 10339 20206 30129 40143 58018 91756 333 10339 20267 555 90118=,,,,,,,,,,,,,,,,,,,,,,,,,,,,
72208013880,2014-07-01T13:56:00,FM-15,7,,SE,0.25,mi,"TEMP, PRECIP, SNOW",,,"MMTS, SRG, SNOWBOARD",,,WFO CHS,,,,,,,,,,,,,,,,,,,,,,,,,,,29.96,72,90,0.00,,,,56,29.96,FEW:02 40 SCT:04 55 SCT:04 250,29.91,10.00,77,160,,11,,,,,,,,,,,,,,,,,,,,,,,,,,,,,,,,,,,,,MET11307/01/14 13:56:02 METAR KCHS 011856Z 16010KT 10SM FEW040 SCT055 SCT250 32/22 A2996 RMK AO2 SLP144 T03220222 (JMB),,,,,,,,,,,,,,,,,,,,,,,,,,,,
72208013880,2014-07-01T14:56:00,FM-15,7,,SE,0.25,mi,"TEMP, PRECIP, SNOW",,,"MMTS, SRG, SNOWBOARD",,,WFO CHS,,,,,,,,,,,,,,,,,,,,,,,,,,,29.94,72,91,0.00,,,,54,29.93,FEW:02 35 SCT:04 50 SCT:04 250,29.89,10.00,78,160,20,10,,,,,,,,,,,,,,,,,,,,,,,,,,,,,,,,,,,,,MET11607/01/14 14:56:02 METAR KCHS 011956Z 16009G17KT 10SM FEW035 SCT050 SCT250 33/22 A2994 RMK AO2 SLP137 T03280222 (BBE),,,,,,,,,,,,,,,,,,,,,,,,,,,,
72208013880,2014-07-01T15:56:00,FM-15,7,,SE,0.25,mi,"TEMP, PRECIP, SNOW",,,"MMTS, SRG, SNOWBOARD",,,WFO CHS,,,,,,,,,,,,,,,,,,,,,,,,,,,29.94,69,91,0.00,,+0.02,8,49,29.93,FEW:02 40 SCT:04 250,29.89,10.00,76,170,,7,,,,,,,,,,,,,,,,,,,,,,,,,,,,,,,,,,,,,MET11207/01/14 15:56:02 METAR KCHS 012056Z 17006KT 10SM FEW040 SCT250 33/21 A2994 RMK AO2 SLP137 T03280206 58006 (BBE),,,,,,,,,,,,,,,,,,,,,,,,,,,,
72208013880,2014-07-01T16:00:00,FM-12,4,,SE,0.25,mi,"TEMP, PRECIP, SNOW",,,"MMTS, SRG, SNOWBOARD",,,WFO CHS,,,,,,,,,,,,,,,,,,,,,,,,,,,,69,91,,,+0.02,8,49,29.93,41,29.89,9.94,76,170,,7,,,,,,,,,,,,,,,,,,,,,,,,,,,,,,,,,,,,,SYN06472208 32666 41706 10328 20206 30123 40137 58006 92056 555 90121=,,,,,,,,,,,,,,,,,,,,,,,,,,,,
72208013880,2014-07-02T10:56:00,FM-15,7,,SE,0.25,mi,"TEMP, PRECIP, SNOW",,,"MMTS, SRG, SNOWBOARD",,,WFO CHS,,,,,,,,,,,,,,,,,,,,,,,,,,,30.00,72,90,0.00,,,,56,30.00,FEW:02 30 SCT:04 250,29.95,10.00,77,170,,14,,,,,,,,,,,,,,,,,,,,,,,,,,,,,,,,,,,,,MET10607/02/14 10:56:02 METAR KCHS 021556Z 17012KT 10SM FEW030 SCT250 32/22 A3000 RMK AO2 SLP158 T03220222 (JMB),,,,,,,,,,,,,,,,,,,,,,,,,,,,
72208013880,2014-07-02T12:56:00,FM-15,7,,SE,0.25,mi,"TEMP, PRECIP, SNOW",,,"MMTS, SRG, SNOWBOARD",,,WFO CHS,,,,,,,,,,,,,,,,,,,,,,,,,,,29.99,74,90,0.00,,-0.00,0,59,29.98,SCT:04 30 BKN:07 40,29.94,10.00,79,150,17,11,,,,,,,,,,,,,,,,,,,,,,,,,,,,,,,,,,,,,MET12707/02/14 12:56:02 METAR KCHS 021756Z 15010G15KT 10SM SCT030 BKN040 32/23 A2999 RMK AO2 SLP154 T03220233 10328 20283 50000 (JMB),,,,,,,,,,,,,,,,,,,,,,,,,,,,
72208013880,2014-07-02T13:00:00,FM-12,4,,SE,0.25,mi,"TEMP, PRECIP, SNOW",,,"MMTS, SRG, SNOWBOARD",,,WFO CHS,,,,,,,,,,,,,,,,,,,,,,,,,,,,74,90,,,0.00,9,59,29.98,26,29.94,9.94,79,150,,11,,,,,,,,,,,,,,,,,,,,,,,,,,,,,,,,,,,,,SYN08672208 32566 61510 10322 20233 30140 40154 50000 91756 333 10328 20283 91015 555 90218=,,,,,,,,,,,,,,,,,,,,,,,,,,,,
72208013880,2014-07-02T13:56:00,FM-15,7,,SE,0.25,mi,"TEMP, PRECIP, SNOW",,,"MMTS, SRG, SNOWBOARD",,,WFO CHS,,,,,,,,,,,,,,,,,,,,,,,,,,,29.98,72,91,0.00,,,,54,29.98,FEW:02 30 SCT:04 40,29.93,10.00,78,150,,9,,,,,,,,,,,,,,,,,,,,,,,,,,,,,,,,,,,,,MET10607/02/14 13:56:02 METAR KCHS 021856Z 15008KT 10SM FEW030 SCT040 33/22 A2998 RMK AO2 SLP152 T03280222 (JMB),,,,,,,,,,,,,,,,,,,,,,,,,,,,
72208013880,2014-07-06T12:56:00,FM-15,7,,SE,0.25,mi,"TEMP, PRECIP, SNOW",,,"MMTS, SRG, SNOWBOARD",,,WFO CHS,,,,,,,,,,,,,,,,,,,,,,,,,,,30.11,71,80,T,,+0.03,8,74,30.11,BKN:07 22 BKN:07 31 BKN:07 36,30.06,10.00,74,150,,10,,,,,,,,,,,,,,,,,,,,,,,,,,,,,,,,,,,,,MET15207/06/14 12:56:02 METAR KCHS 061756Z 15009KT 10SM BKN022 BKN031 BKN036 27/22 A3011 RMK AO2 RAB39E56 SLP195 P0000 60000 T02670217 10283 20261 58011 (JSN),,,,,,,,,,,,,,,,,,,,,,,,,,,,
72208013880,2014-07-06T13:00:00,FM-12,4,,SE,0.25,mi,"TEMP, PRECIP, SNOW",,,"MMTS, SRG, SNOWBOARD",,,WFO CHS,,,,,,,,,,,,,,,,,,,,,,,,,,,,71,80,,,+0.03,8,74,30.11,26,30.06,9.94,74,150,,10,,,,,,,,,,,,,,,,,,,,,,,,,,,,,,,,,,,,,SYN08672208 12566 61509 10267 20217 30180 40195 58011 69901 91756 333 10283 20261 555 90618=,,,,,,,,,,,,,,,,,,,,,,,,,,,,
72208013880,2014-07-06T14:56:00,FM-15,7,,SE,0.25,mi,"TEMP, PRECIP, SNOW",,,"MMTS, SRG, SNOWBOARD",,,WFO CHS,,,,,,,,,,,,,,,,,,,,,,,,,,,30.09,72,84,0.00,,,,67,30.08,FEW:02 18 SCT:04 23 BKN:07 200,30.04,10.00,76,150,,10,,,,,,,,,,,,,,,,,,,,,,,,,,,,,,,,,,,,,MET14107/06/14 14:56:02 METAR KCHS 061956Z 15009KT 10SM FEW018 SCT023TCU BKN200 29/22 A3009 RMK AO2 SLP187 TCU NE TCU DSNT S AND NW T02890222 (JRS),,,,,,,,,,,,,,,,,,,,,,,,,,,,
72208013880,2014-07-06T16:00:00,FM-12,4,,SE,0.25,mi,"TEMP, PRECIP, SNOW",,,"MMTS, SRG, SNOWBOARD",,,WFO CHS,,,,,,,,,,,,,,,,,,,,,,,,,,,,72,83,,,+0.04,8,70,30.07,15,30.02,9.94,75,170,,10,,,,,,,,,,,,,,,,,,,,,,,,,,,,,,,,,,,,,SYN06472208 32466 61709 10283 20222 30167 40183 58012 92056 555 90621=,,,,,,,,,,,,,,,,,,,,,,,,,,,,
72208013880,2014-07-06T16:56:00,FM-15,7,,SE,0.25,mi,"TEMP, PRECIP, SNOW",,,"MMTS, SRG, SNOWBOARD",,,WFO CHS,,,,,,,,,,,,,,,,,,,,,,,,,,,30.07,71,85,0.00,,,,63,30.07,SCT:04 20 SCT:04 120 BKN:07 200,30.02,10.00,75,150,,11,,,,,,,,,,,,,,,,,,,,,,,,,,,,,,,,,,,,,MET12207/06/14 16:56:02 METAR KCHS 062156Z 15010KT 10SM SCT020TCU SCT120 BKN200 29/22 A3007 RMK AO2 SLP182 TCU N T02940217 (JRS),,,,,,,,,,,,,,,,,,,,,,,,,,,,
72208013880,2014-07-06T17:56:00,FM-15,7,,SE,0.25,mi,"TEMP, PRECIP, SNOW",,,"MMTS, SRG, SNOWBOARD",,,WFO CHS,,,,,,,,,,,,,,,,,,,,,,,,,,,30.07,70,83,0.00,,,,65,30.07,FEW:02 22 SCT:04 110 BKN:07 200,30.02,10.00,74,170,,10,,,,,,,,,,,,,,,,,,,,,,,,,,,,,,,,,,,,,MET11307/06/14 17:56:02 METAR KCHS 062256Z 17009KT 10SM FEW022 SCT110 BKN200 28/21 A3007 RMK AO2 SLP183 T02830211 (JRS),,,,,,,,,,,,,,,,,,,,,,,,,,,,
72208013880,2014-07-11T16:56:00,FM-15,7,,SE,0.25,mi,"TEMP, PRECIP, SNOW",,,"MMTS, SRG, SNOWBOARD",,,WFO CHS,,,,,,,,,,,,,,,,,,,,,,,,,,,30.13,72,83,0.00,,,,70,30.13,SCT:04 25 BKN:07 35 BKN:07 50,30.08,10.00,75,160,21,16,,,,,,,,,,,,,,,,,,,,,,,,,,,,,,,,,,,,,MET13407/11/14 16:56:02 METAR KCHS 112156Z 16014G18KT 10SM SCT025CB BKN035 BKN050 28/22 A3013 RMK AO2 SLP202 CB SE-SW MOV NE T02830222 (BBE),,,,,,,,,,,,,,,,,,,,,,,,,,,,
72208013880,2014-07-13T11:56:00,FM-15,7,,SE,0.25,mi,"TEMP, PRECIP, SNOW",,,"MMTS, SRG, SNOWBOARD",,,WFO CHS,,,,,,,,,,,,,,,,,,,,,,,,,,,30.17,73,76,0.81,TS:7 +RA:02 BR:1 |RA TS |,,,91,30.16,BKN:07 25 OVC:08 35,30.12,1.25,74,160,,11,,,,,,,,,,,,,,,,,,,,,,,,,,,,,,,,,,,,,MET17907/13/14 11:56:02 METAR KCHS 131656Z 16010KT 1 1/4SM +TSRA BR BKN025CB OVC035 24/23 A3017 RMK AO2 WSHFT 1614 TSB21RAB05 SLP215 OCNL LTGIC OHD TS OHD MOV NE P0076 T02440228 $ (JSN),,,,,,,,,,,,,,,,,,,,,,,,,,,,
72208013880,2014-07-13T12:00:00,FM-16,7,,SE,0.25,mi,"TEMP, PRECIP, SNOW",,,"MMTS, SRG, SNOWBOARD",,,WFO CHS,,,,,,,,,,,,,,,,,,,,,,,,,,,30.17,73,75,0.06,+RA:02 BR:1 |RA |,,,94,,BKN:07 25 BKN:07 35 OVC:08 49,30.12,1.75,74,150,,9,,,,,,,,,,,,,,,,,,,,,,,,,,,,,,,,,,,,,MET12007/13/14 12:00:02 SPECI KCHS 131700Z 15008KT 1 3/4SM +RA BR BKN025 BKN035 OVC049 24/23 A3017 RMK AO2 TSE00 P0006 $ (JSN),,,,,,,,,,,,,,,,,,,,,,,,,,,,
72208013880,2014-07-13T15:56:00,FM-15,7,,SE,0.25,mi,"TEMP, PRECIP, SNOW",,,"MMTS, SRG, SNOWBOARD",,,WFO CHS,,,,,,,,,,,,,,,,,,,,,,,,,,,30.08,71,83,0.00,,+0.05,8,67,30.08,FEW:02 20 BKN:07 120 BKN:07 250,30.03,10.00,75,150,,9,,,,,,,,,,,,,,,,,,,,,,,,,,,,,,,,,,,,,MET12707/13/14 15:56:02 METAR KCHS 132056Z 15008KT 10SM FEW020 BKN120 BKN250 28/22 A3008 RMK AO2 SLP186 60000 T02830217 58016 $ (JRS),,,,,,,,,,,,,,,,,,,,,,,,,,,,
72208013880,2014-07-13T16:00:00,FM-12,4,,SE,0.25,mi,"TEMP, PRECIP, SNOW",,,"MMTS, SRG, SNOWBOARD",,,WFO CHS,,,,,,,,,,,,,,,,,,,,,,,,,,,,71,83,,,+0.05,8,67,30.08,26,30.03,9.94,75,150,,9,,,,,,,,,,,,,,,,,,,,,,,,,,,,,,,,,,,,,SYN07072208 12566 61508 10283 20217 30170 40186 58016 69907 92056 555 91321=,,,,,,,,,,,,,,,,,,,,,,,,,,,,
72208013880,2014-07-13T16:56:00,FM-15,7,,SE,0.25,mi,"TEMP, PRECIP, SNOW",,,"MMTS, SRG, SNOWBOARD",,,WFO CHS,,,,,,,,,,,,,,,,,,,,,,,,,,,30.06,72,84,0.00,,,,67,30.06,FEW:02 18 SCT:04 120 BKN:07 250,30.01,10.00,76,150,,11,,,,,,,,,,,,,,,,,,,,,,,,,,,,,,,,,,,,,MET11507/13/14 16:56:02 METAR KCHS 132156Z 15010KT 10SM FEW018 SCT120 BKN250 29/22 A3006 RMK AO2 SLP179 T02890222 $ (JRS),,,,,,,,,,,,,,,,,,,,,,,,,,,,
72208013880,2014-07-19T16:56:00,FM-15,7,,SE,0.25,mi,"TEMP, PRECIP, SNOW",,,"MMTS, SRG, SNOWBOARD",,,WFO CHS,,,,,,,,,,,,,,,,,,,,,,,,,,,30.07,71,83,0.00,,,,67,30.06,FEW:02 30 SCT:04 100 OVC:08 150,30.02,10.00,75,170,,8,,,,,,,,,,,,,,,,,,,,,,,,,,,,,,,,,,,,,MET11307/19/14 16:56:02 METAR KCHS 192156Z 17007KT 10SM FEW030 SCT100 OVC150 28/22 A3007 RMK AO2 SLP181 T02830217 (JRS),,,,,,,,,,,,,,,,,,,,,,,,,,,,
72208013880,2014-07-19T17:56:00,FM-15,7,,SE,0.25,mi,"TEMP, PRECIP, SNOW",,,"MMTS, SRG, SNOWBOARD",,,WFO CHS,,,,,,,,,,,,,,,,,,,,,,,,,,,30.07,71,82,0.00,,,,69,30.07,FEW:02 70 SCT:04 100 OVC:08 180,30.02,10.00,75,160,,9,,,,,,,,,,,,,,,,,,,,,,,,,,,,,,,,,,,,,MET11307/19/14 17:56:02 METAR KCHS 192256Z 16008KT 10SM FEW070 SCT100 OVC180 28/22 A3007 RMK AO2 SLP182 T02780217 (JRS),,,,,,,,,,,,,,,,,,,,,,,,,,,,
72208013880,2014-07-20T17:56:00,FM-15,7,,SE,0.25,mi,"TEMP, PRECIP, SNOW",,,"MMTS, SRG, SNOWBOARD",,,WFO CHS,,,,,,,,,,,,,,,,,,,,,,,,,,,30.04,72,81,0.00,,,,74,30.03,FEW:02 20 SCT:04 60 BKN:07 250,29.99,10.00,75,170,,8,,,,,,,,,,,,,,,,,,,,,,,,,,,,,,,,,,,,,MET13007/20/14 17:56:02 METAR KCHS 202256Z 17007KT 10SM FEW020 SCT060 BKN250 27/22 A3004 RMK AO2 SLP171 CB DSNT SW MOV E T02720222 (JRS),,,,,,,,,,,,,,,,,,,,,,,,,,,,
72208013880,2014-07-21T15:56:00,FM-15,7,,SE,0.25,mi,"TEMP, PRECIP, SNOW",,,"MMTS, SRG, SNOWBOARD",,,WFO CHS,,,,,,,,,,,,,,,,,,,,,,,,,,,30.06,72,84,0.00,,+0.02,7,67,30.05,FEW:02 30 SCT:04 150 BKN:07 200,30.01,10.00,76,150,,8,,,,,,,,,,,,,,,,,,,,,,,,,,,,,,,,,,,,,MET12107/21/14 15:56:02 METAR KCHS 212056Z 15007KT 10SM FEW030 SCT150 BKN200 29/22 A3006 RMK AO2 SLP177 T02890222 57008 $ (BBE),,,,,,,,,,,,,,,,,,,,,,,,,,,,
72208013880,2014-07-21T16:00:00,FM-12,4,,SE,0.25,mi,"TEMP, PRECIP, SNOW",,,"MMTS, SRG, SNOWBOARD",,,WFO CHS,,,,,,,,,,,,,,,,,,,,,,,,,,,,72,84,,,+0.02,7,67,30.05,26,30.01,9.94,76,150,,8,,,,,,,,,,,,,,,,,,,,,,,,,,,,,,,,,,,,,SYN06472208 32566 61507 10289 20222 30163 40177 57008 92056 555 92121=,,,,,,,,,,,,,,,,,,,,,,,,,,,,
72208013880,2014-07-22T14:56:00,FM-15,7,,SE,0.25,mi,"TEMP, PRECIP, SNOW",,,"MMTS, SRG, SNOWBOARD",,,WFO CHS,,,,,,,,,,,,,,,,,,,,,,,,,,,30.08,74,86,T,,,,67,30.08,SCT:04 25 SCT:04 40 BKN:07 250,30.03,10.00,78,150,,9,,,,,,,,,,,,,,,,,,,,,,,,,,,,,,,,,,,,,MET12507/22/14 14:56:02 METAR KCHS 221956Z 15008KT 10SM SCT025 SCT040 BKN250 30/23 A3008 RMK AO2 RAE26 SLP186 P0000 T03000233 (BBE),,,,,,,,,,,,,,,,,,,,,,,,,,,,
72208013880,2014-07-22T16:56:00,FM-15,7,,SE,0.25,mi,"TEMP, PRECIP, SNOW",,,"MMTS, SRG, SNOWBOARD",,,WFO CHS,,,,,,,,,,,,,,,,,,,,,,,,,,,30.05,72,85,0.00,,,,65,30.05,FEW:02 20 BKN:07 250,30.00,10.00,76,160,,8,,,,,,,,,,,,,,,,,,,,,,,,,,,,,,,,,,,,,MET10607/22/14 16:56:02 METAR KCHS 222156Z 16007KT 10SM FEW020 BKN250 29/22 A3005 RMK AO2 SLP177 T02940222 (BBE),,,,,,,,,,,,,,,,,,,,,,,,,,,,
72208013880,2014-07-23T15:56:00,FM-15,7,,SE,0.25,mi,"TEMP, PRECIP, SNOW",,,"MMTS, SRG, SNOWBOARD",,,WFO CHS,,,,,,,,,,,,,,,,,,,,,,,,,,,30.02,75,79,0.27,TS:7 -RA:02 BR:1 |RA TS |,+0.02,5,88,30.02,BKN:07 25 OVC:08 35,29.97,5.00,76,150,,10,,,,,,,,,,,,,,,,,,,,,,,,,,,,,,,,,,,,,MET17207/23/14 15:56:02 METAR KCHS 232056Z 15009KT 5SM -TSRA BR BKN025CB OVC035 26/24 A3002 RMK AO2 TSB09 SLP165 FRQ LTGICCG E-SE TS E-SE MOV SE P0029 60029 T02610239 55007 (BBE),,,,,,,,,,,,,,,,,,,,,,,,,,,,
72208013880,2014-07-23T16:00:00,FM-12,4,,SE,0.25,mi,"TEMP, PRECIP, SNOW",,,"MMTS, SRG, SNOWBOARD",,,WFO CHS,,,,,,,,,,,,,,,,,,,,,,,,,,,,75,79,,,+0.02,5,88,30.02,26,29.97,4.97,76,150,,10,,,,,,,,,,,,,,,,,,,,,,,,,,,,,,,,,,,,,SYN08672208 11558 81509 10261 20239 30150 40165 55007 60077 710// 92056 333 96010 555 92321=,,,,,,,,,,,,,,,,,,,,,,,,,,,,
72208013880,2014-07-25T15:56:00,FM-15,7,,SE,0.25,mi,"TEMP, PRECIP, SNOW",,,"MMTS, SRG, SNOWBOARD",,,WFO CHS,,,,,,,,,,,,,,,,,,,,,,,,,,,29.99,72,76,0.01,,-0.01,0,88,29.99,FEW:02 5 SCT:04 30 BKN:07 85,29.94,10.00,73,150,,7,,,,,,,,,,,,,,,,,,,,,,,,,,,,,,,,,,,,,MET14207/25/14 15:56:02 METAR KCHS 252056Z 15006KT 10SM FEW005 SCT030 BKN085 24/22 A2999 RMK AO2 TSE35RAE39 SLP156 P0001 60041 T02440222 50004 (BBE),,,,,,,,,,,,,,,,,,,,,,,,,,,,
72208013880,2014-07-25T16:00:00,FM-12,4,,SE,0.25,mi,"TEMP, PRECIP, SNOW",,,"MMTS, SRG, SNOWBOARD",,,WFO CHS,,,,,,,,,,,,,,,,,,,,,,,,,,,,72,76,,,0.01,9,88,29.99,5,29.94,9.94,73,150,,7,,,,,,,,,,,,,,,,,,,,,,,,,,,,,,,,,,,,,SYN07072208 12266 61506 10244 20222 30140 40156 50004 60107 92056 555 92521=,,,,,,,,,,,,,,,,,,,,,,,,,,,,
72208013880,2014-08-01T17:41:00,FM-16,7,,SE,0.25,mi,"TEMP, PRECIP, SNOW",,,"MMTS, SRG, SNOWBOARD",,,WFO CHS,,,,,,,,,,,,,,,,,,,,,,,,,,,29.99,73,82,,,,,74,,BKN:07 20 BKN:07 150,29.94,10.00,76,150,,9,,,,,,,,,,,,,,,,,,,,,,,,,,,,,,,,,,,,,MET08908/01/14 17:41:02 SPECI KCHS 012241Z 15008KT 10SM BKN020 BKN150 28/23 A2999 RMK AO2 (BBE),,,,,,,,,,,,,,,,,,,,,,,,,,,,
72208013880,2014-08-05T17:56:00,FM-15,7,,SE,0.25,mi,"TEMP, PRECIP, SNOW",,,"MMTS, SRG, SNOWBOARD",,,WFO CHS,,,,,,,,,,,,,,,,,,,,,,,,,,,29.98,74,85,0.00,,,,70,29.98,FEW:02 45 SCT:04 60 SCT:04 250,29.93,10.00,77,150,,8,,,,,,,,,,,,,,,,,,,,,,,,,,,,,,,,,,,,,MET11308/05/14 17:56:02 METAR KCHS 052256Z 15007KT 10SM FEW045 SCT060 SCT250 29/23 A2998 RMK AO2 SLP151 T02940233 (BBE),,,,,,,,,,,,,,,,,,,,,,,,,,,,
72208013880,2014-08-08T15:56:00,FM-15,7,,SE,0.25,mi,"TEMP, PRECIP, SNOW",,,"MMTS, SRG, SNOWBOARD",,,WFO CHS,,,,,,,,,,,,,,,,,,,,,,,,,,,30.01,73,79,0.56,TS:7 +RA:02 BR:1 |RA TS |,+0.04,6,82,30.00,SCT:04 30 BKN:07 50 OVC:08 60,29.96,3.00,75,150,,9,,,,,,,,,,,,,,,,,,,,,,,,,,,,,,,,,,,,,MET18108/08/14 15:56:02 METAR KCHS 082056Z 15008KT 3SM +TSRA BR SCT030CB BKN050 OVC060 26/23 A3001 RMK AO2 TWR VIS 10 SLP160 OCNL LTGIC W-N TS W-N MOV NW P0061 60065 T02610228 56012 (BBE),,,,,,,,,,,,,,,,,,,,,,,,,,,,
72208013880,2014-08-08T16:00:00,FM-12,4,,SE,0.25,mi,"TEMP, PRECIP, SNOW",,,"MMTS, SRG, SNOWBOARD",,,WFO CHS,,,,,,,,,,,,,,,,,,,,,,,,,,,,73,79,,,+0.04,6,82,30.00,26,29.96,2.98,75,150,,9,,,,,,,,,,,,,,,,,,,,,,,,,,,,,,,,,,,,,SYN08672208 11548 81508 10261 20228 30146 40160 56012 60177 710// 92056 333 96010 555 90821=,,,,,,,,,,,,,,,,,,,,,,,,,,,,
72208013880,2014-08-14T17:56:00,FM-15,7,,SE,0.25,mi,"TEMP, PRECIP, SNOW",,,"MMTS, SRG, SNOWBOARD",,,WFO CHS,,,,,,,,,,,,,,,,,,,,,,,,,,,29.96,66,84,0.00,,,,55,29.96,SCT:04 50 BKN:07 250,29.91,10.00,72,160,,8,,,,,,,,,,,,,,,,,,,,,,,,,,,,,,,,,,,,,MET10608/14/14 17:56:02 METAR KCHS 142256Z 16007KT 10SM SCT050 BKN250 29/19 A2996 RMK AO2 SLP144 T02890189 (BBE),,,,,,,,,,,,,,,,,,,,,,,,,,,,
72208013880,2014-08-15T13:56:00,FM-15,7,,SE,0.25,mi,"TEMP, PRECIP, SNOW",,,"MMTS, SRG, SNOWBOARD",,,WFO CHS,,,,,,,,,,,,,,,,,,,,,,,,,,,29.98,67,86,0.00,,,,53,29.97,SCT:04 45 BKN:07 55,29.93,10.00,73,170,,10,,,,,,,,,,,,,,,,,,,,,,,,,,,,,,,,,,,,,MET12008/15/14 13:56:02 METAR KCHS 151856Z 17009KT 10SM SCT045 BKN055 30/19 A2998 RMK AO2 SLP150 CB DSNT SW-NW T03000194 (JMB),,,,,,,,,,,,,,,,,,,,,,,,,,,,
72208013880,2014-08-15T14:56:00,FM-15,7,,SE,0.25,mi,"TEMP, PRECIP, SNOW",,,"MMTS, SRG, SNOWBOARD",,,WFO CHS,,,,,,,,,,,,,,,,,,,,,,,,,,,29.97,68,84,0.00,,,,59,29.96,FEW:02 45 SCT:04 60 BKN:07 200,29.92,10.00,73,150,,10,,,,,,,,,,,,,,,,,,,,,,,,,,,,,,,,,,,,,MET12708/15/14 14:56:02 METAR KCHS 151956Z 15009KT 10SM FEW045 SCT060 BKN200 29/20 A2997 RMK AO2 SLP147 CB DSNT SW-NW T02890200 (BBE),,,,,,,,,,,,,,,,,,,,,,,,,,,,
72208013880,2014-08-15T16:56:00,FM-15,7,,SE,0.25,mi,"TEMP, PRECIP, SNOW",,,"MMTS, SRG, SNOWBOARD",,,WFO CHS,,,,,,,,,,,,,,,,,,,,,,,,,,,29.98,68,86,0.00,,,,55,29.98,FEW:02 65 BKN:07 120,29.93,10.00,74,160,,10,,,,,,,,,,,,,,,,,,,,,,,,,,,,,,,,,,,,,MET10608/15/14 16:56:02 METAR KCHS 152156Z 16009KT 10SM FEW065 BKN120 30/20 A2998 RMK AO2 SLP153 T03000200 (BBE),,,,,,,,,,,,,,,,,,,,,,,,,,,,
72208013880,2014-08-15T17:56:00,FM-15,7,,SE,0.25,mi,"TEMP, PRECIP, SNOW",,,"MMTS, SRG, SNOWBOARD",,,WFO CHS,,,,,,,,,,,,,,,,,,,,,,,,,,,29.98,68,85,0.00,,,,57,29.97,FEW:02 120 SCT:04 250,29.93,10.00,74,150,,10,,,,,,,,,,,,,,,,,,,,,,,,,,,,,,,,,,,,,MET10608/15/14 17:56:02 METAR KCHS 152256Z 15009KT 10SM FEW120 SCT250 29/20 A2998 RMK AO2 SLP150 T02940200 (BBE),,,,,,,,,,,,,,,,,,,,,,,,,,,,
72208013880,2014-08-16T17:56:00,FM-15,7,,SE,0.25,mi,"TEMP, PRECIP, SNOW",,,"MMTS, SRG, SNOWBOARD",,,WFO CHS,,,,,,,,,,,,,,,,,,,,,,,,,,,30.00,75,88,0.00,,,,66,29.99,FEW:02 45 BKN:07 250,29.95,10.00,79,170,,8,,,,,,,,,,,,,,,,,,,,,,,,,,,,,,,,,,,,,MET10808/16/14 17:56:02 METAR KCHS 162256Z 17007KT 10SM FEW045 BKN250 31/24 A3000 RMK AO2 SLP157 T03110239 $ (JRS),,,,,,,,,,,,,,,,,,,,,,,,,,,,
72208013880,2014-08-29T13:56:00,FM-15,7,,SE,0.25,mi,"TEMP, PRECIP, SNOW",,,"MMTS, SRG, SNOWBOARD",,,WFO CHS,,,,,,,,,,,,,,,,,,,,,,,,,,,30.07,72,88,0.00,,,,59,30.06,BKN:07 35,30.02,10.00,77,150,,8,,,,,,,,,,,,,,,,,,,,,,,,,,,,,,,,,,,,,MET09908/29/14 13:56:02 METAR KCHS 291856Z 15007KT 10SM BKN035 31/22 A3007 RMK AO2 SLP180 T03110222 (JMB),,,,,,,,,,,,,,,,,,,,,,,,,,,,
72208013880,2014-08-29T15:56:00,FM-15,7,,SE,0.25,mi,"TEMP, PRECIP, SNOW",,,"MMTS, SRG, SNOWBOARD",,,WFO CHS,,,,,,,,,,,,,,,,,,,,,,,,,,,30.06,71,90,0.00,,+0.02,6,54,30.05,SCT:04 35 SCT:04 200,30.01,10.00,77,150,,14,,,,,,,,,,,,,,,,,,,,,,,,,,,,,,,,,,,,,MET11208/29/14 15:56:02 METAR KCHS 292056Z 15012KT 10SM SCT035 SCT200 32/22 A3006 RMK AO2 SLP177 T03220217 56008 (BBE),,,,,,,,,,,,,,,,,,,,,,,,,,,,
72208013880,2014-08-29T16:00:00,FM-12,4,,SE,0.25,mi,"TEMP, PRECIP, SNOW",,,"MMTS, SRG, SNOWBOARD",,,WFO CHS,,,,,,,,,,,,,,,,,,,,,,,,,,,,71,90,,,+0.02,6,54,30.05,41,30.01,9.94,77,150,,14,,,,,,,,,,,,,,,,,,,,,,,,,,,,,,,,,,,,,SYN06472208 32666 41512 10322 20217 30163 40177 56008 92056 555 92921=,,,,,,,,,,,,,,,,,,,,,,,,,,,,
72208013880,2014-08-29T16:56:00,FM-15,7,,SE,0.25,mi,"TEMP, PRECIP, SNOW",,,"MMTS, SRG, SNOWBOARD",,,WFO CHS,,,,,,,,,,,,,,,,,,,,,,,,,,,30.07,71,88,0.00,,,,57,30.07,SCT:04 30 SCT:04 150,30.02,10.00,76,160,,11,,,,,,,,,,,,,,,,,,,,,,,,,,,,,,,,,,,,,MET10608/29/14 16:56:02 METAR KCHS 292156Z 16010KT 10SM SCT030 SCT150 31/22 A3007 RMK AO2 SLP182 T03110217 (BBE),,,,,,,,,,,,,,,,,,,,,,,,,,,,
72208013880,2014-08-31T12:56:00,FM-15,7,,SE,0.25,mi,"TEMP, PRECIP, SNOW",,,"MMTS, SRG, SNOWBOARD",,,WFO CHS,,,,,,,,,,,,,,,,,,,,,,,,,,,30.11,72,92,0.00,,+0.05,8,52,30.11,SCT:04 44 SCT:04 250,30.06,10.00,78,160,,9,,,,,,,,,,,,,,,,,,,,,,,,,,,,,,,,,,,,,MET12608/31/14 12:56:02 METAR KCHS 311756Z 16008KT 10SM SCT044 SCT250 33/22 A3011 RMK AO2 SLP195 T03330222 10339 20261 58016 $ (JRS),,,,,,,,,,,,,,,,,,,,,,,,,,,,
72208013880,2014-08-31T13:00:00,FM-12,4,,SE,0.25,mi,"TEMP, PRECIP, SNOW",,,"MMTS, SRG, SNOWBOARD",,,WFO CHS,,,,,,,,,,,,,,,,,,,,,,,,,,,,72,92,,,+0.05,8,52,30.11,41,30.06,9.94,78,160,,9,,,,,,,,,,,,,,,,,,,,,,,,,,,,,,,,,,,,,SYN08072208 32666 41608 10333 20222 30180 40195 58016 91756 333 10339 20261 555 93118=,,,,,,,,,,,,,,,,,,,,,,,,,,,,
72208013880,2014-08-31T13:56:00,FM-15,7,,SE,0.25,mi,"TEMP, PRECIP, SNOW",,,"MMTS, SRG, SNOWBOARD",,,WFO CHS,,,,,,,,,,,,,,,,,,,,,,,,,,,30.10,75,90,0.00,,,,62,30.09,SCT:04 35 SCT:04 250,30.05,10.00,79,150,,11,,,,,,,,,,,,,,,,,,,,,,,,,,,,,,,,,,,,,MET10808/31/14 13:56:02 METAR KCHS 311856Z 15010KT 10SM SCT035 SCT250 32/24 A3010 RMK AO2 SLP191 T03220239 $ (JRS),,,,,,,,,,,,,,,,,,,,,,,,,,,,
72208013880,2014-08-31T16:56:00,FM-15,7,,SE,0.25,mi,"TEMP, PRECIP, SNOW",,,"MMTS, SRG, SNOWBOARD",,,WFO CHS,,,,,,,,,,,,,,,,,,,,,,,,,,,30.07,72,89,0.00,,,,57,30.07,FEW:02 24 SCT:04 250,30.02,10.00,77,150,,11,,,,,,,,,,,,,,,,,,,,,,,,,,,,,,,,,,,,,MET10808/31/14 16:56:02 METAR KCHS 312156Z 15010KT 10SM FEW024 SCT250 32/22 A3007 RMK AO2 SLP182 T03170222 $ (JRS),,,,,,,,,,,,,,,,,,,,,,,,,,,,
72208013880,2014-08-31T17:56:00,FM-15,7,,SE,0.25,mi,"TEMP, PRECIP, SNOW",,,"MMTS, SRG, SNOWBOARD",,,WFO CHS,,,,,,,,,,,,,,,,,,,,,,,,,,,30.07,72,86,0.00,,,,63,30.07,FEW:02 22 SCT:04 250,30.02,10.00,76,150,,9,,,,,,,,,,,,,,,,,,,,,,,,,,,,,,,,,,,,,MET10808/31/14 17:56:02 METAR KCHS 312256Z 15008KT 10SM FEW022 SCT250 30/22 A3007 RMK AO2 SLP182 T03000222 $ (JRS),,,,,,,,,,,,,,,,,,,,,,,,,,,,
72208013880,2014-09-01T13:56:00,FM-15,7,,SE,0.25,mi,"TEMP, PRECIP, SNOW",,,"MMTS, SRG, SNOWBOARD",,,WFO CHS,,,,,,,,,,,,,,,,,,,,,,,,,,,30.08,76,92,0.00,,,,60,30.08,SCT:04 40 SCT:04 200,30.03,10.00,80,150,,9,,,,,,,,,,,,,,,,,,,,,,,,,,,,,,,,,,,,,MET12009/01/14 13:56:02 METAR KCHS 011856Z 15008KT 10SM SCT040TCU SCT200 33/24 A3008 RMK AO2 SLP186 TCU N-NE T03330244 $ (JMB),,,,,,,,,,,,,,,,,,,,,,,,,,,,
72208013880,2014-09-01T14:56:00,FM-15,7,,SE,0.25,mi,"TEMP, PRECIP, SNOW",,,"MMTS, SRG, SNOWBOARD",,,WFO CHS,,,,,,,,,,,,,,,,,,,,,,,,,,,30.06,75,92,0.00,,,,58,30.06,FEW:02 40 SCT:04 250,30.01,10.00,80,160,,11,,,,,,,,,,,,,,,,,,,,,,,,,,,,,,,,,,,,,MET12209/01/14 14:56:02 METAR KCHS 011956Z 16010KT 10SM FEW040 SCT250 33/24 A3006 RMK AO2 SLP179 TCU DSNT NW-N T03330239 $ (BBE),,,,,,,,,,,,,,,,,,,,,,,,,,,,
72208013880,2014-09-01T15:56:00,FM-15,7,,SE,0.25,mi,"TEMP, PRECIP, SNOW",,,"MMTS, SRG, SNOWBOARD",,,WFO CHS,,,,,,,,,,,,,,,,,,,,,,,,,,,30.06,76,92,0.00,TS:7 |TS TS |,+0.04,6,60,30.05,SCT:04 30 SCT:04 250,30.01,10.00,80,150,,11,,,,,,,,,,,,,,,,,,,,,,,,,,,,,,,,,,,,,MET15609/01/14 15:56:02 METAR KCHS 012056Z 15010KT 10SM TS SCT030CB SCT250 33/24 A3006 RMK AO2 TSB42 SLP177 OCNL LTGIC NW-N TS NW-N MOV SW T03330244 56013 $ (BBE),,,,,,,,,,,,,,,,,,,,,,,,,,,,
72208013880,2014-09-01T16:00:00,FM-12,4,,SE,0.25,mi,"TEMP, PRECIP, SNOW",,,"MMTS, SRG, SNOWBOARD",,,WFO CHS,,,,,,,,,,,,,,,,,,,,,,,,,,,,76,92,,||TS,+0.04,6,60,30.05,26,30.01,9.94,80,150,,11,,,,,,,,,,,,,,,,,,,,,,,,,,,,,,,,,,,,,SYN07072208 31566 41510 10333 20244 30163 40177 56013 795// 92056 555 90121=,,,,,,,,,,,,,,,,,,,,,,,,,,,,
72208013880,2014-09-01T16:56:00,FM-15,7,,SE,0.25,mi,"TEMP, PRECIP, SNOW",,,"MMTS, SRG, SNOWBOARD",,,WFO CHS,,,,,,,,,,,,,,,,,,,,,,,,,,,30.07,74,88,0.00,,,,63,30.06,FEW:02 30 BKN:07 150 BKN:07 250,30.02,10.00,78,170,,10,,,,,,,,,,,,,,,,,,,,,,,,,,,,,,,,,,,,,MET12109/01/14 16:56:02 METAR KCHS 012156Z 17009KT 10SM FEW030 BKN150 BKN250 31/23 A3007 RMK AO2 TSE17 SLP180 T03110233 $ (BBE),,,,,,,,,,,,,,,,,,,,,,,,,,,,
72208013880,2014-09-02T12:56:00,FM-15,7,,SE,0.25,mi,"TEMP, PRECIP, SNOW",,,"MMTS, SRG, SNOWBOARD",,,WFO CHS,,,,,,,,,,,,,,,,,,,,,,,,,,,30.07,74,92,0.00,,+0.03,6,56,30.06,SCT:04 40 BKN:07 50 BKN:07 120,30.02,10.00,79,170,,10,,,,,,,,,,,,,,,,,,,,,,,,,,,,,,,,,,,,,MET13109/02/14 12:56:02 METAR KCHS 021756Z 17009KT 10SM SCT040 BKN050 BKN120 33/23 A3007 RMK AO2 SLP180 T03330233 10344 20278 56009 (JMB),,,,,,,,,,,,,,,,,,,,,,,,,,,,
72208013880,2014-09-02T13:00:00,FM-12,4,,SE,0.25,mi,"TEMP, PRECIP, SNOW",,,"MMTS, SRG, SNOWBOARD",,,WFO CHS,,,,,,,,,,,,,,,,,,,,,,,,,,,,74,92,,,+0.03,6,56,30.06,41,30.02,9.94,79,170,,10,,,,,,,,,,,,,,,,,,,,,,,,,,,,,,,,,,,,,SYN08072208 32666 61709 10333 20233 30167 40180 56009 91756 333 10344 20278 555 90218=,,,,,,,,,,,,,,,,,,,,,,,,,,,,
72208013880,2014-09-02T13:56:00,FM-15,7,,SE,0.25,mi,"TEMP, PRECIP, SNOW",,,"MMTS, SRG, SNOWBOARD",,,WFO CHS,,,,,,,,,,,,,,,,,,,,,,,,,,,30.04,71,93,0.00,,,,49,30.04,FEW:02 40 SCT:04 120 BKN:07 250,29.99,10.00,78,170,,13,,,,,,,,,,,,,,,,,,,,,,,,,,,,,,,,,,,,,MET11309/02/14 13:56:02 METAR KCHS 021856Z 17011KT 10SM FEW040 SCT120 BKN250 34/22 A3004 RMK AO2 SLP172 T03390217 (JMB),,,,,,,,,,,,,,,,,,,,,,,,,,,,
72208013880,2014-09-03T16:56:00,FM-15,7,,SE,0.25,mi,"TEMP, PRECIP, SNOW",,,"MMTS, SRG, SNOWBOARD",,,WFO CHS,,,,,,,,,,,,,,,,,,,,,,,,,,,30.02,72,89,0.00,,,,57,30.02,SCT:04 35 SCT:04 200,29.97,10.00,77,170,,14,,,,,,,,,,,,,,,,,,,,,,,,,,,,,,,,,,,,,MET10809/03/14 16:56:02 METAR KCHS 032156Z 17012KT 10SM SCT035 SCT200 32/22 A3002 RMK AO2 SLP165 T03170222 $ (BBE),,,,,,,,,,,,,,,,,,,,,,,,,,,,
72208013880,2014-09-03T17:56:00,FM-15,7,,SE,0.25,mi,"TEMP, PRECIP, SNOW",,,"MMTS, SRG, SNOWBOARD",,,WFO CHS,,,,,,,,,,,,,,,,,,,,,,,,,,,30.05,72,87,0.00,,,,61,30.04,FEW:02 30 SCT:04 35 SCT:04 200,30.00,10.00,77,170,,11,,,,,,,,,,,,,,,,,,,,,,,,,,,,,,,,,,,,,MET11509/03/14 17:56:02 METAR KCHS 032256Z 17010KT 10SM FEW030 SCT035 SCT200 31/22 A3005 RMK AO2 SLP173 T03060222 $ (BBE),,,,,,,,,,,,,,,,,,,,,,,,,,,,
72208013880,2014-09-04T10:56:00,FM-15,7,,SE,0.25,mi,"TEMP, PRECIP, SNOW",,,"MMTS, SRG, SNOWBOARD",,,WFO CHS,,,,,,,,,,,,,,,,,,,,,,,,,,,30.15,70,89,0.00,,,,53,30.15,SCT:04 35 BKN:07 45 BKN:07 250,30.10,10.00,76,160,,13,,,,,,,,,,,,,,,,,,,,,,,,,,,,,,,,,,,,,MET12609/04/14 10:56:02 METAR KCHS 041556Z 16011KT 10SM SCT035 BKN045 BKN250 32/21 A3015 RMK AO2 SLP210 MDT CU ALQDS T03170211 (JMB),,,,,,,,,,,,,,,,,,,,,,,,,,,,
72208013880,2014-09-04T12:56:00,FM-15,7,,SE,0.25,mi,"TEMP, PRECIP, SNOW",,,"MMTS, SRG, SNOWBOARD",,,WFO CHS,,,,,,,,,,,,,,,,,,,,,,,,,,,30.14,72,91,0.00,,+0.02,8,54,30.13,SCT:04 40 SCT:04 250,30.09,10.00,78,160,20,11,,,,,,,,,,,,,,,,,,,,,,,,,,,,,,,,,,,,,MET14509/04/14 12:56:02 METAR KCHS 041756Z 16010G17KT 10SM SCT040 SCT250 33/22 A3014 RMK AO2 SLP204 MDT CU NW-N 60000 T03280222 10333 20267 58007 (JMB),,,,,,,,,,,,,,,,,,,,,,,,,,,,
72208013880,2014-09-04T13:00:00,FM-12,4,,SE,0.25,mi,"TEMP, PRECIP, SNOW",,,"MMTS, SRG, SNOWBOARD",,,WFO CHS,,,,,,,,,,,,,,,,,,,,,,,,,,,,72,91,,,+0.02,8,54,30.13,41,30.09,9.94,78,160,,11,,,,,,,,,,,,,,,,,,,,,,,,,,,,,,,,,,,,,SYN09272208 12666 41610 10328 20222 30190 40204 58007 69901 91756 333 10333 20267 91017 555 90418=,,,,,,,,,,,,,,,,,,,,,,,,,,,,
72208013880,2014-09-04T13:56:00,FM-15,7,,SE,0.25,mi,"TEMP, PRECIP, SNOW",,,"MMTS, SRG, SNOWBOARD",,,WFO CHS,,,,,,,,,,,,,,,,,,,,,,,,,,,30.13,73,90,0.00,,,,58,30.13,SCT:04 40 SCT:04 250,30.08,10.00,78,150,20,8,,,,,,,,,,,,,,,,,,,,,,,,,,,,,,,,,,,,,MET12209/04/14 13:56:02 METAR KCHS 041856Z 15007G17KT 10SM SCT040 SCT250 32/23 A3013 RMK AO2 SLP202 MDT CU ALQDS T03220228 (JMB),,,,,,,,,,,,,,,,,,,,,,,,,,,,
72208013880,2014-09-04T14:56:00,FM-15,7,,SE,0.25,mi,"TEMP, PRECIP, SNOW",,,"MMTS, SRG, SNOWBOARD",,,WFO CHS,,,,,,,,,,,,,,,,,,,,,,,,,,,30.11,72,91,T,,,,54,30.11,FEW:02 30 SCT:04 50 SCT:04 110,30.06,10.00,78,150,22,14,,,,,,,,,,,,,,,,,,,,,,,,,,,,,,,,,,,,,MET14409/04/14 14:56:02 METAR KCHS 041956Z 15012G19KT 10SM FEW030 SCT050 SCT110 33/22 A3011 RMK AO2 RAB05E14 SLP195 MDT CU ALQDS P0000 T03280222 (DAW),,,,,,,,,,,,,,,,,,,,,,,,,,,,
72208013880,2014-09-04T16:56:00,FM-15,7,,SE,0.25,mi,"TEMP, PRECIP, SNOW",,,"MMTS, SRG, SNOWBOARD",,,WFO CHS,,,,,,,,,,,,,,,,,,,,,,,,,,,30.09,69,88,0.00,,,,54,30.09,FEW:02 35 SCT:04 160,30.04,10.00,75,150,,13,,,,,,,,,,,,,,,,,,,,,,,,,,,,,,,,,,,,,MET10609/04/14 16:56:02 METAR KCHS 042156Z 15011KT 10SM FEW035 SCT160 31/21 A3009 RMK AO2 SLP189 T03110206 (DAW),,,,,,,,,,,,,,,,,,,,,,,,,,,,
72208013880,2014-09-05T14:56:00,FM-15,7,,SE,0.25,mi,"TEMP, PRECIP, SNOW",,,"MMTS, SRG, SNOWBOARD",,,WFO CHS,,,,,,,,,,,,,,,,,,,,,,,,,,,30.08,72,88,0.00,,,,59,30.08,SCT:04 28 BKN:07 250,30.03,10.00,77,160,,16,,,,,,,,,,,,,,,,,,,,,,,,,,,,,,,,,,,,,MET10609/05/14 14:56:02 METAR KCHS 051956Z 16014KT 10SM SCT028 BKN250 31/22 A3008 RMK AO2 SLP185 T03110222 (JRS),,,,,,,,,,,,,,,,,,,,,,,,,,,,
72208013880,2014-09-05T17:56:00,FM-15,7,,SE,0.25,mi,"TEMP, PRECIP, SNOW",,,"MMTS, SRG, SNOWBOARD",,,WFO CHS,,,,,,,,,,,,,,,,,,,,,,,,,,,30.07,72,83,0.00,,,,70,30.07,SCT:04 23,30.02,10.00,75,160,,14,,,,,,,,,,,,,,,,,,,,,,,,,,,,,,,,,,,,,MET09909/05/14 17:56:02 METAR KCHS 052256Z 16012KT 10SM SCT023 28/22 A3007 RMK AO2 SLP182 T02830222 (JRS),,,,,,,,,,,,,,,,,,,,,,,,,,,,
72208013880,2014-09-07T16:56:00,FM-15,7,,SE,0.25,mi,"TEMP, PRECIP, SNOW",,,"MMTS, SRG, SNOWBOARD",,,WFO CHS,,,,,,,,,,,,,,,,,,,,,,,,,,,29.95,73,85,0.00,,,,68,29.94,FEW:02 25 SCT:04 35 BKN:07 250,29.90,10.00,77,170,,13,,,,,,,,,,,,,,,,,,,,,,,,,,,,,,,,,,,,,MET12609/07/14 16:56:02 METAR KCHS 072156Z 17011KT 10SM FEW025 SCT035 BKN250 29/23 A2995 RMK AO2 SLP140 TCU DSNT S T02940228 $ (BBE),,,,,,,,,,,,,,,,,,,,,,,,,,,,
72208013880,2014-09-07T17:56:00,FM-15,7,,SE,0.25,mi,"TEMP, PRECIP, SNOW",,,"MMTS, SRG, SNOWBOARD",,,WFO CHS,,,,,,,,,,,,,,,,,,,,,,,,,,,29.96,73,83,T,,,,72,29.96,SCT:04 20 SCT:04 30 BKN:07 90,29.91,10.00,76,150,,7,,,,,,,,,,,,,,,,,,,,,,,,,,,,,,,,,,,,,MET14509/07/14 17:56:02 METAR KCHS 072256Z 15006KT 10SM SCT020 SCT030 BKN090 28/23 A2996 RMK AO2 RAB43E52 SLP146 TCU DSNT SE-SW P0000 T02830228 $ (BBE),,,,,,,,,,,,,,,,,,,,,,,,,,,,
72208013880,2014-09-11T14:56:00,FM-15,7,,SE,0.25,mi,"TEMP, PRECIP, SNOW",,,"MMTS, SRG, SNOWBOARD",,,WFO CHS,,,,,,,,,,,,,,,,,,,,,,,,,,,29.99,74,91,0.00,,,,57,29.98,BKN:07 35,29.94,10.00,79,160,,9,,,,,,,,,,,,,,,,,,,,,,,,,,,,,,,,,,,,,MET09909/11/14 14:56:02 METAR KCHS 111956Z 16008KT 10SM BKN035 33/23 A2999 RMK AO2 SLP154 T03280233 (DAW),,,,,,,,,,,,,,,,,,,,,,,,,,,,
72208013880,2014-09-12T15:34:00,FM-16,7,,SE,0.25,mi,"TEMP, PRECIP, SNOW",,,"MMTS, SRG, SNOWBOARD",,,WFO CHS,,,,,,,,,,,,,,,,,,,,,,,,,,,29.97,72,90,,TS:7 |TS TS |,,,55,,SCT:04 40 BKN:07 70 BKN:07 250,29.92,10.00,77,170,,13,,,,,,,,,,,,,,,,,,,,,,,,,,,,,,,,,,,,,MET13409/12/14 15:34:02 SPECI KCHS 122034Z 17011KT 10SM TS SCT040CB BKN070 BKN250 32/22 A2997 RMK AO2 TSB34 OCNL LTGCG NW TS NW MOV SW (JRS),,,,,,,,,,,,,,,,,,,,,,,,,,,,
72208013880,2014-09-13T11:56:00,FM-15,7,,SE,0.25,mi,"TEMP, PRECIP, SNOW",,,"MMTS, SRG, SNOWBOARD",,,WFO CHS,,,,,,,,,,,,,,,,,,,,,,,,,,,30.08,73,86,0.01,,,,65,30.07,FEW:02 28 SCT:04 90 BKN:07 250,30.03,10.00,77,160,,7,,,,,,,,,,,,,,,,,,,,,,,,,,,,,,,,,,,,,MET12509/13/14 11:56:02 METAR KCHS 131656Z 16006KT 10SM FEW028 SCT090 BKN250 30/23 A3008 RMK AO2 RAE22 SLP184 P0001 T03000228 (DAW),,,,,,,,,,,,,,,,,,,,,,,,,,,,
72208013880,2014-09-13T13:46:00,FM-16,7,,SE,0.25,mi,"TEMP, PRECIP, SNOW",,,"MMTS, SRG, SNOWBOARD",,,WFO CHS,,,,,,,,,,,,,,,,,,,,,,,,,,,30.04,75,88,,,,,66,,SCT:04 25 SCT:04 40 BKN:07 250,29.99,10.00,79,170,,10,,,,,,,,,,,,,,,,,,,,,,,,,,,,,,,,,,,,,MET11009/13/14 13:46:02 SPECI KCHS 131846Z 17009KT 10SM SCT025CB SCT040 BKN250 31/24 A3004 RMK AO2 CB W MOV NE (JRS),,,,,,,,,,,,,,,,,,,,,,,,,,,,
72208013880,2014-09-15T14:38:00,FM-16,7,,SE,0.25,mi,"TEMP, PRECIP, SNOW",,,"MMTS, SRG, SNOWBOARD",,,WFO CHS,,,,,,,,,,,,,,,,,,,,,,,,,,,30.11,75,81,T,TS:7 -RA:02 |RA TS TS |,,,84,,BKN:07 30 BKN:07 40,30.06,10.00,77,160,,11,,,,,,,,,,,,,,,,,,,,,,,,,,,,,,,,,,,,,MET14609/15/14 14:38:02 SPECI KCHS 151938Z 16010KT 10SM -TSRA BKN030CB BKN040 27/24 A3011 RMK AO2 TSB38RAB23 OCNL LTGIC SE-SW TS SE-SW MOV E P0000 (BBE),,,,,,,,,,,,,,,,,,,,,,,,,,,,
72208013880,2014-09-15T15:38:00,FM-16,7,,SE,0.25,mi,"TEMP, PRECIP, SNOW",,,"MMTS, SRG, SNOWBOARD",,,WFO CHS,,,,,,,,,,,,,,,,,,,,,,,,,,,30.12,72,77,0.23,TS:7 +RA:02 BR:1 |RA TS |,,,83,,BKN:07 25 BKN:07 50 OVC:08 65,30.07,2.00,74,170,,9,,,,,,,,,,,,,,,,,,,,,,,,,,,,,,,,,,,,,MET15109/15/14 15:38:02 SPECI KCHS 152038Z 17008KT 2SM +TSRA BR BKN025CB BKN050 OVC065 25/22 A3012 RMK AO2 RAB18 OCNL LTGIC ALQDS TS ALQDS MOV SE P0023 (BBE),,,,,,,,,,,,,,,,,,,,,,,,,,,,
72208013880,2014-09-16T13:56:00,FM-15,7,,SE,0.25,mi,"TEMP, PRECIP, SNOW",,,"MMTS, SRG, SNOWBOARD",,,WFO CHS,,,,,,,,,,,,,,,,,,,,,,,,,,,29.96,74,84,0.00,,,,72,29.96,SCT:04 30 BKN:07 40 BKN:07 70,29.91,10.00,77,150,,13,,,,,,,,,,,,,,,,,,,,,,,,,,,,,,,,,,,,,MET12409/16/14 13:56:02 METAR KCHS 161856Z 15011KT 10SM SCT030 BKN040 BKN070 29/23 A2996 RMK AO2 SLP145 CB DSNT NE T02890233 (JMB),,,,,,,,,,,,,,,,,,,,,,,,,,,,
72208013880,2014-09-16T14:54:00,FM-16,6,,SE,0.25,mi,"TEMP, PRECIP, SNOW",,,"MMTS, SRG, SNOWBOARD",,,WFO CHS,,,,,,,,,,,,,,,,,,,,,,,,,,,29.96,75,79,,-RA:02 |RA |,,,89,,SCT:04 25 BKN:07 45 BKN:07 55,29.91,8.00,76,160,,8,,,,,,,,,,,,,,,,,,,,,,,,,,,,,,,,,,,,,MET13409/16/14 14:54:02 SPECI KCHS 161954Z 16007KT 8SM -RA SCT025CB BKN045 BKN055 26/24 A2996 RMK AO2 RAB05 CB SE-SW MOV SE P0027 FIBI (BBE),,,,,,,,,,,,,,,,,,,,,,,,,,,,
72208013880,2014-09-16T14:56:00,FM-15,7,,SE,0.25,mi,"TEMP, PRECIP, SNOW",,,"MMTS, SRG, SNOWBOARD",,,WFO CHS,,,,,,,,,,,,,,,,,,,,,,,,,,,29.96,74,79,0.27,-RA:02 |RA |,,,85,29.96,SCT:04 25 BKN:07 45 BKN:07 55,29.91,7.00,76,160,,9,,,,,,,,,,,,,,,,,,,,,,,,,,,,,,,,,,,,,MET14609/16/14 14:56:02 METAR KCHS 161956Z 16008KT 7SM -RA SCT025CB BKN045 BKN055 26/23 A2996 RMK AO2 RAB05 SLP145 CB SE-SW MOV SE P0027 T02610233 (BBE),,,,,,,,,,,,,,,,,,,,,,,,,,,,
72208013880,2014-09-16T15:15:00,FM-16,7,,SE,0.25,mi,"TEMP, PRECIP, SNOW",,,"MMTS, SRG, SNOWBOARD",,,WFO CHS,,,,,,,,,,,,,,,,,,,,,,,,,,,29.96,73,79,0.02,TS:7 -RA:02 |RA TS TS |,,,84,,SCT:04 35 BKN:07 50 BKN:07 70,29.91,10.00,75,160,,9,,,,,,,,,,,,,,,,,,,,,,,,,,,,,,,,,,,,,MET14909/16/14 15:15:02 SPECI KCHS 162015Z 16008KT 10SM -TSRA SCT035CB BKN050 BKN070 26/23 A2996 RMK AO2 TSB15 OCNL LTGIC SE-SW TS SE-SW MOV SE P0002 (BBE),,,,,,,,,,,,,,,,,,,,,,,,,,,,
72208013880,2014-09-16T16:43:00,FM-16,7,,SE,0.25,mi,"TEMP, PRECIP, SNOW",,,"MMTS, SRG, SNOWBOARD",,,WFO CHS,,,,,,,,,,,,,,,,,,,,,,,,,,,29.96,72,73,0.97,TS:7 +RA:02 BR:1 |RA TS |,,,94,,OVC:08 25,29.91,3.00,72,170,,8,,,,,,,,,,,,,,,,,,,,,,,,,,,,,,,,,,,,,MET13109/16/14 16:43:02 SPECI KCHS 162143Z 17007KT 3SM +TSRA BR OVC025CB 23/22 A2996 RMK AO2 OCNL LTGIC ALQDS TS ALQDS MOV SE P0097 (BBE),,,,,,,,,,,,,,,,,,,,,,,,,,,,
72208013880,2014-09-16T16:56:00,FM-15,7,,SE,0.25,mi,"TEMP, PRECIP, SNOW",,,"MMTS, SRG, SNOWBOARD",,,WFO CHS,,,,,,,,,,,,,,,,,,,,,,,,,,,29.97,70,73,0.97,TS:7 -RA:02 BR:1 |RA TS |,,,90,29.96,BKN:07 25 OVC:08 35,29.92,5.00,71,150,,8,,,,,,,,,,,,,,,,,,,,,,,,,,,,,,,,,,,,,MET14709/16/14 16:56:02 METAR KCHS 162156Z 15007KT 5SM -TSRA BR BKN025CB OVC035 23/21 A2997 RMK AO2 SLP147 OCNL LTGIC N TS N MOV SE P0101 T02280211 (BBE),,,,,,,,,,,,,,,,,,,,,,,,,,,,
72208013880,2014-09-17T13:56:00,FM-15,7,,SE,0.25,mi,"TEMP, PRECIP, SNOW",,,"MMTS, SRG, SNOWBOARD",,,WFO CHS,,,,,,,,,,,,,,,,,,,,,,,,,,,29.88,69,85,0.00,,,,59,29.88,SCT:04 30 BKN:07 40,29.83,10.00,74,150,,8,,,,,,,,,,,,,,,,,,,,,,,,,,,,,,,,,,,,,MET11809/17/14 13:56:02 METAR KCHS 171856Z 15007KT 10SM SCT030 BKN040 29/21 A2988 RMK AO2 SLP117 MDT CU W-NW T02940206 (JMB),,,,,,,,,,,,,,,,,,,,,,,,,,,,
72208013880,2014-09-17T14:56:00,FM-15,7,,SE,0.25,mi,"TEMP, PRECIP, SNOW",,,"MMTS, SRG, SNOWBOARD",,,WFO CHS,,,,,,,,,,,,,,,,,,,,,,,,,,,29.87,69,83,0.00,,,,63,29.87,FEW:02 30 SCT:04 50 SCT:04 250,29.82,10.00,74,160,,8,,,,,,,,,,,,,,,,,,,,,,,,,,,,,,,,,,,,,MET11309/17/14 14:56:02 METAR KCHS 171956Z 16007KT 10SM FEW030 SCT050 SCT250 28/21 A2987 RMK AO2 SLP114 T02830206 (BBE),,,,,,,,,,,,,,,,,,,,,,,,,,,,
72208013880,2014-09-17T15:56:00,FM-15,7,,SE,0.25,mi,"TEMP, PRECIP, SNOW",,,"MMTS, SRG, SNOWBOARD",,,WFO CHS,,,,,,,,,,,,,,,,,,,,,,,,,,,29.86,68,82,0.00,,+0.04,6,63,29.86,FEW:02 30 SCT:04 50 BKN:07 200,29.81,10.00,73,160,,10,,,,,,,,,,,,,,,,,,,,,,,,,,,,,,,,,,,,,MET13209/17/14 15:56:02 METAR KCHS 172056Z 16009KT 10SM FEW030 SCT050 BKN200 28/20 A2986 RMK AO2 SLP112 CB DSNT NW-N T02780200 56012 (BBE),,,,,,,,,,,,,,,,,,,,,,,,,,,,
72208013880,2014-09-17T16:00:00,FM-12,4,,SE,0.25,mi,"TEMP, PRECIP, SNOW",,,"MMTS, SRG, SNOWBOARD",,,WFO CHS,,,,,,,,,,,,,,,,,,,,,,,,,,,,68,82,,,+0.04,6,63,29.86,26,29.81,9.94,73,160,,10,,,,,,,,,,,,,,,,,,,,,,,,,,,,,,,,,,,,,SYN06472208 32566 61609 10278 20200 30096 40112 56012 92056 555 91721=,,,,,,,,,,,,,,,,,,,,,,,,,,,,
72208013880,2014-09-22T14:56:00,FM-15,7,,SE,0.25,mi,"TEMP, PRECIP, SNOW",,,"MMTS, SRG, SNOWBOARD",,,WFO CHS,,,,,,,,,,,,,,,,,,,,,,,,,,,29.94,68,86,0.00,,,,55,29.94,SCT:04 40 SCT:04 50 BKN:07 250,29.89,10.00,74,170,,14,,,,,,,,,,,,,,,,,,,,,,,,,,,,,,,,,,,,,MET13009/22/14 14:56:02 METAR KCHS 221956Z 17012KT 10SM SCT040CB SCT050 BKN250 30/20 A2994 RMK AO2 SLP139 CB NW-NE MOV E T03000200 (BBE),,,,,,,,,,,,,,,,,,,,,,,,,,,,
72208013880,2014-10-01T15:56:00,FM-15,7,,SE,0.25,mi,"TEMP, PRECIP, SNOW",,,"MMTS, SRG, SNOWBOARD",,,WFO CHS,,,,,,,,,,,,,,,,,,,,,,,,,,,29.97,67,81,0.00,,+0.01,5,62,29.96,FEW:02 35 SCT:04 55,29.92,10.00,72,160,,10,,,,,,,,,,,,,,,,,,,,,,,,,,,,,,,,,,,,,MET11210/01/14 15:56:02 METAR KCHS 012056Z 16009KT 10SM FEW035 SCT055 27/19 A2997 RMK AO2 SLP147 T02720194 55003 (BBE),,,,,,,,,,,,,,,,,,,,,,,,,,,,
72208013880,2014-10-01T16:00:00,FM-12,4,,SE,0.25,mi,"TEMP, PRECIP, SNOW",,,"MMTS, SRG, SNOWBOARD",,,WFO CHS,,,,,,,,,,,,,,,,,,,,,,,,,,,,67,81,,,+0.01,5,62,29.96,41,29.92,9.94,72,160,,10,,,,,,,,,,,,,,,,,,,,,,,,,,,,,,,,,,,,,SYN06472208 32666 41609 10272 20194 30133 40147 55003 92056 555 90121=,,,,,,,,,,,,,,,,,,,,,,,,,,,,
72208013880,2014-10-02T15:56:00,FM-15,7,,SE,0.25,mi,"TEMP, PRECIP, SNOW",,,"MMTS, SRG, SNOWBOARD",,,WFO CHS,,,,,,,,,,,,,,,,,,,,,,,,,,,30.05,64,84,0.00,,+0.03,6,51,30.05,FEW:02 40 SCT:04 50,30.00,10.00,71,160,,9,,,,,,,,,,,,,,,,,,,,,,,,,,,,,,,,,,,,,MET11210/02/14 15:56:02 METAR KCHS 022056Z 16008KT 10SM FEW040 SCT050 29/18 A3005 RMK AO2 SLP175 T02890178 56011 (BBE),,,,,,,,,,,,,,,,,,,,,,,,,,,,
72208013880,2014-10-02T16:00:00,FM-12,4,,SE,0.25,mi,"TEMP, PRECIP, SNOW",,,"MMTS, SRG, SNOWBOARD",,,WFO CHS,,,,,,,,,,,,,,,,,,,,,,,,,,,,64,84,,,+0.03,6,51,30.05,41,30.00,9.94,71,160,,9,,,,,,,,,,,,,,,,,,,,,,,,,,,,,,,,,,,,,SYN06472208 32666 41608 10289 20178 30160 40175 56011 92056 555 90221=,,,,,,,,,,,,,,,,,,,,,,,,,,,,
72208013880,2014-10-02T16:56:00,FM-15,7,,SE,0.25,mi,"TEMP, PRECIP, SNOW",,,"MMTS, SRG, SNOWBOARD",,,WFO CHS,,,,,,,,,,,,,,,,,,,,,,,,,,,30.05,64,81,0.00,,,,57,30.05,FEW:02 40,30.00,10.00,70,150,,8,,,,,,,,,,,,,,,,,,,,,,,,,,,,,,,,,,,,,MET09910/02/14 16:56:02 METAR KCHS 022156Z 15007KT 10SM FEW040 27/18 A3005 RMK AO2 SLP176 T02720178 (BBE),,,,,,,,,,,,,,,,,,,,,,,,,,,,
72208013880,2014-10-02T17:56:00,FM-15,7,,SE,0.25,mi,"TEMP, PRECIP, SNOW",,,"MMTS, SRG, SNOWBOARD",,,WFO CHS,,,,,,,,,,,,,,,,,,,,,,,,,,,30.06,65,77,0.00,,,,66,30.06,CLR:00,30.01,10.00,69,160,,10,,,,,,,,,,,,,,,,,,,,,,,,,,,,,,,,,,,,,MET09610/02/14 17:56:02 METAR KCHS 022256Z 16009KT 10SM CLR 25/18 A3006 RMK AO2 SLP179 T02500183 (BBE),,,,,,,,,,,,,,,,,,,,,,,,,,,,
72208013880,2014-10-10T12:56:00,FM-15,7,,SE,0.25,mi,"TEMP, PRECIP, SNOW",,,"MMTS, SRG, SNOWBOARD",,,WFO CHS,,,,,,,,,,,,,,,,,,,,,,,,,,,30.08,66,87,0.00,,+0.05,8,50,30.07,FEW:02 35,30.03,10.00,73,170,,10,,,,,,,,,,,,,,,,,,,,,,,,,,,,,,,,,,,,,MET11710/10/14 12:56:02 METAR KCHS 101756Z 17009KT 10SM FEW035 31/19 A3008 RMK AO2 SLP184 T03060189 10306 20183 58018 (JMB),,,,,,,,,,,,,,,,,,,,,,,,,,,,
72208013880,2014-10-10T13:00:00,FM-12,4,,SE,0.25,mi,"TEMP, PRECIP, SNOW",,,"MMTS, SRG, SNOWBOARD",,,WFO CHS,,,,,,,,,,,,,,,,,,,,,,,,,,,,66,87,,,+0.05,8,50,30.07,41,30.03,9.94,73,170,,10,,,,,,,,,,,,,,,,,,,,,,,,,,,,,,,,,,,,,SYN08072208 32666 21709 10306 20189 30170 40184 58018 91756 333 10306 20183 555 91018=,,,,,,,,,,,,,,,,,,,,,,,,,,,,
72208013880,2014-10-10T13:56:00,FM-15,7,,SE,0.25,mi,"TEMP, PRECIP, SNOW",,,"MMTS, SRG, SNOWBOARD",,,WFO CHS,,,,,,,,,,,,,,,,,,,,,,,,,,,30.05,67,86,0.00,,,,53,30.05,FEW:02 40,30.00,10.00,73,160,17,9,,,,,,,,,,,,,,,,,,,,,,,,,,,,,,,,,,,,,MET10210/10/14 13:56:02 METAR KCHS 101856Z 16008G15KT 10SM FEW040 30/19 A3005 RMK AO2 SLP177 T03000194 (JMB),,,,,,,,,,,,,,,,,,,,,,,,,,,,
72208013880,2014-10-10T14:56:00,FM-15,7,,SE,0.25,mi,"TEMP, PRECIP, SNOW",,,"MMTS, SRG, SNOWBOARD",,,WFO CHS,,,,,,,,,,,,,,,,,,,,,,,,,,,30.05,67,85,0.00,,,,55,30.04,FEW:02 40,30.00,10.00,73,150,18,10,,,,,,,,,,,,,,,,,,,,,,,,,,,,,,,,,,,,,MET10210/10/14 14:56:02 METAR KCHS 101956Z 15009G16KT 10SM FEW040 29/19 A3005 RMK AO2 SLP173 T02940194 (BBE),,,,,,,,,,,,,,,,,,,,,,,,,,,,
72208013880,2014-10-10T16:56:00,FM-15,7,,SE,0.25,mi,"TEMP, PRECIP, SNOW",,,"MMTS, SRG, SNOWBOARD",,,WFO CHS,,,,,,,,,,,,,,,,,,,,,,,,,,,30.05,65,82,0.00,,,,56,30.04,FEW:02 250,30.00,10.00,71,170,,11,,,,,,,,,,,,,,,,,,,,,,,,,,,,,,,,,,,,,MET09910/10/14 16:56:02 METAR KCHS 102156Z 17010KT 10SM FEW250 28/18 A3005 RMK AO2 SLP174 T02780183 (BBE),,,,,,,,,,,,,,,,,,,,,,,,,,,,
72208013880,2014-10-10T17:56:00,FM-15,7,,SE,0.25,mi,"TEMP, PRECIP, SNOW",,,"MMTS, SRG, SNOWBOARD",,,WFO CHS,,,,,,,,,,,,,,,,,,,,,,,,,,,30.06,66,78,0.00,,,,67,30.06,FEW:02 250,30.01,10.00,70,170,,9,,,,,,,,,,,,,,,,,,,,,,,,,,,,,,,,,,,,,MET09910/10/14 17:56:02 METAR KCHS 102256Z 17008KT 10SM FEW250 26/19 A3006 RMK AO2 SLP178 T02560189 (BBE),,,,,,,,,,,,,,,,,,,,,,,,,,,,
72208013880,2014-10-13T13:56:00,FM-15,7,,SE,0.25,mi,"TEMP, PRECIP, SNOW",,,"MMTS, SRG, SNOWBOARD",,,WFO CHS,,,,,,,,,,,,,,,,,,,,,,,,,,,30.13,70,85,0.00,,,,61,30.13,SCT:04 35 BKN:07 45,30.08,10.00,75,150,,13,,,,,,,,,,,,,,,,,,,,,,,,,,,,,,,,,,,,,MET11910/13/14 13:56:02 METAR KCHS 131856Z 15011KT 10SM SCT035 BKN045 29/21 A3013 RMK AO2 SLP202 MDT CU ALQDS T02940211 (JMB),,,,,,,,,,,,,,,,,,,,,,,,,,,,
72208013880,2014-10-13T15:56:00,FM-15,7,,SE,0.25,mi,"TEMP, PRECIP, SNOW",,,"MMTS, SRG, SNOWBOARD",,,WFO CHS,,,,,,,,,,,,,,,,,,,,,,,,,,,30.11,70,85,0.00,,+0.03,8,61,30.11,FEW:02 30 SCT:04 250,30.06,10.00,75,160,,11,,,,,,,,,,,,,,,,,,,,,,,,,,,,,,,,,,,,,MET11210/13/14 15:56:02 METAR KCHS 132056Z 16010KT 10SM FEW030 SCT250 29/21 A3011 RMK AO2 SLP197 T02940211 58010 (BBE),,,,,,,,,,,,,,,,,,,,,,,,,,,,
72208013880,2014-10-13T16:00:00,FM-12,4,,SE,0.25,mi,"TEMP, PRECIP, SNOW",,,"MMTS, SRG, SNOWBOARD",,,WFO CHS,,,,,,,,,,,,,,,,,,,,,,,,,,,,70,85,,,+0.03,8,61,30.11,26,30.06,9.94,75,160,,11,,,,,,,,,,,,,,,,,,,,,,,,,,,,,,,,,,,,,SYN06472208 32566 41610 10294 20211 30180 40197 58010 92056 555 91321=,,,,,,,,,,,,,,,,,,,,,,,,,,,,
72208013880,2014-10-13T16:56:00,FM-15,7,,SE,0.25,mi,"TEMP, PRECIP, SNOW",,,"MMTS, SRG, SNOWBOARD",,,WFO CHS,,,,,,,,,,,,,,,,,,,,,,,,,,,30.11,71,83,0.00,,,,67,30.11,SCT:04 30 SCT:04 250,30.06,10.00,75,150,,11,,,,,,,,,,,,,,,,,,,,,,,,,,,,,,,,,,,,,MET10610/13/14 16:56:02 METAR KCHS 132156Z 15010KT 10SM SCT030 SCT250 28/22 A3011 RMK AO2 SLP196 T02830217 (BBE),,,,,,,,,,,,,,,,,,,,,,,,,,,,
72208013880,2014-10-14T13:56:00,FM-15,7,,SE,0.25,mi,"TEMP, PRECIP, SNOW",,,"MMTS, SRG, SNOWBOARD",,,WFO CHS,,,,,,,,,,,,,,,,,,,,,,,,,,,29.97,70,84,0.00,,,,63,29.96,FEW:02 28 BKN:07 36 BKN:07 47,29.92,10.00,74,170,24,15,,,,,,,,,,,,,,,,,,,,,,,,,,,,,,,,,,,,,MET11610/14/14 13:56:02 METAR KCHS 141856Z 17013G21KT 10SM FEW028 BKN036 BKN047 29/21 A2997 RMK AO2 SLP146 T02890211 (JMB),,,,,,,,,,,,,,,,,,,,,,,,,,,,
72208013880,2014-10-14T16:56:00,FM-15,7,,SE,0.25,mi,"TEMP, PRECIP, SNOW",,,"MMTS, SRG, SNOWBOARD",,,WFO CHS,,,,,,,,,,,,,,,,,,,,,,,,,,,29.94,71,82,0.00,,,,69,29.94,SCT:04 32 BKN:07 47,29.89,10.00,74,170,24,14,,,,,,,,,,,,,,,,,,,,,,,,,,,,,,,,,,,,,MET12210/14/14 16:56:02 METAR KCHS 142156Z 17012G21KT 10SM SCT032 BKN047 28/22 A2994 RMK AO2 SLP138 MDT CU ALQDS T02780217 (DAW),,,,,,,,,,,,,,,,,,,,,,,,,,,,
72208013880,2014-10-14T17:56:00,FM-15,7,,SE,0.25,mi,"TEMP, PRECIP, SNOW",,,"MMTS, SRG, SNOWBOARD",,,WFO CHS,,,,,,,,,,,,,,,,,,,,,,,,,,,29.94,72,81,0.00,,,,74,29.93,SCT:04 32,29.89,10.00,75,170,,13,,,,,,,,,,,,,,,,,,,,,,,,,,,,,,,,,,,,,MET11010/14/14 17:56:02 METAR KCHS 142256Z 17011KT 10SM SCT032 27/22 A2994 RMK AO2 SLP137 CB DSNT SW T02720222 (DAW),,,,,,,,,,,,,,,,,,,,,,,,,,,,
72208013880,2014-10-20T13:56:00,FM-15,7,,SE,0.25,mi,"TEMP, PRECIP, SNOW",,,"MMTS, SRG, SNOWBOARD",,,WFO CHS,,,,,,,,,,,,,,,,,,,,,,,,,,,30.03,58,76,0.00,,,,54,30.02,SCT:04 40,29.98,10.00,65,160,,9,,,,,,,,,,,,,,,,,,,,,,,,,,,,,,,,,,,,,MET09910/20/14 13:56:02 METAR KCHS 201856Z 16008KT 10SM SCT040 24/14 A3003 RMK AO2 SLP167 T02440144 (JMB),,,,,,,,,,,,,,,,,,,,,,,,,,,,
72208013880,2014-10-27T13:56:00,FM-15,7,,SE,0.25,mi,"TEMP, PRECIP, SNOW",,,"MMTS, SRG, SNOWBOARD",,,WFO CHS,,,,,,,,,,,,,,,,,,,,,,,,,,,30.06,56,85,0.00,,,,37,30.05,CLR:00,30.01,10.00,67,160,,7,,,,,,,,,,,,,,,,,,,,,,,,,,,,,,,,,,,,,MET09610/27/14 13:56:02 METAR KCHS 271856Z 16006KT 10SM CLR 29/13 A3006 RMK AO2 SLP177 T02940133 (JMB),,,,,,,,,,,,,,,,,,,,,,,,,,,,
72208013880,2014-10-27T14:56:00,FM-15,7,,SE,0.25,mi,"TEMP, PRECIP, SNOW",,,"MMTS, SRG, SNOWBOARD",,,WFO CHS,,,,,,,,,,,,,,,,,,,,,,,,,,,30.06,56,84,0.00,,,,38,30.05,CLR:00,30.01,10.00,67,150,,8,,,,,,,,,,,,,,,,,,,,,,,,,,,,,,,,,,,,,MET09610/27/14 14:56:02 METAR KCHS 271956Z 15007KT 10SM CLR 29/13 A3006 RMK AO2 SLP177 T02890133 (BBE),,,,,,,,,,,,,,,,,,,,,,,,,,,,
72208013880,2014-11-19T13:56:00,FM-15,7,,SE,0.25,mi,"TEMP, PRECIP, SNOW",,,"MMTS, SRG, SNOWBOARD",,,WFO CHS,,,,,,,,,,,,,,,,,,,,,,,,,,,30.36,13,51,0.00,,,,22,30.36,FEW:02 200,30.31,10.00,37,170,,7,,,,,,,,,,,,,,,,,,,,,,,,,,,,,,,,,,,,,MET10011/19/14 13:56:02 METAR KCHS 191856Z 17006KT 10SM FEW200 11/M11 A3036 RMK AO2 SLP280 T01061106 (JMB),,,,,,,,,,,,,,,,,,,,,,,,,,,,
72208013880,2014-11-29T17:56:00,FM-15,7,,SE,0.25,mi,"TEMP, PRECIP, SNOW",,,"MMTS, SRG, SNOWBOARD",,,WFO CHS,,,,,,,,,,,,,,,,,,,,,,,,,,,30.30,40,50,0.00,,,,68,30.30,CLR:00,30.25,10.00,45,170,,7,,,,,,,,,,,,,,,,,,,,,,,,,,,,,,,,,,,,,MET09811/29/14 17:56:02 METAR KCHS 292256Z 17006KT 10SM CLR 10/04 A3030 RMK AO2 SLP261 T01000044 $ (JRS),,,,,,,,,,,,,,,,,,,,,,,,,,,,
72208013880,2014-12-14T16:56:00,FM-15,7,,SE,0.25,mi,"TEMP, PRECIP, SNOW",,,"MMTS, SRG, SNOWBOARD",,,WFO CHS,,,,,,,,,,,,,,,,,,,,,,,,,,,30.01,40,57,0.00,,,,53,30.01,CLR:00,29.96,10.00,49,150,,7,,,,,,,,,,,,,,,,,,,,,,,,,,,,,,,,,,,,,MET09612/14/14 16:56:02 METAR KCHS 142156Z 15006KT 10SM CLR 14/04 A3001 RMK AO2 SLP162 T01390044 (JRS),,,,,,,,,,,,,,,,,,,,,,,,,,,,
72208013880,2014-12-15T11:56:00,FM-15,7,,SE,0.25,mi,"TEMP, PRECIP, SNOW",,,"MMTS, SRG, SNOWBOARD",,,WFO CHS,,,,,,,,,,,,,,,,,,,,,,,,,,,30.09,45,67,0.00,,,,45,30.09,FEW:02 200,30.04,10.00,55,150,,9,,,,,,,,,,,,,,,,,,,,,,,,,,,,,,,,,,,,,MET09912/15/14 11:56:02 METAR KCHS 151656Z 15008KT 10SM FEW200 19/07 A3009 RMK AO2 SLP188 T01940072 (JMB),,,,,,,,,,,,,,,,,,,,,,,,,,,,
72208013880,2014-12-15T15:56:00,FM-15,7,,SE,0.25,mi,"TEMP, PRECIP, SNOW",,,"MMTS, SRG, SNOWBOARD",,,WFO CHS,,,,,,,,,,,,,,,,,,,,,,,,,,,30.05,45,66,0.00,,+0.01,5,47,30.05,SCT:04 250,30.00,10.00,55,150,,9,,,,,,,,,,,,,,,,,,,,,,,,,,,,,,,,,,,,,MET10512/15/14 15:56:02 METAR KCHS 152056Z 15008KT 10SM SCT250 19/07 A3005 RMK AO2 SLP176 T01890072 55003 (BBE),,,,,,,,,,,,,,,,,,,,,,,,,,,,
72208013880,2014-12-15T16:00:00,FM-12,4,,SE,0.25,mi,"TEMP, PRECIP, SNOW",,,"MMTS, SRG, SNOWBOARD",,,WFO CHS,,,,,,,,,,,,,,,,,,,,,,,,,,,,45,66,,,+0.01,5,47,30.05,,30.00,9.94,55,150,,9,,,,,,,,,,,,,,,,,,,,,,,,,,,,,,,,,,,,,SYN06472208 32966 41508 10189 20072 30160 40176 55003 92056 555 91521=,,,,,,,,,,,,,,,,,,,,,,,,,,,,
72208013880,2014-12-18T15:56:00,FM-15,7,,SE,0.25,mi,"TEMP, PRECIP, SNOW",,,"MMTS, SRG, SNOWBOARD",,,WFO CHS,,,,,,,,,,,,,,,,,,,,,,,,,,,30.07,42,60,0.00,,+0.03,6,52,30.06,SCT:04 200,30.02,10.00,51,150,,8,,,,,,,,,,,,,,,,,,,,,,,,,,,,,,,,,,,,,MET10512/18/14 15:56:02 METAR KCHS 182056Z 15007KT 10SM SCT200 16/06 A3007 RMK AO2 SLP181 T01560056 56010 (BBE),,,,,,,,,,,,,,,,,,,,,,,,,,,,
72208013880,2014-12-18T16:00:00,FM-12,4,,SE,0.25,mi,"TEMP, PRECIP, SNOW",,,"MMTS, SRG, SNOWBOARD",,,WFO CHS,,,,,,,,,,,,,,,,,,,,,,,,,,,,42,60,,,+0.03,6,52,30.06,,30.02,9.94,51,150,,8,,,,,,,,,,,,,,,,,,,,,,,,,,,,,,,,,,,,,SYN06472208 32966 41507 10156 20056 30167 40181 56010 92056 555 91821=,,,,,,,,,,,,,,,,,,,,,,,,,,,,
72208013880,2014-12-18T16:56:00,FM-15,7,,SE,0.25,mi,"TEMP, PRECIP, SNOW",,,"MMTS, SRG, SNOWBOARD",,,WFO CHS,,,,,,,,,,,,,,,,,,,,,,,,,,,30.08,43,56,0.00,,,,62,30.08,SCT:04 200,30.03,10.00,50,150,,9,,,,,,,,,,,,,,,,,,,,,,,,,,,,,,,,,,,,,MET09912/18/14 16:56:02 METAR KCHS 182156Z 15008KT 10SM SCT200 13/06 A3008 RMK AO2 SLP185 T01330061 (BBE),,,,,,,,,,,,,,,,,,,,,,,,,,,,
72208013880,2014-12-24T15:56:00,FM-15,7,,SE,0.25,mi,"TEMP, PRECIP, SNOW",,,"MMTS, SRG, SNOWBOARD",,,WFO CHS,,,,,,,,,,,,,,,,,,,,,,,,,,,29.78,66,68,0.02,-RA:02 |RA |,+0.02,8,93,29.78,SCT:04 25 BKN:07 55 OVC:08 70,29.73,7.00,67,170,,7,,,,,,,,,,,,,,,,,,,,,,,,,,,,,,,,,,,,,MET15812/24/14 15:56:02 METAR KCHS 242056Z 17006KT 7SM -RA SCT025CB BKN055 OVC070 20/19 A2978 RMK AO2 RAB51 SLP083 CB SW-NW MOV NE P0002 60012 T02000189 58006 (BBE),,,,,,,,,,,,,,,,,,,,,,,,,,,,
72208013880,2014-12-24T16:00:00,FM-12,4,,SE,0.25,mi,"TEMP, PRECIP, SNOW",,,"MMTS, SRG, SNOWBOARD",,,WFO CHS,,,,,,,,,,,,,,,,,,,,,,,,,,,,66,68,,||RA,+0.02,8,93,29.78,26,29.73,6.84,67,170,,7,,,,,,,,,,,,,,,,,,,,,,,,,,,,,,,,,,,,,SYN07672208 11561 81706 10200 20189 30069 40083 58006 60037 761// 92056 555 92421=,,,,,,,,,,,,,,,,,,,,,,,,,,,,
72208013880,2014-12-24T16:08:00,FM-16,7,,SE,0.25,mi,"TEMP, PRECIP, SNOW",,,"MMTS, SRG, SNOWBOARD",,,WFO CHS,,,,,,,,,,,,,,,,,,,,,,,,,,,29.78,64,68,T,,,,88,,SCT:04 20 BKN:07 25 OVC:08 55,29.73,7.00,66,170,,7,,,,,,,,,,,,,,,,,,,,,,,,,,,,,,,,,,,,,MET10712/24/14 16:08:02 SPECI KCHS 242108Z 17006KT 7SM SCT020 BKN025 OVC055 20/18 A2978 RMK AO2 RAE02 P0000 (BBE),,,,,,,,,,,,,,,,,,,,,,,,,,,,
72208013880,2014-12-26T16:56:00,FM-15,7,,SE,0.25,mi,"TEMP, PRECIP, SNOW",,,"MMTS, SRG, SNOWBOARD",,,WFO CHS,,,,,,,,,,,,,,,,,,,,,,,,,,,30.28,45,60,0.00,,,,58,30.28,SCT:04 250,30.23,10.00,52,150,,8,,,,,,,,,,,,,,,,,,,,,,,,,,,,,,,,,,,,,MET09912/26/14 16:56:02 METAR KCHS 262156Z 15007KT 10SM SCT250 16/07 A3028 RMK AO2 SLP253 T01560072 (BBE),,,,,,,,,,,,,,,,,,,,,,,,,,,,
72208013880,2015-01-25T14:56:00,FM-15,7,,SE,0.25,mi,"TEMP, PRECIP, SNOW",,,"MMTS, SRG, SNOWBOARD",,,WFO CHS,,,,,,,,,,,,,,,,,,,,,,,,,,,29.90,35,57,0.00,,,,44,29.90,FEW:02 200,29.85,10.00,47,160,,11,,,,,,,,,,,,,,,,,,,,,,,,,,,,,,,,,,,,,MET10101/25/15 14:56:02 METAR KCHS 251956Z 16010KT 10SM FEW200 14/02 A2990 RMK AO2 SLP124 T01390017 $ (KLJ),,,,,,,,,,,,,,,,,,,,,,,,,,,,
72208013880,2015-01-25T15:56:00,FM-15,7,,SE,0.25,mi,"TEMP, PRECIP, SNOW",,,"MMTS, SRG, SNOWBOARD",,,WFO CHS,,,,,,,,,,,,,,,,,,,,,,,,,,,29.89,35,57,0.00,,+0.07,6,44,29.88,FEW:02 200,29.84,10.00,47,170,,9,,,,,,,,,,,,,,,,,,,,,,,,,,,,,,,,,,,,,MET10701/25/15 15:56:02 METAR KCHS 252056Z 17008KT 10SM FEW200 14/02 A2989 RMK AO2 SLP120 T01390017 56024 $ (JRS),,,,,,,,,,,,,,,,,,,,,,,,,,,,
72208013880,2015-01-25T16:00:00,FM-12,4,,SE,0.25,mi,"TEMP, PRECIP, SNOW",,,"MMTS, SRG, SNOWBOARD",,,WFO CHS,,,,,,,,,,,,,,,,,,,,,,,,,,,,35,57,,,+0.07,6,44,29.88,,29.84,9.94,47,170,,9,,,,,,,,,,,,,,,,,,,,,,,,,,,,,,,,,,,,,SYN06472208 32966 21708 10139 20017 30106 40120 56024 92056 555 92521=,,,,,,,,,,,,,,,,,,,,,,,,,,,,
72208013880,2015-02-01T10:56:00,FM-15,7,,SE,0.25,mi,"TEMP, PRECIP, SNOW",,,"MMTS, SRG, SNOWBOARD",,,WFO CHS,,,,,,,,,,,,,,,,,,,,,,,,,,,30.30,39,61,0.00,,,,44,30.29,FEW:02 35 SCT:04 220,30.25,10.00,50,170,,8,,,,,,,,,,,,,,,,,,,,,,,,,,,,,,,,,,,,,MET10802/01/15 10:56:02 METAR KCHS 011556Z 17007KT 10SM FEW035 SCT220 16/04 A3030 RMK AO2 SLP259 T01610039 $ (KLJ),,,,,,,,,,,,,,,,,,,,,,,,,,,,
72208013880,2015-02-01T11:56:00,FM-15,7,,SE,0.25,mi,"TEMP, PRECIP, SNOW",,,"MMTS, SRG, SNOWBOARD",,,WFO CHS,,,,,,,,,,,,,,,,,,,,,,,,,,,30.25,41,64,0.00,,,,43,30.25,FEW:02 48 SCT:04 130 SCT:04 220,30.20,10.00,52,150,,14,,,,,,,,,,,,,,,,,,,,,,,,,,,,,,,,,,,,,MET11502/01/15 11:56:02 METAR KCHS 011656Z 15012KT 10SM FEW048 SCT130 SCT220 18/05 A3025 RMK AO2 SLP244 T01780050 $ (KLJ),,,,,,,,,,,,,,,,,,,,,,,,,,,,
72208013880,2015-02-01T12:56:00,FM-15,7,,SE,0.25,mi,"TEMP, PRECIP, SNOW",,,"MMTS, SRG, SNOWBOARD",,,WFO CHS,,,,,,,,,,,,,,,,,,,,,,,,,,,30.21,44,66,0.00,,+0.09,8,45,30.21,FEW:02 48 SCT:04 220,30.16,10.00,55,170,21,14,,,,,,,,,,,,,,,,,,,,,,,,,,,,,,,,,,,,,MET12902/01/15 12:56:02 METAR KCHS 011756Z 17012G18KT 10SM FEW048 SCT220 19/07 A3021 RMK AO2 SLP230 T01890067 10189 20028 58031 $ (KLJ),,,,,,,,,,,,,,,,,,,,,,,,,,,,
72208013880,2015-02-01T13:00:00,FM-12,4,,SE,0.25,mi,"TEMP, PRECIP, SNOW",,,"MMTS, SRG, SNOWBOARD",,,WFO CHS,,,,,,,,,,,,,,,,,,,,,,,,,,,,44,66,,,+0.09,8,45,30.21,41,30.16,9.94,55,170,,14,,,,,,,,,,,,,,,,,,,,,,,,,,,,,,,,,,,,,SYN08672208 32666 41712 10189 20067 30214 40230 58031 91756 333 10189 20028 91018 555 90118=,,,,,,,,,,,,,,,,,,,,,,,,,,,,
72208013880,2015-02-01T15:56:00,FM-15,7,,SE,0.25,mi,"TEMP, PRECIP, SNOW",,,"MMTS, SRG, SNOWBOARD",,,WFO CHS,,,,,,,,,,,,,,,,,,,,,,,,,,,30.11,47,66,0.00,,+0.10,6,50,30.11,FEW:02 43 SCT:04 200,30.06,10.00,56,170,,14,,,,,,,,,,,,,,,,,,,,,,,,,,,,,,,,,,,,,MET11402/01/15 15:56:02 METAR KCHS 012056Z 17012KT 10SM FEW043 SCT200 19/08 A3011 RMK AO2 SLP195 T01890083 56034 $ (JRS),,,,,,,,,,,,,,,,,,,,,,,,,,,,
72208013880,2015-02-01T16:00:00,FM-12,4,,SE,0.25,mi,"TEMP, PRECIP, SNOW",,,"MMTS, SRG, SNOWBOARD",,,WFO CHS,,,,,,,,,,,,,,,,,,,,,,,,,,,,47,66,,,+0.10,6,50,30.11,41,30.06,9.94,56,170,,14,,,,,,,,,,,,,,,,,,,,,,,,,,,,,,,,,,,,,SYN06472208 32666 41712 10189 20083 30180 40195 56034 92056 555 90121=,,,,,,,,,,,,,,,,,,,,,,,,,,,,
72208013880,2015-02-01T16:56:00,FM-15,7,,SE,0.25,mi,"TEMP, PRECIP, SNOW",,,"MMTS, SRG, SNOWBOARD",,,WFO CHS,,,,,,,,,,,,,,,,,,,,,,,,,,,30.10,49,64,0.00,,,,58,30.09,SCT:04 42 BKN:07 200,30.05,10.00,56,170,,11,,,,,,,,,,,,,,,,,,,,,,,,,,,,,,,,,,,,,MET10802/01/15 16:56:02 METAR KCHS 012156Z 17010KT 10SM SCT042 BKN200 18/09 A3010 RMK AO2 SLP191 T01780094 $ (JRS),,,,,,,,,,,,,,,,,,,,,,,,,,,,
72208013880,2015-02-09T15:56:00,FM-15,7,,SE,0.25,mi,"TEMP, PRECIP, SNOW",,,"MMTS, SRG, SNOWBOARD",,,WFO CHS,,,,,,,,,,,,,,,,,,,,,,,,,,,29.73,53,67,0.00,,+0.07,8,61,29.73,FEW:02 80 BKN:07 200,29.68,10.00,59,170,,9,,,,,,,,,,,,,,,,,,,,,,,,,,,,,,,,,,,,,MET11202/09/15 15:56:02 METAR KCHS 092056Z 17008KT 10SM FEW080 BKN200 19/12 A2973 RMK AO2 SLP068 T01940117 58025 (BBE),,,,,,,,,,,,,,,,,,,,,,,,,,,,
72208013880,2015-02-09T16:00:00,FM-12,4,,SE,0.25,mi,"TEMP, PRECIP, SNOW",,,"MMTS, SRG, SNOWBOARD",,,WFO CHS,,,,,,,,,,,,,,,,,,,,,,,,,,,,53,67,,,+0.07,8,61,29.73,74,29.68,9.94,59,170,,9,,,,,,,,,,,,,,,,,,,,,,,,,,,,,,,,,,,,,SYN06472208 32866 61708 10194 20117 30052 40068 58025 92056 555 90921=,,,,,,,,,,,,,,,,,,,,,,,,,,,,
72208013880,2015-02-09T16:56:00,FM-15,7,,SE,0.25,mi,"TEMP, PRECIP, SNOW",,,"MMTS, SRG, SNOWBOARD",,,WFO CHS,,,,,,,,,,,,,,,,,,,,,,,,,,,29.74,52,62,0.00,,,,70,29.73,FEW:02 80 OVC:08 150,29.69,10.00,56,170,,9,,,,,,,,,,,,,,,,,,,,,,,,,,,,,,,,,,,,,MET10602/09/15 16:56:02 METAR KCHS 092156Z 17008KT 10SM FEW080 OVC150 17/11 A2974 RMK AO2 SLP069 T01670111 (BBE),,,,,,,,,,,,,,,,,,,,,,,,,,,,
72208013880,2015-02-20T15:56:00,FM-15,7,,SE,0.25,mi,"TEMP, PRECIP, SNOW",,,"MMTS, SRG, SNOWBOARD",,,WFO CHS,,,,,,,,,,,,,,,,,,,,,,,,,,,30.45,5,37,0.00,,+0.05,5,26,30.45,FEW:02 250,30.40,10.00,28,170,,7,,,,,,,,,,,,,,,,,,,,,,,,,,,,,,,,,,,,,MET10602/20/15 15:56:02 METAR KCHS 202056Z 17006KT 10SM FEW250 03/M15 A3045 RMK AO2 SLP310 T00281150 55016 (JRS),,,,,,,,,,,,,,,,,,,,,,,,,,,,
72208013880,2015-02-20T16:00:00,FM-12,4,,SE,0.25,mi,"TEMP, PRECIP, SNOW",,,"MMTS, SRG, SNOWBOARD",,,WFO CHS,,,,,,,,,,,,,,,,,,,,,,,,,,,,5,37,,,+0.05,5,26,30.45,,30.40,9.94,28,170,,7,,,,,,,,,,,,,,,,,,,,,,,,,,,,,,,,,,,,,SYN06472208 32966 21706 10028 21150 30295 40310 55016 92056 555 92021=,,,,,,,,,,,,,,,,,,,,,,,,,,,,
72208013880,2015-02-20T16:56:00,FM-15,7,,SE,0.25,mi,"TEMP, PRECIP, SNOW",,,"MMTS, SRG, SNOWBOARD",,,WFO CHS,,,,,,,,,,,,,,,,,,,,,,,,,,,30.46,10,36,0.00,,,,34,30.45,SCT:04 250,30.41,10.00,28,150,,9,,,,,,,,,,,,,,,,,,,,,,,,,,,,,,,,,,,,,MET10002/20/15 16:56:02 METAR KCHS 202156Z 15008KT 10SM SCT250 02/M12 A3046 RMK AO2 SLP313 T00221122 (JRS),,,,,,,,,,,,,,,,,,,,,,,,,,,,
72208013880,2015-02-20T17:56:00,FM-15,7,,SE,0.25,mi,"TEMP, PRECIP, SNOW",,,"MMTS, SRG, SNOWBOARD",,,WFO CHS,,,,,,,,,,,,,,,,,,,,,,,,,,,30.47,12,33,0.00,,,,42,30.47,SCT:04 250,30.42,10.00,27,150,,9,,,,,,,,,,,,,,,,,,,,,,,,,,,,,,,,,,,,,MET10002/20/15 17:56:02 METAR KCHS 202256Z 15008KT 10SM SCT250 01/M11 A3047 RMK AO2 SLP319 T00061111 (JRS),,,,,,,,,,,,,,,,,,,,,,,,,,,,
72208013880,2015-02-21T13:56:00,FM-15,7,,SE,0.25,mi,"TEMP, PRECIP, SNOW",,,"MMTS, SRG, SNOWBOARD",,,WFO CHS,,,,,,,,,,,,,,,,,,,,,,,,,,,30.28,44,60,0.00,,,,56,30.28,FEW:02 32 SCT:04 50 BKN:07 60,30.23,10.00,52,150,,9,,,,,,,,,,,,,,,,,,,,,,,,,,,,,,,,,,,,,MET11302/21/15 13:56:02 METAR KCHS 211856Z 15008KT 10SM FEW032 SCT050 BKN060 16/07 A3028 RMK AO2 SLP254 T01560067 (KLJ),,,,,,,,,,,,,,,,,,,,,,,,,,,,
72208013880,2015-02-22T17:56:00,FM-15,7,,SE,0.25,mi,"TEMP, PRECIP, SNOW",,,"MMTS, SRG, SNOWBOARD",,,WFO CHS,,,,,,,,,,,,,,,,,,,,,,,,,,,30.15,54,66,0.00,,,,65,30.15,SCT:04 65 BKN:07 90 BKN:07 200,30.10,10.00,59,170,,9,,,,,,,,,,,,,,,,,,,,,,,,,,,,,,,,,,,,,MET11302/22/15 17:56:02 METAR KCHS 222256Z 17008KT 10SM SCT065 BKN090 BKN200 19/12 A3015 RMK AO2 SLP210 T01890122 (JRS),,,,,,,,,,,,,,,,,,,,,,,,,,,,
72208013880,2015-03-07T14:56:00,FM-15,7,,SE,0.25,mi,"TEMP, PRECIP, SNOW",,,"MMTS, SRG, SNOWBOARD",,,WFO CHS,,,,,,,,,,,,,,,,,,,,,,,,,,,30.36,25,61,0.00,,,,25,30.36,FEW:02 250,30.31,10.00,46,160,,7,,,,,,,,,,,,,,,,,,,,,,,,,,,,,,,,,,,,,MET10003/07/15 14:56:02 METAR KCHS 071956Z 16006KT 10SM FEW250 16/M04 A3036 RMK AO2 SLP280 T01611039 (KLJ),,,,,,,,,,,,,,,,,,,,,,,,,,,,
72208013880,2015-03-07T15:56:00,FM-15,7,,SE,0.25,mi,"TEMP, PRECIP, SNOW",,,"MMTS, SRG, SNOWBOARD",,,WFO CHS,,,,,,,,,,,,,,,,,,,,,,,,,,,30.36,33,57,0.00,,+0.06,6,41,30.36,CLR:00,30.31,10.00,46,150,,9,,,,,,,,,,,,,,,,,,,,,,,,,,,,,,,,,,,,,MET10203/07/15 15:56:02 METAR KCHS 072056Z 15008KT 10SM CLR 14/01 A3036 RMK AO2 SLP280 T01390006 56022 (JRS),,,,,,,,,,,,,,,,,,,,,,,,,,,,
72208013880,2015-03-07T16:00:00,FM-12,4,,SE,0.25,mi,"TEMP, PRECIP, SNOW",,,"MMTS, SRG, SNOWBOARD",,,WFO CHS,,,,,,,,,,,,,,,,,,,,,,,,,,,,33,57,,,+0.06,6,41,30.36,,30.31,9.94,46,150,,9,,,,,,,,,,,,,,,,,,,,,,,,,,,,,,,,,,,,,SYN06472208 32966 01508 10139 20006 30265 40280 56022 92056 555 90721=,,,,,,,,,,,,,,,,,,,,,,,,,,,,
72208013880,2015-03-07T17:56:00,FM-15,7,,SE,0.25,mi,"TEMP, PRECIP, SNOW",,,"MMTS, SRG, SNOWBOARD",,,WFO CHS,,,,,,,,,,,,,,,,,,,,,,,,,,,30.35,34,52,0.00,,,,50,30.35,CLR:00,30.29,10.00,44,170,,10,,,,,,,,,,,,,,,,,,,,,,,,,,,,,,,,,,,,,MET09603/07/15 17:56:02 METAR KCHS 072256Z 17009KT 10SM CLR 11/01 A3035 RMK AO2 SLP277 T01110011 (JRS),,,,,,,,,,,,,,,,,,,,,,,,,,,,
72208013880,2015-03-09T11:56:00,FM-15,7,,SE,0.25,mi,"TEMP, PRECIP, SNOW",,,"MMTS, SRG, SNOWBOARD",,,WFO CHS,,,,,,,,,,,,,,,,,,,,,,,,,,,30.25,51,72,0.00,,,,48,30.25,FEW:02 40 SCT:04 250,30.20,10.00,60,160,,9,,,,,,,,,,,,,,,,,,,,,,,,,,,,,,,,,,,,,MET10603/09/15 11:56:02 METAR KCHS 091656Z 16008KT 10SM FEW040 SCT250 22/11 A3025 RMK AO2 SLP243 T02220106 (JMB),,,,,,,,,,,,,,,,,,,,,,,,,,,,
72208013880,2015-03-09T12:56:00,FM-15,7,,SE,0.25,mi,"TEMP, PRECIP, SNOW",,,"MMTS, SRG, SNOWBOARD",,,WFO CHS,,,,,,,,,,,,,,,,,,,,,,,,,,,30.23,49,75,0.00,,+0.05,8,40,30.22,FEW:02 45 SCT:04 120 BKN:07 250,30.18,10.00,60,160,17,11,,,,,,,,,,,,,,,,,,,,,,,,,,,,,,,,,,,,,MET13403/09/15 12:56:02 METAR KCHS 091756Z 16010G15KT 10SM FEW045 SCT120 BKN250 24/09 A3023 RMK AO2 SLP235 T02390094 10239 20094 58018 (JMB),,,,,,,,,,,,,,,,,,,,,,,,,,,,
72208013880,2015-03-09T13:00:00,FM-12,4,,SE,0.25,mi,"TEMP, PRECIP, SNOW",,,"MMTS, SRG, SNOWBOARD",,,WFO CHS,,,,,,,,,,,,,,,,,,,,,,,,,,,,49,75,,,+0.05,8,40,30.22,41,30.18,9.94,60,160,,11,,,,,,,,,,,,,,,,,,,,,,,,,,,,,,,,,,,,,SYN08672208 32666 61610 10239 20094 30221 40235 58018 91756 333 10239 20094 91015 555 90918=,,,,,,,,,,,,,,,,,,,,,,,,,,,,
72208013880,2015-03-09T15:56:00,FM-15,7,,SE,0.25,mi,"TEMP, PRECIP, SNOW",,,"MMTS, SRG, SNOWBOARD",,,WFO CHS,,,,,,,,,,,,,,,,,,,,,,,,,,,30.20,52,71,0.00,,+0.03,6,51,30.20,FEW:02 40 SCT:04 150 BKN:07 250,30.15,10.00,60,170,,13,,,,,,,,,,,,,,,,,,,,,,,,,,,,,,,,,,,,,MET11903/09/15 15:56:02 METAR KCHS 092056Z 17011KT 10SM FEW040 SCT150 BKN250 22/11 A3020 RMK AO2 SLP226 T02170111 56009 (BBE),,,,,,,,,,,,,,,,,,,,,,,,,,,,
72208013880,2015-03-09T16:00:00,FM-12,4,,SE,0.25,mi,"TEMP, PRECIP, SNOW",,,"MMTS, SRG, SNOWBOARD",,,WFO CHS,,,,,,,,,,,,,,,,,,,,,,,,,,,,52,71,,,+0.03,6,51,30.20,41,30.15,9.94,60,170,,13,,,,,,,,,,,,,,,,,,,,,,,,,,,,,,,,,,,,,SYN06472208 32666 61711 10217 20111 30211 40226 56009 92056 555 90921=,,,,,,,,,,,,,,,,,,,,,,,,,,,,
72208013880,2015-03-09T17:56:00,FM-15,7,,SE,0.25,mi,"TEMP, PRECIP, SNOW",,,"MMTS, SRG, SNOWBOARD",,,WFO CHS,,,,,,,,,,,,,,,,,,,,,,,,,,,30.21,53,67,0.00,,,,61,30.21,FEW:02 35 SCT:04 150 BKN:07 250,30.16,10.00,59,170,,7,,,,,,,,,,,,,,,,,,,,,,,,,,,,,,,,,,,,,MET11303/09/15 17:56:02 METAR KCHS 092256Z 17006KT 10SM FEW035 SCT150 BKN250 19/12 A3021 RMK AO2 SLP230 T01940117 (BBE),,,,,,,,,,,,,,,,,,,,,,,,,,,,
72208013880,2015-03-10T10:56:00,FM-15,7,,SE,0.25,mi,"TEMP, PRECIP, SNOW",,,"MMTS, SRG, SNOWBOARD",,,WFO CHS,,,,,,,,,,,,,,,,,,,,,,,,,,,30.23,64,76,0.00,,,,67,30.23,SCT:04 25 BKN:07 250,30.18,10.00,68,150,,9,,,,,,,,,,,,,,,,,,,,,,,,,,,,,,,,,,,,,MET10603/10/15 10:56:02 METAR KCHS 101556Z 15008KT 10SM SCT025 BKN250 24/18 A3023 RMK AO2 SLP236 T02440178 (JMB),,,,,,,,,,,,,,,,,,,,,,,,,,,,
72208013880,2015-03-25T14:56:00,FM-15,7,,SE,0.25,mi,"TEMP, PRECIP, SNOW",,,"MMTS, SRG, SNOWBOARD",,,WFO CHS,,,,,,,,,,,,,,,,,,,,,,,,,,,30.13,64,75,0.00,,,,69,30.13,SCT:04 25 BKN:07 50,30.08,10.00,68,160,24,16,,,,,,,,,,,,,,,,,,,,,,,,,,,,,,,,,,,,,MET10903/25/15 14:56:02 METAR KCHS 251956Z 16014G21KT 10SM SCT025 BKN050 24/18 A3013 RMK AO2 SLP203 T02390178 (JMB),,,,,,,,,,,,,,,,,,,,,,,,,,,,
72208013880,2015-04-02T13:56:00,FM-15,7,,SE,0.25,mi,"TEMP, PRECIP, SNOW",,,"MMTS, SRG, SNOWBOARD",,,WFO CHS,,,,,,,,,,,,,,,,,,,,,,,,,,,30.25,57,76,0.00,,,,52,30.25,FEW:02 35 BKN:07 250,30.20,10.00,65,150,,14,,,,,,,,,,,,,,,,,,,,,,,,,,,,,,,,,,,,,MET10604/02/15 13:56:02 METAR KCHS 021856Z 15012KT 10SM FEW035 BKN250 24/14 A3025 RMK AO2 SLP244 T02440139 (JMB),,,,,,,,,,,,,,,,,,,,,,,,,,,,
72208013880,2015-04-02T17:56:00,FM-15,7,,SE,0.25,mi,"TEMP, PRECIP, SNOW",,,"MMTS, SRG, SNOWBOARD",,,WFO CHS,,,,,,,,,,,,,,,,,,,,,,,,,,,30.22,58,71,0.00,,,,63,30.22,FEW:02 45 BKN:07 200,30.17,10.00,63,150,,15,,,,,,,,,,,,,,,,,,,,,,,,,,,,,,,,,,,,,MET10604/02/15 17:56:02 METAR KCHS 022256Z 15013KT 10SM FEW045 BKN200 22/14 A3022 RMK AO2 SLP232 T02170144 (KLJ),,,,,,,,,,,,,,,,,,,,,,,,,,,,
72208013880,2015-04-13T15:56:00,FM-15,6,,SE,0.25,mi,"TEMP, PRECIP, SNOW",,,"MMTS, SRG, SNOWBOARD",,,WFO CHS,,,,,,,,,,,,,,,,,,,,,,,,,,,30.14,66,77,0.00,,+0.05,6,69,30.14,FEW:02 25 BKN:07 250,30.09,10.00,70,160,,17,,,,,,,,,,,,,,,,,,,,,,,,,,,,,,,,,,,,,MET11804/13/15 15:56:02 METAR KCHS 132056Z 16015KT 10SM FEW025 BKN250 25/19 A3014 RMK AO2 SLP206 60000 T02500189 56017 (BBE),,,,,,,,,,,,,,,,,,,,,,,,,,,,
72208013880,2015-04-18T16:56:00,FM-15,6,,SE,0.25,mi,"TEMP, PRECIP, SNOW",,,"MMTS, SRG, SNOWBOARD",,,WFO CHS,,,,,,,,,,,,,,,,,,,,,,,,,,,29.94,67,72,0.00,,,,84,29.93,FEW:02 10 SCT:04 44 BKN:07 70,29.89,10.00,69,150,,7,,,,,,,,,,,,,,,,,,,,,,,,,,,,,,,,,,,,,MET10704/18/15 16:56:02 METAR KCHS 182156Z 15006KT 10SM FEW010 SCT044 BKN070 22/19 A2994 RMK AO2 SLP137 T02220194,,,,,,,,,,,,,,,,,,,,,,,,,,,,
72208013880,2015-04-19T14:22:00,FM-16,6,,SE,0.25,mi,"TEMP, PRECIP, SNOW",,,"MMTS, SRG, SNOWBOARD",,,WFO CHS,,,,,,,,,,,,,,,,,,,,,,,,,,,29.88,68,75,,,,,78,,SCT:04 12 BKN:07 33 OVC:08 90,29.83,10.00,70,170,,11,,,,,,,,,,,,,,,,,,,,,,,,,,,,,,,,,,,,,MET09604/19/15 14:22:02 SPECI KCHS 191922Z 17010KT 10SM SCT012 BKN033 OVC090 24/20 A2988 RMK AO2 (JRS),,,,,,,,,,,,,,,,,,,,,,,,,,,,
72208013880,2015-04-19T14:56:00,FM-15,6,,SE,0.25,mi,"TEMP, PRECIP, SNOW",,,"MMTS, SRG, SNOWBOARD",,,WFO CHS,,,,,,,,,,,,,,,,,,,,,,,,,,,29.86,68,76,0.00,,,,77,29.86,FEW:02 15 SCT:04 25 OVC:08 100,29.81,10.00,71,170,,9,,,,,,,,,,,,,,,,,,,,,,,,,,,,,,,,,,,,,MET11304/19/15 14:56:02 METAR KCHS 191956Z 17008KT 10SM FEW015 SCT025 OVC100 24/20 A2986 RMK AO2 SLP112 T02440200 (JRS),,,,,,,,,,,,,,,,,,,,,,,,,,,,
72208013880,2015-04-19T15:56:00,FM-15,6,,SE,0.25,mi,"TEMP, PRECIP, SNOW",,,"MMTS, SRG, SNOWBOARD",,,WFO CHS,,,,,,,,,,,,,,,,,,,,,,,,,,,29.85,68,75,0.00,,+0.08,6,79,29.85,FEW:02 17 SCT:04 70 OVC:08 140,29.80,10.00,70,150,,13,,,,,,,,,,,,,,,,,,,,,,,,,,,,,,,,,,,,,MET12504/19/15 15:56:02 METAR KCHS 192056Z 15011KT 10SM FEW017 SCT070 OVC140 24/20 A2985 RMK AO2 SLP107 60000 T02390200 56026 (JRS),,,,,,,,,,,,,,,,,,,,,,,,,,,,
72208013880,2015-04-19T16:56:00,FM-15,6,,SE,0.25,mi,"TEMP, PRECIP, SNOW",,,"MMTS, SRG, SNOWBOARD",,,WFO CHS,,,,,,,,,,,,,,,,,,,,,,,,,,,29.83,69,73,0.01,-RA:02 |RA |,,,87,29.83,BKN:07 23 BKN:07 30 OVC:08 120,29.78,10.00,70,150,,8,,,,,,,,,,,,,,,,,,,,,,,,,,,,,,,,,,,,,MET15004/19/15 16:56:02 METAR KCHS 192156Z 15007KT 10SM -RA BKN023 BKN030 OVC120 23/21 A2983 RMK AO2 RAB42 SLP102 CB DSNT SW-NW MOV NE P0001 T02280206 (JRS),,,,,,,,,,,,,,,,,,,,,,,,,,,,
72208013880,2015-04-24T14:56:00,FM-15,6,,SE,0.25,mi,"TEMP, PRECIP, SNOW",,,"MMTS, SRG, SNOWBOARD",,,WFO CHS,,,,,,,,,,,,,,,,,,,,,,,,,,,30.02,36,72,0.00,,,,27,30.01,CLR:00,29.97,10.00,54,150,,11,,,,,,,,,,,,,,,,,,,,,,,,,,,,,,,,,,,,,MET09604/24/15 14:56:02 METAR KCHS 241956Z 15010KT 10SM CLR 22/02 A3002 RMK AO2 SLP163 T02220022 (BBE),,,,,,,,,,,,,,,,,,,,,,,,,,,,
72208013880,2015-04-24T15:56:00,FM-15,6,,SE,0.25,mi,"TEMP, PRECIP, SNOW",,,"MMTS, SRG, SNOWBOARD",,,WFO CHS,,,,,,,,,,,,,,,,,,,,,,,,,,,30.01,40,70,0.00,,+0.04,6,34,30.01,FEW:02 200,29.96,10.00,55,170,,7,,,,,,,,,,,,,,,,,,,,,,,,,,,,,,,,,,,,,MET10504/24/15 15:56:02 METAR KCHS 242056Z 17006KT 10SM FEW200 21/04 A3001 RMK AO2 SLP161 T02110044 56014 (BBE),,,,,,,,,,,,,,,,,,,,,,,,,,,,
72208013880,2015-04-24T16:56:00,FM-15,6,,SE,0.25,mi,"TEMP, PRECIP, SNOW",,,"MMTS, SRG, SNOWBOARD",,,WFO CHS,,,,,,,,,,,,,,,,,,,,,,,,,,,30.00,42,68,0.00,,,,39,30.00,FEW:02 200,29.95,10.00,54,170,,9,,,,,,,,,,,,,,,,,,,,,,,,,,,,,,,,,,,,,MET09904/24/15 16:56:02 METAR KCHS 242156Z 17008KT 10SM FEW200 20/06 A3000 RMK AO2 SLP159 T02000056 (BBE),,,,,,,,,,,,,,,,,,,,,,,,,,,,
72208013880,2015-04-25T10:56:00,FM-15,6,,SE,0.25,mi,"TEMP, PRECIP, SNOW",,,"MMTS, SRG, SNOWBOARD",,,WFO CHS,,,,,,,,,,,,,,,,,,,,,,,,,,,29.90,64,67,0.07,-RA:02 BR:1 |RA |,,,91,29.90,FEW:02 18 BKN:07 45 OVC:08 80,29.85,4.00,65,170,,11,,,,,,,,,,,,,,,,,,,,,,,,,,,,,,,,,,,,,MET14504/25/15 10:56:02 METAR KCHS 251556Z 17010KT 4SM -RA BR FEW018 BKN045 OVC080 19/18 A2990 RMK AO2 PRESFR SLP125 CB DSNT S-SW P0008 T01940178 (KLJ),,,,,,,,,,,,,,,,,,,,,,,,,,,,
72208013880,2015-04-25T11:44:00,FM-16,6,,SE,0.25,mi,"TEMP, PRECIP, SNOW",,,"MMTS, SRG, SNOWBOARD",,,WFO CHS,,,,,,,,,,,,,,,,,,,,,,,,,,,29.82,63,66,,-RA:02 BR:1 |RA |,,,88,,FEW:02 8 BKN:07 16 OVC:08 30,29.77,6.00,64,170,29,14,,,,,,,,,,,,,,,,,,,,,,,,,,,,,,,,,,,,,MET14204/25/15 11:44:02 SPECI KCHS 251644Z 17012G25KT 6SM -RA BR FEW008 BKN016 OVC030 19/17 A2982 RMK AO2 PK WND 19030/1629 CB DSNT S-SW P0004 (KLJ),,,,,,,,,,,,,,,,,,,,,,,,,,,,
72208013880,2015-05-03T16:56:00,FM-15,7,,SE,0.25,mi,"TEMP, PRECIP, SNOW",,,"MMTS, SRG, SNOWBOARD",,,WFO CHS,,,,,,,,,,,,,,,,,,,,,,,,,,,30.16,52,77,0.00,,,,42,30.15,SCT:04 75,30.11,10.00,62,170,,10,,,,,,,,,,,,,,,,,,,,,,,,,,,,,,,,,,,,,MET09905/03/15 16:56:02 METAR KCHS 032156Z 17009KT 10SM SCT075 25/11 A3016 RMK AO2 SLP211 T02500111 (JRS),,,,,,,,,,,,,,,,,,,,,,,,,,,,
72208013880,2015-05-03T17:56:00,FM-15,7,,SE,0.25,mi,"TEMP, PRECIP, SNOW",,,"MMTS, SRG, SNOWBOARD",,,WFO CHS,,,,,,,,,,,,,,,,,,,,,,,,,,,30.16,52,75,0.00,,,,45,30.16,FEW:02 75,30.11,10.00,62,170,,11,,,,,,,,,,,,,,,,,,,,,,,,,,,,,,,,,,,,,MET09905/03/15 17:56:02 METAR KCHS 032256Z 17010KT 10SM FEW075 24/11 A3016 RMK AO2 SLP212 T02390111 (JRS),,,,,,,,,,,,,,,,,,,,,,,,,,,,
72208013880,2015-05-04T12:56:00,FM-15,7,,SE,0.25,mi,"TEMP, PRECIP, SNOW",,,"MMTS, SRG, SNOWBOARD",,,WFO CHS,,,,,,,,,,,,,,,,,,,,,,,,,,,30.33,55,76,0.00,,+0.00,8,48,30.32,SCT:04 50 BKN:07 95,30.28,10.00,64,160,,13,,,,,,,,,,,,,,,,,,,,,,,,,,,,,,,,,,,,,MET12405/04/15 12:56:02 METAR KCHS 041756Z 16011KT 10SM SCT050 BKN095 24/13 A3033 RMK AO2 SLP269 T02440128 10267 20183 58000 (JMB),,,,,,,,,,,,,,,,,,,,,,,,,,,,
72208013880,2015-05-04T13:00:00,FM-12,4,,SE,0.25,mi,"TEMP, PRECIP, SNOW",,,"MMTS, SRG, SNOWBOARD",,,WFO CHS,,,,,,,,,,,,,,,,,,,,,,,,,,,,55,76,,,0.00,4,48,30.32,57,30.28,9.94,64,160,,13,,,,,,,,,,,,,,,,,,,,,,,,,,,,,,,,,,,,,SYN08072208 32766 61611 10244 20128 30255 40269 58000 91756 333 10267 20183 555 90418=,,,,,,,,,,,,,,,,,,,,,,,,,,,,
72208013880,2015-05-04T13:56:00,FM-15,7,,SE,0.25,mi,"TEMP, PRECIP, SNOW",,,"MMTS, SRG, SNOWBOARD",,,WFO CHS,,,,,,,,,,,,,,,,,,,,,,,,,,,30.32,55,78,0.00,,,,45,30.32,FEW:02 50 BKN:07 100,30.27,10.00,64,150,21,14,,,,,,,,,,,,,,,,,,,,,,,,,,,,,,,,,,,,,MET10905/04/15 13:56:02 METAR KCHS 041856Z 15012G18KT 10SM FEW050 BKN100 26/13 A3032 RMK AO2 SLP266 T02560128 (JMB),,,,,,,,,,,,,,,,,,,,,,,,,,,,
72208013880,2015-05-04T14:56:00,FM-15,7,,SE,0.25,mi,"TEMP, PRECIP, SNOW",,,"MMTS, SRG, SNOWBOARD",,,WFO CHS,,,,,,,,,,,,,,,,,,,,,,,,,,,30.30,53,78,0.00,,,,42,30.30,FEW:02 50 BKN:07 90,30.25,10.00,63,150,,13,,,,,,,,,,,,,,,,,,,,,,,,,,,,,,,,,,,,,MET10605/04/15 14:56:02 METAR KCHS 041956Z 15011KT 10SM FEW050 BKN090 26/12 A3030 RMK AO2 SLP260 T02560117 (BBE),,,,,,,,,,,,,,,,,,,,,,,,,,,,
72208013880,2015-05-04T15:56:00,FM-15,7,,SE,0.25,mi,"TEMP, PRECIP, SNOW",,,"MMTS, SRG, SNOWBOARD",,,WFO CHS,,,,,,,,,,,,,,,,,,,,,,,,,,,30.29,52,77,0.00,,+0.04,8,42,30.28,FEW:02 50,30.24,10.00,62,170,17,11,,,,,,,,,,,,,,,,,,,,,,,,,,,,,,,,,,,,,MET10805/04/15 15:56:02 METAR KCHS 042056Z 17010G15KT 10SM FEW050 25/11 A3029 RMK AO2 SLP255 T02500111 58014 (BBE),,,,,,,,,,,,,,,,,,,,,,,,,,,,
72208013880,2015-05-04T16:00:00,FM-12,4,,SE,0.25,mi,"TEMP, PRECIP, SNOW",,,"MMTS, SRG, SNOWBOARD",,,WFO CHS,,,,,,,,,,,,,,,,,,,,,,,,,,,,52,77,,,+0.04,8,42,30.28,57,30.24,9.94,62,170,,11,,,,,,,,,,,,,,,,,,,,,,,,,,,,,,,,,,,,,SYN07472208 32766 21710 10250 20111 30241 40255 58014 92056 333 91015 555 90421=,,,,,,,,,,,,,,,,,,,,,,,,,,,,
72208013880,2015-05-11T14:56:00,FM-15,7,,SE,0.25,mi,"TEMP, PRECIP, SNOW",,,"MMTS, SRG, SNOWBOARD",,,WFO CHS,,,,,,,,,,,,,,,,,,,,,,,,,,,30.10,72,77,0.02,-RA:02 |RA |,,,85,30.09,SCT:04 35 BKN:07 70 BKN:07 100,30.05,10.00,74,160,,8,,,,,,,,,,,,,,,,,,,,,,,,,,,,,,,,,,,,,MET14005/11/15 14:56:02 METAR KCHS 111956Z 16007KT 10SM -RA SCT035 BKN070 BKN100 25/22 A3010 RMK AO2 TSE08 SLP191 CB DSNT NE P0002 T02500222 (BBE),,,,,,,,,,,,,,,,,,,,,,,,,,,,
72208013880,2015-05-15T14:56:00,FM-15,7,,SE,0.25,mi,"TEMP, PRECIP, SNOW",,,"MMTS, SRG, SNOWBOARD",,,WFO CHS,,,,,,,,,,,,,,,,,,,,,,,,,,,30.26,61,79,0.00,,,,54,30.26,SCT:04 40 SCT:04 60 BKN:07 140,30.21,10.00,68,170,,14,,,,,,,,,,,,,,,,,,,,,,,,,,,,,,,,,,,,,MET11305/15/15 14:56:02 METAR KCHS 151956Z 17012KT 10SM SCT040 SCT060 BKN140 26/16 A3026 RMK AO2 SLP247 T02610161 (KLJ),,,,,,,,,,,,,,,,,,,,,,,,,,,,
72208013880,2015-05-16T14:56:00,FM-15,7,,SE,0.25,mi,"TEMP, PRECIP, SNOW",,,"MMTS, SRG, SNOWBOARD",,,WFO CHS,,,,,,,,,,,,,,,,,,,,,,,,,,,30.25,58,80,0.00,,,,47,30.24,FEW:02 44 SCT:04 250,30.20,10.00,66,170,17,10,,,,,,,,,,,,,,,,,,,,,,,,,,,,,,,,,,,,,MET10905/16/15 14:56:02 METAR KCHS 161956Z 17009G15KT 10SM FEW044 SCT250 27/14 A3025 RMK AO2 SLP241 T02670144 (JRS),,,,,,,,,,,,,,,,,,,,,,,,,,,,
72208013880,2015-05-16T16:00:00,FM-12,4,,SE,0.25,mi,"TEMP, PRECIP, SNOW",,,"MMTS, SRG, SNOWBOARD",,,WFO CHS,,,,,,,,,,,,,,,,,,,,,,,,,,,,59,80,,,+0.03,6,49,30.23,41,30.19,9.94,67,160,,10,,,,,,,,,,,,,,,,,,,,,,,,,,,,,,,,,,,,,SYN06472208 32666 41609 10267 20150 30224 40238 56010 92056 555 91621=,,,,,,,,,,,,,,,,,,,,,,,,,,,,
72208013880,2015-05-16T16:56:00,FM-15,7,,SE,0.25,mi,"TEMP, PRECIP, SNOW",,,"MMTS, SRG, SNOWBOARD",,,WFO CHS,,,,,,,,,,,,,,,,,,,,,,,,,,,30.24,57,79,0.00,,,,47,30.23,FEW:02 40 SCT:04 250,30.19,10.00,66,150,,13,,,,,,,,,,,,,,,,,,,,,,,,,,,,,,,,,,,,,MET10605/16/15 16:56:02 METAR KCHS 162156Z 15011KT 10SM FEW040 SCT250 26/14 A3024 RMK AO2 SLP238 T02610139 (JRS),,,,,,,,,,,,,,,,,,,,,,,,,,,,
72208013880,2015-05-16T17:56:00,FM-15,7,,SE,0.25,mi,"TEMP, PRECIP, SNOW",,,"MMTS, SRG, SNOWBOARD",,,WFO CHS,,,,,,,,,,,,,,,,,,,,,,,,,,,30.23,58,76,0.00,,,,54,30.23,FEW:02 250,30.18,10.00,65,150,,13,,,,,,,,,,,,,,,,,,,,,,,,,,,,,,,,,,,,,MET09905/16/15 17:56:02 METAR KCHS 162256Z 15011KT 10SM FEW250 24/14 A3023 RMK AO2 SLP237 T02440144 (JRS),,,,,,,,,,,,,,,,,,,,,,,,,,,,
72208013880,2015-05-17T12:56:00,FM-15,7,,SE,0.25,mi,"TEMP, PRECIP, SNOW",,,"MMTS, SRG, SNOWBOARD",,,WFO CHS,,,,,,,,,,,,,,,,,,,,,,,,,,,30.27,66,83,0.00,,+0.03,8,57,30.27,SCT:04 33 SCT:04 48 SCT:04 200,30.22,10.00,72,150,,10,,,,,,,,,,,,,,,,,,,,,,,,,,,,,,,,,,,,,MET13105/17/15 12:56:02 METAR KCHS 171756Z 15009KT 10SM SCT033 SCT048 SCT200 28/19 A3027 RMK AO2 SLP249 T02830189 10289 20217 58009 (KLJ),,,,,,,,,,,,,,,,,,,,,,,,,,,,
72208013880,2015-05-17T13:00:00,FM-12,4,,SE,0.25,mi,"TEMP, PRECIP, SNOW",,,"MMTS, SRG, SNOWBOARD",,,WFO CHS,,,,,,,,,,,,,,,,,,,,,,,,,,,,66,83,,,+0.03,8,57,30.27,26,30.22,9.94,72,150,,10,,,,,,,,,,,,,,,,,,,,,,,,,,,,,,,,,,,,,SYN08072208 32566 41509 10283 20189 30234 40249 58009 91756 333 10289 20217 555 91718=,,,,,,,,,,,,,,,,,,,,,,,,,,,,
72208013880,2015-05-17T14:56:00,FM-15,7,,SE,0.25,mi,"TEMP, PRECIP, SNOW",,,"MMTS, SRG, SNOWBOARD",,,WFO CHS,,,,,,,,,,,,,,,,,,,,,,,,,,,30.24,66,83,0.00,,,,57,30.23,SCT:04 38,30.19,10.00,72,170,,14,,,,,,,,,,,,,,,,,,,,,,,,,,,,,,,,,,,,,MET09905/17/15 14:56:02 METAR KCHS 171956Z 17012KT 10SM SCT038 28/19 A3024 RMK AO2 SLP238 T02830189 (JRS),,,,,,,,,,,,,,,,,,,,,,,,,,,,
72208013880,2015-05-20T11:56:00,FM-15,7,,SE,0.25,mi,"TEMP, PRECIP, SNOW",,,"MMTS, SRG, SNOWBOARD",,,WFO CHS,,,,,,,,,,,,,,,,,,,,,,,,,,,29.92,68,87,T,,,,53,29.92,FEW:02 35 BKN:07 45 BKN:07 120,29.87,10.00,74,170,,10,,,,,,,,,,,,,,,,,,,,,,,,,,,,,,,,,,,,,MET15205/20/15 11:56:02 METAR KCHS 201656Z 17009KT 10SM FEW035 BKN045 BKN120 31/20 A2992 RMK AO2 RAB34E49 SLP132 TCU DSNT E MDT CU ALQDS P0000 T03060200 (JMB),,,,,,,,,,,,,,,,,,,,,,,,,,,,
72208013880,2015-05-20T12:50:00,FM-16,7,,SE,0.25,mi,"TEMP, PRECIP, SNOW",,,"MMTS, SRG, SNOWBOARD",,,WFO CHS,,,,,,,,,,,,,,,,,,,,,,,,,,,29.92,66,73,0.07,TS:7 RA:02 BR:1 |RA TS |,,,78,,FEW:02 10 BKN:07 45 BKN:07 80,29.87,3.00,69,160,38,14,,,,,,,,,,,,,,,,,,,,,,,,,,,,,,,,,,,,,MET17205/20/15 12:50:02 SPECI KCHS 201750Z 16012G33KT 3SM TSRA BR FEW010 BKN045CB BKN080 23/19 A2992 RMK AO2 PK WND 20033/1743 TSB13RAB10 FRQ LTGICCA OHD TS OHD MOV E P0007 (JMB),,,,,,,,,,,,,,,,,,,,,,,,,,,,
72208013880,2015-05-26T14:56:00,FM-15,7,,SE,0.25,mi,"TEMP, PRECIP, SNOW",,,"MMTS, SRG, SNOWBOARD",,,WFO CHS,,,,,,,,,,,,,,,,,,,,,,,,,,,30.20,68,87,0.00,,,,53,30.20,FEW:02 40 BKN:07 250,30.15,10.00,74,160,20,14,,,,,,,,,,,,,,,,,,,,,,,,,,,,,,,,,,,,,MET10905/26/15 14:56:02 METAR KCHS 261956Z 16012G17KT 10SM FEW040 BKN250 31/20 A3020 RMK AO2 SLP227 T03060200 (BBE),,,,,,,,,,,,,,,,,,,,,,,,,,,,
72208013880,2015-05-26T15:56:00,FM-15,7,,SE,0.25,mi,"TEMP, PRECIP, SNOW",,,"MMTS, SRG, SNOWBOARD",,,WFO CHS,,,,,,,,,,,,,,,,,,,,,,,,,,,30.20,66,86,0.00,,+0.04,5,51,30.20,FEW:02 40 BKN:07 250,30.15,10.00,73,160,,14,,,,,,,,,,,,,,,,,,,,,,,,,,,,,,,,,,,,,MET11205/26/15 15:56:02 METAR KCHS 262056Z 16012KT 10SM FEW040 BKN250 30/19 A3020 RMK AO2 SLP227 T03000189 55012 (BBE),,,,,,,,,,,,,,,,,,,,,,,,,,,,
72208013880,2015-05-26T16:00:00,FM-12,4,,SE,0.25,mi,"TEMP, PRECIP, SNOW",,,"MMTS, SRG, SNOWBOARD",,,WFO CHS,,,,,,,,,,,,,,,,,,,,,,,,,,,,66,86,,,+0.04,5,51,30.20,41,30.15,9.94,73,160,,14,,,,,,,,,,,,,,,,,,,,,,,,,,,,,,,,,,,,,SYN06472208 32666 61612 10300 20189 30211 40227 55012 92056 555 92621=,,,,,,,,,,,,,,,,,,,,,,,,,,,,
72208013880,2015-05-26T16:56:00,FM-15,7,,SE,0.25,mi,"TEMP, PRECIP, SNOW",,,"MMTS, SRG, SNOWBOARD",,,WFO CHS,,,,,,,,,,,,,,,,,,,,,,,,,,,30.21,67,84,0.00,,,,57,30.20,SCT:04 40 BKN:07 250,30.16,10.00,73,170,,15,,,,,,,,,,,,,,,,,,,,,,,,,,,,,,,,,,,,,MET10605/26/15 16:56:02 METAR KCHS 262156Z 17013KT 10SM SCT040 BKN250 29/19 A3021 RMK AO2 SLP228 T02890194 (BBE),,,,,,,,,,,,,,,,,,,,,,,,,,,,
72208013880,2015-05-26T17:56:00,FM-15,7,,SE,0.25,mi,"TEMP, PRECIP, SNOW",,,"MMTS, SRG, SNOWBOARD",,,WFO CHS,,,,,,,,,,,,,,,,,,,,,,,,,,,30.22,70,81,0.00,,,,69,30.21,SCT:04 25 BKN:07 250,30.17,10.00,74,170,,13,,,,,,,,,,,,,,,,,,,,,,,,,,,,,,,,,,,,,MET10605/26/15 17:56:02 METAR KCHS 262256Z 17011KT 10SM SCT025 BKN250 27/21 A3022 RMK AO2 SLP231 T02720211 (BBE),,,,,,,,,,,,,,,,,,,,,,,,,,,,
72208013880,2015-05-27T14:56:00,FM-15,7,,SE,0.25,mi,"TEMP, PRECIP, SNOW",,,"MMTS, SRG, SNOWBOARD",,,WFO CHS,,,,,,,,,,,,,,,,,,,,,,,,,,,30.21,65,83,0.00,,,,55,30.20,FEW:02 40 SCT:04 250,30.16,10.00,71,160,,11,,,,,,,,,,,,,,,,,,,,,,,,,,,,,,,,,,,,,MET10005/27/15 14:56:02 METAR KCHS 271956Z 16010KT 10SM FEW040 SCT250 28/18 A3021 RMK AO2 SLP228 T02830183,,,,,,,,,,,,,,,,,,,,,,,,,,,,
72208013880,2015-05-27T16:56:00,FM-15,7,,SE,0.25,mi,"TEMP, PRECIP, SNOW",,,"MMTS, SRG, SNOWBOARD",,,WFO CHS,,,,,,,,,,,,,,,,,,,,,,,,,,,30.20,65,81,0.00,,,,58,30.19,SCT:04 40 SCT:04 250,30.15,10.00,71,150,,11,,,,,,,,,,,,,,,,,,,,,,,,,,,,,,,,,,,,,MET10605/27/15 16:56:02 METAR KCHS 272156Z 15010KT 10SM SCT040 SCT250 27/18 A3020 RMK AO2 SLP225 T02720183 (BBE),,,,,,,,,,,,,,,,,,,,,,,,,,,,
72208013880,2015-05-31T12:56:00,FM-15,7,,SE,0.25,mi,"TEMP, PRECIP, SNOW",,,"MMTS, SRG, SNOWBOARD",,,WFO CHS,,,,,,,,,,,,,,,,,,,,,,,,,,,30.08,65,86,0.00,,+0.04,8,49,30.08,FEW:02 45 SCT:04 55,30.03,10.00,72,150,,7,,,,,,,,,,,,,,,,,,,,,,,,,,,,,,,,,,,,,MET12405/31/15 12:56:02 METAR KCHS 311756Z 15006KT 10SM FEW045 SCT055 30/18 A3008 RMK AO2 SLP187 T03000183 10311 20228 58015 (KLJ),,,,,,,,,,,,,,,,,,,,,,,,,,,,
72208013880,2015-05-31T13:00:00,FM-12,4,,SE,0.25,mi,"TEMP, PRECIP, SNOW",,,"MMTS, SRG, SNOWBOARD",,,WFO CHS,,,,,,,,,,,,,,,,,,,,,,,,,,,,65,86,,,+0.04,8,49,30.08,41,30.03,9.94,72,150,,7,,,,,,,,,,,,,,,,,,,,,,,,,,,,,,,,,,,,,SYN08072208 32666 41506 10300 20183 30170 40187 58015 91756 333 10311 20228 555 93118=,,,,,,,,,,,,,,,,,,,,,,,,,,,,
72208013880,2015-05-31T14:56:00,FM-15,7,,SE,0.25,mi,"TEMP, PRECIP, SNOW",,,"MMTS, SRG, SNOWBOARD",,,WFO CHS,,,,,,,,,,,,,,,,,,,,,,,,,,,30.06,67,85,0.00,,,,55,30.05,FEW:02 42,30.01,10.00,73,160,,15,,,,,,,,,,,,,,,,,,,,,,,,,,,,,,,,,,,,,MET09905/31/15 14:56:02 METAR KCHS 311956Z 16013KT 10SM FEW042 29/19 A3006 RMK AO2 SLP177 T02940194 (JRS),,,,,,,,,,,,,,,,,,,,,,,,,,,,
72208013880,2015-05-31T16:56:00,FM-15,7,,SE,0.25,mi,"TEMP, PRECIP, SNOW",,,"MMTS, SRG, SNOWBOARD",,,WFO CHS,,,,,,,,,,,,,,,,,,,,,,,,,,,30.04,66,83,0.00,,,,57,30.03,FEW:02 30,29.99,10.00,72,160,,15,,,,,,,,,,,,,,,,,,,,,,,,,,,,,,,,,,,,,MET09905/31/15 16:56:02 METAR KCHS 312156Z 16013KT 10SM FEW030 28/19 A3004 RMK AO2 SLP171 T02830189 (JRS),,,,,,,,,,,,,,,,,,,,,,,,,,,,
72208013880,2015-05-31T17:56:00,FM-15,7,,SE,0.25,mi,"TEMP, PRECIP, SNOW",,,"MMTS, SRG, SNOWBOARD",,,WFO CHS,,,,,,,,,,,,,,,,,,,,,,,,,,,30.05,65,81,0.00,,,,58,30.04,FEW:02 26,30.00,10.00,71,160,,11,,,,,,,,,,,,,,,,,,,,,,,,,,,,,,,,,,,,,MET09905/31/15 17:56:02 METAR KCHS 312256Z 16010KT 10SM FEW026 27/18 A3005 RMK AO2 SLP174 T02720183 (JRS),,,,,,,,,,,,,,,,,,,,,,,,,,,,
72208013880,2015-06-01T12:56:00,FM-15,7,,SE,0.25,mi,"TEMP, PRECIP, SNOW",,,"MMTS, SRG, SNOWBOARD",,,WFO CHS,,,,,,,,,,,,,,,,,,,,,,,,,,,30.07,68,87,0.00,,+0.02,8,53,30.07,SCT:04 40 BKN:07 55 BKN:07 85,30.02,10.00,74,160,,10,,,,,,,,,,,,,,,,,,,,,,,,,,,,,,,,,,,,,MET14206/01/15 12:56:02 METAR KCHS 011756Z 16009KT 10SM SCT040 BKN055 BKN085 31/20 A3007 RMK AO2 SLP182 MDT CU OHD T03060200 10311 20239 58008 (JMB),,,,,,,,,,,,,,,,,,,,,,,,,,,,
72208013880,2015-06-01T13:00:00,FM-12,4,,SE,0.25,mi,"TEMP, PRECIP, SNOW",,,"MMTS, SRG, SNOWBOARD",,,WFO CHS,,,,,,,,,,,,,,,,,,,,,,,,,,,,68,87,,,+0.02,8,53,30.07,41,30.02,9.94,74,160,,10,,,,,,,,,,,,,,,,,,,,,,,,,,,,,,,,,,,,,SYN08072208 32666 61609 10306 20200 30167 40182 58008 91756 333 10311 20239 555 90118=,,,,,,,,,,,,,,,,,,,,,,,,,,,,
72208013880,2015-06-01T13:56:00,FM-15,7,,SE,0.25,mi,"TEMP, PRECIP, SNOW",,,"MMTS, SRG, SNOWBOARD",,,WFO CHS,,,,,,,,,,,,,,,,,,,,,,,,,,,30.05,68,86,0.00,,,,55,30.04,SCT:04 45 SCT:04 250,30.00,10.00,74,170,21,15,,,,,,,,,,,,,,,,,,,,,,,,,,,,,,,,,,,,,MET10906/01/15 13:56:02 METAR KCHS 011856Z 17013G18KT 10SM SCT045 SCT250 30/20 A3005 RMK AO2 SLP174 T03000200 (JMB),,,,,,,,,,,,,,,,,,,,,,,,,,,,
72208013880,2015-06-01T15:56:00,FM-15,7,,SE,0.25,mi,"TEMP, PRECIP, SNOW",,,"MMTS, SRG, SNOWBOARD",,,WFO CHS,,,,,,,,,,,,,,,,,,,,,,,,,,,30.01,67,85,0.00,,+0.06,6,55,30.01,FEW:02 40 SCT:04 120 BKN:07 250,29.96,10.00,73,170,,13,,,,,,,,,,,,,,,,,,,,,,,,,,,,,,,,,,,,,MET11906/01/15 15:56:02 METAR KCHS 012056Z 17011KT 10SM FEW040 SCT120 BKN250 29/19 A3001 RMK AO2 SLP161 T02940194 56021 (BBE),,,,,,,,,,,,,,,,,,,,,,,,,,,,
72208013880,2015-06-01T16:00:00,FM-12,4,,SE,0.25,mi,"TEMP, PRECIP, SNOW",,,"MMTS, SRG, SNOWBOARD",,,WFO CHS,,,,,,,,,,,,,,,,,,,,,,,,,,,,67,85,,,+0.06,6,55,30.01,41,29.96,9.94,73,170,,13,,,,,,,,,,,,,,,,,,,,,,,,,,,,,,,,,,,,,SYN06472208 32666 61711 10294 20194 30146 40161 56021 92056 555 90121=,,,,,,,,,,,,,,,,,,,,,,,,,,,,
72208013880,2015-06-02T11:12:00,FM-16,7,,SE,0.25,mi,"TEMP, PRECIP, SNOW",,,"MMTS, SRG, SNOWBOARD",,,WFO CHS,,,,,,,,,,,,,,,,,,,,,,,,,,,30.02,64,81,,TS:7 |TS TS |,,,58,,SCT:04 30 BKN:07 80 BKN:07 120,29.97,10.00,70,170,,8,,,,,,,,,,,,,,,,,,,,,,,,,,,,,,,,,,,,,MET15306/02/15 11:12:02 SPECI KCHS 021612Z 17007KT 10SM R15/5000VP6000FT TS SCT030CB BKN080 BKN120 27/18 A3002 RMK AO2 TSB11 OCNL LTGIC OHD TS OHD MOV NE (JMB),,,,,,,,,,,,,,,,,,,,,,,,,,,,
72208013880,2015-06-03T11:56:00,FM-15,7,,SE,0.25,mi,"TEMP, PRECIP, SNOW",,,"MMTS, SRG, SNOWBOARD",,,WFO CHS,,,,,,,,,,,,,,,,,,,,,,,,,,,30.01,67,70,0.02,,,,90,30.01,FEW:02 5 SCT:04 35 BKN:07 60,29.96,10.00,68,150,,7,,,,,,,,,,,,,,,,,,,,,,,,,,,,,,,,,,,,,MET12506/03/15 11:56:02 METAR KCHS 031656Z 15006KT 10SM FEW005 SCT035 BKN060 21/19 A3001 RMK AO2 RAE35 SLP162 P0002 T02110194 (JMB),,,,,,,,,,,,,,,,,,,,,,,,,,,,
72208013880,2015-06-08T12:56:00,FM-15,7,,SE,0.25,mi,"TEMP, PRECIP, SNOW",,,"MMTS, SRG, SNOWBOARD",,,WFO CHS,,,,,,,,,,,,,,,,,,,,,,,,,,,30.06,69,87,0.00,,+0.04,8,55,30.06,FEW:02 35 SCT:04 45 SCT:04 120,30.01,10.00,75,170,,10,,,,,,,,,,,,,,,,,,,,,,,,,,,,,,,,,,,,,MET13106/08/15 12:56:02 METAR KCHS 081756Z 17009KT 10SM FEW035 SCT045 SCT120 31/21 A3006 RMK AO2 SLP178 T03060206 10306 20239 58014 (JMB),,,,,,,,,,,,,,,,,,,,,,,,,,,,
72208013880,2015-06-08T13:00:00,FM-12,4,,SE,0.25,mi,"TEMP, PRECIP, SNOW",,,"MMTS, SRG, SNOWBOARD",,,WFO CHS,,,,,,,,,,,,,,,,,,,,,,,,,,,,69,87,,,+0.04,8,55,30.06,41,30.01,9.94,75,170,,10,,,,,,,,,,,,,,,,,,,,,,,,,,,,,,,,,,,,,SYN08072208 32666 41709 10306 20206 30163 40178 58014 91756 333 10306 20239 555 90818=,,,,,,,,,,,,,,,,,,,,,,,,,,,,
72208013880,2015-06-08T13:56:00,FM-15,7,,SE,0.25,mi,"TEMP, PRECIP, SNOW",,,"MMTS, SRG, SNOWBOARD",,,WFO CHS,,,,,,,,,,,,,,,,,,,,,,,,,,,30.03,70,87,0.00,,,,57,30.03,SCT:04 40,29.98,10.00,75,160,,16,,,,,,,,,,,,,,,,,,,,,,,,,,,,,,,,,,,,,MET09906/08/15 13:56:02 METAR KCHS 081856Z 16014KT 10SM SCT040 31/21 A3003 RMK AO2 SLP169 T03060211 (JMB),,,,,,,,,,,,,,,,,,,,,,,,,,,,
72208013880,2015-06-09T17:21:00,FM-16,7,,SE,0.25,mi,"TEMP, PRECIP, SNOW",,,"MMTS, SRG, SNOWBOARD",,,WFO CHS,,,,,,,,,,,,,,,,,,,,,,,,,,,29.92,66,70,0.02,TS:7 -RA:02 |RA TS TS |,,,88,,SCT:04 25 BKN:07 70 OVC:08 100,29.87,10.00,67,160,,8,,,,,,,,,,,,,,,,,,,,,,,,,,,,,,,,,,,,,MET14406/09/15 17:21:02 SPECI KCHS 092221Z 16007KT 10SM -TSRA SCT025CB BKN070 OVC100 21/19 A2992 RMK AO2 OCNL LTGICCG SE-SW TS SE-SW MOV E P0002 (BBE),,,,,,,,,,,,,,,,,,,,,,,,,,,,
72208013880,2015-06-11T11:56:00,FM-15,7,,SE,0.25,mi,"TEMP, PRECIP, SNOW",,,"MMTS, SRG, SNOWBOARD",,,WFO CHS,,,,,,,,,,,,,,,,,,,,,,,,,,,30.04,70,87,0.00,,,,57,30.03,BKN:07 35,29.99,10.00,75,160,,9,,,,,,,,,,,,,,,,,,,,,,,,,,,,,,,,,,,,,MET09906/11/15 11:56:02 METAR KCHS 111656Z 16008KT 10SM BKN035 31/21 A3004 RMK AO2 SLP171 T03060211 (JMB),,,,,,,,,,,,,,,,,,,,,,,,,,,,
72208013880,2015-06-11T12:56:00,FM-15,7,,SE,0.25,mi,"TEMP, PRECIP, SNOW",,,"MMTS, SRG, SNOWBOARD",,,WFO CHS,,,,,,,,,,,,,,,,,,,,,,,,,,,30.02,72,87,0.00,,+0.04,8,61,30.02,SCT:04 35 SCT:04 250,29.97,10.00,77,170,,10,,,,,,,,,,,,,,,,,,,,,,,,,,,,,,,,,,,,,MET13906/11/15 12:56:02 METAR KCHS 111756Z 17009KT 10SM SCT035 SCT250 31/22 A3002 RMK AO2 SLP166 MDT CU ALQDS T03060222 10311 20256 58012 $ (JMB),,,,,,,,,,,,,,,,,,,,,,,,,,,,
72208013880,2015-06-11T13:00:00,FM-12,4,,SE,0.25,mi,"TEMP, PRECIP, SNOW",,,"MMTS, SRG, SNOWBOARD",,,WFO CHS,,,,,,,,,,,,,,,,,,,,,,,,,,,,72,87,,,+0.04,8,61,30.02,41,29.97,9.94,77,170,,10,,,,,,,,,,,,,,,,,,,,,,,,,,,,,,,,,,,,,SYN08072208 32666 41709 10306 20222 30150 40166 58012 91756 333 10311 20256 555 91118=,,,,,,,,,,,,,,,,,,,,,,,,,,,,
72208013880,2015-06-11T16:56:00,FM-15,7,,SE,0.25,mi,"TEMP, PRECIP, SNOW",,,"MMTS, SRG, SNOWBOARD",,,WFO CHS,,,,,,,,,,,,,,,,,,,,,,,,,,,30.00,70,85,0.00,,,,61,29.99,FEW:02 30 SCT:04 250,29.95,10.00,75,160,,14,,,,,,,,,,,,,,,,,,,,,,,,,,,,,,,,,,,,,MET11606/11/15 16:56:02 METAR KCHS 112156Z 16012KT 10SM FEW030 SCT250 29/21 A3000 RMK AO2 SLP157 CB DSNT N T02940211 (BBE),,,,,,,,,,,,,,,,,,,,,,,,,,,,
72208013880,2015-07-02T13:56:00,FM-15,7,,SE,0.25,mi,"TEMP, PRECIP, SNOW",,,"MMTS, SRG, SNOWBOARD",,,WFO CHS,,,,,,,,,,,,,,,,,,,,,,,,,,,29.97,72,89,0.00,,,,57,29.97,SCT:04 45 SCT:04 150 BKN:07 250,29.92,10.00,77,160,,11,,,,,,,,,,,,,,,,,,,,,,,,,,,,,,,,,,,,,MET12407/02/15 13:56:02 METAR KCHS 021856Z 16010KT 10SM SCT045TCU SCT150 BKN250 32/22 A2997 RMK AO2 SLP149 TCU OHD T03170222 (JMB),,,,,,,,,,,,,,,,,,,,,,,,,,,,
72208013880,2015-07-07T13:56:00,FM-15,7,,SE,0.25,mi,"TEMP, PRECIP, SNOW",,,"MMTS, SRG, SNOWBOARD",,,WFO CHS,,,,,,,,,,,,,,,,,,,,,,,,,,,30.14,72,76,0.05,TS:7 -RA:02 BR:1 |RA TS |,,,88,30.14,BKN:07 30 BKN:07 45 OVC:08 90,30.09,4.00,73,150,,8,,,,,,,,,,,,,,,,,,,,,,,,,,,,,,,,,,,,,MET17307/07/15 13:56:02 METAR KCHS 071856Z 15007KT 4SM -TSRA BR BKN030CB BKN045 OVC090 24/22 A3014 RMK AO2 TSB16RAE14B34 SLP205 FRQ LTGICCA OHD TS OHD MOV NE P0004 T02440222 (JMB),,,,,,,,,,,,,,,,,,,,,,,,,,,,
72208013880,2015-07-16T14:56:00,FM-15,7,,SE,0.25,mi,"TEMP, PRECIP, SNOW",,,"MMTS, SRG, SNOWBOARD",,,WFO CHS,,,,,,,,,,,,,,,,,,,,,,,,,,,29.91,75,92,0.00,,,,58,29.91,SCT:04 45 BKN:07 65,29.86,10.00,80,160,,11,,,,,,,,,,,,,,,,,,,,,,,,,,,,,,,,,,,,,MET11507/16/15 14:56:02 METAR KCHS 161956Z 16010KT 10SM SCT045 BKN065 33/24 A2991 RMK AO2 SLP129 MDT CU E T03330239 (BBE),,,,,,,,,,,,,,,,,,,,,,,,,,,,
72208013880,2015-07-16T16:56:00,FM-15,7,,SE,0.25,mi,"TEMP, PRECIP, SNOW",,,"MMTS, SRG, SNOWBOARD",,,WFO CHS,,,,,,,,,,,,,,,,,,,,,,,,,,,29.91,76,87,0.00,,,,70,29.91,FEW:02 30 SCT:04 40 SCT:04 70,29.86,10.00,79,150,,10,,,,,,,,,,,,,,,,,,,,,,,,,,,,,,,,,,,,,MET13007/16/15 16:56:02 METAR KCHS 162156Z 15009KT 10SM R15/3500VP6000FT FEW030 SCT040 SCT070 31/24 A2991 RMK AO2 SLP128 T03060244 (BBE),,,,,,,,,,,,,,,,,,,,,,,,,,,,
72208013880,2015-07-16T17:56:00,FM-15,7,,SE,0.25,mi,"TEMP, PRECIP, SNOW",,,"MMTS, SRG, SNOWBOARD",,,WFO CHS,,,,,,,,,,,,,,,,,,,,,,,,,,,29.91,76,86,0.00,,,,72,29.91,FEW:02 30 SCT:04 85 SCT:04 250,29.86,10.00,79,150,,9,,,,,,,,,,,,,,,,,,,,,,,,,,,,,,,,,,,,,MET11307/16/15 17:56:02 METAR KCHS 162256Z 15008KT 10SM FEW030 SCT085 SCT250 30/24 A2991 RMK AO2 SLP127 T03000244 (BBE),,,,,,,,,,,,,,,,,,,,,,,,,,,,
72208013880,2015-07-18T13:56:00,FM-15,7,,SE,0.25,mi,"TEMP, PRECIP, SNOW",,,"MMTS, SRG, SNOWBOARD",,,WFO CHS,,,,,,,,,,,,,,,,,,,,,,,,,,,30.01,74,92,0.00,,,,56,30.01,FEW:02 38 SCT:04 250,29.96,10.00,79,150,,9,,,,,,,,,,,,,,,,,,,,,,,,,,,,,,,,,,,,,MET10607/18/15 13:56:02 METAR KCHS 181856Z 15008KT 10SM FEW038 SCT250 33/23 A3001 RMK AO2 SLP161 T03330233 (KLJ),,,,,,,,,,,,,,,,,,,,,,,,,,,,
72208013880,2015-07-18T15:56:00,FM-15,7,,SE,0.25,mi,"TEMP, PRECIP, SNOW",,,"MMTS, SRG, SNOWBOARD",,,WFO CHS,,,,,,,,,,,,,,,,,,,,,,,,,,,29.99,71,91,0.00,,+0.04,6,52,29.98,FEW:02 40 SCT:04 250,29.94,10.00,77,170,,10,,,,,,,,,,,,,,,,,,,,,,,,,,,,,,,,,,,,,MET11207/18/15 15:56:02 METAR KCHS 182056Z 17009KT 10SM FEW040 SCT250 33/22 A2999 RMK AO2 SLP153 T03280217 56015 (JRS),,,,,,,,,,,,,,,,,,,,,,,,,,,,
72208013880,2015-07-18T16:00:00,FM-12,4,,SE,0.25,mi,"TEMP, PRECIP, SNOW",,,"MMTS, SRG, SNOWBOARD",,,WFO CHS,,,,,,,,,,,,,,,,,,,,,,,,,,,,71,91,,,+0.04,6,52,29.98,41,29.94,9.94,77,170,,10,,,,,,,,,,,,,,,,,,,,,,,,,,,,,,,,,,,,,SYN06472208 32666 41709 10328 20217 30140 40153 56015 92056 555 91821=,,,,,,,,,,,,,,,,,,,,,,,,,,,,
72208013880,2015-07-19T13:56:00,FM-15,7,,SE,0.25,mi,"TEMP, PRECIP, SNOW",,,"MMTS, SRG, SNOWBOARD",,,WFO CHS,,,,,,,,,,,,,,,,,,,,,,,,,,,29.93,75,93,0.00,,,,56,29.92,FEW:02 40 SCT:04 50 SCT:04 200,29.88,10.00,80,170,,7,,,,,,,,,,,,,,,,,,,,,,,,,,,,,,,,,,,,,MET13507/19/15 13:56:02 METAR KCHS 191856Z 17006KT 10SM FEW040TCU SCT050 SCT200 34/24 A2993 RMK AO2 SLP133 TCU E CB DSNT W-NW T03390239 (KLJ),,,,,,,,,,,,,,,,,,,,,,,,,,,,
72208013880,2015-07-23T17:05:00,FM-16,7,,SE,0.25,mi,"TEMP, PRECIP, SNOW",,,"MMTS, SRG, SNOWBOARD",,,WFO CHS,,,,,,,,,,,,,,,,,,,,,,,,,,,29.90,73,75s,0.57,TS:7 +RA:02 BR:1 |RA TS |,,,94,,BKN:07 20 OVC:08 45,29.85,1.00,74,150,,15,,,,,,,,,,,,,,,,,,,,,,,,,,,,,,,,,,,,,MET17607/23/15 17:05:02 SPECI KCHS 232205Z 15013KT 1SM R15/2400VP6000FT +TSRA BR BKN020CB OVC045 24/23 A2990 RMK AO2 TSB2157 FRQ LTGCGIC ALQDS TS ALQDS MOV SE P0057 T02390228 $ (BBE),,,,,,,,,,,,,,,,,,,,,,,,,,,,
72208013880,2015-08-01T12:56:00,FM-15,7,,SE,0.25,mi,"TEMP, PRECIP, SNOW",,,"MMTS, SRG, SNOWBOARD",,,WFO CHS,,,,,,,,,,,,,,,,,,,,,,,,,,,29.94,74,82,T,,-0.01,0,77,29.94,FEW:02 18 SCT:04 55 BKN:07 80,29.89,10.00,76,160,,16,,,,,,,,,,,,,,,,,,,,,,,,,,,,,,,,,,,,,MET15208/01/15 12:56:02 METAR KCHS 011756Z 16014KT 10SM FEW018 SCT055 BKN080 28/23 A2994 RMK AO2 RAB07E22 SLP138 P0000 60000 T02780233 10311 20261 50003 (KLJ),,,,,,,,,,,,,,,,,,,,,,,,,,,,
72208013880,2015-08-01T13:00:00,FM-12,4,,SE,0.25,mi,"TEMP, PRECIP, SNOW",,,"MMTS, SRG, SNOWBOARD",,,WFO CHS,,,,,,,,,,,,,,,,,,,,,,,,,,,,74,82,,,0.01,9,77,29.94,15,29.89,9.94,76,160,,16,,,,,,,,,,,,,,,,,,,,,,,,,,,,,,,,,,,,,SYN08672208 12466 61614 10278 20233 30123 40138 50003 69901 91756 333 10311 20261 555 90118=,,,,,,,,,,,,,,,,,,,,,,,,,,,,
72208013880,2015-08-02T11:40:00,FM-16,7,,SE,0.25,mi,"TEMP, PRECIP, SNOW",,,"MMTS, SRG, SNOWBOARD",,,WFO CHS,,,,,,,,,,,,,,,,,,,,,,,,,,,29.93,74,87,,TS:7 |TS TS |,,,65,,SCT:04 31 BKN:07 40,29.88,10.00,78,150,,13,,,,,,,,,,,,,,,,,,,,,,,,,,,,,,,,,,,,,MET13708/02/15 11:40:02 SPECI KCHS 021640Z 15011KT 10SM TS SCT031CB BKN040 31/23 A2993 RMK AO2 TSB39 FRQ LTGICCG NW TS NW MOV N T03060233 (KLJ),,,,,,,,,,,,,,,,,,,,,,,,,,,,
72208013880,2015-08-02T11:56:00,FM-15,7,,SE,0.25,mi,"TEMP, PRECIP, SNOW",,,"MMTS, SRG, SNOWBOARD",,,WFO CHS,,,,,,,,,,,,,,,,,,,,,,,,,,,29.94,73,85,0.00,TS:7 |TS TS |,,,68,29.94,BKN:07 31 BKN:07 40,29.89,10.00,77,170,,11,,,,,,,,,,,,,,,,,,,,,,,,,,,,,,,,,,,,,MET16408/02/15 11:56:02 METAR KCHS 021656Z 17010KT 10SM TS BKN031CB BKN040 29/23 A2994 RMK AO2 TSB39 SLP139 FRQ LTGICCG OHD AND NW-N TS OHD AND NW-N MOV N T02940228 (KLJ),,,,,,,,,,,,,,,,,,,,,,,,,,,,
72208013880,2015-08-02T13:50:00,FM-16,7,,SE,0.25,mi,"TEMP, PRECIP, SNOW",,,"MMTS, SRG, SNOWBOARD",,,WFO CHS,,,,,,,,,,,,,,,,,,,,,,,,,,,29.96,72,77,0.02,-RA:02 |RA |,,,85,,FEW:02 25 BKN:07 80 OVC:08 120,29.91,10.00,74,150,,11,,,,,,,,,,,,,,,,,,,,,,,,,,,,,,,,,,,,,MET14308/02/15 13:50:02 SPECI KCHS 021850Z 15010KT 10SM -RA FEW025 BKN080 OVC120 25/22 A2996 RMK AO2 TSE45 CB DSNT NW TS MOV NW P0002 T02500222 (KLJ),,,,,,,,,,,,,,,,,,,,,,,,,,,,
72208013880,2015-08-02T13:56:00,FM-15,7,,SE,0.25,mi,"TEMP, PRECIP, SNOW",,,"MMTS, SRG, SNOWBOARD",,,WFO CHS,,,,,,,,,,,,,,,,,,,,,,,,,,,29.96,72,77,0.01,,,,85,29.96,FEW:02 28 SCT:04 80 OVC:08 150,29.91,10.00,74,150,,8,,,,,,,,,,,,,,,,,,,,,,,,,,,,,,,,,,,,,MET15408/02/15 13:56:02 METAR KCHS 021856Z 15007KT 10SM FEW028 SCT080 OVC150 25/22 A2996 RMK AO2 RAE54 TSE45 SLP144 CB DSNT NW TS MOV NW P0002 T02500222 $ (KLJ),,,,,,,,,,,,,,,,,,,,,,,,,,,,
72208013880,2015-08-02T16:56:00,FM-15,7,,SE,0.25,mi,"TEMP, PRECIP, SNOW",,,"MMTS, SRG, SNOWBOARD",,,WFO CHS,,,,,,,,,,,,,,,,,,,,,,,,,,,29.92,73,80,0.00,,,,79,29.92,SCT:04 17 BKN:07 140,29.87,10.00,75,150,,13,,,,,,,,,,,,,,,,,,,,,,,,,,,,,,,,,,,,,MET10808/02/15 16:56:02 METAR KCHS 022156Z 15011KT 10SM SCT017 BKN140 27/23 A2992 RMK AO2 SLP132 T02670228 $ (JRS),,,,,,,,,,,,,,,,,,,,,,,,,,,,
72208013880,2015-08-03T12:56:00,FM-15,7,,SE,0.25,mi,"TEMP, PRECIP, SNOW",,,"MMTS, SRG, SNOWBOARD",,,WFO CHS,,,,,,,,,,,,,,,,,,,,,,,,,,,29.93,70,85,0.00,,+0.01,8,61,29.92,SCT:04 40 BKN:07 80 BKN:07 250,29.88,10.00,75,170,,17,,,,,,,,,,,,,,,,,,,,,,,,,,,,,,,,,,,,,MET13108/03/15 12:56:02 METAR KCHS 031756Z 17015KT 10SM SCT040 BKN080 BKN250 29/21 A2993 RMK AO2 SLP133 T02940211 10322 20261 58005 (JMB),,,,,,,,,,,,,,,,,,,,,,,,,,,,
72208013880,2015-08-03T13:00:00,FM-12,4,,SE,0.25,mi,"TEMP, PRECIP, SNOW",,,"MMTS, SRG, SNOWBOARD",,,WFO CHS,,,,,,,,,,,,,,,,,,,,,,,,,,,,70,85,,,+0.01,8,61,29.92,41,29.88,9.94,75,170,,17,,,,,,,,,,,,,,,,,,,,,,,,,,,,,,,,,,,,,SYN08072208 32666 61715 10294 20211 30119 40133 58005 91756 333 10322 20239 555 90318=,,,,,,,,,,,,,,,,,,,,,,,,,,,,
72208013880,2015-08-06T15:12:00,FM-16,7,,SE,0.25,mi,"TEMP, PRECIP, SNOW",,,"MMTS, SRG, SNOWBOARD",,,WFO CHS,,,,,,,,,,,,,,,,,,,,,,,,,,,29.92,73,75,0.02,RA:02 |RA |,,,94,,FEW:02 15 SCT:04 30 OVC:08 90,29.87,10.00,74,170,,9,,,,,,,,,,,,,,,,,,,,,,,,,,,,,,,,,,,,,MET13408/06/15 15:12:02 SPECI KCHS 062012Z 17008KT 10SM RA FEW015 SCT030 OVC090 24/23 A2992 RMK AO2 TSE11 TS MOV E P0002 T02390228 RTX (BBE),,,,,,,,,,,,,,,,,,,,,,,,,,,,
72208013880,2015-08-09T14:56:00,FM-15,7,,SE,0.25,mi,"TEMP, PRECIP, SNOW",,,"MMTS, SRG, SNOWBOARD",,,WFO CHS,,,,,,,,,,,,,,,,,,,,,,,,,,,29.99,68,87,0.00,,,,53,29.99,FEW:02 40,29.94,10.00,74,150,,9,,,,,,,,,,,,,,,,,,,,,,,,,,,,,,,,,,,,,MET09908/09/15 14:56:02 METAR KCHS 091956Z 15008KT 10SM FEW040 31/20 A2999 RMK AO2 SLP155 T03060200 (JRS),,,,,,,,,,,,,,,,,,,,,,,,,,,,
72208013880,2015-08-10T13:56:00,FM-15,7,,SE,0.25,mi,"TEMP, PRECIP, SNOW",,,"MMTS, SRG, SNOWBOARD",,,WFO CHS,,,,,,,,,,,,,,,,,,,,,,,,,,,30.01,62,88,0.00,,,,42,30.01,FEW:02 50 FEW:02 200,29.96,10.00,71,150,,7,,,,,,,,,,,,,,,,,,,,,,,,,,,,,,,,,,,,,MET10608/10/15 13:56:02 METAR KCHS 101856Z 15006KT 10SM FEW050 FEW200 31/17 A3001 RMK AO2 SLP161 T03110167 (JMB),,,,,,,,,,,,,,,,,,,,,,,,,,,,
72208013880,2015-08-10T15:56:00,FM-15,7,,SE,0.25,mi,"TEMP, PRECIP, SNOW",,,"MMTS, SRG, SNOWBOARD",,,WFO CHS,,,,,,,,,,,,,,,,,,,,,,,,,,,29.96,69,87,0.00,,+0.06,8,55,29.96,FEW:02 45 FEW:02 200,29.91,10.00,75,160,,10,,,,,,,,,,,,,,,,,,,,,,,,,,,,,,,,,,,,,MET11208/10/15 15:56:02 METAR KCHS 102056Z 16009KT 10SM FEW045 FEW200 31/21 A2996 RMK AO2 SLP144 T03060206 58019 (BBE),,,,,,,,,,,,,,,,,,,,,,,,,,,,
72208013880,2015-08-10T16:00:00,FM-12,4,,SE,0.25,mi,"TEMP, PRECIP, SNOW",,,"MMTS, SRG, SNOWBOARD",,,WFO CHS,,,,,,,,,,,,,,,,,,,,,,,,,,,,69,87,,,+0.06,8,55,29.96,41,29.91,9.94,75,160,,10,,,,,,,,,,,,,,,,,,,,,,,,,,,,,,,,,,,,,SYN06472208 32666 21609 10306 20206 30129 40144 58019 92056 555 91021=,,,,,,,,,,,,,,,,,,,,,,,,,,,,
72208013880,2015-08-10T16:56:00,FM-15,7,,SE,0.25,mi,"TEMP, PRECIP, SNOW",,,"MMTS, SRG, SNOWBOARD",,,WFO CHS,,,,,,,,,,,,,,,,,,,,,,,,,,,29.95,71,85,0.00,,,,63,29.94,FEW:02 40 SCT:04 250,29.90,10.00,75,160,,14,,,,,,,,,,,,,,,,,,,,,,,,,,,,,,,,,,,,,MET10608/10/15 16:56:02 METAR KCHS 102156Z 16012KT 10SM FEW040 SCT250 29/22 A2995 RMK AO2 SLP140 T02940217 (BBE),,,,,,,,,,,,,,,,,,,,,,,,,,,,
72208013880,2015-08-10T17:56:00,FM-15,7,,SE,0.25,mi,"TEMP, PRECIP, SNOW",,,"MMTS, SRG, SNOWBOARD",,,WFO CHS,,,,,,,,,,,,,,,,,,,,,,,,,,,29.94,70,83,0.00,,,,65,29.94,SCT:04 250,29.89,10.00,74,150,,9,,,,,,,,,,,,,,,,,,,,,,,,,,,,,,,,,,,,,MET09908/10/15 17:56:02 METAR KCHS 102256Z 15008KT 10SM SCT250 28/21 A2994 RMK AO2 SLP139 T02830211 (BBE),,,,,,,,,,,,,,,,,,,,,,,,,,,,
72208013880,2015-08-17T12:01:00,FM-16,7,,SE,0.25,mi,"TEMP, PRECIP, SNOW",,,"MMTS, SRG, SNOWBOARD",,,WFO CHS,,,,,,,,,,,,,,,,,,,,,,,,,,,30.14,72,83,,TS:7 |TS TS |,,,70,,SCT:04 35 BKN:07 55,30.09,10.00,75,170,,15,,,,,,,,,,,,,,,,,,,,,,,,,,,,,,,,,,,,,MET13708/17/15 12:01:02 SPECI KCHS 171701Z 17013KT 10SM TS SCT035CB BKN055 28/22 A3014 RMK AO2 TSB00 OCNL LTGIC SE TS SE MOV NE T02830222 (JMB),,,,,,,,,,,,,,,,,,,,,,,,,,,,
72208013880,2015-08-17T12:29:00,FM-16,7,,SE,0.25,mi,"TEMP, PRECIP, SNOW",,,"MMTS, SRG, SNOWBOARD",,,WFO CHS,,,,,,,,,,,,,,,,,,,,,,,,,,,30.14,73,82,T,,,,74,,FEW:02 25 SCT:04 35 BKN:07 120,30.09,10.00,76,150,,10,,,,,,,,,,,,,,,,,,,,,,,,,,,,,,,,,,,,,MET14008/17/15 12:29:02 SPECI KCHS 171729Z 15009KT 10SM FEW025 SCT035 BKN120 28/23 A3014 RMK AO2 RAB15E24 TSB00E29 TS MOV NE P0000 T02780228 (JMB),,,,,,,,,,,,,,,,,,,,,,,,,,,,
72208013880,2015-08-17T17:56:00,FM-15,7,,SE,0.25,mi,"TEMP, PRECIP, SNOW",,,"MMTS, SRG, SNOWBOARD",,,WFO CHS,,,,,,,,,,,,,,,,,,,,,,,,,,,30.07,72,83,0.00,,,,70,30.07,FEW:02 20 BKN:07 150 BKN:07 200,30.02,10.00,75,160,,8,,,,,,,,,,,,,,,,,,,,,,,,,,,,,,,,,,,,,MET11308/17/15 17:56:02 METAR KCHS 172256Z 16007KT 10SM FEW020 BKN150 BKN200 28/22 A3007 RMK AO2 SLP182 T02830222 (BBE),,,,,,,,,,,,,,,,,,,,,,,,,,,,
72208013880,2015-08-18T15:29:00,FM-16,7,,SE,0.25,mi,"TEMP, PRECIP, SNOW",,,"MMTS, SRG, SNOWBOARD",,,WFO CHS,,,,,,,,,,,,,,,,,,,,,,,,,,,30.00,74,76,T,TS:7 -RA:02 |RA TS TS |,,,94,,SCT:04 25 SCT:04 35 BKN:07 50,29.95,7.00,75,150,,11,,,,,,,,,,,,,,,,,,,,,,,,,,,,,,,,,,,,,MET15808/18/15 15:29:02 SPECI KCHS 182029Z 15010KT 7SM -TSRA SCT025CB SCT035 BKN050 24/23 A3000 RMK AO2 RAB1959 FRQ LTGIC ALQDS TS ALQDS MOV E P0000 T02440233 (BBE),,,,,,,,,,,,,,,,,,,,,,,,,,,,
72208013880,2015-08-18T15:56:00,FM-15,7,,SE,0.25,mi,"TEMP, PRECIP, SNOW",,,"MMTS, SRG, SNOWBOARD",,,WFO CHS,,,,,,,,,,,,,,,,,,,,,,,,,,,30.01,73,76,0.02,TS:7 RA:02 |RA TS TS |,+0.02,5,91,30.00,FEW:02 10 SCT:04 25 BKN:07 55,29.96,7.00,74,160,,9,,,,,,,,,,,,,,,,,,,,,,,,,,,,,,,,,,,,,MET17608/18/15 15:56:02 METAR KCHS 182056Z 16008KT 7SM TSRA FEW010 SCT025CB BKN055 24/23 A3001 RMK AO2 RAB1959 SLP160 FRQ LTGIC SE-SW TS SE-SW MOV E P0001 60006 T02440228 55006 (BBE),,,,,,,,,,,,,,,,,,,,,,,,,,,,
72208013880,2015-08-18T16:00:00,FM-12,4,,SE,0.25,mi,"TEMP, PRECIP, SNOW",,,"MMTS, SRG, SNOWBOARD",,,WFO CHS,,,,,,,,,,,,,,,,,,,,,,,,,,,,73,76,,||TS,+0.02,5,91,30.00,15,29.96,6.84,74,160,,9,,,,,,,,,,,,,,,,,,,,,,,,,,,,,,,,,,,,,SYN07672208 11461 61608 10244 20228 30146 40160 55006 60027 795// 92056 555 91821=,,,,,,,,,,,,,,,,,,,,,,,,,,,,
72208013880,2015-08-18T17:56:00,FM-15,7,,SE,0.25,mi,"TEMP, PRECIP, SNOW",,,"MMTS, SRG, SNOWBOARD",,,WFO CHS,,,,,,,,,,,,,,,,,,,,,,,,,,,29.98,75,79,0.00,,,,88,29.97,FEW:02 10 SCT:04 150 BKN:07 250,29.93,10.00,76,170,,9,,,,,,,,,,,,,,,,,,,,,,,,,,,,,,,,,,,,,MET11908/18/15 17:56:02 METAR KCHS 182256Z 17008KT 10SM FEW010 SCT150 BKN250 26/24 A2998 RMK AO2 TSE05 SLP150 T02610239 (BBE),,,,,,,,,,,,,,,,,,,,,,,,,,,,
72208013880,2015-08-19T15:56:00,FM-15,7,,SE,0.25,mi,"TEMP, PRECIP, SNOW",,,"MMTS, SRG, SNOWBOARD",,,WFO CHS,,,,,,,,,,,,,,,,,,,,,,,,,,,29.96,73,85,0.00,TS:7 |TS TS |,+0.05,6,68,29.95,SCT:04 30 SCT:04 60 BKN:07 250,29.91,10.00,77,170,,14,,,,,,,,,,,,,,,,,,,,,,,,,,,,,,,,,,,,,MET15608/19/15 15:56:02 METAR KCHS 192056Z 17012KT 10SM TS SCT030CB SCT060 BKN250 29/23 A2996 RMK AO2 SLP143 OCNL LTGCG SE TS SE MOV E 60000 T02940228 56018 (BBE),,,,,,,,,,,,,,,,,,,,,,,,,,,,
72208013880,2015-08-19T16:00:00,FM-12,4,,SE,0.25,mi,"TEMP, PRECIP, SNOW",,,"MMTS, SRG, SNOWBOARD",,,WFO CHS,,,,,,,,,,,,,,,,,,,,,,,,,,,,73,85,,||TS,+0.05,6,68,29.95,26,29.91,9.94,77,170,,14,,,,,,,,,,,,,,,,,,,,,,,,,,,,,,,,,,,,,SYN07672208 11566 61712 10294 20228 30129 40143 56018 69907 795// 92056 555 91921=,,,,,,,,,,,,,,,,,,,,,,,,,,,,
72208013880,2015-08-19T16:56:00,FM-15,7,,SE,0.25,mi,"TEMP, PRECIP, SNOW",,,"MMTS, SRG, SNOWBOARD",,,WFO CHS,,,,,,,,,,,,,,,,,,,,,,,,,,,29.94,79,84,0.14,TS:7 |TS TS |,,,85,29.94,FEW:02 35 SCT:04 45 BKN:07 60,29.89,10.00,80,150,,11,,,,,,,,,,,,,,,,,,,,,,,,,,,,,,,,,,,,,MET16308/19/15 16:56:02 METAR KCHS 192156Z 15010KT 10SM TS FEW035CB SCT045 BKN060 29/26 A2994 RMK AO2 RAB01E51 SLP139 OCNL LTGIC N-NE TS N-NE MOV E P0014 T02890261 (BBE),,,,,,,,,,,,,,,,,,,,,,,,,,,,
72208013880,2015-08-19T17:56:00,FM-15,7,,SE,0.25,mi,"TEMP, PRECIP, SNOW",,,"MMTS, SRG, SNOWBOARD",,,WFO CHS,,,,,,,,,,,,,,,,,,,,,,,,,,,29.97,76,84,0.00,TS:7 |TS TS |,,,77,29.96,FEW:02 25 SCT:04 35 BKN:07 250,29.92,10.00,78,170,,10,,,,,,,,,,,,,,,,,,,,,,,,,,,,,,,,,,,,,MET15808/19/15 17:56:02 METAR KCHS 192256Z 17009KT 10SM TS FEW025CB SCT035 BKN250 29/24 A2997 RMK AO2 TSE15B37 SLP147 FRQ LTGCGCC N-NE TS N-NE MOV E T02890244 (BBE),,,,,,,,,,,,,,,,,,,,,,,,,,,,
72208013880,2015-08-22T13:11:00,FM-16,7,,SE,0.25,mi,"TEMP, PRECIP, SNOW",,,"MMTS, SRG, SNOWBOARD",,,WFO CHS,,,,,,,,,,,,,,,,,,,,,,,,,,,30.04,76,79,0.03,RA:02 BR:1 |RA |,,,90,,SCT:04 21 BKN:07 27 OVC:08 33,29.99,2.00V,77,160,,17,,,,,,,,,,,,,,,,,,,,,,,,,,,,,,,,,,,,,MET13308/22/15 13:11:02 SPECI KCHS 221811Z 16015KT 2SM RA BR SCT021 BKN027 OVC033 26/24 A3004 RMK AO2 RAB1759 VIS 1V3 P0003 T02610244 (KLJ),,,,,,,,,,,,,,,,,,,,,,,,,,,,
72208013880,2015-09-01T15:56:00,FM-15,7,,SE,0.25,mi,"TEMP, PRECIP, SNOW",,,"MMTS, SRG, SNOWBOARD",,,WFO CHS,,,,,,,,,,,,,,,,,,,,,,,,,,,30.06,73,85,0.00,,+0.02,6,68,30.06,FEW:02 35 BKN:07 50 BKN:07 250,30.01,10.00,77,170,,13,,,,,,,,,,,,,,,,,,,,,,,,,,,,,,,,,,,,,MET11909/01/15 15:56:02 METAR KCHS 012056Z 17011KT 10SM FEW035 BKN050 BKN250 29/23 A3006 RMK AO2 SLP180 T02940228 56007 (BBE),,,,,,,,,,,,,,,,,,,,,,,,,,,,
72208013880,2015-09-01T16:00:00,FM-12,4,,SE,0.25,mi,"TEMP, PRECIP, SNOW",,,"MMTS, SRG, SNOWBOARD",,,WFO CHS,,,,,,,,,,,,,,,,,,,,,,,,,,,,73,85,,,+0.02,6,68,30.06,41,30.01,9.94,77,170,,13,,,,,,,,,,,,,,,,,,,,,,,,,,,,,,,,,,,,,SYN06472208 32666 61711 10294 20228 30163 40180 56007 92056 555 90121=,,,,,,,,,,,,,,,,,,,,,,,,,,,,
72208013880,2015-09-01T16:56:00,FM-15,7,,SE,0.25,mi,"TEMP, PRECIP, SNOW",,,"MMTS, SRG, SNOWBOARD",,,WFO CHS,,,,,,,,,,,,,,,,,,,,,,,,,,,30.06,73,84,0.00,,,,70,30.05,FEW:02 35 SCT:04 85 BKN:07 150,30.01,10.00,76,170,,7,,,,,,,,,,,,,,,,,,,,,,,,,,,,,,,,,,,,,MET11309/01/15 16:56:02 METAR KCHS 012156Z 17006KT 10SM FEW035 SCT085 BKN150 29/23 A3006 RMK AO2 SLP177 T02890228 (BBE),,,,,,,,,,,,,,,,,,,,,,,,,,,,
72208013880,2015-09-02T13:56:00,FM-15,7,,SE,0.25,mi,"TEMP, PRECIP, SNOW",,,"MMTS, SRG, SNOWBOARD",,,WFO CHS,,,,,,,,,,,,,,,,,,,,,,,,,,,30.04,72,88,0.00,,,,59,30.03,BKN:07 46 BKN:07 55,29.99,10.00,77,160,,10,,,,,,,,,,,,,,,,,,,,,,,,,,,,,,,,,,,,,MET10609/02/15 13:56:02 METAR KCHS 021856Z 16009KT 10SM BKN046 BKN055 31/22 A3004 RMK AO2 SLP171 T03110222 (JMB),,,,,,,,,,,,,,,,,,,,,,,,,,,,
72208013880,2015-09-02T14:56:00,FM-15,7,,SE,0.25,mi,"TEMP, PRECIP, SNOW",,,"MMTS, SRG, SNOWBOARD",,,WFO CHS,,,,,,,,,,,,,,,,,,,,,,,,,,,30.01,72,89,0.00,,,,57,30.01,FEW:02 45 SCT:04 55 BKN:07 250,29.96,10.00,77,160,,7,,,,,,,,,,,,,,,,,,,,,,,,,,,,,,,,,,,,,MET13409/02/15 14:56:02 METAR KCHS 021956Z 16006KT 10SM FEW045TCU SCT055 BKN250 32/22 A3001 RMK AO2 SLP163 TCU NE CB DSNT NW T03170222 (KLJ),,,,,,,,,,,,,,,,,,,,,,,,,,,,
72208013880,2015-09-03T14:56:00,FM-15,7,,SE,0.25,mi,"TEMP, PRECIP, SNOW",,,"MMTS, SRG, SNOWBOARD",,,WFO CHS,,,,,,,,,,,,,,,,,,,,,,,,,,,29.90,73,86,0.00,,,,65,29.90,SCT:04 40 BKN:07 60 BKN:07 250,29.85,10.00,77,170,,13,,,,,,,,,,,,,,,,,,,,,,,,,,,,,,,,,,,,,MET11309/03/15 14:56:02 METAR KCHS 031956Z 17011KT 10SM SCT040 BKN060 BKN250 30/23 A2990 RMK AO2 SLP125 T03000228 (BBE),,,,,,,,,,,,,,,,,,,,,,,,,,,,
72208013880,2015-09-04T14:49:00,FM-16,7,,SE,0.25,mi,"TEMP, PRECIP, SNOW",,,"MMTS, SRG, SNOWBOARD",,,WFO CHS,,,,,,,,,,,,,,,,,,,,,,,,,,,29.93,68,77,T,TS:7 -RA:02 |RA TS TS |,,,74,,SCT:04 38 BKN:07 55 BKN:07 70,29.88,8.00,71,170,,13,,,,,,,,,,,,,,,,,,,,,,,,,,,,,,,,,,,,,MET20009/04/15 14:49:02 SPECI KCHS 041949Z 17011KT 8SM -TSRA SCT038CB BKN055 BKN070 25/20 A2993 RMK AO2 PK WND 13028/1917 RAB33 TSB10 CONS LTGICCG OHD AND SE-SW TS OHD AND SE-SW MOV SW P0000 T02500200 (JMB),,,,,,,,,,,,,,,,,,,,,,,,,,,,
72208013880,2015-09-04T14:56:00,FM-15,7,,SE,0.25,mi,"TEMP, PRECIP, SNOW",,,"MMTS, SRG, SNOWBOARD",,,WFO CHS,,,,,,,,,,,,,,,,,,,,,,,,,,,29.93,69,77,T,TS:7 |TS TS |,,,77,29.92,SCT:04 38 BKN:07 55 BKN:07 70,29.88,8.00,72,160,,10,,,,,,,,,,,,,,,,,,,,,,,,,,,,,,,,,,,,,MET20709/04/15 14:56:02 METAR KCHS 041956Z 16009KT 8SM TS SCT038CB BKN055 BKN070 25/21 A2993 RMK AO2 PK WND 13028/1917 RAB33E55 TSB10 SLP133 CONS LTGICCG OHD AND SE-SW TS OHD AND SE-SW MOV SW P0000 T02500206 (JMB),,,,,,,,,,,,,,,,,,,,,,,,,,,,
72208013880,2015-09-08T11:56:00,FM-15,7,,SE,0.25,mi,"TEMP, PRECIP, SNOW",,,"MMTS, SRG, SNOWBOARD",,,WFO CHS,,,,,,,,,,,,,,,,,,,,,,,,,,,30.04,73,87,0.00,,,,63,30.04,FEW:02 35 SCT:04 45 BKN:07 250,29.99,10.00,77,160,,7,,,,,,,,,,,,,,,,,,,,,,,,,,,,,,,,,,,,,MET12509/08/15 11:56:02 METAR KCHS 081656Z 16006KT 10SM FEW035 SCT045 BKN250 31/23 A3004 RMK AO2 SLP172 MDT CU SW-W T03060228 (JMB),,,,,,,,,,,,,,,,,,,,,,,,,,,,
72208013880,2015-09-08T12:56:00,FM-15,7,,SE,0.25,mi,"TEMP, PRECIP, SNOW",,,"MMTS, SRG, SNOWBOARD",,,WFO CHS,,,,,,,,,,,,,,,,,,,,,,,,,,,30.02,71,89,0.00,,+0.03,8,55,30.02,SCT:04 40 SCT:04 250,29.97,10.00,76,160,,11,,,,,,,,,,,,,,,,,,,,,,,,,,,,,,,,,,,,,MET13009/08/15 12:56:02 METAR KCHS 081756Z 16010KT 10SM SCT040 SCT250 32/22 A3002 RMK AO2 SLP166 60000 T03170217 10322 20233 58010 (JMB),,,,,,,,,,,,,,,,,,,,,,,,,,,,
72208013880,2015-09-08T13:00:00,FM-12,4,,SE,0.25,mi,"TEMP, PRECIP, SNOW",,,"MMTS, SRG, SNOWBOARD",,,WFO CHS,,,,,,,,,,,,,,,,,,,,,,,,,,,,71,89,,,+0.03,8,55,30.02,41,29.97,9.94,76,160,,11,,,,,,,,,,,,,,,,,,,,,,,,,,,,,,,,,,,,,SYN08672208 12666 41610 10317 20217 30150 40166 58010 69901 91756 333 10322 20233 555 90818=,,,,,,,,,,,,,,,,,,,,,,,,,,,,
72208013880,2015-09-08T13:56:00,FM-15,7,,SE,0.25,mi,"TEMP, PRECIP, SNOW",,,"MMTS, SRG, SNOWBOARD",,,WFO CHS,,,,,,,,,,,,,,,,,,,,,,,,,,,30.00,72,88,0.00,,,,59,30.00,SCT:04 35 SCT:04 250,29.95,10.00,77,170,,11,,,,,,,,,,,,,,,,,,,,,,,,,,,,,,,,,,,,,MET11609/08/15 13:56:02 METAR KCHS 081856Z 17010KT 10SM SCT035 SCT250 31/22 A3000 RMK AO2 SLP159 CB DSNT N T03110222 (JMB),,,,,,,,,,,,,,,,,,,,,,,,,,,,
72208013880,2015-09-08T14:56:00,FM-15,7,,SE,0.25,mi,"TEMP, PRECIP, SNOW",,,"MMTS, SRG, SNOWBOARD",,,WFO CHS,,,,,,,,,,,,,,,,,,,,,,,,,,,29.97,72,88,0.00,,,,59,29.97,SCT:04 40 BKN:07 250,29.92,10.00,77,160,,9,,,,,,,,,,,,,,,,,,,,,,,,,,,,,,,,,,,,,MET10609/08/15 14:56:02 METAR KCHS 081956Z 16008KT 10SM SCT040 BKN250 31/22 A2997 RMK AO2 SLP149 T03110222 (BBE),,,,,,,,,,,,,,,,,,,,,,,,,,,,
72208013880,2015-09-08T16:56:00,FM-15,7,,SE,0.25,mi,"TEMP, PRECIP, SNOW",,,"MMTS, SRG, SNOWBOARD",,,WFO CHS,,,,,,,,,,,,,,,,,,,,,,,,,,,29.98,74,85,0.00,,,,70,29.97,SCT:04 25 BKN:07 250,29.93,10.00,77,150,,13,,,,,,,,,,,,,,,,,,,,,,,,,,,,,,,,,,,,,MET10609/08/15 16:56:02 METAR KCHS 082156Z 15011KT 10SM SCT025 BKN250 29/23 A2998 RMK AO2 SLP150 T02940233 (BBE),,,,,,,,,,,,,,,,,,,,,,,,,,,,
72208013880,2015-09-20T16:56:00,FM-15,7,,SE,0.25,mi,"TEMP, PRECIP, SNOW",,,"MMTS, SRG, SNOWBOARD",,,WFO CHS,,,,,,,,,,,,,,,,,,,,,,,,,,,29.89,68,86,0.00,,,,55,29.88,FEW:02 60 FEW:02 75 SCT:04 250,29.84,10.00,74,150,,10,,,,,,,,,,,,,,,,,,,,,,,,,,,,,,,,,,,,,MET11309/20/15 16:56:02 METAR KCHS 202156Z 15009KT 10SM FEW060 FEW075 SCT250 30/20 A2989 RMK AO2 SLP120 T03000200 (JRS),,,,,,,,,,,,,,,,,,,,,,,,,,,,
72208013880,2015-09-21T15:56:00,FM-15,7,,SE,0.25,mi,"TEMP, PRECIP, SNOW",,,"MMTS, SRG, SNOWBOARD",,,WFO CHS,,,,,,,,,,,,,,,,,,,,,,,,,,,29.95,69,82,0.00,,+0.01,5,65,29.95,FEW:02 50 SCT:04 90 OVC:08 150,29.90,10.00,73,150,,9,,,,,,,,,,,,,,,,,,,,,,,,,,,,,,,,,,,,,MET11909/21/15 15:56:02 METAR KCHS 212056Z 15008KT 10SM FEW050 SCT090 OVC150 28/21 A2995 RMK AO2 SLP141 T02780206 55003 (BBE),,,,,,,,,,,,,,,,,,,,,,,,,,,,
72208013880,2015-09-21T16:00:00,FM-12,4,,SE,0.25,mi,"TEMP, PRECIP, SNOW",,,"MMTS, SRG, SNOWBOARD",,,WFO CHS,,,,,,,,,,,,,,,,,,,,,,,,,,,,69,82,,,+0.01,5,65,29.95,57,29.90,9.94,73,150,,9,,,,,,,,,,,,,,,,,,,,,,,,,,,,,,,,,,,,,SYN06472208 32766 81508 10278 20206 30126 40141 55003 92056 555 92121=,,,,,,,,,,,,,,,,,,,,,,,,,,,,
72208013880,2015-09-25T16:56:00,FM-15,7,,SE,0.25,mi,"TEMP, PRECIP, SNOW",,,"MMTS, SRG, SNOWBOARD",,,WFO CHS,,,,,,,,,,,,,,,,,,,,,,,,,,,29.94,69,80,0.00,,,,69,29.94,FEW:02 25 FEW:02 150 SCT:04 250,29.89,10.00,73,150,,7,,,,,,,,,,,,,,,,,,,,,,,,,,,,,,,,,,,,,MET11309/25/15 16:56:02 METAR KCHS 252156Z 15006KT 10SM FEW025 FEW150 SCT250 27/21 A2994 RMK AO2 SLP138 T02670206 (BBE),,,,,,,,,,,,,,,,,,,,,,,,,,,,
72208013880,2015-10-23T16:56:00,FM-15,7,,SE,0.25,mi,"TEMP, PRECIP, SNOW",,,"MMTS, SRG, SNOWBOARD",,,WFO CHS,,,,,,,,,,,,,,,,,,,,,,,,,,,30.11,59,76,0.00,,,,56,30.11,FEW:02 250,30.06,10.00,66,160,,7,,,,,,,,,,,,,,,,,,,,,,,,,,,,,,,,,,,,,MET09910/23/15 16:56:02 METAR KCHS 232156Z 16006KT 10SM FEW250 24/15 A3011 RMK AO2 SLP195 T02440150 (BBE),,,,,,,,,,,,,,,,,,,,,,,,,,,,
72208013880,2015-10-25T11:56:00,FM-15,7,,SE,0.25,mi,"TEMP, PRECIP, SNOW",,,"MMTS, SRG, SNOWBOARD",,,WFO CHS,,,,,,,,,,,,,,,,,,,,,,,,,,,30.14,64,79,0.00,,,,60,30.14,FEW:02 35 SCT:04 45 BKN:07 150,30.09,10.00,69,160,,8,,,,,,,,,,,,,,,,,,,,,,,,,,,,,,,,,,,,,MET11310/25/15 11:56:02 METAR KCHS 251656Z 16007KT 10SM FEW035 SCT045 BKN150 26/18 A3014 RMK AO2 SLP206 T02610178 (KLJ),,,,,,,,,,,,,,,,,,,,,,,,,,,,
72208013880,2015-10-25T12:56:00,FM-15,7,,SE,0.25,mi,"TEMP, PRECIP, SNOW",,,"MMTS, SRG, SNOWBOARD",,,WFO CHS,,,,,,,,,,,,,,,,,,,,,,,,,,,30.13,63,78,0.00,,+0.05,8,60,30.12,BKN:07 37 OVC:08 45,30.08,10.00,68,160,,8,,,,,,,,,,,,,,,,,,,,,,,,,,,,,,,,,,,,,MET12410/25/15 12:56:02 METAR KCHS 251756Z 16007KT 10SM BKN037 OVC045 26/17 A3013 RMK AO2 SLP201 T02560172 10267 20189 58016 (KLJ),,,,,,,,,,,,,,,,,,,,,,,,,,,,
72208013880,2015-10-25T13:00:00,FM-12,4,,SE,0.25,mi,"TEMP, PRECIP, SNOW",,,"MMTS, SRG, SNOWBOARD",,,WFO CHS,,,,,,,,,,,,,,,,,,,,,,,,,,,,63,78,,,+0.05,8,60,30.12,41,30.08,9.94,68,160,,8,,,,,,,,,,,,,,,,,,,,,,,,,,,,,,,,,,,,,SYN08072208 32666 81607 10256 20172 30187 40201 58016 91756 333 10267 20189 555 92518=,,,,,,,,,,,,,,,,,,,,,,,,,,,,
72208013880,2015-11-01T16:56:00,FM-15,7,,SE,0.25,mi,"TEMP, PRECIP, SNOW",,,"MMTS, SRG, SNOWBOARD",,,WFO CHS,,,,,,,,,,,,,,,,,,,,,,,,,,,29.98,67,77,0.00,,,,71,29.98,SCT:04 45 SCT:04 90 BKN:07 200,29.93,10.00,70,170,,13,,,,,,,,,,,,,,,,,,,,,,,,,,,,,,,,,,,,,MET11311/01/15 16:56:02 METAR KCHS 012156Z 17011KT 10SM SCT045 SCT090 BKN200 25/19 A2998 RMK AO2 SLP151 T02500194 (JRS),,,,,,,,,,,,,,,,,,,,,,,,,,,,
72208013880,2015-11-01T17:56:00,FM-15,7,,SE,0.25,mi,"TEMP, PRECIP, SNOW",,,"MMTS, SRG, SNOWBOARD",,,WFO CHS,,,,,,,,,,,,,,,,,,,,,,,,,,,29.99,68,75,0.00,,,,79,29.99,SCT:04 45 SCT:04 90 BKN:07 200,29.94,10.00,70,150,,8,,,,,,,,,,,,,,,,,,,,,,,,,,,,,,,,,,,,,MET11311/01/15 17:56:02 METAR KCHS 012256Z 15007KT 10SM SCT045 SCT090 BKN200 24/20 A2999 RMK AO2 SLP155 T02390200 (JRS),,,,,,,,,,,,,,,,,,,,,,,,,,,,
72208013880,2015-11-06T16:56:00,FM-15,7,,SE,0.25,mi,"TEMP, PRECIP, SNOW",,,"MMTS, SRG, SNOWBOARD",,,WFO CHS,,,,,,,,,,,,,,,,,,,,,,,,,,,30.13,71,76,0.00,,,,85,30.13,FEW:02 20,30.08,10.00,73,150,,8,,,,,,,,,,,,,,,,,,,,,,,,,,,,,,,,,,,,,MET09911/06/15 16:56:02 METAR KCHS 062156Z 15007KT 10SM FEW020 24/22 A3013 RMK AO2 SLP202 T02440217 (BBE),,,,,,,,,,,,,,,,,,,,,,,,,,,,
72208013880,2015-11-06T17:56:00,FM-15,7,,SE,0.25,mi,"TEMP, PRECIP, SNOW",,,"MMTS, SRG, SNOWBOARD",,,WFO CHS,,,,,,,,,,,,,,,,,,,,,,,,,,,30.13,70,73,0.00,,,,90,30.13,CLR:00,30.08,10.00,71,170,,7,,,,,,,,,,,,,,,,,,,,,,,,,,,,,,,,,,,,,MET09611/06/15 17:56:02 METAR KCHS 062256Z 17006KT 10SM CLR 23/21 A3013 RMK AO2 SLP204 T02280211 (BBE),,,,,,,,,,,,,,,,,,,,,,,,,,,,
72208013880,2015-11-18T13:56:00,FM-15,7,,SE,0.25,mi,"TEMP, PRECIP, SNOW",,,"MMTS, SRG, SNOWBOARD",,,WFO CHS,,,,,,,,,,,,,,,,,,,,,,,,,,,30.11,64,77,0.00,,,,64,30.11,SCT:04 40 SCT:04 120 BKN:07 200,30.06,10.00,69,150,,14,,,,,,,,,,,,,,,,,,,,,,,,,,,,,,,,,,,,,MET11311/18/15 13:56:02 METAR KCHS 181856Z 15012KT 10SM SCT040 SCT120 BKN200 25/18 A3011 RMK AO2 SLP195 T02500178 (JMB),,,,,,,,,,,,,,,,,,,,,,,,,,,,
72208013880,2015-11-18T15:56:00,FM-15,7,,SE,0.25,mi,"TEMP, PRECIP, SNOW",,,"MMTS, SRG, SNOWBOARD",,,WFO CHS,,,,,,,,,,,,,,,,,,,,,,,,,,,30.10,65,76,0.00,,+0.02,8,69,30.09,SCT:04 35 BKN:07 120 BKN:07 250,30.05,10.00,69,150,,14,,,,,,,,,,,,,,,,,,,,,,,,,,,,,,,,,,,,,MET11911/18/15 15:56:02 METAR KCHS 182056Z 15012KT 10SM SCT035 BKN120 BKN250 24/18 A3010 RMK AO2 SLP190 T02440183 58007 (BBE),,,,,,,,,,,,,,,,,,,,,,,,,,,,
72208013880,2015-11-18T16:00:00,FM-12,4,,SE,0.25,mi,"TEMP, PRECIP, SNOW",,,"MMTS, SRG, SNOWBOARD",,,WFO CHS,,,,,,,,,,,,,,,,,,,,,,,,,,,,65,76,,,+0.02,8,69,30.09,41,30.05,9.94,69,150,,14,,,,,,,,,,,,,,,,,,,,,,,,,,,,,,,,,,,,,SYN06472208 32666 61512 10244 20183 30177 40190 58007 92056 555 91821=,,,,,,,,,,,,,,,,,,,,,,,,,,,,
72208013880,2015-12-11T11:56:00,FM-15,7,,SE,0.25,mi,"TEMP, PRECIP, SNOW",,,"MMTS, SRG, SNOWBOARD",,,WFO CHS,,,,,,,,,,,,,,,,,,,,,,,,,,,30.11,58,72,0.00,,,,61,30.11,FEW:02 60 SCT:04 250,30.06,10.00,64,170,,7,,,,,,,,,,,,,,,,,,,,,,,,,,,,,,,,,,,,,MET10612/11/15 11:56:02 METAR KCHS 111656Z 17006KT 10SM FEW060 SCT250 22/14 A3011 RMK AO2 SLP196 T02220144 (KLJ),,,,,,,,,,,,,,,,,,,,,,,,,,,,
72208013880,2015-12-12T14:56:00,FM-15,7,,SE,0.25,mi,"TEMP, PRECIP, SNOW",,,"MMTS, SRG, SNOWBOARD",,,WFO CHS,,,,,,,,,,,,,,,,,,,,,,,,,,,30.20,56,77,0.00,,,,48,30.20,FEW:02 30 SCT:04 200,30.15,10.00,64,170,,8,,,,,,,,,,,,,,,,,,,,,,,,,,,,,,,,,,,,,MET10612/12/15 14:56:02 METAR KCHS 121956Z 17007KT 10SM FEW030 SCT200 25/13 A3020 RMK AO2 SLP226 T02500133 (KLJ),,,,,,,,,,,,,,,,,,,,,,,,,,,,
72208013880,2015-12-12T15:56:00,FM-15,7,,SE,0.25,mi,"TEMP, PRECIP, SNOW",,,"MMTS, SRG, SNOWBOARD",,,WFO CHS,,,,,,,,,,,,,,,,,,,,,,,,,,,30.21,56,75,0.00,,+0.02,5,52,30.21,FEW:02 38 BKN:07 200,30.16,10.00,64,150,,10,,,,,,,,,,,,,,,,,,,,,,,,,,,,,,,,,,,,,MET11212/12/15 15:56:02 METAR KCHS 122056Z 15009KT 10SM FEW038 BKN200 24/13 A3021 RMK AO2 SLP229 T02390133 55007 (JRS),,,,,,,,,,,,,,,,,,,,,,,,,,,,
72208013880,2015-12-12T16:00:00,FM-12,4,,SE,0.25,mi,"TEMP, PRECIP, SNOW",,,"MMTS, SRG, SNOWBOARD",,,WFO CHS,,,,,,,,,,,,,,,,,,,,,,,,,,,,56,75,,,+0.02,5,52,30.21,41,30.16,9.94,64,150,,10,,,,,,,,,,,,,,,,,,,,,,,,,,,,,,,,,,,,,SYN06472208 32666 61509 10239 20133 30214 40229 55007 92056 555 91221=,,,,,,,,,,,,,,,,,,,,,,,,,,,,
72208013880,2015-12-12T16:56:00,FM-15,7,,SE,0.25,mi,"TEMP, PRECIP, SNOW",,,"MMTS, SRG, SNOWBOARD",,,WFO CHS,,,,,,,,,,,,,,,,,,,,,,,,,,,30.21,57,69,0.00,,,,66,30.21,BKN:07 200,30.16,10.00,62,160,,8,,,,,,,,,,,,,,,,,,,,,,,,,,,,,,,,,,,,,MET09912/12/15 16:56:02 METAR KCHS 122156Z 16007KT 10SM BKN200 21/14 A3021 RMK AO2 SLP229 T02060139 (JRS),,,,,,,,,,,,,,,,,,,,,,,,,,,,
72208013880,2015-12-16T11:56:00,FM-15,7,,SE,0.25,mi,"TEMP, PRECIP, SNOW",,,"MMTS, SRG, SNOWBOARD",,,WFO CHS,,,,,,,,,,,,,,,,,,,,,,,,,,,30.00,53,72,0.00,,,,52,30.00,SCT:04 150 SCT:04 250,29.95,10.00,61,170,,8,,,,,,,,,,,,,,,,,,,,,,,,,,,,,,,,,,,,,MET10612/16/15 11:56:02 METAR KCHS 161656Z 17007KT 10SM SCT150 SCT250 22/12 A3000 RMK AO2 SLP159 T02220117 (JMB),,,,,,,,,,,,,,,,,,,,,,,,,,,,
72208013880,2015-12-16T13:56:00,FM-15,7,,SE,0.25,mi,"TEMP, PRECIP, SNOW",,,"MMTS, SRG, SNOWBOARD",,,WFO CHS,,,,,,,,,,,,,,,,,,,,,,,,,,,29.98,50,73,0.00,,,,44,29.98,BKN:07 40,29.93,10.00,60,160,,8,,,,,,,,,,,,,,,,,,,,,,,,,,,,,,,,,,,,,MET09912/16/15 13:56:02 METAR KCHS 161856Z 16007KT 10SM BKN040 23/10 A2998 RMK AO2 SLP151 T02280100 (JMB),,,,,,,,,,,,,,,,,,,,,,,,,,,,
72208013880,2015-12-24T16:56:00,FM-15,7,,SE,0.25,mi,"TEMP, PRECIP, SNOW",,,"MMTS, SRG, SNOWBOARD",,,WFO CHS,,,,,,,,,,,,,,,,,,,,,,,,,,,30.17,70,74,0.00,,,,88,30.17,SCT:04 12 SCT:04 150 BKN:07 200,30.12,10.00,71,170,,10,,,,,,,,,,,,,,,,,,,,,,,,,,,,,,,,,,,,,MET11312/24/15 16:56:02 METAR KCHS 242156Z 17009KT 10SM SCT012 SCT150 BKN200 23/21 A3017 RMK AO2 SLP216 T02330211 (BBE),,,,,,,,,,,,,,,,,,,,,,,,,,,,
72208013880,2015-12-26T16:56:00,FM-15,7,,SE,0.25,mi,"TEMP, PRECIP, SNOW",,,"MMTS, SRG, SNOWBOARD",,,WFO CHS,,,,,,,,,,,,,,,,,,,,,,,,,,,30.24,68,76,0.00,,,,77,30.24,FEW:02 24 SCT:04 200,30.19,10.00,71,150,,7,,,,,,,,,,,,,,,,,,,,,,,,,,,,,,,,,,,,,MET10612/26/15 16:56:02 METAR KCHS 262156Z 15006KT 10SM FEW024 SCT200 24/20 A3024 RMK AO2 SLP240 T02440200 (JRS),,,,,,,,,,,,,,,,,,,,,,,,,,,,
72208013880,2015-12-28T12:18:00,FM-16,7,,SE,0.25,mi,"TEMP, PRECIP, SNOW",,,"MMTS, SRG, SNOWBOARD",,,WFO CHS,,,,,,,,,,,,,,,,,,,,,,,,,,,30.06,69,80,,,,,69,,BKN:07 25 BKN:07 35 BKN:07 200,30.01,10.00,73,160,,17,,,,,,,,,,,,,,,,,,,,,,,,,,,,,,,,,,,,,MET10612/28/15 12:18:02 SPECI KCHS 281718Z 16015KT 10SM BKN025 BKN035 BKN200 27/21 A3006 RMK AO2 T02670206 (JMB),,,,,,,,,,,,,,,,,,,,,,,,,,,,
72208013880,2015-12-28T15:01:00,FM-16,7,,SE,0.25,mi,"TEMP, PRECIP, SNOW",,,"MMTS, SRG, SNOWBOARD",,,WFO CHS,,,,,,,,,,,,,,,,,,,,,,,,,,,30.03,68,79,,,,,69,,SCT:04 25 BKN:07 40,29.98,10.00,72,170,29,17,,,,,,,,,,,,,,,,,,,,,,,,,,,,,,,,,,,,,MET10212/28/15 15:01:02 SPECI KCHS 282001Z 17015G25KT 10SM SCT025 BKN040 26/20 A3003 RMK AO2 T02610200 (BBE),,,,,,,,,,,,,,,,,,,,,,,,,,,,
72208013880,2015-12-28T16:56:00,FM-15,7,,SE,0.25,mi,"TEMP, PRECIP, SNOW",,,"MMTS, SRG, SNOWBOARD",,,WFO CHS,,,,,,,,,,,,,,,,,,,,,,,,,,,30.02,70,77,0.00,,,,79,30.01,SCT:04 25 BKN:07 30,29.97,10.00,72,150,,10,,,,,,,,,,,,,,,,,,,,,,,,,,,,,,,,,,,,,MET10612/28/15 16:56:02 METAR KCHS 282156Z 15009KT 10SM SCT025 BKN030 25/21 A3002 RMK AO2 SLP164 T02500211 (BBE),,,,,,,,,,,,,,,,,,,,,,,,,,,,
72208013880,2015-12-28T17:56:00,FM-15,7,,SE,0.25,mi,"TEMP, PRECIP, SNOW",,,"MMTS, SRG, SNOWBOARD",,,WFO CHS,,,,,,,,,,,,,,,,,,,,,,,,,,,30.03,70,75,0.05,+RA:02 |RA |,,,84,30.03,SCT:04 20 BKN:07 30 BKN:07 110,29.98,7.00,72,160,,16,,,,,,,,,,,,,,,,,,,,,,,,,,,,,,,,,,,,,MET12812/28/15 17:56:02 METAR KCHS 282256Z 16014KT 7SM +RA SCT020 BKN030 BKN110 24/21 A3003 RMK AO2 RAB52 SLP168 P0000 T02390211 (BBE),,,,,,,,,,,,,,,,,,,,,,,,,,,,
72208013880,2016-01-20T15:42:00,FM-16,7,,SE,0.25,mi,"TEMP, PRECIP, SNOW",,,"MMTS, SRG, SNOWBOARD",,,WFO CHS,,,,,,,,,,,,,,,,,,,,,,,,,,,30.23,18,49,,,,,29,,FEW:02 200,30.18,10.00,37,150,,13,,,,,,,,,,,,,,,,,,,,,,,,,,,,,,,,,,,,,MET10401/20/16 15:42:02 SPECI KCHS 202042Z 15011KT 10SM FEW200 09/M08 A3023 RMK AO2 WSHFT 2023 T00941078 (BBE),,,,,,,,,,,,,,,,,,,,,,,,,,,,2009-06-10
72208013880,2016-01-20T16:56:00,FM-15,7,,SE,0.25,mi,"TEMP, PRECIP, SNOW",,,"MMTS, SRG, SNOWBOARD",,,WFO CHS,,,,,,,,,,,,,,,,,,,,,,,,,,,30.22,22,47,0.00,,,,37,30.22,FEW:02 150,30.17,10.00,37,150,,10,,,,,,,,,,,,,,,,,,,,,,,,,,,,,,,,,,,,,MET10001/20/16 16:56:02 METAR KCHS 202156Z 15009KT 10SM FEW150 08/M06 A3022 RMK AO2 SLP233 T00831056 (BBE),,,,,,,,,,,,,,,,,,,,,,,,,,,,2009-06-10
72208013880,2016-01-21T15:56:00,FM-15,7,,SE,0.25,mi,"TEMP, PRECIP, SNOW",,,"MMTS, SRG, SNOWBOARD",,,WFO CHS,,,,,,,,,,,,,,,,,,,,,,,,,,,30.18,39,53,0.00,,+0.04,6,59,30.17,FEW:02 40 OVC:08 55,30.13,10.00,46,150,,9,,,,,,,,,,,,,,,,,,,,,,,,,,,,,,,,,,,,,MET11201/21/16 15:56:02 METAR KCHS 212056Z 15008KT 10SM FEW040 OVC055 12/04 A3018 RMK AO2 SLP218 T01170039 56015 (BBE),,,,,,,,,,,,,,,,,,,,,,,,,,,,2009-06-10
72208013880,2016-01-21T16:00:00,FM-12,4,,SE,0.25,mi,"TEMP, PRECIP, SNOW",,,"MMTS, SRG, SNOWBOARD",,,WFO CHS,,,,,,,,,,,,,,,,,,,,,,,,,,,,39,53,,,+0.04,6,59,30.17,41,30.13,9.94,46,150,,9,,,,,,,,,,,,,,,,,,,,,,,,,,,,,,,,,,,,,SYN06472208 32666 81508 10117 20039 30204 40218 56015 92056 555 92121=,,,,,,,,,,,,,,,,,,,,,,,,,,,,2009-06-10
72208013880,2016-01-25T16:56:00,FM-15,7,,SE,0.25,mi,"TEMP, PRECIP, SNOW",,,"MMTS, SRG, SNOWBOARD",,,WFO CHS,,,,,,,,,,,,,,,,,,,,,,,,,,,30.29,41,56,0.00,,,,57,30.29,BKN:07 250,30.24,10.00,49,150,,9,,,,,,,,,,,,,,,,,,,,,,,,,,,,,,,,,,,,,MET09901/25/16 16:56:02 METAR KCHS 252156Z 15008KT 10SM BKN250 13/05 A3029 RMK AO2 SLP256 T01330050 (BBE),,,,,,,,,,,,,,,,,,,,,,,,,,,,2009-06-10
72208013880,2016-01-25T17:56:00,FM-15,7,,SE,0.25,mi,"TEMP, PRECIP, SNOW",,,"MMTS, SRG, SNOWBOARD",,,WFO CHS,,,,,,,,,,,,,,,,,,,,,,,,,,,30.29,42,51,0.00,,,,71,30.29,BKN:07 250,30.24,10.00,47,150,,7,,,,,,,,,,,,,,,,,,,,,,,,,,,,,,,,,,,,,MET09901/25/16 17:56:02 METAR KCHS 252256Z 15006KT 10SM BKN250 11/06 A3029 RMK AO2 SLP258 T01060056 (BBE),,,,,,,,,,,,,,,,,,,,,,,,,,,,2009-06-10
72208013880,2016-01-26T11:56:00,FM-15,7,,SE,0.25,mi,"TEMP, PRECIP, SNOW",,,"MMTS, SRG, SNOWBOARD",,,WFO CHS,,,,,,,,,,,,,,,,,,,,,,,,,,,30.25,47,65,0.00,,,,52,30.25,FEW:02 60 BKN:07 250,30.20,10.00,55,170,,7,,,,,,,,,,,,,,,,,,,,,,,,,,,,,,,,,,,,,MET10601/26/16 11:56:02 METAR KCHS 261656Z 17006KT 10SM FEW060 BKN250 18/08 A3025 RMK AO2 SLP243 T01830083 (JMB),,,,,,,,,,,,,,,,,,,,,,,,,,,,2009-06-10
72208013880,2016-01-26T12:56:00,FM-15,7,,SE,0.25,mi,"TEMP, PRECIP, SNOW",,,"MMTS, SRG, SNOWBOARD",,,WFO CHS,,,,,,,,,,,,,,,,,,,,,,,,,,,30.22,48,67s,0.00,,+0.02,8,51,30.22,FEW:02 60 BKN:07 250,30.17,10.00,57,150,,8,,,,,,,,,,,,,,,,,,,,,,,,,,,,,,,,,,,,,MET12401/26/16 12:56:02 METAR KCHS 261756Z 15007KT 10SM FEW060 BKN250 19/09 A3022 RMK AO2 SLP233 T01940089 10194 20039 58008 (JMB),,,,,,,,,,,,,,,,,,,,,,,,,,,,2009-06-10
72208013880,2016-01-26T13:00:00,FM-12,4,,SE,0.25,mi,"TEMP, PRECIP, SNOW",,,"MMTS, SRG, SNOWBOARD",,,WFO CHS,,,,,,,,,,,,,,,,,,,,,,,,,,,,48,67s,,,+0.02,8,51,30.22,57,30.17,9.94,57,150,,8,,,,,,,,,,,,,,,,,,,,,,,,,,,,,,,,,,,,,SYN08072208 32766 61507 10194 20089 30217 40233 58008 91756 333 10194 20039 555 92618=,,,,,,,,,,,,,,,,,,,,,,,,,,,,2009-06-10
72208013880,2016-01-26T13:56:00,FM-15,7,,SE,0.25,mi,"TEMP, PRECIP, SNOW",,,"MMTS, SRG, SNOWBOARD",,,WFO CHS,,,,,,,,,,,,,,,,,,,,,,,,,,,30.19,50,67s,0.00,,,,55,30.19,FEW:02 60 OVC:08 200,30.14,10.00,58,160,,9,,,,,,,,,,,,,,,,,,,,,,,,,,,,,,,,,,,,,MET10601/26/16 13:56:02 METAR KCHS 261856Z 16008KT 10SM FEW060 OVC200 19/10 A3019 RMK AO2 SLP223 T01940100 (JMB),,,,,,,,,,,,,,,,,,,,,,,,,,,,2009-06-10
72208013880,2016-01-26T14:56:00,FM-15,7,,SE,0.25,mi,"TEMP, PRECIP, SNOW",,,"MMTS, SRG, SNOWBOARD",,,WFO CHS,,,,,,,,,,,,,,,,,,,,,,,,,,,30.17,50,65,0.00,,,,59,30.17,FEW:02 60 OVC:08 200,30.12,10.00,57,150,,9,,,,,,,,,,,,,,,,,,,,,,,,,,,,,,,,,,,,,MET10601/26/16 14:56:02 METAR KCHS 261956Z 15008KT 10SM FEW060 OVC200 18/10 A3017 RMK AO2 SLP216 T01830100 (JMB),,,,,,,,,,,,,,,,,,,,,,,,,,,,2009-06-10
72208013880,2016-01-26T15:56:00,FM-15,7,,SE,0.25,mi,"TEMP, PRECIP, SNOW",,,"MMTS, SRG, SNOWBOARD",,,WFO CHS,,,,,,,,,,,,,,,,,,,,,,,,,,,30.16,50,63,0.00,,+0.06,6,63,30.16,SCT:04 150 OVC:08 200,30.11,10.00,56,150,,7,,,,,,,,,,,,,,,,,,,,,,,,,,,,,,,,,,,,,MET11201/26/16 15:56:02 METAR KCHS 262056Z 15006KT 10SM SCT150 OVC200 17/10 A3016 RMK AO2 SLP214 T01720100 56019 (BBE),,,,,,,,,,,,,,,,,,,,,,,,,,,,2009-06-10
72208013880,2016-01-26T16:00:00,FM-12,4,,SE,0.25,mi,"TEMP, PRECIP, SNOW",,,"MMTS, SRG, SNOWBOARD",,,WFO CHS,,,,,,,,,,,,,,,,,,,,,,,,,,,,50,63,,,+0.06,6,63,30.16,,30.11,9.94,56,150,,7,,,,,,,,,,,,,,,,,,,,,,,,,,,,,,,,,,,,,SYN06472208 32966 81506 10172 20100 30197 40214 56019 92056 555 92621=,,,,,,,,,,,,,,,,,,,,,,,,,,,,2009-06-10
72208013880,2016-02-11T15:56:00,FM-15,7,,SE,0.25,mi,"TEMP, PRECIP, SNOW",,,"MMTS, SRG, SNOWBOARD",,,WFO CHS,,,,,,,,,,,,,,,,,,,,,,,,,,,30.16,27,52,0.00,,+0.05,5,38,30.16,CLR:00,30.11,10.00,42,160,,15,,,,,,,,,,,,,,,,,,,,,,,,,,,,,,,,,,,,,MET10502/11/16 15:56:02 METAR KCHS 112056Z 16013KT 10SM CLR 11/M03 A3016 RMK AO2 SLP212 T01111028 55016 $ (BBE),,,,,,,,,,,,,,,,,,,,,,,,,,,,2009-06-10
72208013880,2016-02-11T16:00:00,FM-12,4,,SE,0.25,mi,"TEMP, PRECIP, SNOW",,,"MMTS, SRG, SNOWBOARD",,,WFO CHS,,,,,,,,,,,,,,,,,,,,,,,,,,,,27,52,,,+0.05,5,38,30.16,,30.11,9.94,42,160,,15,,,,,,,,,,,,,,,,,,,,,,,,,,,,,,,,,,,,,SYN06472208 32966 01613 10111 21028 30197 40212 55016 92056 555 91121=,,,,,,,,,,,,,,,,,,,,,,,,,,,,2009-06-10
72208013880,2016-02-19T12:56:00,FM-15,7,,SE,0.25,mi,"TEMP, PRECIP, SNOW",,,"MMTS, SRG, SNOWBOARD",,,WFO CHS,,,,,,,,,,,,,,,,,,,,,,,,,,,30.49,38,59,0.00,,+0.07,8,46,30.49,FEW:02 35,30.44,10.00,49,150,,8,,,,,,,,,,,,,,,,,,,,,,,,,,,,,,,,,,,,,MET11702/19/16 12:56:02 METAR KCHS 191756Z 15007KT 10SM FEW035 15/03 A3049 RMK AO2 SLP325 T01500033 10156 20022 58023 (JMB),,,,,,,,,,,,,,,,,,,,,,,,,,,,2009-06-10
72208013880,2016-02-19T13:00:00,FM-12,4,,SE,0.25,mi,"TEMP, PRECIP, SNOW",,,"MMTS, SRG, SNOWBOARD",,,WFO CHS,,,,,,,,,,,,,,,,,,,,,,,,,,,,38,59,,,+0.07,8,46,30.49,41,30.44,9.94,49,150,,8,,,,,,,,,,,,,,,,,,,,,,,,,,,,,,,,,,,,,SYN08072208 32666 21507 10150 20033 30309 40325 58023 91756 333 10156 20022 555 91918=,,,,,,,,,,,,,,,,,,,,,,,,,,,,2009-06-10
72208013880,2016-02-19T13:56:00,FM-15,7,,SE,0.25,mi,"TEMP, PRECIP, SNOW",,,"MMTS, SRG, SNOWBOARD",,,WFO CHS,,,,,,,,,,,,,,,,,,,,,,,,,,,30.45,39,59,0.00,,,,48,30.45,CLR:00,30.40,10.00,49,170,,7,,,,,,,,,,,,,,,,,,,,,,,,,,,,,,,,,,,,,MET09602/19/16 13:56:02 METAR KCHS 191856Z 17006KT 10SM CLR 15/04 A3045 RMK AO2 SLP311 T01500039 (JMB),,,,,,,,,,,,,,,,,,,,,,,,,,,,2009-06-10
72208013880,2016-02-19T15:56:00,FM-15,7,,SE,0.25,mi,"TEMP, PRECIP, SNOW",,,"MMTS, SRG, SNOWBOARD",,,WFO CHS,,,,,,,,,,,,,,,,,,,,,,,,,,,30.41,39,58,0.00,,+0.08,6,50,30.41,CLR:00,30.36,10.00,49,150,,11,,,,,,,,,,,,,,,,,,,,,,,,,,,,,,,,,,,,,MET10202/19/16 15:56:02 METAR KCHS 192056Z 15010KT 10SM CLR 14/04 A3041 RMK AO2 SLP297 T01440039 56028 (KLJ),,,,,,,,,,,,,,,,,,,,,,,,,,,,2009-06-10
72208013880,2016-02-19T16:00:00,FM-12,4,,SE,0.25,mi,"TEMP, PRECIP, SNOW",,,"MMTS, SRG, SNOWBOARD",,,WFO CHS,,,,,,,,,,,,,,,,,,,,,,,,,,,,39,58,,,+0.08,6,50,30.41,,30.36,9.94,49,150,,11,,,,,,,,,,,,,,,,,,,,,,,,,,,,,,,,,,,,,SYN06472208 32966 01510 10144 20039 30282 40297 56028 92056 555 91921=,,,,,,,,,,,,,,,,,,,,,,,,,,,,2009-06-10
72208013880,2016-02-22T14:56:00,FM-15,7,,SE,0.25,mi,"TEMP, PRECIP, SNOW",,,"MMTS, SRG, SNOWBOARD",,,WFO CHS,,,,,,,,,,,,,,,,,,,,,,,,,,,29.94,56,75,0.00,,,,52,29.93,FEW:02 45 SCT:04 120 BKN:07 250,29.89,10.00,64,170,,13,,,,,,,,,,,,,,,,,,,,,,,,,,,,,,,,,,,,,MET11302/22/16 14:56:02 METAR KCHS 221956Z 17011KT 10SM FEW045 SCT120 BKN250 24/13 A2994 RMK AO2 SLP137 T02390133 (JMB),,,,,,,,,,,,,,,,,,,,,,,,,,,,2009-06-10
72208013880,2016-02-23T12:56:00,FM-15,7,,SE,0.25,mi,"TEMP, PRECIP, SNOW",,,"MMTS, SRG, SNOWBOARD",,,WFO CHS,,,,,,,,,,,,,,,,,,,,,,,,,,,29.93,62,70,0.00,,+0.03,8,76,29.93,FEW:02 20 SCT:04 50 BKN:07 65,29.88,10.00,65,160,,8,,,,,,,,,,,,,,,,,,,,,,,,,,,,,,,,,,,,,MET13702/23/16 12:56:02 METAR KCHS 231756Z 16007KT 10SM FEW020 SCT050 BKN065 21/17 A2993 RMK AO2 SLP135 60002 T02110167 10217 20144 58011 (JMB),,,,,,,,,,,,,,,,,,,,,,,,,,,,2009-06-10
72208013880,2016-02-23T13:00:00,FM-12,4,,SE,0.25,mi,"TEMP, PRECIP, SNOW",,,"MMTS, SRG, SNOWBOARD",,,WFO CHS,,,,,,,,,,,,,,,,,,,,,,,,,,,,62,70,,,+0.03,8,76,29.93,26,29.88,9.94,65,160,,8,,,,,,,,,,,,,,,,,,,,,,,,,,,,,,,,,,,,,SYN08672208 12566 61607 10211 20167 30119 40135 58011 69951 91756 333 10217 20144 555 92318=,,,,,,,,,,,,,,,,,,,,,,,,,,,,2009-06-10
72208013880,2016-02-23T16:56:00,FM-15,7,,SE,0.25,mi,"TEMP, PRECIP, SNOW",,,"MMTS, SRG, SNOWBOARD",,,WFO CHS,,,,,,,,,,,,,,,,,,,,,,,,,,,29.87,61,71,0.00,,,,71,29.86,FEW:02 30 SCT:04 40 SCT:04 70,29.82,10.00,65,150,,10,,,,,,,,,,,,,,,,,,,,,,,,,,,,,,,,,,,,,MET11302/23/16 16:56:02 METAR KCHS 232156Z 15009KT 10SM FEW030 SCT040 SCT070 22/16 A2987 RMK AO2 SLP113 T02170161 (BBE),,,,,,,,,,,,,,,,,,,,,,,,,,,,2009-06-10
72208013880,2016-02-27T16:56:00,FM-15,7,,SE,0.25,mi,"TEMP, PRECIP, SNOW",,,"MMTS, SRG, SNOWBOARD",,,WFO CHS,,,,,,,,,,,,,,,,,,,,,,,,,,,30.18,36,55,0.00,,,,49,30.18,CLR:00,30.13,10.00,46,170,,8,,,,,,,,,,,,,,,,,,,,,,,,,,,,,,,,,,,,,MET09602/27/16 16:56:02 METAR KCHS 272156Z 17007KT 10SM CLR 13/02 A3018 RMK AO2 SLP219 T01280022 (JRS),,,,,,,,,,,,,,,,,,,,,,,,,,,,2009-06-10
72208013880,2016-03-05T13:56:00,FM-15,7,,SE,0.25,mi,"TEMP, PRECIP, SNOW",,,"MMTS, SRG, SNOWBOARD",,,WFO CHS,,,,,,,,,,,,,,,,,,,,,,,,,,,30.15,41,63,0.00,,,,45,30.14,FEW:02 40 BKN:07 50 BKN:07 60,30.10,10.00,52,170,,7,,,,,,,,,,,,,,,,,,,,,,,,,,,,,,,,,,,,,MET11303/05/16 13:56:02 METAR KCHS 051856Z 17006KT 10SM FEW040 BKN050 BKN060 17/05 A3015 RMK AO2 SLP208 T01720050 (KLJ),,,,,,,,,,,,,,,,,,,,,,,,,,,,2009-06-10
72208013880,2016-03-07T13:56:00,FM-15,7,,SE,0.25,mi,"TEMP, PRECIP, SNOW",,,"MMTS, SRG, SNOWBOARD",,,WFO CHS,,,,,,,,,,,,,,,,,,,,,,,,,,,30.32,47,69,0.00,,,,45,30.31,FEW:02 45 SCT:04 250,30.27,10.00,57,170,16,10,,,,,,,,,,,,,,,,,,,,,,,,,,,,,,,,,,,,,MET10903/07/16 13:56:02 METAR KCHS 071856Z 17009G14KT 10SM FEW045 SCT250 21/08 A3032 RMK AO2 SLP265 T02060083 (JMB),,,,,,,,,,,,,,,,,,,,,,,,,,,,2009-06-10
72208013880,2016-03-07T16:56:00,FM-15,7,,SE,0.25,mi,"TEMP, PRECIP, SNOW",,,"MMTS, SRG, SNOWBOARD",,,WFO CHS,,,,,,,,,,,,,,,,,,,,,,,,,,,30.29,48,65,0.00,,,,54,30.29,SCT:04 250,30.24,10.00,56,160,,14,,,,,,,,,,,,,,,,,,,,,,,,,,,,,,,,,,,,,MET09903/07/16 16:56:02 METAR KCHS 072156Z 16012KT 10SM SCT250 18/09 A3029 RMK AO2 SLP257 T01830089 (BBE),,,,,,,,,,,,,,,,,,,,,,,,,,,,2009-06-10
72208013880,2016-03-07T17:56:00,FM-15,7,,SE,0.25,mi,"TEMP, PRECIP, SNOW",,,"MMTS, SRG, SNOWBOARD",,,WFO CHS,,,,,,,,,,,,,,,,,,,,,,,,,,,30.30,48,62,0.00,,,,60,30.29,BKN:07 250,30.25,10.00,55,150,,9,,,,,,,,,,,,,,,,,,,,,,,,,,,,,,,,,,,,,MET09903/07/16 17:56:02 METAR KCHS 072256Z 15008KT 10SM BKN250 17/09 A3030 RMK AO2 SLP259 T01670089 (BBE),,,,,,,,,,,,,,,,,,,,,,,,,,,,2009-06-10
72208013880,2016-03-08T13:56:00,FM-15,7,,SE,0.25,mi,"TEMP, PRECIP, SNOW",,,"MMTS, SRG, SNOWBOARD",,,WFO CHS,,,,,,,,,,,,,,,,,,,,,,,,,,,30.27,50,77,0.00,,,,39,30.27,FEW:02 60 FEW:02 250,30.22,10.00,62,170,,10,,,,,,,,,,,,,,,,,,,,,,,,,,,,,,,,,,,,,MET10603/08/16 13:56:02 METAR KCHS 081856Z 17009KT 10SM FEW060 FEW250 25/10 A3027 RMK AO2 SLP249 T02500100 (JMB),,,,,,,,,,,,,,,,,,,,,,,,,,,,2009-06-10
72208013880,2016-03-09T17:56:00,FM-15,7,,SE,0.25,mi,"TEMP, PRECIP, SNOW",,,"MMTS, SRG, SNOWBOARD",,,WFO CHS,,,,,,,,,,,,,,,,,,,,,,,,,,,30.24,55,72,0.00,,,,55,30.24,FEW:02 45 SCT:04 250,30.19,10.00,62,170,,10,,,,,,,,,,,,,,,,,,,,,,,,,,,,,,,,,,,,,MET10603/09/16 17:56:02 METAR KCHS 092256Z 17009KT 10SM FEW045 SCT250 22/13 A3024 RMK AO2 SLP241 T02220128 (BBE),,,,,,,,,,,,,,,,,,,,,,,,,,,,2009-06-10
72208013880,2016-03-11T11:56:00,FM-15,7,,SE,0.25,mi,"TEMP, PRECIP, SNOW",,,"MMTS, SRG, SNOWBOARD",,,WFO CHS,,,,,,,,,,,,,,,,,,,,,,,,,,,30.22,63,79,0.00,,,,58,30.22,FEW:02 40 BKN:07 250,30.17,10.00,69,160,,8,,,,,,,,,,,,,,,,,,,,,,,,,,,,,,,,,,,,,MET10603/11/16 11:56:02 METAR KCHS 111656Z 16007KT 10SM FEW040 BKN250 26/17 A3022 RMK AO2 SLP232 T02610172 (KLJ),,,,,,,,,,,,,,,,,,,,,,,,,,,,2009-06-10
72208013880,2016-03-12T12:56:00,FM-15,7,,SE,0.25,mi,"TEMP, PRECIP, SNOW",,,"MMTS, SRG, SNOWBOARD",,,WFO CHS,,,,,,,,,,,,,,,,,,,,,,,,,,,30.18,61,80,0.00,,+0.06,8,52,30.17,SCT:04 35 SCT:04 45 BKN:07 250,30.13,10.00,68,170,,14,,,,,,,,,,,,,,,,,,,,,,,,,,,,,,,,,,,,,MET13103/12/16 12:56:02 METAR KCHS 121756Z 17012KT 10SM SCT035 SCT045 BKN250 27/16 A3018 RMK AO2 SLP218 T02670161 10267 20167 58020 (KLJ),,,,,,,,,,,,,,,,,,,,,,,,,,,,2009-06-10
72208013880,2016-03-12T13:00:00,FM-12,4,,SE,0.25,mi,"TEMP, PRECIP, SNOW",,,"MMTS, SRG, SNOWBOARD",,,WFO CHS,,,,,,,,,,,,,,,,,,,,,,,,,,,,61,80,,,+0.06,8,52,30.17,41,30.13,9.94,68,170,,14,,,,,,,,,,,,,,,,,,,,,,,,,,,,,,,,,,,,,SYN08072208 32666 61712 10267 20161 30204 40218 58020 91756 333 10267 20167 555 91218=,,,,,,,,,,,,,,,,,,,,,,,,,,,,2009-06-10
72208013880,2016-03-12T13:56:00,FM-15,7,,SE,0.25,mi,"TEMP, PRECIP, SNOW",,,"MMTS, SRG, SNOWBOARD",,,WFO CHS,,,,,,,,,,,,,,,,,,,,,,,,,,,30.14,61,79,0.00,,,,54,30.14,SCT:04 38 SCT:04 50 BKN:07 250,30.09,10.00,68,170,,11,,,,,,,,,,,,,,,,,,,,,,,,,,,,,,,,,,,,,MET11303/12/16 13:56:02 METAR KCHS 121856Z 17010KT 10SM SCT038 SCT050 BKN250 26/16 A3014 RMK AO2 SLP206 T02610161 (KLJ),,,,,,,,,,,,,,,,,,,,,,,,,,,,2009-06-10
72208013880,2016-03-12T15:56:00,FM-15,7,,SE,0.25,mi,"TEMP, PRECIP, SNOW",,,"MMTS, SRG, SNOWBOARD",,,WFO CHS,,,,,,,,,,,,,,,,,,,,,,,,,,,30.11,61,77,0.00,,+0.07,6,58,30.11,SCT:04 35 BKN:07 250,30.06,10.00,67,170,,14,,,,,,,,,,,,,,,,,,,,,,,,,,,,,,,,,,,,,MET11203/12/16 15:56:02 METAR KCHS 122056Z 17012KT 10SM SCT035 BKN250 25/16 A3011 RMK AO2 SLP196 T02500161 56023 (JRS),,,,,,,,,,,,,,,,,,,,,,,,,,,,2009-06-10
72208013880,2016-03-12T16:00:00,FM-12,4,,SE,0.25,mi,"TEMP, PRECIP, SNOW",,,"MMTS, SRG, SNOWBOARD",,,WFO CHS,,,,,,,,,,,,,,,,,,,,,,,,,,,,61,77,,,+0.07,6,58,30.11,41,30.06,9.94,67,170,,14,,,,,,,,,,,,,,,,,,,,,,,,,,,,,,,,,,,,,SYN06472208 32666 61712 10250 20161 30180 40196 56023 92056 555 91221=,,,,,,,,,,,,,,,,,,,,,,,,,,,,2009-06-10
72208013880,2016-03-18T11:56:00,FM-15,7,,SE,0.25,mi,"TEMP, PRECIP, SNOW",,,"MMTS, SRG, SNOWBOARD",,,WFO CHS,,,,,,,,,,,,,,,,,,,,,,,,,,,29.98,41,74,0.00,,,,31,29.97,BKN:07 250,29.93,10.00,57,150,18,10,,,,,,,,,,,,,,,,,,,,,,,,,,,,,,,,,,,,,MET10203/18/16 11:56:02 METAR KCHS 181656Z 15009G16KT 10SM BKN250 23/05 A2998 RMK AO2 SLP150 T02330050 (JMB),,,,,,,,,,,,,,,,,,,,,,,,,,,,2009-06-10
72208013880,2016-03-24T15:56:00,FM-15,7,,SE,0.25,mi,"TEMP, PRECIP, SNOW",,,"MMTS, SRG, SNOWBOARD",,,WFO CHS,,,,,,,,,,,,,,,,,,,,,,,,,,,29.98,57,77,0.00,,+0.10,8,50,29.98,FEW:02 45 SCT:04 55 SCT:04 250,29.93,10.00,65,160,23,15,,,,,,,,,,,,,,,,,,,,,,,,,,,,,,,,,,,,,MET12203/24/16 15:56:02 METAR KCHS 242056Z 16013G20KT 10SM FEW045 SCT055 SCT250 25/14 A2998 RMK AO2 SLP151 T02500139 58033 (BBE),,,,,,,,,,,,,,,,,,,,,,,,,,,,2009-06-10
72208013880,2016-03-24T16:00:00,FM-12,4,,SE,0.25,mi,"TEMP, PRECIP, SNOW",,,"MMTS, SRG, SNOWBOARD",,,WFO CHS,,,,,,,,,,,,,,,,,,,,,,,,,,,,57,77,,,+0.10,8,50,29.98,41,29.93,9.94,65,160,,15,,,,,,,,,,,,,,,,,,,,,,,,,,,,,,,,,,,,,SYN07472208 32666 41613 10250 20139 30136 40151 58033 92056 333 91020 555 92421=,,,,,,,,,,,,,,,,,,,,,,,,,,,,2009-06-10
72208013880,2016-03-24T16:56:00,FM-15,7,,SE,0.25,mi,"TEMP, PRECIP, SNOW",,,"MMTS, SRG, SNOWBOARD",,,WFO CHS,,,,,,,,,,,,,,,,,,,,,,,,,,,29.99,58,75,0.00,,,,55,29.98,SCT:04 50 BKN:07 60,29.94,10.00,65,160,,16,,,,,,,,,,,,,,,,,,,,,,,,,,,,,,,,,,,,,MET10603/24/16 16:56:02 METAR KCHS 242156Z 16014KT 10SM SCT050 BKN060 24/14 A2999 RMK AO2 SLP153 T02390144 (BBE),,,,,,,,,,,,,,,,,,,,,,,,,,,,2009-06-10
72208013880,2016-03-24T17:56:00,FM-15,7,,SE,0.25,mi,"TEMP, PRECIP, SNOW",,,"MMTS, SRG, SNOWBOARD",,,WFO CHS,,,,,,,,,,,,,,,,,,,,,,,,,,,29.97,57,72,0.00,,,,59,29.96,FEW:02 50,29.92,10.00,63,160,,11,,,,,,,,,,,,,,,,,,,,,,,,,,,,,,,,,,,,,MET09903/24/16 17:56:02 METAR KCHS 242256Z 16010KT 10SM FEW050 22/14 A2997 RMK AO2 SLP147 T02220139 (BBE),,,,,,,,,,,,,,,,,,,,,,,,,,,,2009-06-10
72208013880,2016-03-29T14:56:00,FM-15,7,,SE,0.25,mi,"TEMP, PRECIP, SNOW",,,"MMTS, SRG, SNOWBOARD",,,WFO CHS,,,,,,,,,,,,,,,,,,,,,,,,,,,30.09,44,69,0.00,,,,41,30.09,FEW:02 80 BKN:07 250,30.04,10.00,56,160,,11,,,,,,,,,,,,,,,,,,,,,,,,,,,,,,,,,,,,,MET10603/29/16 14:56:02 METAR KCHS 291956Z 16010KT 10SM FEW080 BKN250 21/07 A3009 RMK AO2 SLP190 T02060067 (JMB),,,,,,,,,,,,,,,,,,,,,,,,,,,,2009-06-10
72208013880,2016-03-31T15:56:00,FM-15,7,,SE,0.25,mi,"TEMP, PRECIP, SNOW",,,"MMTS, SRG, SNOWBOARD",,,WFO CHS,,,,,,,,,,,,,,,,,,,,,,,,,,,29.94,67,79,0.00,,+0.06,6,67,29.93,SCT:04 30 BKN:07 40 BKN:07 250,29.89,10.00,71,170,,11,,,,,,,,,,,,,,,,,,,,,,,,,,,,,,,,,,,,,MET12503/31/16 15:56:02 METAR KCHS 312056Z 17010KT 10SM SCT030 BKN040 BKN250 26/19 A2994 RMK AO2 SLP137 60000 T02610194 56019 (BBE),,,,,,,,,,,,,,,,,,,,,,,,,,,,2009-06-10
72208013880,2016-03-31T16:00:00,FM-12,4,,SE,0.25,mi,"TEMP, PRECIP, SNOW",,,"MMTS, SRG, SNOWBOARD",,,WFO CHS,,,,,,,,,,,,,,,,,,,,,,,,,,,,67,79,,,+0.06,6,67,29.93,26,29.89,9.94,71,170,,11,,,,,,,,,,,,,,,,,,,,,,,,,,,,,,,,,,,,,SYN07072208 12566 61710 10261 20194 30123 40137 56019 69907 92056 555 93121=,,,,,,,,,,,,,,,,,,,,,,,,,,,,2009-06-10
72208013880,2016-03-31T16:56:00,FM-15,7,,SE,0.25,mi,"TEMP, PRECIP, SNOW",,,"MMTS, SRG, SNOWBOARD",,,WFO CHS,,,,,,,,,,,,,,,,,,,,,,,,,,,29.93,67,78,0.00,,,,69,29.93,FEW:02 30 SCT:04 35 BKN:07 250,29.88,10.00,71,160,,14,,,,,,,,,,,,,,,,,,,,,,,,,,,,,,,,,,,,,MET11303/31/16 16:56:02 METAR KCHS 312156Z 16012KT 10SM FEW030 SCT035 BKN250 26/19 A2993 RMK AO2 SLP134 T02560194 (BBE),,,,,,,,,,,,,,,,,,,,,,,,,,,,2009-06-10
72208013880,2016-03-31T17:56:00,FM-15,7,,SE,0.25,mi,"TEMP, PRECIP, SNOW",,,"MMTS, SRG, SNOWBOARD",,,WFO CHS,,,,,,,,,,,,,,,,,,,,,,,,,,,29.92,67,75,0.00,,,,76,29.92,FEW:02 30 SCT:04 120 BKN:07 200,29.87,10.00,70,170,,10,,,,,,,,,,,,,,,,,,,,,,,,,,,,,,,,,,,,,MET11303/31/16 17:56:02 METAR KCHS 312256Z 17009KT 10SM FEW030 SCT120 BKN200 24/19 A2992 RMK AO2 SLP132 T02390194 (BBE),,,,,,,,,,,,,,,,,,,,,,,,,,,,2009-06-10
72208013880,2016-04-01T12:25:00,FM-16,7,,SE,0.25,mi,"TEMP, PRECIP, SNOW",,,"MMTS, SRG, SNOWBOARD",,,WFO CHS,,,,,,,,,,,,,,,,,,,,,,,,,,,29.88,67,75,,,,,76,,FEW:02 12 SCT:04 24 BKN:07 110,29.83,10.00,70,160,,11,,,,,,,,,,,,,,,,,,,,,,,,,,,,,,,,,,,,,MET10604/01/16 12:25:02 SPECI KCHS 011725Z 16010KT 10SM FEW012 SCT024 BKN110 24/19 A2988 RMK AO2 T02390194 (KLJ),,,,,,,,,,,,,,,,,,,,,,,,,,,,2009-06-10
72208013880,2016-04-01T12:56:00,FM-15,7,,SE,0.25,mi,"TEMP, PRECIP, SNOW",,,"MMTS, SRG, SNOWBOARD",,,WFO CHS,,,,,,,,,,,,,,,,,,,,,,,,,,,29.86,68,79,0.00,,+0.10,8,69,29.86,FEW:02 14 SCT:04 20 BKN:07 110,29.81,10.00,72,170,20,13,,,,,,,,,,,,,,,,,,,,,,,,,,,,,,,,,,,,,MET14704/01/16 12:56:02 METAR KCHS 011756Z 17011G17KT 10SM FEW014 SCT020 BKN110 26/20 A2986 RMK AO2 PRESFR SLP111 60000 T02610200 10261 20217 58033 (KLJ),,,,,,,,,,,,,,,,,,,,,,,,,,,,2009-06-10
72208013880,2016-04-01T13:00:00,FM-12,4,,SE,0.25,mi,"TEMP, PRECIP, SNOW",,,"MMTS, SRG, SNOWBOARD",,,WFO CHS,,,,,,,,,,,,,,,,,,,,,,,,,,,,68,79,,,+0.10,8,69,29.86,15,29.81,9.94,72,170,,13,,,,,,,,,,,,,,,,,,,,,,,,,,,,,,,,,,,,,SYN09272208 12466 61711 10261 20200 30096 40111 58033 69901 91756 333 10261 20217 91017 555 90118=,,,,,,,,,,,,,,,,,,,,,,,,,,,,2009-06-10
72208013880,2016-04-06T10:56:00,FM-15,7,,SE,0.25,mi,"TEMP, PRECIP, SNOW",,,"MMTS, SRG, SNOWBOARD",,,WFO CHS,,,,,,,,,,,,,,,,,,,,,,,,,,,30.32,43,63,0.00,,,,48,30.31,FEW:02 50 SCT:04 250,30.27,10.00,53,150,20,7,,,,,,,,,,,,,,,,,,,,,,,,,,,,,,,,,,,,,MET10904/06/16 10:56:02 METAR KCHS 061556Z 15006G17KT 10SM FEW050 SCT250 17/06 A3032 RMK AO2 SLP265 T01720061 (JMB),,,,,,,,,,,,,,,,,,,,,,,,,,,,2009-06-10
72208013880,2016-04-06T13:56:00,FM-15,7,,SE,0.25,mi,"TEMP, PRECIP, SNOW",,,"MMTS, SRG, SNOWBOARD",,,WFO CHS,,,,,,,,,,,,,,,,,,,,,,,,,,,30.21,48,67,0.00,,,,51,30.21,FEW:02 45 BKN:07 250,30.16,10.00,57,170,,11,,,,,,,,,,,,,,,,,,,,,,,,,,,,,,,,,,,,,MET10604/06/16 13:56:02 METAR KCHS 061856Z 17010KT 10SM FEW045 BKN250 19/09 A3021 RMK AO2 SLP230 T01940089 (JMB),,,,,,,,,,,,,,,,,,,,,,,,,,,,2009-06-10
72208013880,2016-04-06T15:56:00,FM-15,7,,SE,0.25,mi,"TEMP, PRECIP, SNOW",,,"MMTS, SRG, SNOWBOARD",,,WFO CHS,,,,,,,,,,,,,,,,,,,,,,,,,,,30.16,49,66,0.00,,+0.11,6,54,30.15,FEW:02 40 BKN:07 250,30.11,10.00,57,170,17,9,,,,,,,,,,,,,,,,,,,,,,,,,,,,,,,,,,,,,MET11504/06/16 15:56:02 METAR KCHS 062056Z 17008G15KT 10SM FEW040 BKN250 19/09 A3016 RMK AO2 SLP211 T01890094 56036 (BBE),,,,,,,,,,,,,,,,,,,,,,,,,,,,2009-06-10
72208013880,2016-04-06T16:00:00,FM-12,4,,SE,0.25,mi,"TEMP, PRECIP, SNOW",,,"MMTS, SRG, SNOWBOARD",,,WFO CHS,,,,,,,,,,,,,,,,,,,,,,,,,,,,49,66,,,+0.11,6,54,30.15,41,30.11,9.94,57,170,,9,,,,,,,,,,,,,,,,,,,,,,,,,,,,,,,,,,,,,SYN07472208 32666 61708 10189 20094 30197 40211 56036 92056 333 91015 555 90621=,,,,,,,,,,,,,,,,,,,,,,,,,,,,2009-06-10
72208013880,2016-04-06T16:56:00,FM-15,7,,SE,0.25,mi,"TEMP, PRECIP, SNOW",,,"MMTS, SRG, SNOWBOARD",,,WFO CHS,,,,,,,,,,,,,,,,,,,,,,,,,,,30.14,50,64,0.00,,,,60,30.14,FEW:02 35 BKN:07 250,30.09,10.00,56,150,,11,,,,,,,,,,,,,,,,,,,,,,,,,,,,,,,,,,,,,MET10604/06/16 16:56:02 METAR KCHS 062156Z 15010KT 10SM FEW035 BKN250 18/10 A3014 RMK AO2 SLP205 T01780100 (BBE),,,,,,,,,,,,,,,,,,,,,,,,,,,,2009-06-10
72208013880,2016-04-10T12:56:00,FM-15,7,,SE,0.25,mi,"TEMP, PRECIP, SNOW",,,"MMTS, SRG, SNOWBOARD",,,WFO CHS,,,,,,,,,,,,,,,,,,,,,,,,,,,30.42,31,60,0.00,,-0.00,1,33,30.41,FEW:02 150 BKN:07 200,30.37,10.00,47,160,17,11,,,,,,,,,,,,,,,,,,,,,,,,,,,,,,,,,,,,,MET12804/10/16 12:56:02 METAR KCHS 101756Z 16010G15KT 10SM FEW150 BKN200 16/M01 A3042 RMK AO2 SLP299 T01561006 10156 20067 51001 (KLJ),,,,,,,,,,,,,,,,,,,,,,,,,,,,2009-06-10
72208013880,2016-04-10T13:00:00,FM-12,4,,SE,0.25,mi,"TEMP, PRECIP, SNOW",,,"MMTS, SRG, SNOWBOARD",,,WFO CHS,,,,,,,,,,,,,,,,,,,,,,,,,,,,31,60,,,-0.00,1,33,30.41,,30.37,9.94,47,160,,11,,,,,,,,,,,,,,,,,,,,,,,,,,,,,,,,,,,,,SYN08672208 32966 61610 10156 21006 30285 40299 51001 91756 333 10156 20067 91015 555 91018=,,,,,,,,,,,,,,,,,,,,,,,,,,,,2009-06-10
72208013880,2016-04-11T10:56:00,FM-15,7,,SE,0.25,mi,"TEMP, PRECIP, SNOW",,,"MMTS, SRG, SNOWBOARD",,,WFO CHS,,,,,,,,,,,,,,,,,,,,,,,,,,,30.32,53,73,0.00,,,,50,30.31,SCT:04 40 SCT:04 250,30.27,10.00,61,150,,15,,,,,,,,,,,,,,,,,,,,,,,,,,,,,,,,,,,,,MET10604/11/16 10:56:02 METAR KCHS 111556Z 15013KT 10SM SCT040 SCT250 23/12 A3032 RMK AO2 SLP265 T02280117 (JMB),,,,,,,,,,,,,,,,,,,,,,,,,,,,2009-06-10
72208013880,2016-04-11T11:56:00,FM-15,7,,SE,0.25,mi,"TEMP, PRECIP, SNOW",,,"MMTS, SRG, SNOWBOARD",,,WFO CHS,,,,,,,,,,,,,,,,,,,,,,,,,,,30.31,54,73,0.00,,,,51,30.30,BKN:07 45,30.26,10.00,62,160,,11,,,,,,,,,,,,,,,,,,,,,,,,,,,,,,,,,,,,,MET09904/11/16 11:56:02 METAR KCHS 111656Z 16010KT 10SM BKN045 23/12 A3031 RMK AO2 SLP262 T02280122 (JMB),,,,,,,,,,,,,,,,,,,,,,,,,,,,2009-06-10
72208013880,2016-04-11T15:56:00,FM-15,7,,SE,0.25,mi,"TEMP, PRECIP, SNOW",,,"MMTS, SRG, SNOWBOARD",,,WFO CHS,,,,,,,,,,,,,,,,,,,,,,,,,,,30.23,54,70,0.00,,+0.06,8,57,30.22,FEW:02 40 SCT:04 55 BKN:07 250,30.18,10.00,61,160,,13,,,,,,,,,,,,,,,,,,,,,,,,,,,,,,,,,,,,,MET11904/11/16 15:56:02 METAR KCHS 112056Z 16011KT 10SM FEW040 SCT055 BKN250 21/12 A3023 RMK AO2 SLP235 T02110122 58019 (BBE),,,,,,,,,,,,,,,,,,,,,,,,,,,,2009-06-10
72208013880,2016-04-11T16:00:00,FM-12,4,,SE,0.25,mi,"TEMP, PRECIP, SNOW",,,"MMTS, SRG, SNOWBOARD",,,WFO CHS,,,,,,,,,,,,,,,,,,,,,,,,,,,,54,70,,,+0.06,8,57,30.22,41,30.18,9.94,61,160,,13,,,,,,,,,,,,,,,,,,,,,,,,,,,,,,,,,,,,,SYN06472208 32666 61611 10211 20122 30221 40235 58019 92056 555 91121=,,,,,,,,,,,,,,,,,,,,,,,,,,,,2009-06-10
72208013880,2016-04-18T15:56:00,FM-15,7,,SE,0.25,mi,"TEMP, PRECIP, SNOW",,,"MMTS, SRG, SNOWBOARD",,,WFO CHS,,,,,,,,,,,,,,,,,,,,,,,,,,,30.22,41,77,0.00,,+0.06,8,28,30.22,CLR:00,30.17,10.00,58,170,,13,,,,,,,,,,,,,,,,,,,,,,,,,,,,,,,,,,,,,MET10204/18/16 15:56:02 METAR KCHS 182056Z 17011KT 10SM CLR 25/05 A3022 RMK AO2 SLP233 T02500050 58020 (BBE),,,,,,,,,,,,,,,,,,,,,,,,,,,,2009-06-10
72208013880,2016-04-18T16:00:00,FM-12,4,,SE,0.25,mi,"TEMP, PRECIP, SNOW",,,"MMTS, SRG, SNOWBOARD",,,WFO CHS,,,,,,,,,,,,,,,,,,,,,,,,,,,,41,77,,,+0.06,8,28,30.22,,30.17,9.94,58,170,,13,,,,,,,,,,,,,,,,,,,,,,,,,,,,,,,,,,,,,SYN06472208 32966 01711 10250 20050 30217 40233 58020 92056 555 91821=,,,,,,,,,,,,,,,,,,,,,,,,,,,,2009-06-10
72208013880,2016-04-18T16:56:00,FM-15,7,,SE,0.25,mi,"TEMP, PRECIP, SNOW",,,"MMTS, SRG, SNOWBOARD",,,WFO CHS,,,,,,,,,,,,,,,,,,,,,,,,,,,30.22,39,75,0.00,,,,27,30.22,CLR:00,30.17,10.00,56,170,,11,,,,,,,,,,,,,,,,,,,,,,,,,,,,,,,,,,,,,MET09604/18/16 16:56:02 METAR KCHS 182156Z 17010KT 10SM CLR 24/04 A3022 RMK AO2 SLP233 T02390039 (BBE),,,,,,,,,,,,,,,,,,,,,,,,,,,,2009-06-10
72208013880,2016-04-18T17:56:00,FM-15,7,,SE,0.25,mi,"TEMP, PRECIP, SNOW",,,"MMTS, SRG, SNOWBOARD",,,WFO CHS,,,,,,,,,,,,,,,,,,,,,,,,,,,30.22,36,71,0.00,,,,28,30.22,CLR:00,30.17,10.00,54,150,,8,,,,,,,,,,,,,,,,,,,,,,,,,,,,,,,,,,,,,MET09604/18/16 17:56:02 METAR KCHS 182256Z 15007KT 10SM CLR 22/02 A3022 RMK AO2 SLP232 T02170022 (BBE),,,,,,,,,,,,,,,,,,,,,,,,,,,,2009-06-10
72208013880,2016-04-20T15:56:00,FM-15,7,,SE,0.25,mi,"TEMP, PRECIP, SNOW",,,"MMTS, SRG, SNOWBOARD",,,WFO CHS,,,,,,,,,,,,,,,,,,,,,,,,,,,30.11,54,81,0.00,,+0.02,6,39,30.11,SCT:04 150 BKN:07 200,30.06,10.00,65,160,,8,,,,,,,,,,,,,,,,,,,,,,,,,,,,,,,,,,,,,MET11204/20/16 15:56:02 METAR KCHS 202056Z 16007KT 10SM SCT150 BKN200 27/12 A3011 RMK AO2 SLP195 T02720122 56007 (BBE),,,,,,,,,,,,,,,,,,,,,,,,,,,,2009-06-10
72208013880,2016-04-20T16:00:00,FM-12,4,,SE,0.25,mi,"TEMP, PRECIP, SNOW",,,"MMTS, SRG, SNOWBOARD",,,WFO CHS,,,,,,,,,,,,,,,,,,,,,,,,,,,,54,81,,,+0.02,6,39,30.11,,30.06,9.94,65,160,,8,,,,,,,,,,,,,,,,,,,,,,,,,,,,,,,,,,,,,SYN06472208 32966 61607 10272 20122 30180 40195 56007 92056 555 92021=,,,,,,,,,,,,,,,,,,,,,,,,,,,,2009-06-10
72208013880,2016-04-24T13:56:00,FM-15,7,,SE,0.25,mi,"TEMP, PRECIP, SNOW",,,"MMTS, SRG, SNOWBOARD",,,WFO CHS,,,,,,,,,,,,,,,,,,,,,,,,,,,30.06,55,77,0.00,,,,47,30.06,SCT:04 47,30.01,10.00,64,160,,7,,,,,,,,,,,,,,,,,,,,,,,,,,,,,,,,,,,,,MET10104/24/16 13:56:02 METAR KCHS 241856Z 16006KT 10SM SCT047 25/13 A3006 RMK AO2 SLP180 T02500128 $ (KLJ),,,,,,,,,,,,,,,,,,,,,,,,,,,,2009-06-10
72208013880,2016-04-24T15:56:00,FM-15,7,,SE,0.25,mi,"TEMP, PRECIP, SNOW",,,"MMTS, SRG, SNOWBOARD",,,WFO CHS,,,,,,,,,,,,,,,,,,,,,,,,,,,30.04,52,75,0.00,,+0.04,6,45,30.03,FEW:02 55,29.99,10.00,62,170,,10,,,,,,,,,,,,,,,,,,,,,,,,,,,,,,,,,,,,,MET10704/24/16 15:56:02 METAR KCHS 242056Z 17009KT 10SM FEW055 24/11 A3004 RMK AO2 SLP171 T02390111 56014 $ (JRS),,,,,,,,,,,,,,,,,,,,,,,,,,,,2009-06-10
72208013880,2016-04-24T16:00:00,FM-12,4,,SE,0.25,mi,"TEMP, PRECIP, SNOW",,,"MMTS, SRG, SNOWBOARD",,,WFO CHS,,,,,,,,,,,,,,,,,,,,,,,,,,,,52,75,,,+0.04,6,45,30.03,57,29.99,9.94,62,170,,10,,,,,,,,,,,,,,,,,,,,,,,,,,,,,,,,,,,,,SYN06472208 32766 21709 10239 20111 30157 40171 56014 92056 555 92421=,,,,,,,,,,,,,,,,,,,,,,,,,,,,2009-06-10
72208013880,2016-04-24T16:56:00,FM-15,7,,SE,0.25,mi,"TEMP, PRECIP, SNOW",,,"MMTS, SRG, SNOWBOARD",,,WFO CHS,,,,,,,,,,,,,,,,,,,,,,,,,,,30.05,49,73,0.00,,,,43,30.04,FEW:02 55,30.00,10.00,60,150,,13,,,,,,,,,,,,,,,,,,,,,,,,,,,,,,,,,,,,,MET10104/24/16 16:56:02 METAR KCHS 242156Z 15011KT 10SM FEW055 23/09 A3005 RMK AO2 SLP173 T02280094 $ (JRS),,,,,,,,,,,,,,,,,,,,,,,,,,,,2009-06-10
72208013880,2016-04-24T17:56:00,FM-15,7,,SE,0.25,mi,"TEMP, PRECIP, SNOW",,,"MMTS, SRG, SNOWBOARD",,,WFO CHS,,,,,,,,,,,,,,,,,,,,,,,,,,,30.05,52,70,0.00,,,,53,30.05,FEW:02 55,30.00,10.00,60,150,,10,,,,,,,,,,,,,,,,,,,,,,,,,,,,,,,,,,,,,MET10104/24/16 17:56:02 METAR KCHS 242256Z 15009KT 10SM FEW055 21/11 A3005 RMK AO2 SLP176 T02110111 $ (JRS),,,,,,,,,,,,,,,,,,,,,,,,,,,,2009-06-10
72208013880,2016-04-25T13:56:00,FM-15,7,,SE,0.25,mi,"TEMP, PRECIP, SNOW",,,"MMTS, SRG, SNOWBOARD",,,WFO CHS,,,,,,,,,,,,,,,,,,,,,,,,,,,30.06,54,79,0.00,,,,42,30.06,FEW:02 55 SCT:04 250,30.01,10.00,64,150,18,11,,,,,,,,,,,,,,,,,,,,,,,,,,,,,,,,,,,,,MET10904/25/16 13:56:02 METAR KCHS 251856Z 15010G16KT 10SM FEW055 SCT250 26/12 A3006 RMK AO2 SLP180 T02610122 (JMB),,,,,,,,,,,,,,,,,,,,,,,,,,,,2009-06-10
72208013880,2016-04-25T15:56:00,FM-15,7,,SE,0.25,mi,"TEMP, PRECIP, SNOW",,,"MMTS, SRG, SNOWBOARD",,,WFO CHS,,,,,,,,,,,,,,,,,,,,,,,,,,,30.04,50,77,0.00,,+0.04,7,39,30.03,FEW:02 50 BKN:07 250,29.99,10.00,62,160,,10,,,,,,,,,,,,,,,,,,,,,,,,,,,,,,,,,,,,,MET11204/25/16 15:56:02 METAR KCHS 252056Z 16009KT 10SM FEW050 BKN250 25/10 A3004 RMK AO2 SLP171 T02500100 57014 (BBE),,,,,,,,,,,,,,,,,,,,,,,,,,,,2009-06-10
72208013880,2016-04-25T16:00:00,FM-12,4,,SE,0.25,mi,"TEMP, PRECIP, SNOW",,,"MMTS, SRG, SNOWBOARD",,,WFO CHS,,,,,,,,,,,,,,,,,,,,,,,,,,,,50,77,,,+0.04,7,39,30.03,57,29.99,9.94,62,160,,10,,,,,,,,,,,,,,,,,,,,,,,,,,,,,,,,,,,,,SYN06472208 32766 61609 10250 20100 30157 40171 57014 92056 555 92521=,,,,,,,,,,,,,,,,,,,,,,,,,,,,2009-06-10
72208013880,2016-04-28T16:33:00,FM-16,7,,SE,0.25,mi,"TEMP, PRECIP, SNOW",,,"MMTS, SRG, SNOWBOARD",,,WFO CHS,,,,,,,,,,,,,,,,,,,,,,,,,,,29.92,59,72,0.62,TS:7 +RA:02 |RA TS TS |,,,64,,BKN:07 28 OVC:08 45,29.87,4.00,64,160,37,14,,,,,,,,,,,,,,,,,,,,,,,,,,,,,,,,,,,,,MET18204/28/16 16:33:02 SPECI KCHS 282133Z 16012G32KT 4SM R15/3000VP6000FT +TSRA BKN028CB OVC045 22/15 A2992 RMK AO2 PK WND 19032/2128 OCNL LTGIC ALQDS TS ALQDS MOV E P0062 T02220150 (BBE),,,,,,,,,,,,,,,,,,,,,,,,,,,,2009-06-10
72208013880,2016-04-30T11:56:00,FM-15,7,,SE,0.25,mi,"TEMP, PRECIP, SNOW",,,"MMTS, SRG, SNOWBOARD",,,WFO CHS,,,,,,,,,,,,,,,,,,,,,,,,,,,30.06,68,83,0.00,,,,61,30.05,SCT:04 23 BKN:07 250,30.01,10.00,73,170,,13,,,,,,,,,,,,,,,,,,,,,,,,,,,,,,,,,,,,,MET10604/30/16 11:56:02 METAR KCHS 301656Z 17011KT 10SM SCT023 BKN250 28/20 A3006 RMK AO2 SLP177 T02830200 (JRS),,,,,,,,,,,,,,,,,,,,,,,,,,,,2009-06-10
72208013880,2016-04-30T14:56:00,FM-15,7,,SE,0.25,mi,"TEMP, PRECIP, SNOW",,,"MMTS, SRG, SNOWBOARD",,,WFO CHS,,,,,,,,,,,,,,,,,,,,,,,,,,,30.02,68,81,0.00,,,,65,30.02,SCT:04 21 BKN:07 250,29.97,10.00,72,160,,14,,,,,,,,,,,,,,,,,,,,,,,,,,,,,,,,,,,,,MET10604/30/16 14:56:02 METAR KCHS 301956Z 16012KT 10SM SCT021 BKN250 27/20 A3002 RMK AO2 SLP166 T02720200 (JRS),,,,,,,,,,,,,,,,,,,,,,,,,,,,2009-06-10
72208013880,2016-04-30T15:56:00,FM-15,7,,SE,0.25,mi,"TEMP, PRECIP, SNOW",,,"MMTS, SRG, SNOWBOARD",,,WFO CHS,,,,,,,,,,,,,,,,,,,,,,,,,,,30.01,68,81,0.00,,+0.03,8,65,30.01,SCT:04 22 BKN:07 250,29.96,10.00,72,160,,14,,,,,,,,,,,,,,,,,,,,,,,,,,,,,,,,,,,,,MET11204/30/16 15:56:02 METAR KCHS 302056Z 16012KT 10SM SCT022 BKN250 27/20 A3001 RMK AO2 SLP162 T02720200 58011 (JRS),,,,,,,,,,,,,,,,,,,,,,,,,,,,2009-06-10
72208013880,2016-04-30T16:00:00,FM-12,4,,SE,0.25,mi,"TEMP, PRECIP, SNOW",,,"MMTS, SRG, SNOWBOARD",,,WFO CHS,,,,,,,,,,,,,,,,,,,,,,,,,,,,68,81,,,+0.03,8,65,30.01,26,29.96,9.94,72,160,,14,,,,,,,,,,,,,,,,,,,,,,,,,,,,,,,,,,,,,SYN06472208 32566 61612 10272 20200 30146 40162 58011 92056 555 93021=,,,,,,,,,,,,,,,,,,,,,,,,,,,,2009-06-10
72208013880,2016-04-30T16:56:00,FM-15,7,,SE,0.25,mi,"TEMP, PRECIP, SNOW",,,"MMTS, SRG, SNOWBOARD",,,WFO CHS,,,,,,,,,,,,,,,,,,,,,,,,,,,30.02,69,79,0.00,,,,72,30.01,SCT:04 21 BKN:07 250,29.97,10.00,72,170,,14,,,,,,,,,,,,,,,,,,,,,,,,,,,,,,,,,,,,,MET10604/30/16 16:56:02 METAR KCHS 302156Z 17012KT 10SM SCT021 BKN250 26/21 A3002 RMK AO2 SLP164 T02610206 (JRS),,,,,,,,,,,,,,,,,,,,,,,,,,,,2009-06-10
72208013880,2016-05-10T17:56:00,FM-15,7,,SE,0.25,mi,"TEMP, PRECIP, SNOW",,,"MMTS, SRG, SNOWBOARD",,,WFO CHS,,,,,,,,,,,,,,,,,,,,,,,,,,,30.13,64,75,0.00,,,,69,30.13,OVC:08 150,30.08,10.00,68,170,,7,,,,,,,,,,,,,,,,,,,,,,,,,,,,,,,,,,,,,MET09905/10/16 17:56:02 METAR KCHS 102256Z 17006KT 10SM OVC150 24/18 A3013 RMK AO2 SLP202 T02390178 (BBE),,,,,,,,,,,,,,,,,,,,,,,,,,,,2009-06-10
72208013880,2016-05-17T10:56:00,FM-15,7,,SE,0.25,mi,"TEMP, PRECIP, SNOW",,,"MMTS, SRG, SNOWBOARD",,,WFO CHS,,,,,,,,,,,,,,,,,,,,,,,,,,,30.13,67,80,0.00,,,,64,30.12,FEW:02 25 BKN:07 45 BKN:07 120,30.08,10.00,71,150,,14,,,,,,,,,,,,,,,,,,,,,,,,,,,,,,,,,,,,,MET10705/17/16 10:56:01 METAR KCHS 171556Z 15012KT 10SM FEW025 BKN045 BKN120 27/19 A3013 RMK AO2 SLP200 T02670194,,,,,,,,,,,,,,,,,,,,,,,,,,,,2009-06-10
72208013880,2016-05-24T16:56:00,FM-15,7,,SE,0.25,mi,"TEMP, PRECIP, SNOW",,,"MMTS, SRG, SNOWBOARD",,,WFO CHS,,,,,,,,,,,,,,,,,,,,,,,,,,,30.12,59,80,0.00,,,,49,30.11,FEW:02 65 FEW:02 250,30.07,10.00,67,170,,14,,,,,,,,,,,,,,,,,,,,,,,,,,,,,,,,,,,,,MET10605/24/16 16:56:02 METAR KCHS 242156Z 17012KT 10SM FEW065 FEW250 27/15 A3012 RMK AO2 SLP198 T02670150 (BBE),,,,,,,,,,,,,,,,,,,,,,,,,,,,2009-06-10
72208013880,2016-05-26T14:56:00,FM-15,7,,SE,0.25,mi,"TEMP, PRECIP, SNOW",,,"MMTS, SRG, SNOWBOARD",,,WFO CHS,,,,,,,,,,,,,,,,,,,,,,,,,,,30.15,58,86,0.00,,,,39,30.14,FEW:02 55,30.10,10.00,68,170,,13,,,,,,,,,,,,,,,,,,,,,,,,,,,,,,,,,,,,,MET09905/26/16 14:56:02 METAR KCHS 261956Z 17011KT 10SM FEW055 30/14 A3015 RMK AO2 SLP208 T03000144 (BBE),,,,,,,,,,,,,,,,,,,,,,,,,,,,2009-06-10
72208013880,2016-05-26T15:56:00,FM-15,7,,SE,0.25,mi,"TEMP, PRECIP, SNOW",,,"MMTS, SRG, SNOWBOARD",,,WFO CHS,,,,,,,,,,,,,,,,,,,,,,,,,,,30.13,57,86,0.00,,+0.04,8,37,30.13,FEW:02 60,30.08,10.00,68,160,,13,,,,,,,,,,,,,,,,,,,,,,,,,,,,,,,,,,,,,MET10505/26/16 15:56:02 METAR KCHS 262056Z 16011KT 10SM FEW060 30/14 A3013 RMK AO2 SLP202 T03000139 58012 (BBE),,,,,,,,,,,,,,,,,,,,,,,,,,,,2009-06-10
72208013880,2016-05-26T16:00:00,FM-12,4,,SE,0.25,mi,"TEMP, PRECIP, SNOW",,,"MMTS, SRG, SNOWBOARD",,,WFO CHS,,,,,,,,,,,,,,,,,,,,,,,,,,,30.13,57,86,,,+0.04,8,37,30.13,57,30.08,9.94,68,160,,13,,,,,,,,,,,,,,,,,,,,,,,,,,,,,,,,,,,,,SYN06472208 32766 21611 10300 20139 30187 40202 58012 92056 555 92621=,,,,,,,,,,,,,,,,,,,,,,,,,,,,2009-06-10
72208013880,2016-05-26T16:56:00,FM-15,7,,SE,0.25,mi,"TEMP, PRECIP, SNOW",,,"MMTS, SRG, SNOWBOARD",,,WFO CHS,,,,,,,,,,,,,,,,,,,,,,,,,,,30.12,52,84,0.00,,,,33,30.11,FEW:02 200,30.07,10.00,65,160,,13,,,,,,,,,,,,,,,,,,,,,,,,,,,,,,,,,,,,,MET09905/26/16 16:56:02 METAR KCHS 262156Z 16011KT 10SM FEW200 29/11 A3012 RMK AO2 SLP198 T02890111 (BBE),,,,,,,,,,,,,,,,,,,,,,,,,,,,2009-06-10
72208013880,2016-05-27T11:56:00,FM-15,7,,SE,0.25,mi,"TEMP, PRECIP, SNOW",,,"MMTS, SRG, SNOWBOARD",,,WFO CHS,,,,,,,,,,,,,,,,,,,,,,,,,,,30.13,57,83,0.00,,,,41,30.13,FEW:02 50 FEW:02 250,30.08,10.00,67,150,17,8,,,,,,,,,,,,,,,,,,,,,,,,,,,,,,,,,,,,,MET10905/27/16 11:56:02 METAR KCHS 271656Z 15007G15KT 10SM FEW050 FEW250 28/14 A3013 RMK AO2 SLP203 T02830139 (KLJ),,,,,,,,,,,,,,,,,,,,,,,,,,,,2009-06-10
72208013880,2016-05-29T10:56:00,FM-15,7,,SE,0.25,mi,"TEMP, PRECIP, SNOW",,,"MMTS, SRG, SNOWBOARD",,,WFO CHS,,,,,,,,,,,,,,,,,,,,,,,,,,,29.89,73,76,0.01,-RA:02 BR:1 |RA |,,,91,29.89,SCT:04 9 BKN:07 12 OVC:08 25,29.84,5.00,74,170,,13,,,,,,,,,,,,,,,,,,,,,,,,,,,,,,,,,,,,,MET13105/29/16 10:56:02 METAR KCHS 291556Z 17011KT 5SM -RA BR SCT009 BKN012 OVC025 24/23 A2989 RMK AO2 RAB08 SLP121 P0001 T02440228 (KLJ),,,,,,,,,,,,,,,,,,,,,,,,,,,,2009-06-10
72208013880,2016-05-29T15:28:00,FM-16,7,,SE,0.25,mi,"TEMP, PRECIP, SNOW",,,"MMTS, SRG, SNOWBOARD",,,WFO CHS,,,,,,,,,,,,,,,,,,,,,,,,,,,29.88,68,79,,,,,69,,BKN:07 22 OVC:08 60,29.83,10.00,72,150,,8,,,,,,,,,,,,,,,,,,,,,,,,,,,,,,,,,,,,,MET09905/29/16 15:28:02 SPECI KCHS 292028Z 15007KT 10SM BKN022 OVC060 26/20 A2988 RMK AO2 T02610200 (JRS),,,,,,,,,,,,,,,,,,,,,,,,,,,,2009-06-10
72208013880,2016-05-29T16:56:00,FM-15,7,,SE,0.25,mi,"TEMP, PRECIP, SNOW",,,"MMTS, SRG, SNOWBOARD",,,WFO CHS,,,,,,,,,,,,,,,,,,,,,,,,,,,29.88,67,77,0.00,,,,71,29.87,BKN:07 20 BKN:07 200,29.83,10.00,70,150,,9,,,,,,,,,,,,,,,,,,,,,,,,,,,,,,,,,,,,,MET10605/29/16 16:56:02 METAR KCHS 292156Z 15008KT 10SM BKN020 BKN200 25/19 A2988 RMK AO2 SLP116 T02500194 (JRS),,,,,,,,,,,,,,,,,,,,,,,,,,,,2009-06-10
72208013880,2016-05-29T17:56:00,FM-15,7,,SE,0.25,mi,"TEMP, PRECIP, SNOW",,,"MMTS, SRG, SNOWBOARD",,,WFO CHS,,,,,,,,,,,,,,,,,,,,,,,,,,,29.89,65,75,0.00,,,,71,29.88,BKN:07 20 BKN:07 200,29.84,10.00,69,150,,7,,,,,,,,,,,,,,,,,,,,,,,,,,,,,,,,,,,,,MET10605/29/16 17:56:02 METAR KCHS 292256Z 15006KT 10SM BKN020 BKN200 24/18 A2989 RMK AO2 SLP119 T02390183 (JRS),,,,,,,,,,,,,,,,,,,,,,,,,,,,2009-06-10
72208013880,2016-05-31T16:56:00,FM-15,7,,SE,0.25,mi,"TEMP, PRECIP, SNOW",,,"MMTS, SRG, SNOWBOARD",,,WFO CHS,,,,,,,,,,,,,,,,,,,,,,,,,,,29.87,71,85,0.00,,,,63,29.87,FEW:02 50 SCT:04 60 BKN:07 200,29.82,10.00,75,170,,8,,,,,,,,,,,,,,,,,,,,,,,,,,,,,,,,,,,,,MET11305/31/16 16:56:02 METAR KCHS 312156Z 17007KT 10SM FEW050 SCT060 BKN200 29/22 A2987 RMK AO2 SLP114 T02940217 (BBE),,,,,,,,,,,,,,,,,,,,,,,,,,,,2009-06-10
72208013880,2016-05-31T17:56:00,FM-15,7,,SE,0.25,mi,"TEMP, PRECIP, SNOW",,,"MMTS, SRG, SNOWBOARD",,,WFO CHS,,,,,,,,,,,,,,,,,,,,,,,,,,,29.88,71,83,0.00,,,,67,29.87,FEW:02 50 SCT:04 60 SCT:04 200,29.83,10.00,75,170,,7,,,,,,,,,,,,,,,,,,,,,,,,,,,,,,,,,,,,,MET11305/31/16 17:56:02 METAR KCHS 312256Z 17006KT 10SM FEW050 SCT060 SCT200 28/22 A2988 RMK AO2 SLP116 T02830217 (BBE),,,,,,,,,,,,,,,,,,,,,,,,,,,,2009-06-10
72208013880,2016-06-01T16:00:00,FM-12,4,,SE,0.25,mi,"TEMP, PRECIP, SNOW",,,"MMTS, SRG, SNOWBOARD",,,WFO CHS,,,,,,,,,,,,,,,,,,,,,,,,,,,29.95,72,87,,,+0.05,6,61,29.94,57,29.90,9.94,77,150,,7,,,,,,,,,,,,,,,,,,,,,,,,,,,,,,,,,,,,,SYN07472208 32766 41506 10306 20222 30126 40139 56018 92056 333 91018 555 90121=,,,,,,,,,,,,,,,,,,,,,,,,,,,,2009-06-10
72208013880,2016-06-03T16:56:00,FM-15,7,,SE,0.25,mi,"TEMP, PRECIP, SNOW",,,"MMTS, SRG, SNOWBOARD",,,WFO CHS,,,,,,,,,,,,,,,,,,,,,,,,,,,29.98,75,88,0.00,,,,66,29.98,FEW:02 40 SCT:04 250,29.93,10.00,79,160,,11,,,,,,,,,,,,,,,,,,,,,,,,,,,,,,,,,,,,,MET10606/03/16 16:56:02 METAR KCHS 032156Z 16010KT 10SM FEW040 SCT250 31/24 A2998 RMK AO2 SLP152 T03110239 (BBE),,,,,,,,,,,,,,,,,,,,,,,,,,,,2009-06-10
72208013880,2016-06-04T11:56:00,FM-15,7,,SE,0.25,mi,"TEMP, PRECIP, SNOW",,,"MMTS, SRG, SNOWBOARD",,,WFO CHS,,,,,,,,,,,,,,,,,,,,,,,,,,,29.99,75,90,0.00,,,,62,29.99,FEW:02 25 SCT:04 32,29.94,10.00,79,170,,7,,,,,,,,,,,,,,,,,,,,,,,,,,,,,,,,,,,,,MET10606/04/16 11:56:02 METAR KCHS 041656Z 17006KT 10SM FEW025 SCT032 32/24 A2999 RMK AO2 SLP155 T03220239 (KLJ),,,,,,,,,,,,,,,,,,,,,,,,,,,,2009-06-10
72208013880,2016-06-04T12:56:00,FM-15,7,,SE,0.25,mi,"TEMP, PRECIP, SNOW",,,"MMTS, SRG, SNOWBOARD",,,WFO CHS,,,,,,,,,,,,,,,,,,,,,,,,,,,29.97,73,91,0.00,,+0.05,8,56,29.96,FEW:02 28 SCT:04 35,29.92,10.00,78,170,,7,,,,,,,,,,,,,,,,,,,,,,,,,,,,,,,,,,,,,MET12406/04/16 12:56:02 METAR KCHS 041756Z 17006KT 10SM FEW028 SCT035 33/23 A2997 RMK AO2 SLP147 T03280228 10333 20267 58018 (KLJ),,,,,,,,,,,,,,,,,,,,,,,,,,,,2009-06-10
72208013880,2016-06-04T13:00:00,FM-12,4,,SE,0.25,mi,"TEMP, PRECIP, SNOW",,,"MMTS, SRG, SNOWBOARD",,,WFO CHS,,,,,,,,,,,,,,,,,,,,,,,,,,,29.97,73,91,,,+0.05,8,56,29.96,26,29.92,9.94,78,170,,7,,,,,,,,,,,,,,,,,,,,,,,,,,,,,,,,,,,,,SYN08072208 32566 41706 10328 20228 30133 40147 58018 91756 333 10333 20267 555 90418=,,,,,,,,,,,,,,,,,,,,,,,,,,,,2009-06-10
72208013880,2016-06-04T14:56:00,FM-15,7,,SE,0.25,mi,"TEMP, PRECIP, SNOW",,,"MMTS, SRG, SNOWBOARD",,,WFO CHS,,,,,,,,,,,,,,,,,,,,,,,,,,,29.93,77,91,0.00,,,,64,29.93,FEW:02 30 FEW:02 250,29.88,10.00,81,170,,14,,,,,,,,,,,,,,,,,,,,,,,,,,,,,,,,,,,,,MET10606/04/16 14:56:02 METAR KCHS 041956Z 17012KT 10SM FEW030 FEW250 33/25 A2993 RMK AO2 SLP134 T03280250 (JRS),,,,,,,,,,,,,,,,,,,,,,,,,,,,2009-06-10
72208013880,2016-06-05T12:16:00,FM-16,7,,SE,0.25,mi,"TEMP, PRECIP, SNOW",,,"MMTS, SRG, SNOWBOARD",,,WFO CHS,,,,,,,,,,,,,,,,,,,,,,,,,,,29.91,76,90,,,,,63,,FEW:02 25 BKN:07 35 BKN:07 45,29.86,10.00,80,170,,13,,,,,,,,,,,,,,,,,,,,,,,,,,,,,,,,,,,,,MET10606/05/16 12:16:02 SPECI KCHS 051716Z 17011KT 10SM FEW025 BKN035 BKN045 32/24 A2991 RMK AO2 T03220244 (KLJ),,,,,,,,,,,,,,,,,,,,,,,,,,,,2009-06-10
72208013880,2016-06-09T13:56:00,FM-15,7,,SE,0.25,mi,"TEMP, PRECIP, SNOW",,,"MMTS, SRG, SNOWBOARD",,,WFO CHS,,,,,,,,,,,,,,,,,,,,,,,,,,,30.00,65,87,0.00,,,,48,30.00,SCT:04 45 SCT:04 250,29.95,10.00,72,170,,11,,,,,,,,,,,,,,,,,,,,,,,,,,,,,,,,,,,,,MET10606/09/16 13:56:02 METAR KCHS 091856Z 17010KT 10SM SCT045 SCT250 31/18 A3000 RMK AO2 SLP160 T03060183 (JMB),,,,,,,,,,,,,,,,,,,,,,,,,,,,2009-06-10
72208013880,2016-06-09T15:56:00,FM-15,7,,SE,0.25,mi,"TEMP, PRECIP, SNOW",,,"MMTS, SRG, SNOWBOARD",,,WFO CHS,,,,,,,,,,,,,,,,,,,,,,,,,,,29.98,67,86,0.00,,+0.05,6,53,29.97,FEW:02 40 FEW:02 250,29.93,10.00,73,160,17,10,,,,,,,,,,,,,,,,,,,,,,,,,,,,,,,,,,,,,MET11506/09/16 15:56:02 METAR KCHS 092056Z 16009G15KT 10SM FEW040 FEW250 30/19 A2998 RMK AO2 SLP150 T03000194 56017 (BBE),,,,,,,,,,,,,,,,,,,,,,,,,,,,2009-06-10
72208013880,2016-06-09T16:00:00,FM-12,4,,SE,0.25,mi,"TEMP, PRECIP, SNOW",,,"MMTS, SRG, SNOWBOARD",,,WFO CHS,,,,,,,,,,,,,,,,,,,,,,,,,,,29.98,67,86,,,+0.05,6,53,29.97,41,29.93,9.94,73,160,,10,,,,,,,,,,,,,,,,,,,,,,,,,,,,,,,,,,,,,SYN07472208 32666 21609 10300 20194 30136 40150 56017 92056 333 91015 555 90921=,,,,,,,,,,,,,,,,,,,,,,,,,,,,2009-06-10
72208013880,2016-06-09T17:56:00,FM-15,7,,SE,0.25,mi,"TEMP, PRECIP, SNOW",,,"MMTS, SRG, SNOWBOARD",,,WFO CHS,,,,,,,,,,,,,,,,,,,,,,,,,,,29.98,67,84,0.00,,,,57,29.97,FEW:02 45 FEW:02 80,29.93,10.00,73,170,,13,,,,,,,,,,,,,,,,,,,,,,,,,,,,,,,,,,,,,MET10606/09/16 17:56:02 METAR KCHS 092256Z 17011KT 10SM FEW045 FEW080 29/19 A2998 RMK AO2 SLP150 T02890194 (BBE),,,,,,,,,,,,,,,,,,,,,,,,,,,,2009-06-10
72208013880,2016-06-10T13:56:00,FM-15,7,,SE,0.25,mi,"TEMP, PRECIP, SNOW",,,"MMTS, SRG, SNOWBOARD",,,WFO CHS,,,,,,,,,,,,,,,,,,,,,,,,,,,30.07,68,87,0.00,,,,53,30.07,BKN:07 55 BKN:07 250,30.02,10.00,74,160,,10,,,,,,,,,,,,,,,,,,,,,,,,,,,,,,,,,,,,,MET10606/10/16 13:56:02 METAR KCHS 101856Z 16009KT 10SM BKN055 BKN250 31/20 A3007 RMK AO2 SLP183 T03060200 (JMB),,,,,,,,,,,,,,,,,,,,,,,,,,,,2009-06-10
72208013880,2016-06-10T14:56:00,FM-15,7,,SE,0.25,mi,"TEMP, PRECIP, SNOW",,,"MMTS, SRG, SNOWBOARD",,,WFO CHS,,,,,,,,,,,,,,,,,,,,,,,,,,,30.06,69,89,0.00,,,,52,30.06,FEW:02 45 SCT:04 55,30.01,10.00,75,150,,11,,,,,,,,,,,,,,,,,,,,,,,,,,,,,,,,,,,,,MET10606/10/16 14:56:02 METAR KCHS 101956Z 15010KT 10SM FEW045 SCT055 32/21 A3006 RMK AO2 SLP179 T03170206 (BBE),,,,,,,,,,,,,,,,,,,,,,,,,,,,2009-06-10
72208013880,2016-06-10T17:56:00,FM-15,7,,SE,0.25,mi,"TEMP, PRECIP, SNOW",,,"MMTS, SRG, SNOWBOARD",,,WFO CHS,,,,,,,,,,,,,,,,,,,,,,,,,,,30.06,68,85,0.00,,,,57,30.06,FEW:02 45,30.01,10.00,74,170,,10,,,,,,,,,,,,,,,,,,,,,,,,,,,,,,,,,,,,,MET09906/10/16 17:56:02 METAR KCHS 102256Z 17009KT 10SM FEW045 29/20 A3006 RMK AO2 SLP179 T02940200 (BBE),,,,,,,,,,,,,,,,,,,,,,,,,,,,2009-06-10
72208013880,2016-06-13T16:56:00,FM-15,7,,SE,0.25,mi,"TEMP, PRECIP, SNOW",,,"MMTS, SRG, SNOWBOARD",,,WFO CHS,,,,,,,,,,,,,,,,,,,,,,,,,,,29.91,65,85,0.00,,,,51,29.90,FEW:02 250,29.86,10.00,72,150,,13,,,,,,,,,,,,,,,,,,,,,,,,,,,,,,,,,,,,,MET09906/13/16 16:56:02 METAR KCHS 132156Z 15011KT 10SM FEW250 29/18 A2991 RMK AO2 SLP126 T02940183 (BBE),,,,,,,,,,,,,,,,,,,,,,,,,,,,2009-06-10
72208013880,2016-06-13T17:56:00,FM-15,7,,SE,0.25,mi,"TEMP, PRECIP, SNOW",,,"MMTS, SRG, SNOWBOARD",,,WFO CHS,,,,,,,,,,,,,,,,,,,,,,,,,,,29.90,64,84,0.00,,,,51,29.90,FEW:02 250,29.85,10.00,71,160,,10,,,,,,,,,,,,,,,,,,,,,,,,,,,,,,,,,,,,,MET09906/13/16 17:56:02 METAR KCHS 132256Z 16009KT 10SM FEW250 29/18 A2990 RMK AO2 SLP124 T02890178 (BBE),,,,,,,,,,,,,,,,,,,,,,,,,,,,2009-06-10
72208013880,2016-06-14T14:56:00,FM-15,7,,SE,0.25,mi,"TEMP, PRECIP, SNOW",,,"MMTS, SRG, SNOWBOARD",,,WFO CHS,,,,,,,,,,,,,,,,,,,,,,,,,,,29.89,78,92,0.00,,,,64,29.88,FEW:02 35,29.84,10.00,82,170,,15,,,,,,,,,,,,,,,,,,,,,,,,,,,,,,,,,,,,,MET11006/14/16 14:56:02 METAR KCHS 141956Z 17013KT 10SM FEW035 33/26 A2989 RMK AO2 SLP119 TCU DSNT N T03330256 (BBE),,,,,,,,,,,,,,,,,,,,,,,,,,,,2009-06-10
72208013880,2016-06-20T15:56:00,FM-15,7,,SE,0.25,mi,"TEMP, PRECIP, SNOW",,,"MMTS, SRG, SNOWBOARD",,,WFO CHS,,,,,,,,,,,,,,,,,,,,,,,,,,,30.19,57,83,0.00,,+0.06,8,41,30.19,SCT:04 65,30.14,10.00,67,170,,9,,,,,,,,,,,,,,,,,,,,,,,,,,,,,,,,,,,,,MET10506/20/16 15:56:02 METAR KCHS 202056Z 17008KT 10SM SCT065 28/14 A3019 RMK AO2 SLP222 T02830139 58019 (BBE),,,,,,,,,,,,,,,,,,,,,,,,,,,,2009-06-10
72208013880,2016-06-20T16:00:00,FM-12,4,,SE,0.25,mi,"TEMP, PRECIP, SNOW",,,"MMTS, SRG, SNOWBOARD",,,WFO CHS,,,,,,,,,,,,,,,,,,,,,,,,,,,30.19,57,83,,,+0.06,8,41,30.19,57,30.14,9.94,67,170,,9,,,,,,,,,,,,,,,,,,,,,,,,,,,,,,,,,,,,,SYN06472208 32766 41708 10283 20139 30207 40222 58019 92056 555 92021=,,,,,,,,,,,,,,,,,,,,,,,,,,,,2009-06-10
72208013880,2016-06-27T13:56:00,FM-15,7,,SE,0.25,mi,"TEMP, PRECIP, SNOW",,,"MMTS, SRG, SNOWBOARD",,,WFO CHS,,,,,,,,,,,,,,,,,,,,,,,,,,,30.05,72,83,0.00,,,,70,30.05,SCT:04 45 BKN:07 60,30.00,10.00,75,150,,13,,,,,,,,,,,,,,,,,,,,,,,,,,,,,,,,,,,,,MET11606/27/16 13:56:02 METAR KCHS 271856Z 15011KT 10SM SCT045 BKN060 28/22 A3005 RMK AO2 SLP176 MDT CU SW T02830222 (JMB),,,,,,,,,,,,,,,,,,,,,,,,,,,,2009-06-10
72208013880,2016-06-27T15:56:00,FM-15,7,,SE,0.25,mi,"TEMP, PRECIP, SNOW",,,"MMTS, SRG, SNOWBOARD",,,WFO CHS,,,,,,,,,,,,,,,,,,,,,,,,,,,30.00,73,87,0.00,,+0.06,8,63,30.00,FEW:02 45 SCT:04 110 BKN:07 250,29.95,10.00,77,160,,9,,,,,,,,,,,,,,,,,,,,,,,,,,,,,,,,,,,,,MET11906/27/16 15:56:02 METAR KCHS 272056Z 16008KT 10SM FEW045 SCT110 BKN250 31/23 A3000 RMK AO2 SLP158 T03060228 58021 (BBE),,,,,,,,,,,,,,,,,,,,,,,,,,,,2009-06-10
72208013880,2016-06-27T16:00:00,FM-12,4,,SE,0.25,mi,"TEMP, PRECIP, SNOW",,,"MMTS, SRG, SNOWBOARD",,,WFO CHS,,,,,,,,,,,,,,,,,,,,,,,,,,,30.00,73,87,,,+0.06,8,63,30.00,41,29.95,9.94,77,160,,9,,,,,,,,,,,,,,,,,,,,,,,,,,,,,,,,,,,,,SYN06472208 32666 61608 10306 20228 30143 40158 58021 92056 555 92721=,,,,,,,,,,,,,,,,,,,,,,,,,,,,2009-06-10
72208013880,2016-06-28T14:56:00,FM-15,7,,SE,0.25,mi,"TEMP, PRECIP, SNOW",,,"MMTS, SRG, SNOWBOARD",,,WFO CHS,,,,,,,,,,,,,,,,,,,,,,,,,,,29.92,75,80,T,TS:7 |TS TS |,,,85,29.92,SCT:04 25 BKN:07 35,29.87,10.00,77,160,,7,,,,,,,,,,,,,,,,,,,,,,,,,,,,,,,,,,,,,MET16206/28/16 14:56:02 METAR KCHS 281956Z 16006KT 10SM TS SCT025CB BKN035 27/24 A2992 RMK AO2 RAB03E36 TSB17 SLP132 OCNL LTGIC E-SE TS E-SE MOV E P0000 T02670239 (BBE),,,,,,,,,,,,,,,,,,,,,,,,,,,,2009-06-10
72208013880,2016-06-28T15:09:00,FM-16,7,,SE,0.25,mi,"TEMP, PRECIP, SNOW",,,"MMTS, SRG, SNOWBOARD",,,WFO CHS,,,,,,,,,,,,,,,,,,,,,,,,,,,29.93,74,80,,,,,82,,SCT:04 30 BKN:07 60 BKN:07 200,29.88,10.00,76,170,,8,,,,,,,,,,,,,,,,,,,,,,,,,,,,,,,,,,,,,MET14106/28/16 15:09:02 SPECI KCHS 282009Z 17007KT 10SM SCT030 BKN060 BKN200 27/23 A2993 RMK AO2 TSE09 TS MOV E CB DSNT SE AND W-NW T02670233 (BBE),,,,,,,,,,,,,,,,,,,,,,,,,,,,2009-06-10
72208013880,2016-06-29T14:56:00,FM-15,7,,SE,0.25,mi,"TEMP, PRECIP, SNOW",,,"MMTS, SRG, SNOWBOARD",,,WFO CHS,,,,,,,,,,,,,,,,,,,,,,,,,,,29.97,71,76,T,TS:7 -RA:02 |RA TS TS |,,,85,29.96,SCT:04 25 BKN:07 35 BKN:07 45,29.92,7.00,73,150,,8,,,,,,,,,,,,,,,,,,,,,,,,,,,,,,,,,,,,,MET16206/29/16 14:56:02 METAR KCHS 291956Z 15007KT 7SM -TSRA SCT025CB BKN035 BKN045 24/22 A2997 RMK AO2 RAB28 SLP147 OCNL LTGIC E-SE TS E-SE MOV E P0000 T02440217 (BBE),,,,,,,,,,,,,,,,,,,,,,,,,,,,2009-06-10
72208013880,2016-06-30T14:56:00,FM-15,7,,SE,0.25,mi,"TEMP, PRECIP, SNOW",,,"MMTS, SRG, SNOWBOARD",,,WFO CHS,,,,,,,,,,,,,,,,,,,,,,,,,,,29.98,73,86,0.00,,,,65,29.98,SCT:04 30 SCT:04 40 BKN:07 120,29.93,10.00,77,170,,11,,,,,,,,,,,,,,,,,,,,,,,,,,,,,,,,,,,,,MET11306/30/16 14:56:02 METAR KCHS 301956Z 17010KT 10SM SCT030 SCT040 BKN120 30/23 A2998 RMK AO2 SLP151 T03000228 (BBE),,,,,,,,,,,,,,,,,,,,,,,,,,,,2009-06-10
72208013880,2016-06-30T15:56:00,FM-15,7,,SE,0.25,mi,"TEMP, PRECIP, SNOW",,,"MMTS, SRG, SNOWBOARD",,,WFO CHS,,,,,,,,,,,,,,,,,,,,,,,,,,,29.98,73,85,0.00,,+0.01,5,68,29.98,FEW:02 30 SCT:04 40 BKN:07 120,29.93,10.00,77,150,,9,,,,,,,,,,,,,,,,,,,,,,,,,,,,,,,,,,,,,MET13206/30/16 15:56:02 METAR KCHS 302056Z 15008KT 10SM FEW030 SCT040 BKN120 29/23 A2998 RMK AO2 SLP152 CB DSNT NW-N T02940228 55005 (BBE),,,,,,,,,,,,,,,,,,,,,,,,,,,,2009-06-10
72208013880,2016-06-30T16:00:00,FM-12,4,,SE,0.25,mi,"TEMP, PRECIP, SNOW",,,"MMTS, SRG, SNOWBOARD",,,WFO CHS,,,,,,,,,,,,,,,,,,,,,,,,,,,29.98,73,85,,,+0.01,5,68,29.98,26,29.93,9.94,77,150,,9,,,,,,,,,,,,,,,,,,,,,,,,,,,,,,,,,,,,,SYN06472208 32566 61508 10294 20228 30136 40152 55005 92056 555 93021=,,,,,,,,,,,,,,,,,,,,,,,,,,,,2009-06-10
72208013880,2016-07-01T14:31:00,FM-16,7,,SE,0.25,mi,"TEMP, PRECIP, SNOW",,,"MMTS, SRG, SNOWBOARD",,,WFO CHS,,,,,,,,,,,,,,,,,,,,,,,,,,,29.97,75,88,,,,,66,,BKN:07 35 BKN:07 45,29.92,10.00,79,160,,14,,,,,,,,,,,,,,,,,,,,,,,,,,,,,,,,,,,,,MET12307/01/16 14:31:02 SPECI KCHS 011931Z 16012KT 10SM BKN035 BKN045 31/24 A2997 RMK AO2 WSHFT 1912 MDT CU ALQDS T03110239 (BBE),,,,,,,,,,,,,,,,,,,,,,,,,,,,2009-06-10
72208013880,2016-07-01T17:40:00,FM-16,7,,SE,0.25,mi,"TEMP, PRECIP, SNOW",,,"MMTS, SRG, SNOWBOARD",,,WFO CHS,,,,,,,,,,,,,,,,,,,,,,,,,,,30.00,71,82,,,,,69,,FEW:02 20 BKN:07 25 OVC:08 30,29.95,10.00,74,150,,11,,,,,,,,,,,,,,,,,,,,,,,,,,,,,,,,,,,,,MET14007/01/16 17:40:02 SPECI KCHS 012240Z 15010KT 10SM FEW020 BKN025 OVC030 28/22 A3000 RMK AO2 PK WND 06026/2211 TSE40 TS DSIPTD T02780217 (BBE),,,,,,,,,,,,,,,,,,,,,,,,,,,,2009-06-10
72208013880,2016-07-14T14:29:00,FM-16,7,,SE,0.25,mi,"TEMP, PRECIP, SNOW",,,"MMTS, SRG, SNOWBOARD",,,WFO CHS,,,,,,,,,,,,,,,,,,,,,,,,,,,30.04,72,88,T,TS:7 |TS TS |,,,59,,FEW:02 40 SCT:04 50 BKN:07 200,29.99,10.00,77,170,,7,,,,,,,,,,,,,,,,,,,,,,,,,,,,,,,,,,,,,MET15907/14/16 14:29:02 SPECI KCHS 141929Z 17006KT 10SM TS FEW040CB SCT050 BKN200 31/22 A3004 RMK AO2 RAE03 TSE16B29 OCNL LTGIC SW TS SW MOV NE P0000 T03110222 (BBE),,,,,,,,,,,,,,,,,,,,,,,,,,,,2009-06-10
72208013880,2016-07-19T13:56:00,FM-15,7,,SE,0.25,mi,"TEMP, PRECIP, SNOW",,,"MMTS, SRG, SNOWBOARD",,,WFO CHS,,,,,,,,,,,,,,,,,,,,,,,,,,,30.14,73,93,0.00,,,,52,30.14,SCT:04 45,30.09,10.00,79,160,,7,,,,,,,,,,,,,,,,,,,,,,,,,,,,,,,,,,,,,MET09907/19/16 13:56:02 METAR KCHS 191856Z 16006KT 10SM SCT045 34/23 A3014 RMK AO2 SLP205 T03390228 (JMB),,,,,,,,,,,,,,,,,,,,,,,,,,,,2009-06-10
72208013880,2016-07-20T15:54:00,FM-16,6,,SE,0.25,mi,"TEMP, PRECIP, SNOW",,,"MMTS, SRG, SNOWBOARD",,,WFO CHS,,,,,,,,,,,,,,,,,,,,,,,,,,,30.11,75,90,,,,,63,,SCT:04 30 BKN:07 40 BKN:07 250,30.06,10.00,79,170,18,14,,,,,,,,,,,,,,,,,,,,,,,,,,,,,,,,,,,,,MET12607/20/16 15:54:02 SPECI KCHS 202054Z 17012G16KT 10SM SCT030 BKN040 BKN250 32/24 A3011 RMK AO2 WSHFT 2037 CB DSNT SW FIBI (BBE),,,,,,,,,,,,,,,,,,,,,,,,,,,,2009-06-10
72208013880,2016-07-20T15:56:00,FM-15,7,,SE,0.25,mi,"TEMP, PRECIP, SNOW",,,"MMTS, SRG, SNOWBOARD",,,WFO CHS,,,,,,,,,,,,,,,,,,,,,,,,,,,30.11,75,89,0.00,,+0.03,6,63,30.11,SCT:04 30 BKN:07 40 BKN:07 250,30.06,10.00,79,170,18,13,,,,,,,,,,,,,,,,,,,,,,,,,,,,,,,,,,,,,MET14407/20/16 15:56:02 METAR KCHS 202056Z 17011G16KT 10SM SCT030 BKN040 BKN250 32/24 A3011 RMK AO2 WSHFT 2037 SLP195 CB DSNT SW T03170239 56011 (BBE),,,,,,,,,,,,,,,,,,,,,,,,,,,,2009-06-10
72208013880,2016-07-20T16:00:00,FM-12,4,,SE,0.25,mi,"TEMP, PRECIP, SNOW",,,"MMTS, SRG, SNOWBOARD",,,WFO CHS,,,,,,,,,,,,,,,,,,,,,,,,,,,30.11,75,89,,,+0.03,6,63,30.11,26,30.06,9.94,79,170,,13,,,,,,,,,,,,,,,,,,,,,,,,,,,,,,,,,,,,,SYN07472208 32566 61711 10317 20239 30180 40195 56011 92056 333 91016 555 92021=,,,,,,,,,,,,,,,,,,,,,,,,,,,,2009-06-10
72208013880,2016-07-20T17:56:00,FM-15,7,,SE,0.25,mi,"TEMP, PRECIP, SNOW",,,"MMTS, SRG, SNOWBOARD",,,WFO CHS,,,,,,,,,,,,,,,,,,,,,,,,,,,30.10,73,86,0.00,,,,65,30.09,FEW:02 25 SCT:04 35 BKN:07 250,30.05,10.00,77,150,,8,,,,,,,,,,,,,,,,,,,,,,,,,,,,,,,,,,,,,MET11307/20/16 17:56:02 METAR KCHS 202256Z 15007KT 10SM FEW025 SCT035 BKN250 30/23 A3010 RMK AO2 SLP191 T03000228 (BBE),,,,,,,,,,,,,,,,,,,,,,,,,,,,2009-06-10
72208013880,2016-07-22T16:56:00,FM-15,7,,SE,0.25,mi,"TEMP, PRECIP, SNOW",,,"MMTS, SRG, SNOWBOARD",,,WFO CHS,,,,,,,,,,,,,,,,,,,,,,,,,,,30.01,76,88,0.00,,,,68,30.01,FEW:02 65,29.96,10.00,79,150,,9,,,,,,,,,,,,,,,,,,,,,,,,,,,,,,,,,,,,,MET10107/22/16 16:56:02 METAR KCHS 222156Z 15008KT 10SM FEW065 31/24 A3001 RMK AO2 SLP161 T03110244 $ (MBT),,,,,,,,,,,,,,,,,,,,,,,,,,,,2009-06-10
72208013880,2016-07-23T14:56:00,FM-15,7,,SE,0.25,mi,"TEMP, PRECIP, SNOW",,,"MMTS, SRG, SNOWBOARD",,,WFO CHS,,,,,,,,,,,,,,,,,,,,,,,,,,,29.98,74,94,0.00,,,,52,29.97,SCT:04 47 SCT:04 80 BKN:07 250,29.93,10.00,80,170,,13,,,,,,,,,,,,,,,,,,,,,,,,,,,,,,,,,,,,,MET12507/23/16 14:56:02 METAR KCHS 231956Z 17011KT 10SM SCT047 SCT080 BKN250 34/23 A2998 RMK AO2 SLP150 CB DSNT E T03440233 $ (JRS),,,,,,,,,,,,,,,,,,,,,,,,,,,,2009-06-10
72208013880,2016-07-31T12:56:00,FM-15,7,,SE,0.25,mi,"TEMP, PRECIP, SNOW",,,"MMTS, SRG, SNOWBOARD",,,WFO CHS,,,,,,,,,,,,,,,,,,,,,,,,,,,30.04,74,93,0.00,,+0.03,8,54,30.03,SCT:04 45 BKN:07 55,29.99,10.00,79,170,,11,,,,,,,,,,,,,,,,,,,,,,,,,,,,,,,,,,,,,MET14907/31/16 12:56:02 METAR KCHS 311756Z 17010KT 10SM SCT045TCU BKN055 34/23 A3004 RMK AO2 SLP171 TCU OHD CB DSNT ALQDS T03390233 10356 20294 58010 (KLJ),,,,,,,,,,,,,,,,,,,,,,,,,,,,2009-06-10
72208013880,2016-07-31T13:00:00,FM-12,4,,SE,0.25,mi,"TEMP, PRECIP, SNOW",,,"MMTS, SRG, SNOWBOARD",,,WFO CHS,,,,,,,,,,,,,,,,,,,,,,,,,,,30.04,74,93,,,+0.03,8,54,30.03,41,29.99,9.94,79,170,,11,,,,,,,,,,,,,,,,,,,,,,,,,,,,,,,,,,,,,SYN08072208 32666 61710 10339 20233 30157 40171 58010 91756 333 10356 20294 555 93118=,,,,,,,,,,,,,,,,,,,,,,,,,,,,2009-06-10
72208013880,2016-08-03T16:56:00,FM-15,7,,SE,0.25,mi,"TEMP, PRECIP, SNOW",,,"MMTS, SRG, SNOWBOARD",,,WFO CHS,,,,,,,,,,,,,,,,,,,,,,,,,,,29.94,74,84,0.00,,,,72,29.94,FEW:02 30 SCT:04 55 BKN:07 250,29.89,10.00,77,150,,15,,,,,,,,,,,,,,,,,,,,,,,,,,,,,,,,,,,,,MET12608/03/16 16:56:02 METAR KCHS 032156Z 15013KT 10SM FEW030 SCT055 BKN250 29/23 A2994 RMK AO2 SLP139 CB DSNT SW-W T02890233 (BBE),,,,,,,,,,,,,,,,,,,,,,,,,,,,2009-06-10
72208013880,2016-08-08T14:56:00,FM-15,7,,SE,0.25,mi,"TEMP, PRECIP, SNOW",,,"MMTS, SRG, SNOWBOARD",,,WFO CHS,,,,,,,,,,,,,,,,,,,,,,,,,,,29.95,73,89,0.00,,,,59,29.94,SCT:04 35 BKN:07 50,29.90,10.00,78,160,22,15,,,,,,,,,,,,,,,,,,,,,,,,,,,,,,,,,,,,,MET10908/08/16 14:56:02 METAR KCHS 081956Z 16013G19KT 10SM SCT035 BKN050 32/23 A2995 RMK AO2 SLP140 T03170228 (BBE),,,,,,,,,,,,,,,,,,,,,,,,,,,,2009-06-10
72208013880,2016-08-08T16:56:00,FM-15,7,,SE,0.25,mi,"TEMP, PRECIP, SNOW",,,"MMTS, SRG, SNOWBOARD",,,WFO CHS,,,,,,,,,,,,,,,,,,,,,,,,,,,29.94,73,87,0.00,,,,63,29.94,FEW:02 35 SCT:04 45 BKN:07 60,29.89,10.00,77,160,23,14,,,,,,,,,,,,,,,,,,,,,,,,,,,,,,,,,,,,,MET11608/08/16 16:56:02 METAR KCHS 082156Z 16012G20KT 10SM FEW035 SCT045 BKN060 31/23 A2994 RMK AO2 SLP139 T03060228 (BBE),,,,,,,,,,,,,,,,,,,,,,,,,,,,2009-06-10
72208013880,2016-08-08T17:56:00,FM-15,7,,SE,0.25,mi,"TEMP, PRECIP, SNOW",,,"MMTS, SRG, SNOWBOARD",,,WFO CHS,,,,,,,,,,,,,,,,,,,,,,,,,,,29.94,73,86,0.00,,,,65,29.94,FEW:02 30 SCT:04 120 SCT:04 250,29.89,10.00,77,150,,11,,,,,,,,,,,,,,,,,,,,,,,,,,,,,,,,,,,,,MET11308/08/16 17:56:02 METAR KCHS 082256Z 15010KT 10SM FEW030 SCT120 SCT250 30/23 A2994 RMK AO2 SLP139 T03000228 (BBE),,,,,,,,,,,,,,,,,,,,,,,,,,,,2009-06-10
72208013880,2016-08-09T11:30:00,FM-16,7,,SE,0.25,mi,"TEMP, PRECIP, SNOW",,,"MMTS, SRG, SNOWBOARD",,,WFO CHS,,,,,,,,,,,,,,,,,,,,,,,,,,,30.11,73,88,,,,,61,,BKN:07 35 BKN:07 250,30.06,10.00,77,160,,14,,,,,,,,,,,,,,,,,,,,,,,,,,,,,,,,,,,,,MET11008/09/16 11:30:02 SPECI KCHS 091630Z 16012KT 10SM BKN035 BKN250 31/23 A3011 RMK AO2 WSHFT 1611 T03110228 (JMB),,,,,,,,,,,,,,,,,,,,,,,,,,,,2009-06-10
72208013880,2016-08-09T11:56:00,FM-15,7,,SE,0.25,mi,"TEMP, PRECIP, SNOW",,,"MMTS, SRG, SNOWBOARD",,,WFO CHS,,,,,,,,,,,,,,,,,,,,,,,,,,,30.10,74,89,0.00,,,,61,30.09,SCT:04 30 BKN:07 60 BKN:07 250,30.05,10.00,78,150,24,17,,,,,,,,,,,,,,,,,,,,,,,,,,,,,,,,,,,,,MET13608/09/16 11:56:02 METAR KCHS 091656Z 15015G21KT 10SM SCT030 BKN060 BKN250 32/23 A3010 RMK AO2 WSHFT 1611 SLP190 MDT CU W T03170233 (JMB),,,,,,,,,,,,,,,,,,,,,,,,,,,,2009-06-10
72208013880,2016-08-09T14:56:00,FM-15,7,,SE,0.25,mi,"TEMP, PRECIP, SNOW",,,"MMTS, SRG, SNOWBOARD",,,WFO CHS,,,,,,,,,,,,,,,,,,,,,,,,,,,30.08,74,85,T,,,,70,30.07,SCT:04 30 BKN:07 35 BKN:07 90,30.03,10.00,77,160,21,10,,,,,,,,,,,,,,,,,,,,,,,,,,,,,,,,,,,,,MET13108/09/16 14:56:02 METAR KCHS 091956Z 16009G18KT 10SM SCT030 BKN035 BKN090 29/23 A3008 RMK AO2 RAB18E31 SLP184 P0000 T02940233 (BBE),,,,,,,,,,,,,,,,,,,,,,,,,,,,2009-06-10
72208013880,2016-08-09T15:56:00,FM-15,7,,SE,0.25,mi,"TEMP, PRECIP, SNOW",,,"MMTS, SRG, SNOWBOARD",,,WFO CHS,,,,,,,,,,,,,,,,,,,,,,,,,,,30.08,73,88,0.00,,+0.01,5,61,30.08,SCT:04 35 SCT:04 40 BKN:07 90,30.03,10.00,77,170,,17,,,,,,,,,,,,,,,,,,,,,,,,,,,,,,,,,,,,,MET12508/09/16 15:56:02 METAR KCHS 092056Z 17015KT 10SM SCT035 SCT040 BKN090 31/23 A3008 RMK AO2 SLP185 60000 T03110228 55004 (BBE),,,,,,,,,,,,,,,,,,,,,,,,,,,,2009-06-10
72208013880,2016-08-09T16:00:00,FM-12,4,,SE,0.25,mi,"TEMP, PRECIP, SNOW",,,"MMTS, SRG, SNOWBOARD",,,WFO CHS,,,,,,,,,,,,,,,,,,,,,,,,,,,30.08,73,88,,,+0.01,5,61,30.08,41,30.03,9.94,77,170,,17,,,,,,,,,,,,,,,,,,,,,,,,,,,,,,,,,,,,,SYN07072208 12666 61715 10311 20228 30170 40185 55004 69907 92056 555 90921=,,,,,,,,,,,,,,,,,,,,,,,,,,,,2009-06-10
72208013880,2016-08-09T16:56:00,FM-15,7,,SE,0.25,mi,"TEMP, PRECIP, SNOW",,,"MMTS, SRG, SNOWBOARD",,,WFO CHS,,,,,,,,,,,,,,,,,,,,,,,,,,,30.08,71,87,0.00,,,,59,30.08,FEW:02 35 SCT:04 90 SCT:04 250,30.03,10.00,76,160,23,13,,,,,,,,,,,,,,,,,,,,,,,,,,,,,,,,,,,,,MET11608/09/16 16:56:02 METAR KCHS 092156Z 16011G20KT 10SM FEW035 SCT090 SCT250 31/22 A3008 RMK AO2 SLP186 T03060217 (BBE),,,,,,,,,,,,,,,,,,,,,,,,,,,,2009-06-10
72208013880,2016-08-09T17:56:00,FM-15,7,,SE,0.25,mi,"TEMP, PRECIP, SNOW",,,"MMTS, SRG, SNOWBOARD",,,WFO CHS,,,,,,,,,,,,,,,,,,,,,,,,,,,30.08,72,85,0.00,,,,65,30.08,FEW:02 30 FEW:02 75 SCT:04 250,30.03,10.00,76,150,,16,,,,,,,,,,,,,,,,,,,,,,,,,,,,,,,,,,,,,MET11308/09/16 17:56:02 METAR KCHS 092256Z 15014KT 10SM FEW030 FEW075 SCT250 29/22 A3008 RMK AO2 SLP186 T02940222 (BBE),,,,,,,,,,,,,,,,,,,,,,,,,,,,2009-06-10
72208013880,2016-08-10T13:56:00,FM-15,7,,SE,0.25,mi,"TEMP, PRECIP, SNOW",,,"MMTS, SRG, SNOWBOARD",,,WFO CHS,,,,,,,,,,,,,,,,,,,,,,,,,,,30.17,76,85,0.00,,,,75,30.16,FEW:02 25 SCT:04 35 BKN:07 120,30.12,10.00,79,160,,9,,,,,,,,,,,,,,,,,,,,,,,,,,,,,,,,,,,,,MET11308/10/16 13:56:02 METAR KCHS 101856Z 16008KT 10SM FEW025 SCT035 BKN120 29/24 A3017 RMK AO2 SLP214 T02940244 (JMB),,,,,,,,,,,,,,,,,,,,,,,,,,,,2009-06-10
72208013880,2016-08-14T17:56:00,FM-15,7,,SE,0.25,mi,"TEMP, PRECIP, SNOW",,,"MMTS, SRG, SNOWBOARD",,,WFO CHS,,,,,,,,,,,,,,,,,,,,,,,,,,,30.08,67,89,0.00,,,,48,30.08,SCT:04 250,30.03,10.00,74,150,,11,,,,,,,,,,,,,,,,,,,,,,,,,,,,,,,,,,,,,MET09908/14/16 17:56:02 METAR KCHS 142256Z 15010KT 10SM SCT250 32/19 A3008 RMK AO2 SLP187 T03170194 (JRS),,,,,,,,,,,,,,,,,,,,,,,,,,,,2009-06-10
72208013880,2016-08-15T10:56:00,FM-15,7,,SE,0.25,mi,"TEMP, PRECIP, SNOW",,,"MMTS, SRG, SNOWBOARD",,,WFO CHS,,,,,,,,,,,,,,,,,,,,,,,,,,,30.20,76,90,0.00,,,,63,30.19,SCT:04 35 BKN:07 250,30.15,10.00,80,160,,7,,,,,,,,,,,,,,,,,,,,,,,,,,,,,,,,,,,,,MET10608/15/16 10:56:02 METAR KCHS 151556Z 16006KT 10SM SCT035 BKN250 32/24 A3020 RMK AO2 SLP225 T03220244 (JMB),,,,,,,,,,,,,,,,,,,,,,,,,,,,2009-06-10
72208013880,2016-08-15T12:56:00,FM-15,7,,SE,0.25,mi,"TEMP, PRECIP, SNOW",,,"MMTS, SRG, SNOWBOARD",,,WFO CHS,,,,,,,,,,,,,,,,,,,,,,,,,,,30.19,74,93,0.00,,+0.00,8,54,30.19,SCT:04 40 SCT:04 250,30.14,10.00,79,160,,11,,,,,,,,,,,,,,,,,,,,,,,,,,,,,,,,,,,,,MET12408/15/16 12:56:02 METAR KCHS 151756Z 16010KT 10SM SCT040 SCT250 34/23 A3019 RMK AO2 SLP224 T03390233 10344 20272 58001 (JMB),,,,,,,,,,,,,,,,,,,,,,,,,,,,2009-06-10
72208013880,2016-08-15T13:00:00,FM-12,4,,SE,0.25,mi,"TEMP, PRECIP, SNOW",,,"MMTS, SRG, SNOWBOARD",,,WFO CHS,,,,,,,,,,,,,,,,,,,,,,,,,,,30.19,74,93,,,+0.00,8,54,30.19,41,30.14,9.94,79,160,,11,,,,,,,,,,,,,,,,,,,,,,,,,,,,,,,,,,,,,SYN08072208 32666 41610 10339 20233 30207 40224 58001 91756 333 10344 20272 555 91518=,,,,,,,,,,,,,,,,,,,,,,,,,,,,2009-06-10
72208013880,2016-08-15T13:56:00,FM-15,7,,SE,0.25,mi,"TEMP, PRECIP, SNOW",,,"MMTS, SRG, SNOWBOARD",,,WFO CHS,,,,,,,,,,,,,,,,,,,,,,,,,,,30.18,73,92,0.00,,,,54,30.18,SCT:04 40 SCT:04 250,30.13,10.00,79,150,,9,,,,,,,,,,,,,,,,,,,,,,,,,,,,,,,,,,,,,MET10608/15/16 13:56:02 METAR KCHS 151856Z 15008KT 10SM SCT040 SCT250 33/23 A3018 RMK AO2 SLP219 T03330228 (JMB),,,,,,,,,,,,,,,,,,,,,,,,,,,,2009-06-10
72208013880,2016-08-15T14:56:00,FM-15,7,,SE,0.25,mi,"TEMP, PRECIP, SNOW",,,"MMTS, SRG, SNOWBOARD",,,WFO CHS,,,,,,,,,,,,,,,,,,,,,,,,,,,30.16,74,92,0.00,,,,56,30.16,FEW:02 40 SCT:04 250,30.11,10.00,79,160,,13,,,,,,,,,,,,,,,,,,,,,,,,,,,,,,,,,,,,,MET10608/15/16 14:56:02 METAR KCHS 151956Z 16011KT 10SM FEW040 SCT250 33/23 A3016 RMK AO2 SLP213 T03330233 (BBE),,,,,,,,,,,,,,,,,,,,,,,,,,,,2009-06-10
72208013880,2016-08-15T17:56:00,FM-15,7,,SE,0.25,mi,"TEMP, PRECIP, SNOW",,,"MMTS, SRG, SNOWBOARD",,,WFO CHS,,,,,,,,,,,,,,,,,,,,,,,,,,,30.15,73,88,0.00,,,,61,30.14,FEW:02 30 SCT:04 250,30.10,10.00,77,160,,14,,,,,,,,,,,,,,,,,,,,,,,,,,,,,,,,,,,,,MET10608/15/16 17:56:02 METAR KCHS 152256Z 16012KT 10SM FEW030 SCT250 31/23 A3015 RMK AO2 SLP208 T03110228 (BBE),,,,,,,,,,,,,,,,,,,,,,,,,,,,2009-06-10
72208013880,2016-08-16T15:56:00,FM-15,7,,SE,0.25,mi,"TEMP, PRECIP, SNOW",,,"MMTS, SRG, SNOWBOARD",,,WFO CHS,,,,,,,,,,,,,,,,,,,,,,,,,,,30.16,73,91,0.00,,+0.04,6,56,30.15,SCT:04 40 BKN:07 250,30.11,10.00,78,150,21,15,,,,,,,,,,,,,,,,,,,,,,,,,,,,,,,,,,,,,MET11508/16/16 15:56:02 METAR KCHS 162056Z 15013G18KT 10SM SCT040 BKN250 33/23 A3016 RMK AO2 SLP211 T03280228 56015 (BBE),,,,,,,,,,,,,,,,,,,,,,,,,,,,2009-06-10
72208013880,2016-08-16T16:00:00,FM-12,4,,SE,0.25,mi,"TEMP, PRECIP, SNOW",,,"MMTS, SRG, SNOWBOARD",,,WFO CHS,,,,,,,,,,,,,,,,,,,,,,,,,,,30.16,73,91,,,+0.04,6,56,30.15,41,30.11,9.94,78,150,,15,,,,,,,,,,,,,,,,,,,,,,,,,,,,,,,,,,,,,SYN07472208 32666 61513 10328 20228 30197 40211 56015 92056 333 91018 555 91621=,,,,,,,,,,,,,,,,,,,,,,,,,,,,2009-06-10
72208013880,2016-08-16T17:56:00,FM-15,7,,SE,0.25,mi,"TEMP, PRECIP, SNOW",,,"MMTS, SRG, SNOWBOARD",,,WFO CHS,,,,,,,,,,,,,,,,,,,,,,,,,,,30.15,73,87,0.00,,,,63,30.15,FEW:02 30 BKN:07 250,30.10,10.00,77,150,,11,,,,,,,,,,,,,,,,,,,,,,,,,,,,,,,,,,,,,MET10608/16/16 17:56:02 METAR KCHS 162256Z 15010KT 10SM FEW030 BKN250 31/23 A3015 RMK AO2 SLP210 T03060228 (BBE),,,,,,,,,,,,,,,,,,,,,,,,,,,,2009-06-10
72208013880,2016-08-17T15:56:00,FM-15,7,,SE,0.25,mi,"TEMP, PRECIP, SNOW",,,"MMTS, SRG, SNOWBOARD",,,WFO CHS,,,,,,,,,,,,,,,,,,,,,,,,,,,30.11,69,90,T,,+0.06,6,50,30.10,FEW:02 45 SCT:04 80 SCT:04 250,30.06,10.00,76,170,,13,,,,,,,,,,,,,,,,,,,,,,,,,,,,,,,,,,,,,MET13708/17/16 15:56:02 METAR KCHS 172056Z 17011KT 10SM FEW045 SCT080 SCT250 32/21 A3011 RMK AO2 RAE12 SLP194 P0000 60000 T03220206 56020 (BBE),,,,,,,,,,,,,,,,,,,,,,,,,,,,2009-06-10
72208013880,2016-08-17T16:00:00,FM-12,4,,SE,0.25,mi,"TEMP, PRECIP, SNOW",,,"MMTS, SRG, SNOWBOARD",,,WFO CHS,,,,,,,,,,,,,,,,,,,,,,,,,,,30.11,69,90,,,+0.06,6,50,30.10,41,30.06,9.94,76,170,,13,,,,,,,,,,,,,,,,,,,,,,,,,,,,,,,,,,,,,SYN07072208 12666 41711 10322 20206 30180 40194 56020 69907 92056 555 91721=,,,,,,,,,,,,,,,,,,,,,,,,,,,,2009-06-10
72208013880,2016-08-19T16:56:00,FM-15,7,,SE,0.25,mi,"TEMP, PRECIP, SNOW",,,"MMTS, SRG, SNOWBOARD",,,WFO CHS,,,,,,,,,,,,,,,,,,,,,,,,,,,29.92,69,86,0.00,TS:7 |TS TS |,,,57,29.92,FEW:02 40 SCT:04 50 BKN:07 250,29.87,10.00,74,160,,10,,,,,,,,,,,,,,,,,,,,,,,,,,,,,,,,,,,,,MET15208/19/16 16:56:02 METAR KCHS 192156Z 16009KT 10SM TS FEW040CB SCT050 BKN250 30/21 A2992 RMK AO2 TSB2059 SLP132 OCNL LTGIC SE TS SE STNRY T03000206 (BBE),,,,,,,,,,,,,,,,,,,,,,,,,,,,2009-06-10
72208013880,2016-08-19T17:00:00,FM-16,7,,SE,0.25,mi,"TEMP, PRECIP, SNOW",,,"MMTS, SRG, SNOWBOARD",,,WFO CHS,,,,,,,,,,,,,,,,,,,,,,,,,,,29.92,71,87,,,,,59,,FEW:02 40 SCT:04 50 BKN:07 250,29.87,10.00,76,170,,9,,,,,,,,,,,,,,,,,,,,,,,,,,,,,,,,,,,,,MET12208/19/16 17:00:02 SPECI KCHS 192200Z 17008KT 10SM FEW040 SCT050 BKN250 31/22 A2992 RMK AO2 TSE00 TS DSIPTD T03060217 (BBE),,,,,,,,,,,,,,,,,,,,,,,,,,,,2009-06-10
72208013880,2016-08-22T17:56:00,FM-15,7,,SE,0.25,mi,"TEMP, PRECIP, SNOW",,,"MMTS, SRG, SNOWBOARD",,,WFO CHS,,,,,,,,,,,,,,,,,,,,,,,,,,,30.08,70,87,0.00,,,,57,30.08,BKN:07 50,30.03,10.00,75,160,,9,,,,,,,,,,,,,,,,,,,,,,,,,,,,,,,,,,,,,MET09908/22/16 17:56:02 METAR KCHS 222256Z 16008KT 10SM BKN050 31/21 A3008 RMK AO2 SLP186 T03060211 (MBT),,,,,,,,,,,,,,,,,,,,,,,,,,,,2009-06-10
72208013880,2016-08-26T16:56:00,FM-15,7,,SE,0.25,mi,"TEMP, PRECIP, SNOW",,,"MMTS, SRG, SNOWBOARD",,,WFO CHS,,,,,,,,,,,,,,,,,,,,,,,,,,,30.03,70,88,0.00,,,,55,30.03,FEW:02 40 FEW:02 250,29.98,10.00,76,150,,14,,,,,,,,,,,,,,,,,,,,,,,,,,,,,,,,,,,,,MET10608/26/16 16:56:02 METAR KCHS 262156Z 15012KT 10SM FEW040 FEW250 31/21 A3003 RMK AO2 SLP170 T03110211 (BBE),,,,,,,,,,,,,,,,,,,,,,,,,,,,2009-06-10
72208013880,2016-09-11T15:53:00,FM-16,7,,SE,0.25,mi,"TEMP, PRECIP, SNOW",,,"MMTS, SRG, SNOWBOARD",,,WFO CHS,,,,,,,,,,,,,,,,,,,,,,,,,,,30.02,73,91,,TS:7 |TS TS |,,,56,,SCT:04 40 BKN:07 110 BKN:07 250,29.97,10.00,78,170,,13,,,,,,,,,,,,,,,,,,,,,,,,,,,,,,,,,,,,,MET16609/11/16 15:53:02 SPECI KCHS 112053Z 17011KT 10SM TS SCT040CB BKN110 BKN250 33/23 A3002 RMK AO2 LTG DSNT SW-N TSB48 OCNL LTGCG E TS E MOV SE CB DSNT SW AND NW $ (JRS),,,,,,,,,,,,,,,,,,,,,,,,,,,,2009-06-10
72208013880,2016-09-11T15:56:00,FM-15,7,,SE,0.25,mi,"TEMP, PRECIP, SNOW",,,"MMTS, SRG, SNOWBOARD",,,WFO CHS,,,,,,,,,,,,,,,,,,,,,,,,,,,30.02,74,90,0.00,TS:7 |TS TS |,+0.04,6,59,30.01,SCT:04 40 BKN:07 110 BKN:07 250,29.97,10.00,79,160,,13,,,,,,,,,,,,,,,,,,,,,,,,,,,,,,,,,,,,,MET18909/11/16 15:56:02 METAR KCHS 112056Z 16011KT 10SM TS SCT040CB BKN110 BKN250 32/23 A3002 RMK AO2 LTG DSNT SW-N TSB48 SLP163 OCNL LTGCG E TS E MOV SE CB DSNT SW AND NW T03220233 56012 $ (JRS),,,,,,,,,,,,,,,,,,,,,,,,,,,,2009-06-10
72208013880,2016-09-11T16:00:00,FM-12,4,,SE,0.25,mi,"TEMP, PRECIP, SNOW",,,"MMTS, SRG, SNOWBOARD",,,WFO CHS,,,,,,,,,,,,,,,,,,,,,,,,,,,30.02,74,90,,||TS,+0.04,6,59,30.01,41,29.97,9.94,79,160,,13,,,,,,,,,,,,,,,,,,,,,,,,,,,,,,,,,,,,,SYN07072208 31666 61611 10322 20233 30150 40163 56012 795// 92056 555 91121=,,,,,,,,,,,,,,,,,,,,,,,,,,,,2009-06-10
72208013880,2016-09-11T16:15:00,FM-16,7,,SE,0.25,mi,"TEMP, PRECIP, SNOW",,,"MMTS, SRG, SNOWBOARD",,,WFO CHS,,,,,,,,,,,,,,,,,,,,,,,,,,,30.01,75,90,,,,,62,,SCT:04 40 BKN:07 110 BKN:07 250,29.96,10.00,79,170,,15,,,,,,,,,,,,,,,,,,,,,,,,,,,,,,,,,,,,,MET15809/11/16 16:15:02 SPECI KCHS 112115Z 17013KT 10SM SCT040 BKN110 BKN250 32/24 A3001 RMK AO2 LTG DSNT W-N TSE14 CB DSNT NW AND DSNT E TS MOV E T03220239 $ (JRS),,,,,,,,,,,,,,,,,,,,,,,,,,,,2009-06-10
72208013880,2016-09-11T16:36:00,FM-16,7,,SE,0.25,mi,"TEMP, PRECIP, SNOW",,,"MMTS, SRG, SNOWBOARD",,,WFO CHS,,,,,,,,,,,,,,,,,,,,,,,,,,,30.01,73,87,,TS:7 |TS TS |,,,63,,FEW:02 40 BKN:07 80 BKN:07 250,29.96,10.00,77,170,,16,,,,,,,,,,,,,,,,,,,,,,,,,,,,,,,,,,,,,MET16609/11/16 16:36:02 SPECI KCHS 112136Z 17014KT 10SM TS FEW040CB BKN080 BKN250 31/23 A3001 RMK AO2 LTG DSNT SW-N TSE14B31 OCNL LTGCGIC W-N TS W-N MOV E T03060228 $ (JRS),,,,,,,,,,,,,,,,,,,,,,,,,,,,2009-06-10
72208013880,2016-09-26T13:24:00,FM-16,7,,SE,0.25,mi,"TEMP, PRECIP, SNOW",,,"MMTS, SRG, SNOWBOARD",,,WFO CHS,,,,,,,,,,,,,,,,,,,,,,,,,,,30.05,73,77,0.01,TS:7 +RA:02 |RA TS TS |,,,88,,SCT:04 17 BKN:07 22 BKN:07 47,30.00,7.00,74,160,,8,,,,,,,,,,,,,,,,,,,,,,,,,,,,,,,,,,,,,MET15909/26/16 13:24:02 SPECI KCHS 261824Z 16007KT 7SM +TSRA SCT017 BKN022CB BKN047 25/23 A3005 RMK AO2 RAB03 TSB23 P0001 T02500228 OCNL LTGIC OHD TS OHD MOV W (JMB),,,,,,,,,,,,,,,,,,,,,,,,,,,,2009-06-10
72208013880,2016-09-26T13:52:00,FM-16,7,,SE,0.25,mi,"TEMP, PRECIP, SNOW",,,"MMTS, SRG, SNOWBOARD",,,WFO CHS,,,,,,,,,,,,,,,,,,,,,,,,,,,30.05,72,75,0.05,-RA:02 |RA |,,,89,,BKN:07 15 OVC:08 30,30.00,7.00,73,170,,7,,,,,,,,,,,,,,,,,,,,,,,,,,,,,,,,,,,,,MET12209/26/16 13:52:02 SPECI KCHS 261852Z 17006KT 7SM -RA BKN015 OVC030 24/22 A3005 RMK AO2 RAB03 TSB23E48 TS MOV W P0005 (JMB),,,,,,,,,,,,,,,,,,,,,,,,,,,,2009-06-10
72208013880,2016-09-27T15:56:00,FM-15,7,,SE,0.25,mi,"TEMP, PRECIP, SNOW",,,"MMTS, SRG, SNOWBOARD",,,WFO CHS,,,,,,,,,,,,,,,,,,,,,,,,,,,29.87,68,84,0.00,,+0.04,6,59,29.86,FEW:02 40 FEW:02 50 SCT:04 250,29.82,10.00,73,160,,9,,,,,,,,,,,,,,,,,,,,,,,,,,,,,,,,,,,,,MET11909/27/16 15:56:02 METAR KCHS 272056Z 16008KT 10SM FEW040 FEW050 SCT250 29/20 A2987 RMK AO2 SLP112 T02890200 56012 (BBE),,,,,,,,,,,,,,,,,,,,,,,,,,,,2009-06-10
72208013880,2016-09-27T16:00:00,FM-12,4,,SE,0.25,mi,"TEMP, PRECIP, SNOW",,,"MMTS, SRG, SNOWBOARD",,,WFO CHS,,,,,,,,,,,,,,,,,,,,,,,,,,,29.87,68,84,,,+0.04,6,59,29.86,41,29.82,9.94,73,160,,9,,,,,,,,,,,,,,,,,,,,,,,,,,,,,,,,,,,,,SYN06472208 32666 41608 10289 20200 30099 40112 56012 92056 555 92721=,,,,,,,,,,,,,,,,,,,,,,,,,,,,2009-06-10
72208013880,2016-09-27T16:56:00,FM-15,7,,SE,0.25,mi,"TEMP, PRECIP, SNOW",,,"MMTS, SRG, SNOWBOARD",,,WFO CHS,,,,,,,,,,,,,,,,,,,,,,,,,,,29.88,66,80,0.00,,,,62,29.87,FEW:02 35 SCT:04 45 SCT:04 250,29.83,10.00,71,150,,9,,,,,,,,,,,,,,,,,,,,,,,,,,,,,,,,,,,,,MET11309/27/16 16:56:02 METAR KCHS 272156Z 15008KT 10SM FEW035 SCT045 SCT250 27/19 A2988 RMK AO2 SLP116 T02670189 (BBE),,,,,,,,,,,,,,,,,,,,,,,,,,,,2009-06-10
72208013880,2016-09-27T17:56:00,FM-15,7,,SE,0.25,mi,"TEMP, PRECIP, SNOW",,,"MMTS, SRG, SNOWBOARD",,,WFO CHS,,,,,,,,,,,,,,,,,,,,,,,,,,,29.88,66,79,0.00,,,,65,29.88,FEW:02 80 SCT:04 250,29.83,10.00,71,160,,8,,,,,,,,,,,,,,,,,,,,,,,,,,,,,,,,,,,,,MET10609/27/16 17:56:02 METAR KCHS 272256Z 16007KT 10SM FEW080 SCT250 26/19 A2988 RMK AO2 SLP117 T02610189 (BBE),,,,,,,,,,,,,,,,,,,,,,,,,,,,2009-06-10
72208013880,2016-09-29T10:56:00,FM-15,7,,SE,0.25,mi,"TEMP, PRECIP, SNOW",,,"MMTS, SRG, SNOWBOARD",,,WFO CHS,,,,,,,,,,,,,,,,,,,,,,,,,,,29.98,73,86,0.00,,,,65,29.98,SCT:04 22 SCT:04 200,29.93,10.00,77,160,,9,,,,,,,,,,,,,,,,,,,,,,,,,,,,,,,,,,,,,MET10609/29/16 10:56:02 METAR KCHS 291556Z 16008KT 10SM SCT022 SCT200 30/23 A2998 RMK AO2 SLP151 T03000228 (JMB),,,,,,,,,,,,,,,,,,,,,,,,,,,,2009-06-10
72208013880,2016-10-01T14:56:00,FM-15,7,,SE,0.25,mi,"TEMP, PRECIP, SNOW",,,"MMTS, SRG, SNOWBOARD",,,WFO CHS,,,,,,,,,,,,,,,,,,,,,,,,,,,30.01,68,86,0.00,,,,55,30.00,SCT:04 34,29.96,10.00,74,170,,8,,,,,,,,,,,,,,,,,,,,,,,,,,,,,,,,,,,,,MET09910/01/16 14:56:02 METAR KCHS 011956Z 17007KT 10SM SCT034 30/20 A3001 RMK AO2 SLP160 T03000200 (JRS),,,,,,,,,,,,,,,,,,,,,,,,,,,,2009-06-10
72208013880,2016-10-01T15:56:00,FM-15,7,,SE,0.25,mi,"TEMP, PRECIP, SNOW",,,"MMTS, SRG, SNOWBOARD",,,WFO CHS,,,,,,,,,,,,,,,,,,,,,,,,,,,29.99,68,84,0.00,,+0.04,8,59,29.99,FEW:02 35,29.94,10.00,73,170,,7,,,,,,,,,,,,,,,,,,,,,,,,,,,,,,,,,,,,,MET10510/01/16 15:56:02 METAR KCHS 012056Z 17006KT 10SM FEW035 29/20 A2999 RMK AO2 SLP155 T02890200 58014 (JRS),,,,,,,,,,,,,,,,,,,,,,,,,,,,2009-06-10
72208013880,2016-10-01T16:00:00,FM-12,4,,SE,0.25,mi,"TEMP, PRECIP, SNOW",,,"MMTS, SRG, SNOWBOARD",,,WFO CHS,,,,,,,,,,,,,,,,,,,,,,,,,,,29.99,68,84,,,+0.04,8,59,29.99,41,29.94,9.94,73,170,,7,,,,,,,,,,,,,,,,,,,,,,,,,,,,,,,,,,,,,SYN06472208 32666 21706 10289 20200 30140 40155 58014 92056 555 90121=,,,,,,,,,,,,,,,,,,,,,,,,,,,,2009-06-10
72208013880,2016-10-01T16:56:00,FM-15,7,,SE,0.25,mi,"TEMP, PRECIP, SNOW",,,"MMTS, SRG, SNOWBOARD",,,WFO CHS,,,,,,,,,,,,,,,,,,,,,,,,,,,29.99,70,82,0.00,,,,67,29.99,FEW:02 33 FEW:02 250,29.94,10.00,74,160,,7,,,,,,,,,,,,,,,,,,,,,,,,,,,,,,,,,,,,,MET10610/01/16 16:56:02 METAR KCHS 012156Z 16006KT 10SM FEW033 FEW250 28/21 A2999 RMK AO2 SLP155 T02780211 (JRS),,,,,,,,,,,,,,,,,,,,,,,,,,,,2009-06-10
72208013880,2016-10-02T15:56:00,FM-15,7,,SE,0.25,mi,"TEMP, PRECIP, SNOW",,,"MMTS, SRG, SNOWBOARD",,,WFO CHS,,,,,,,,,,,,,,,,,,,,,,,,,,,29.99,58,83,0.00,,+0.05,6,43,29.99,FEW:02 60 BKN:07 200,29.94,10.00,67,150,,9,,,,,,,,,,,,,,,,,,,,,,,,,,,,,,,,,,,,,MET11210/02/16 15:56:02 METAR KCHS 022056Z 15008KT 10SM FEW060 BKN200 28/14 A2999 RMK AO2 SLP155 T02830144 56017 (JRS),,,,,,,,,,,,,,,,,,,,,,,,,,,,2009-06-10
72208013880,2016-10-02T16:00:00,FM-12,4,,SE,0.25,mi,"TEMP, PRECIP, SNOW",,,"MMTS, SRG, SNOWBOARD",,,WFO CHS,,,,,,,,,,,,,,,,,,,,,,,,,,,29.99,58,83,,,+0.05,6,43,29.99,57,29.94,9.94,67,150,,9,,,,,,,,,,,,,,,,,,,,,,,,,,,,,,,,,,,,,SYN06472208 32766 61508 10283 20144 30140 40155 56017 92056 555 90221=,,,,,,,,,,,,,,,,,,,,,,,,,,,,2009-06-10
72208013880,2016-10-02T16:56:00,FM-15,7,,SE,0.25,mi,"TEMP, PRECIP, SNOW",,,"MMTS, SRG, SNOWBOARD",,,WFO CHS,,,,,,,,,,,,,,,,,,,,,,,,,,,29.99,58,82,0.00,,,,44,29.98,FEW:02 60 BKN:07 200,29.94,10.00,67,160,,9,,,,,,,,,,,,,,,,,,,,,,,,,,,,,,,,,,,,,MET10610/02/16 16:56:02 METAR KCHS 022156Z 16008KT 10SM FEW060 BKN200 28/14 A2999 RMK AO2 SLP153 T02780144 (JRS),,,,,,,,,,,,,,,,,,,,,,,,,,,,2009-06-10
72208013880,2016-10-02T17:56:00,FM-15,7,,SE,0.25,mi,"TEMP, PRECIP, SNOW",,,"MMTS, SRG, SNOWBOARD",,,WFO CHS,,,,,,,,,,,,,,,,,,,,,,,,,,,29.99,58,78,0.00,,,,50,29.99,FEW:02 60 BKN:07 200,29.94,10.00,66,160,,8,,,,,,,,,,,,,,,,,,,,,,,,,,,,,,,,,,,,,MET10610/02/16 17:56:02 METAR KCHS 022256Z 16007KT 10SM FEW060 BKN200 26/14 A2999 RMK AO2 SLP155 T02560144 (JRS),,,,,,,,,,,,,,,,,,,,,,,,,,,,2009-06-10
72208013880,2016-10-17T14:56:00,FM-15,7,,SE,0.25,mi,"TEMP, PRECIP, SNOW",,,"MMTS, SRG, SNOWBOARD",,,WFO CHS,,,,,,,,,,,,,,,,,,,,,,,,,,,30.01,64,83,0.00,,,,53,30.01,FEW:02 35 FEW:02 45,29.96,10.00,71,150,,9,,,,,,,,,,,,,,,,,,,,,,,,,,,,,,,,,,,,,MET10610/17/16 14:56:02 METAR KCHS 171956Z 15008KT 10SM FEW035 FEW045 28/18 A3001 RMK AO2 SLP163 T02830178 (BBE),,,,,,,,,,,,,,,,,,,,,,,,,,,,2009-06-10
72208013880,2016-10-17T15:56:00,FM-15,7,,SE,0.25,mi,"TEMP, PRECIP, SNOW",,,"MMTS, SRG, SNOWBOARD",,,WFO CHS,,,,,,,,,,,,,,,,,,,,,,,,,,,30.01,63,81,0.00,,+0.04,6,54,30.01,FEW:02 35,29.96,10.00,69,150,,8,,,,,,,,,,,,,,,,,,,,,,,,,,,,,,,,,,,,,MET10510/17/16 15:56:02 METAR KCHS 172056Z 15007KT 10SM FEW035 27/17 A3001 RMK AO2 SLP161 T02720172 56013 (BBE),,,,,,,,,,,,,,,,,,,,,,,,,,,,2009-06-10
72208013880,2016-10-17T16:00:00,FM-12,4,,SE,0.25,mi,"TEMP, PRECIP, SNOW",,,"MMTS, SRG, SNOWBOARD",,,WFO CHS,,,,,,,,,,,,,,,,,,,,,,,,,,,30.01,63,81,,,+0.04,6,54,30.01,41,29.96,9.94,69,150,,8,,,,,,,,,,,,,,,,,,,,,,,,,,,,,,,,,,,,,SYN06472208 32666 21507 10272 20172 30146 40161 56013 92056 555 91721=,,,,,,,,,,,,,,,,,,,,,,,,,,,,2009-06-10
72208013880,2016-10-17T16:56:00,FM-15,7,,SE,0.25,mi,"TEMP, PRECIP, SNOW",,,"MMTS, SRG, SNOWBOARD",,,WFO CHS,,,,,,,,,,,,,,,,,,,,,,,,,,,30.01,62,78,0.00,,,,58,30.01,FEW:02 35,29.96,10.00,68,150,,8,,,,,,,,,,,,,,,,,,,,,,,,,,,,,,,,,,,,,MET09910/17/16 16:56:02 METAR KCHS 172156Z 15007KT 10SM FEW035 26/17 A3001 RMK AO2 SLP163 T02560167 (BBE),,,,,,,,,,,,,,,,,,,,,,,,,,,,2009-06-10
72208013880,2016-10-17T17:56:00,FM-15,7,,SE,0.25,mi,"TEMP, PRECIP, SNOW",,,"MMTS, SRG, SNOWBOARD",,,WFO CHS,,,,,,,,,,,,,,,,,,,,,,,,,,,30.02,62,74,0.00,,,,67,30.01,FEW:02 30,29.97,10.00,67,150,,8,,,,,,,,,,,,,,,,,,,,,,,,,,,,,,,,,,,,,MET09910/17/16 17:56:02 METAR KCHS 172256Z 15007KT 10SM FEW030 23/17 A3002 RMK AO2 SLP164 T02330167 (BBE),,,,,,,,,,,,,,,,,,,,,,,,,,,,2009-06-10
72208013880,2016-10-18T15:56:00,FM-15,7,,SE,0.25,mi,"TEMP, PRECIP, SNOW",,,"MMTS, SRG, SNOWBOARD",,,WFO CHS,,,,,,,,,,,,,,,,,,,,,,,,,,,30.02,64,83,0.00,,+0.04,6,53,30.02,SCT:04 50 SCT:04 250,29.97,10.00,71,170,,13,,,,,,,,,,,,,,,,,,,,,,,,,,,,,,,,,,,,,MET11210/18/16 15:56:02 METAR KCHS 182056Z 17011KT 10SM SCT050 SCT250 28/18 A3002 RMK AO2 SLP166 T02830178 56013 (BBE),,,,,,,,,,,,,,,,,,,,,,,,,,,,2009-06-10
72208013880,2016-10-18T16:00:00,FM-12,4,,SE,0.25,mi,"TEMP, PRECIP, SNOW",,,"MMTS, SRG, SNOWBOARD",,,WFO CHS,,,,,,,,,,,,,,,,,,,,,,,,,,,30.02,64,83,,,+0.04,6,53,30.02,57,29.97,9.94,71,170,,13,,,,,,,,,,,,,,,,,,,,,,,,,,,,,,,,,,,,,SYN06472208 32766 41711 10283 20178 30150 40166 56013 92056 555 91821=,,,,,,,,,,,,,,,,,,,,,,,,,,,,2009-06-10
72208013880,2016-10-26T14:56:00,FM-15,7,,SE,0.25,mi,"TEMP, PRECIP, SNOW",,,"MMTS, SRG, SNOWBOARD",,,WFO CHS,,,,,,,,,,,,,,,,,,,,,,,,,,,30.29,54,77,0.00,,,,45,30.29,FEW:02 45,30.24,10.00,63,150,,7,,,,,,,,,,,,,,,,,,,,,,,,,,,,,,,,,,,,,MET10110/26/16 14:56:02 METAR KCHS 261956Z 15006KT 10SM FEW045 25/12 A3029 RMK AO2 SLP256 T02500122 $ (BBE),,,,,,,,,,,,,,,,,,,,,,,,,,,,2009-06-10
72208013880,2016-10-27T14:56:00,FM-15,7,,SE,0.25,mi,"TEMP, PRECIP, SNOW",,,"MMTS, SRG, SNOWBOARD",,,WFO CHS,,,,,,,,,,,,,,,,,,,,,,,,,,,30.26,59,77,0.00,,,,54,30.25,FEW:02 50 SCT:04 60 BKN:07 250,30.21,10.00,66,150,,8,,,,,,,,,,,,,,,,,,,,,,,,,,,,,,,,,,,,,MET11310/27/16 14:56:02 METAR KCHS 271956Z 15007KT 10SM FEW050 SCT060 BKN250 25/15 A3026 RMK AO2 SLP244 T02500150 (BBE),,,,,,,,,,,,,,,,,,,,,,,,,,,,2009-06-10
72208013880,2016-10-27T15:56:00,FM-15,7,,SE,0.25,mi,"TEMP, PRECIP, SNOW",,,"MMTS, SRG, SNOWBOARD",,,WFO CHS,,,,,,,,,,,,,,,,,,,,,,,,,,,30.24,60,78,0.00,,+0.04,6,54,30.24,FEW:02 45 BKN:07 250,30.19,10.00,67,150,,8,,,,,,,,,,,,,,,,,,,,,,,,,,,,,,,,,,,,,MET11210/27/16 15:56:02 METAR KCHS 272056Z 15007KT 10SM FEW045 BKN250 26/16 A3024 RMK AO2 SLP239 T02560156 56015 (BBE),,,,,,,,,,,,,,,,,,,,,,,,,,,,2009-06-10
72208013880,2016-10-27T16:00:00,FM-12,4,,SE,0.25,mi,"TEMP, PRECIP, SNOW",,,"MMTS, SRG, SNOWBOARD",,,WFO CHS,,,,,,,,,,,,,,,,,,,,,,,,,,,30.24,60,78,,,+0.04,6,54,30.24,41,30.19,9.94,67,150,,8,,,,,,,,,,,,,,,,,,,,,,,,,,,,,,,,,,,,,SYN06472208 32666 61507 10256 20156 30224 40239 56015 92056 555 92721=,,,,,,,,,,,,,,,,,,,,,,,,,,,,2009-06-10
72208013880,2016-10-29T14:56:00,FM-15,7,,SE,0.25,mi,"TEMP, PRECIP, SNOW",,,"MMTS, SRG, SNOWBOARD",,,WFO CHS,,,,,,,,,,,,,,,,,,,,,,,,,,,30.17,55,82,0.00,,,,40,30.16,FEW:02 45,30.12,10.00,66,160,,7,,,,,,,,,,,,,,,,,,,,,,,,,,,,,,,,,,,,,MET09910/29/16 14:56:02 METAR KCHS 291956Z 16006KT 10SM FEW045 28/13 A3017 RMK AO2 SLP215 T02780128 (JRS),,,,,,,,,,,,,,,,,,,,,,,,,,,,2009-06-10
72208013880,2016-10-29T15:56:00,FM-15,7,,SE,0.25,mi,"TEMP, PRECIP, SNOW",,,"MMTS, SRG, SNOWBOARD",,,WFO CHS,,,,,,,,,,,,,,,,,,,,,,,,,,,30.16,53,81,0.00,,+0.04,6,38,30.16,FEW:02 45,30.11,10.00,64,150,,8,,,,,,,,,,,,,,,,,,,,,,,,,,,,,,,,,,,,,MET10510/29/16 15:56:02 METAR KCHS 292056Z 15007KT 10SM FEW045 27/12 A3016 RMK AO2 SLP213 T02720117 56015 (JRS),,,,,,,,,,,,,,,,,,,,,,,,,,,,2009-06-10
72208013880,2016-10-29T16:00:00,FM-12,4,,SE,0.25,mi,"TEMP, PRECIP, SNOW",,,"MMTS, SRG, SNOWBOARD",,,WFO CHS,,,,,,,,,,,,,,,,,,,,,,,,,,,30.16,53,81,,,+0.04,6,38,30.16,41,30.11,9.94,64,150,,8,,,,,,,,,,,,,,,,,,,,,,,,,,,,,,,,,,,,,SYN06472208 32666 21507 10272 20117 30197 40213 56015 92056 555 92921=,,,,,,,,,,,,,,,,,,,,,,,,,,,,2009-06-10
72208013880,2016-10-29T16:56:00,FM-15,7,,SE,0.25,mi,"TEMP, PRECIP, SNOW",,,"MMTS, SRG, SNOWBOARD",,,WFO CHS,,,,,,,,,,,,,,,,,,,,,,,,,,,30.16,55,76,0.00,,,,48,30.15,CLR:00,30.11,10.00,64,150,,7,,,,,,,,,,,,,,,,,,,,,,,,,,,,,,,,,,,,,MET09610/29/16 16:56:02 METAR KCHS 292156Z 15006KT 10SM CLR 24/13 A3016 RMK AO2 SLP211 T02440128 (JRS),,,,,,,,,,,,,,,,,,,,,,,,,,,,2009-06-10
72208013880,2016-10-29T17:56:00,FM-15,7,,SE,0.25,mi,"TEMP, PRECIP, SNOW",,,"MMTS, SRG, SNOWBOARD",,,WFO CHS,,,,,,,,,,,,,,,,,,,,,,,,,,,30.17,62,71,0.00,,,,73,30.16,CLR:00,30.12,10.00,65,160,,8,,,,,,,,,,,,,,,,,,,,,,,,,,,,,,,,,,,,,MET09610/29/16 17:56:02 METAR KCHS 292256Z 16007KT 10SM CLR 22/17 A3017 RMK AO2 SLP214 T02170167 (JRS),,,,,,,,,,,,,,,,,,,,,,,,,,,,2009-06-10
72208013880,2016-11-02T16:56:00,FM-15,7,,SE,0.25,mi,"TEMP, PRECIP, SNOW",,,"MMTS, SRG, SNOWBOARD",,,WFO CHS,,,,,,,,,,,,,,,,,,,,,,,,,,,30.26,64,76,0.00,,,,67,30.26,FEW:02 35 SCT:04 110 BKN:07 250,30.21,10.00,68,150,,7,,,,,,,,,,,,,,,,,,,,,,,,,,,,,,,,,,,,,MET11311/02/16 16:56:02 METAR KCHS 022156Z 15006KT 10SM FEW035 SCT110 BKN250 24/18 A3026 RMK AO2 SLP246 T02440178 (BBE),,,,,,,,,,,,,,,,,,,,,,,,,,,,2009-06-10
72208013880,2016-11-02T17:56:00,FM-15,7,,SE,0.25,mi,"TEMP, PRECIP, SNOW",,,"MMTS, SRG, SNOWBOARD",,,WFO CHS,,,,,,,,,,,,,,,,,,,,,,,,,,,30.26,64,72,0.00,,,,76,30.26,SCT:04 110 BKN:07 250,30.21,10.00,67,160,,7,,,,,,,,,,,,,,,,,,,,,,,,,,,,,,,,,,,,,MET10611/02/16 17:56:02 METAR KCHS 022256Z 16006KT 10SM SCT110 BKN250 22/18 A3026 RMK AO2 SLP247 T02220178 (BBE),,,,,,,,,,,,,,,,,,,,,,,,,,,,2009-06-10
72208013880,2016-11-23T13:56:00,FM-15,7,,SE,0.25,mi,"TEMP, PRECIP, SNOW",,,"MMTS, SRG, SNOWBOARD",,,WFO CHS,,,,,,,,,,,,,,,,,,,,,,,,,,,30.26,47,71,0.00,,,,42,30.25,FEW:02 60 SCT:04 250,30.21,10.00,58,150,,9,,,,,,,,,,,,,,,,,,,,,,,,,,,,,,,,,,,,,MET10511/23/16 13:56:02 METAR KCHS 231856Z 15008KT 10SM FEW060 SCT250 22/08 A3026 RMK AO2 SLP245 T02170083 (MH),,,,,,,,,,,,,,,,,,,,,,,,,,,,2009-06-10
72208013880,2016-11-23T14:56:00,FM-15,7,,SE,0.25,mi,"TEMP, PRECIP, SNOW",,,"MMTS, SRG, SNOWBOARD",,,WFO CHS,,,,,,,,,,,,,,,,,,,,,,,,,,,30.25,47,70,0.00,,,,44,30.25,FEW:02 60 BKN:07 250,30.20,10.00,57,160,,9,,,,,,,,,,,,,,,,,,,,,,,,,,,,,,,,,,,,,MET10511/23/16 14:56:02 METAR KCHS 231956Z 16008KT 10SM FEW060 BKN250 21/08 A3025 RMK AO2 SLP243 T02110083 (MH),,,,,,,,,,,,,,,,,,,,,,,,,,,,2009-06-10
72208013880,2016-11-28T15:56:00,FM-15,7,,SE,0.25,mi,"TEMP, PRECIP, SNOW",,,"MMTS, SRG, SNOWBOARD",,,WFO CHS,,,,,,,,,,,,,,,,,,,,,,,,,,,30.04,51,71,0.00,,+0.06,6,49,30.03,FEW:02 70 BKN:07 150 BKN:07 200,29.99,10.00,60,150,,14,,,,,,,,,,,,,,,,,,,,,,,,,,,,,,,,,,,,,MET12111/28/16 15:56:02 METAR KCHS 282056Z 15012KT 10SM FEW070 BKN150 BKN200 22/11 A3004 RMK AO2 SLP171 T02170106 56020 $ (BBE),,,,,,,,,,,,,,,,,,,,,,,,,,,,2009-06-10
72208013880,2016-11-28T16:00:00,FM-12,4,,SE,0.25,mi,"TEMP, PRECIP, SNOW",,,"MMTS, SRG, SNOWBOARD",,,WFO CHS,,,,,,,,,,,,,,,,,,,,,,,,,,,30.04,51,71,,,+0.06,6,49,30.03,74,29.99,9.94,60,150,,14,,,,,,,,,,,,,,,,,,,,,,,,,,,,,,,,,,,,,SYN06472208 32866 61512 10217 20106 30157 40171 56020 92056 555 92821=,,,,,,,,,,,,,,,,,,,,,,,,,,,,2009-06-10
72208013880,2016-12-06T10:56:00,FM-15,7,,SE,0.25,mi,"TEMP, PRECIP, SNOW",,,"MMTS, SRG, SNOWBOARD",,,WFO CHS,,,,,,,,,,,,,,,,,,,,,,,,,,,29.77,59,60,0.22,-RA:02 BR:1 |RA |,,,96,29.76,SCT:04 3 BKN:07 10 OVC:08 20,29.72,1.00,59,160,,7,,,,,,,,,,,,,,,,,,,,,,,,,,,,,,,,,,,,,MET17212/06/16 10:56:02 METAR KCHS 061556Z 16006KT 1SM R15/P6000FT -RA BR SCT003 BKN010 OVC020 16/15 A2977 RMK AO2 LTG DSNT S AND SW SLP079 CB DSNT S AND SW P0023 T01560150 (JMB),,,,,,,,,,,,,,,,,,,,,,,,,,,,2009-06-10
72208013880,2016-12-06T12:56:00,FM-15,7,,SE,0.25,mi,"TEMP, PRECIP, SNOW",,,"MMTS, SRG, SNOWBOARD",,,WFO CHS,,,,,,,,,,,,,,,,,,,,,,,,,,,29.68,65,67,0.01,BR:1 ||,+0.12,6,93,29.68,BKN:07 3 OVC:08 15,29.63,1.00,66,170,,8,,,,,,,,,,,,,,,,,,,,,,,,,,,,,,,,,,,,,MET16012/06/16 12:56:02 METAR KCHS 061756Z 17007KT 1SM R15/P6000FT BR BKN003 OVC015 19/18 A2968 RMK AO2 SFC VIS 2 SLP051 P0001 60065 T01940183 10194 20150 56042 (JMB),,,,,,,,,,,,,,,,,,,,,,,,,,,,2009-06-10
72208013880,2016-12-06T13:00:00,FM-12,4,,SE,0.25,mi,"TEMP, PRECIP, SNOW",,,"MMTS, SRG, SNOWBOARD",,,WFO CHS,,,,,,,,,,,,,,,,,,,,,,,,,,,29.68,65,67,,,+0.12,6,93,29.68,2,29.63,0.99,66,170,,8,,,,,,,,,,,,,,,,,,,,,,,,,,,,,,,,,,,,,SYN09272208 11116 81707 10194 20183 30035 40051 56042 60171 710// 91756 333 10194 20144 555 90618=,,,,,,,,,,,,,,,,,,,,,,,,,,,,2009-06-10
72208013880,2016-12-07T11:56:00,FM-15,7,,SE,0.25,mi,"TEMP, PRECIP, SNOW",,,"MMTS, SRG, SNOWBOARD",,,WFO CHS,,,,,,,,,,,,,,,,,,,,,,,,,,,30.07,49,55,0.00,,,,80,30.07,BKN:07 8 OVC:08 15,30.02,10.00,52,170,,7,,,,,,,,,,,,,,,,,,,,,,,,,,,,,,,,,,,,,MET10612/07/16 11:56:02 METAR KCHS 071656Z 17006KT 10SM BKN008 OVC015 13/09 A3007 RMK AO2 SLP182 T01280094 (JMB),,,,,,,,,,,,,,,,,,,,,,,,,,,,2009-06-10
72208013880,2016-12-13T14:28:00,FM-16,7,,SE,0.25,mi,"TEMP, PRECIP, SNOW",,,"MMTS, SRG, SNOWBOARD",,,WFO CHS,,,,,,,,,,,,,,,,,,,,,,,,,,,29.99,59,65,,,,,81,,BKN:07 13 BKN:07 50 OVC:08 80,29.94,10.00,61,150,,10,,,,,,,,,,,,,,,,,,,,,,,,,,,,,,,,,,,,,MET10612/13/16 14:28:02 SPECI KCHS 131928Z 15009KT 10SM BKN013 BKN050 OVC080 18/15 A2999 RMK AO2 T01830150 (JMB),,,,,,,,,,,,,,,,,,,,,,,,,,,,2009-06-10
72208013880,2017-01-01T10:56:00,FM-15,7,,SE,0.25,mi,"TEMP, PRECIP, SNOW",,,"MMTS, SRG, SNOWBOARD",,,WFO CHS,,,,,,,,,,,,,,,,,,,,,,,,,,,30.21,54,59,0.00,,,,83,30.21,BKN:07 100,30.16,10.00,56,170,,7,,,,,,,,,,,,,,,,,,,,,,,,,,,,,,,,,,,,,MET10001/01/17 10:56:02 METAR KCHS 011556Z 17006KT 10SM BKN100 15/12 A3021 RMK AO2 SLP230 T01500122 $ (MH),,,,,,,,,,,,,,,,,,,,,,,,,,,,2009-06-10
72208013880,2017-01-01T13:56:00,FM-15,7,,SE,0.25,mi,"TEMP, PRECIP, SNOW",,,"MMTS, SRG, SNOWBOARD",,,WFO CHS,,,,,,,,,,,,,,,,,,,,,,,,,,,30.15,60,68,0.00,,,,76,30.15,OVC:08 70,30.10,10.00,63,170,,7,,,,,,,,,,,,,,,,,,,,,,,,,,,,,,,,,,,,,MET10001/01/17 13:56:02 METAR KCHS 011856Z 17006KT 10SM OVC070 20/16 A3015 RMK AO2 SLP210 T02000156 $ (MH),,,,,,,,,,,,,,,,,,,,,,,,,,,,2009-06-10
72208013880,2017-01-02T16:56:00,FM-15,7,,SE,0.25,mi,"TEMP, PRECIP, SNOW",,,"MMTS, SRG, SNOWBOARD",,,WFO CHS,,,,,,,,,,,,,,,,,,,,,,,,,,,30.11,64,72,0.00,,,,76,30.11,FEW:02 80 BKN:07 250,30.06,10.00,67,170,,8,,,,,,,,,,,,,,,,,,,,,,,,,,,,,,,,,,,,,MET10801/02/17 16:56:02 METAR KCHS 022156Z 17007KT 10SM FEW080 BKN250 22/18 A3011 RMK AO2 SLP197 T02220178 $ (BBE),,,,,,,,,,,,,,,,,,,,,,,,,,,,2009-06-10
72208013880,2017-01-02T17:56:00,FM-15,7,,SE,0.25,mi,"TEMP, PRECIP, SNOW",,,"MMTS, SRG, SNOWBOARD",,,WFO CHS,,,,,,,,,,,,,,,,,,,,,,,,,,,30.11,63,68,0.00,,,,84,30.11,SCT:04 80 BKN:07 250,30.06,10.00,65,160,,7,,,,,,,,,,,,,,,,,,,,,,,,,,,,,,,,,,,,,MET10801/02/17 17:56:02 METAR KCHS 022256Z 16006KT 10SM SCT080 BKN250 20/17 A3011 RMK AO2 SLP197 T02000172 $ (BBE),,,,,,,,,,,,,,,,,,,,,,,,,,,,2009-06-10
72208013880,2017-01-10T13:56:00,FM-15,7,,SE,0.25,mi,"TEMP, PRECIP, SNOW",,,"MMTS, SRG, SNOWBOARD",,,WFO CHS,,,,,,,,,,,,,,,,,,,,,,,,,,,30.43,46,61,0.00,,,,58,30.43,FEW:02 40 FEW:02 120 SCT:04 250,30.38,10.00,53,150,,10,,,,,,,,,,,,,,,,,,,,,,,,,,,,,,,,,,,,,MET11301/10/17 13:56:02 METAR KCHS 101856Z 15009KT 10SM FEW040 FEW120 SCT250 16/08 A3043 RMK AO2 SLP305 T01610078 (JMB),,,,,,,,,,,,,,,,,,,,,,,,,,,,2009-06-10
72208013880,2017-01-10T15:56:00,FM-15,7,,SE,0.25,mi,"TEMP, PRECIP, SNOW",,,"MMTS, SRG, SNOWBOARD",,,WFO CHS,,,,,,,,,,,,,,,,,,,,,,,,,,,30.41,51,60,0.00,,+0.04,6,72,30.41,FEW:02 40 SCT:04 70 SCT:04 250,30.36,10.00,55,160,,10,,,,,,,,,,,,,,,,,,,,,,,,,,,,,,,,,,,,,MET11901/10/17 15:56:02 METAR KCHS 102056Z 16009KT 10SM FEW040 SCT070 SCT250 16/10 A3041 RMK AO2 SLP298 T01560106 56015 (BBE),,,,,,,,,,,,,,,,,,,,,,,,,,,,2009-06-10
72208013880,2017-01-10T16:00:00,FM-12,4,,SE,0.25,mi,"TEMP, PRECIP, SNOW",,,"MMTS, SRG, SNOWBOARD",,,WFO CHS,,,,,,,,,,,,,,,,,,,,,,,,,,,30.41,51,60,,,+0.04,6,72,30.41,41,30.36,9.94,55,160,,10,,,,,,,,,,,,,,,,,,,,,,,,,,,,,,,,,,,,,SYN06472208 32666 41609 10156 20106 30282 40298 56015 92056 555 91021=,,,,,,,,,,,,,,,,,,,,,,,,,,,,2009-06-10
72208013880,2017-01-11T17:56:00,FM-15,7,,SE,0.25,mi,"TEMP, PRECIP, SNOW",,,"MMTS, SRG, SNOWBOARD",,,WFO CHS,,,,,,,,,,,,,,,,,,,,,,,,,,,30.33,55,63,0.00,,,,75,30.33,FEW:02 40 FEW:02 80 SCT:04 250,30.28,10.00,58,170,,8,,,,,,,,,,,,,,,,,,,,,,,,,,,,,,,,,,,,,MET11501/11/17 17:56:02 METAR KCHS 112256Z 17007KT 10SM FEW040 FEW080 SCT250 17/13 A3033 RMK AO2 SLP271 T01720128 $ (BBE),,,,,,,,,,,,,,,,,,,,,,,,,,,,2009-06-10
72208013880,2017-01-14T15:56:00,FM-15,7,,SE,0.25,mi,"TEMP, PRECIP, SNOW",,,"MMTS, SRG, SNOWBOARD",,,WFO CHS,,,,,,,,,,,,,,,,,,,,,,,,,,,30.38,54,69,0.00,,+0.04,6,59,30.37,FEW:02 45,30.33,10.00,60,160,,8,,,,,,,,,,,,,,,,,,,,,,,,,,,,,,,,,,,,,MET10501/14/17 15:56:02 METAR KCHS 142056Z 16007KT 10SM FEW045 21/12 A3038 RMK AO2 SLP286 T02060122 56015 (JRS),,,,,,,,,,,,,,,,,,,,,,,,,,,,2009-06-10
72208013880,2017-01-14T16:00:00,FM-12,4,,SE,0.25,mi,"TEMP, PRECIP, SNOW",,,"MMTS, SRG, SNOWBOARD",,,WFO CHS,,,,,,,,,,,,,,,,,,,,,,,,,,,30.38,54,69,,,+0.04,6,59,30.37,41,30.33,9.94,60,160,,8,,,,,,,,,,,,,,,,,,,,,,,,,,,,,,,,,,,,,SYN06472208 32666 21607 10206 20122 30272 40286 56015 92056 555 91421=,,,,,,,,,,,,,,,,,,,,,,,,,,,,2009-06-10
72208013880,2017-01-14T16:56:00,FM-15,7,,SE,0.25,mi,"TEMP, PRECIP, SNOW",,,"MMTS, SRG, SNOWBOARD",,,WFO CHS,,,,,,,,,,,,,,,,,,,,,,,,,,,30.37,53,63,0.00,,,,70,30.37,FEW:02 200,30.32,10.00,57,160,,8,,,,,,,,,,,,,,,,,,,,,,,,,,,,,,,,,,,,,MET09901/14/17 16:56:02 METAR KCHS 142156Z 16007KT 10SM FEW200 17/12 A3037 RMK AO2 SLP285 T01720117 (JRS),,,,,,,,,,,,,,,,,,,,,,,,,,,,2009-06-10
72208013880,2017-01-14T17:56:00,FM-15,7,,SE,0.25,mi,"TEMP, PRECIP, SNOW",,,"MMTS, SRG, SNOWBOARD",,,WFO CHS,,,,,,,,,,,,,,,,,,,,,,,,,,,30.38,51,56,0.00,,,,84,30.38,FEW:02 200,30.33,10.00,53,160,,7,,,,,,,,,,,,,,,,,,,,,,,,,,,,,,,,,,,,,MET09901/14/17 17:56:02 METAR KCHS 142256Z 16006KT 10SM FEW200 13/11 A3038 RMK AO2 SLP287 T01330106 (JRS),,,,,,,,,,,,,,,,,,,,,,,,,,,,2009-06-10
72208013880,2017-01-19T15:56:00,FM-15,7,,SE,0.25,mi,"TEMP, PRECIP, SNOW",,,"MMTS, SRG, SNOWBOARD",,,WFO CHS,,,,,,,,,,,,,,,,,,,,,,,,,,,29.99,53,68,0.00,,+0.03,5,59,29.98,SCT:04 150 BKN:07 250,29.94,10.00,59,150,,10,,,,,,,,,,,,,,,,,,,,,,,,,,,,,,,,,,,,,MET11201/19/17 15:56:02 METAR KCHS 192056Z 15009KT 10SM SCT150 BKN250 20/12 A2999 RMK AO2 SLP154 T02000117 55010 (BBE),,,,,,,,,,,,,,,,,,,,,,,,,,,,2009-06-10
72208013880,2017-01-19T16:00:00,FM-12,4,,SE,0.25,mi,"TEMP, PRECIP, SNOW",,,"MMTS, SRG, SNOWBOARD",,,WFO CHS,,,,,,,,,,,,,,,,,,,,,,,,,,,29.99,53,68,,,+0.03,5,59,29.98,,29.94,9.94,59,150,,10,,,,,,,,,,,,,,,,,,,,,,,,,,,,,,,,,,,,,SYN06472208 32966 61509 10200 20117 30140 40154 55010 92056 555 91921=,,,,,,,,,,,,,,,,,,,,,,,,,,,,2009-06-10
72208013880,2017-01-21T10:54:00,FM-16,7,,SE,0.25,mi,"TEMP, PRECIP, SNOW",,,"MMTS, SRG, SNOWBOARD",,,WFO CHS,,,,,,,,,,,,,,,,,,,,,,,,,,,29.91,64,66,0.42,TS:7 RA:02 |RA TS TS |,,,94,,BKN:07 4 OVC:08 6,29.86,0.75,65,170,,8,,,,,,,,,,,,,,,,,,,,,,,,,,,,,,,,,,,,,MET16101/21/17 10:54:02 SPECI KCHS 211554Z 17007KT 3/4SM R15/2200VP6000FT TSRA BKN004 OVC006CB 19/18 A2991 RMK AO2 RAB16 TSB53 OCNL LTGICCC SW TS OVH MOV NE P0042 (MH),,,,,,,,,,,,,,,,,,,,,,,,,,,,2009-06-10
72208013880,2017-01-21T10:56:00,FM-15,7,,SE,0.25,mi,"TEMP, PRECIP, SNOW",,,"MMTS, SRG, SNOWBOARD",,,WFO CHS,,,,,,,,,,,,,,,,,,,,,,,,,,,29.91,64,66,0.44,TS:7 +RA:02 |RA s TS s TS |,,,93,29.91,BKN:07 4 OVC:08 6,29.86,0.50,65,170,,8,,,,,,,,,,,,,,,,,,,,,,,,,,,,,,,,,,,,,MET17901/21/17 10:56:02 METAR KCHS 211556Z 17007KT 1/2SM R15/2200VP6000FT +TSRA BKN004 OVC006CB 19/18 A2991 RMK AO2 RAB16 TSB53 SLP128 OCNL LTGICCC SE TS OVH MOV NE P0043 T01890178 (MH),,,,,,,,,,,,,,,,,,,,,,,,,,,,2009-06-10
72208013880,2017-01-21T11:03:00,FM-16,7,,SE,0.25,mi,"TEMP, PRECIP, SNOW",,,"MMTS, SRG, SNOWBOARD",,,WFO CHS,,,,,,,,,,,,,,,,,,,,,,,,,,,29.91,64,66,0.02,VCTS:7 RA:02 BR:1 |RA |,,,93,,SCT:04 4 BKN:07 7 OVC:08 10,29.86,3.00,65,170,,7,,,,,,,,,,,,,,,,,,,,,,,,,,,,,,,,,,,,,MET15301/21/17 11:03:02 SPECI KCHS 211603Z 17006KT 3SM VCTS RA BR SCT004 BKN007CB OVC010 19/18 A2991 RMK AO2 OCNL LTGICCC E TS VC MOV E-NE P0002 T01890178 (MH),,,,,,,,,,,,,,,,,,,,,,,,,,,,2009-06-10
72208013880,2017-01-21T11:44:00,FM-16,7,,SE,0.25,mi,"TEMP, PRECIP, SNOW",,,"MMTS, SRG, SNOWBOARD",,,WFO CHS,,,,,,,,,,,,,,,,,,,,,,,,,,,29.86,65,67,0.07,-RA:02 BR:1 |RA |,,,93,,FEW:02 7 BKN:07 12 OVC:08 25,29.81,4.00,66,150,,9,,,,,,,,,,,,,,,,,,,,,,,,,,,,,,,,,,,,,MET12401/21/17 11:44:02 SPECI KCHS 211644Z 15008KT 4SM -RA BR FEW007 BKN012 OVC025 19/18 A2986 RMK AO2 PRESFR P0007 T01940183 (MH),,,,,,,,,,,,,,,,,,,,,,,,,,,,2009-06-10
72208013880,2017-01-21T11:54:00,FM-16,6,,SE,0.25,mi,"TEMP, PRECIP, SNOW",,,"MMTS, SRG, SNOWBOARD",,,WFO CHS,,,,,,,,,,,,,,,,,,,,,,,,,,,29.85,64,66,,BR:1 ||,,,94,,FEW:02 10 BKN:07 25 OVC:08 35,29.80,6.00,65,150,,9,,,,,,,,,,,,,,,,,,,,,,,,,,,,,,,,,,,,,MET10801/21/17 11:54:02 SPECI KCHS 211654Z 15008KT 6SM BR FEW010 BKN025 OVC035 19/18 A2985 RMK AO2 P0007 FIBI (MH),,,,,,,,,,,,,,,,,,,,,,,,,,,,2009-06-10
72208013880,2017-01-21T11:56:00,FM-15,7,,SE,0.25,mi,"TEMP, PRECIP, SNOW",,,"MMTS, SRG, SNOWBOARD",,,WFO CHS,,,,,,,,,,,,,,,,,,,,,,,,,,,29.85,65,67,0.06,BR:1 ||,,,93,29.85,FEW:02 10 BKN:07 25 OVC:08 35,29.80,6.00,66,160,,9,,,,,,,,,,,,,,,,,,,,,,,,,,,,,,,,,,,,,MET12001/21/17 11:56:02 METAR KCHS 211656Z 16008KT 6SM BR FEW010 BKN025 OVC035 19/18 A2985 RMK AO2 SLP108 P0007 T01940183 (MH),,,,,,,,,,,,,,,,,,,,,,,,,,,,2009-06-10
72208013880,2017-01-21T12:10:00,FM-16,7,,SE,0.25,mi,"TEMP, PRECIP, SNOW",,,"MMTS, SRG, SNOWBOARD",,,WFO CHS,,,,,,,,,,,,,,,,,,,,,,,,,,,29.85,66,68,0.01,,,,93,,FEW:02 4 SCT:04 25 BKN:07 35,29.80,9.00,67,170,,10,,,,,,,,,,,,,,,,,,,,,,,,,,,,,,,,,,,,,MET11001/21/17 12:10:02 SPECI KCHS 211710Z 17009KT 9SM FEW004 SCT025 BKN035 20/19 A2985 RMK AO2 P0001 T02000189 (MH),,,,,,,,,,,,,,,,,,,,,,,,,,,,2009-06-10
72208013880,2017-01-21T12:54:00,FM-16,6,,SE,0.25,mi,"TEMP, PRECIP, SNOW",,,"MMTS, SRG, SNOWBOARD",,,WFO CHS,,,,,,,,,,,,,,,,,,,,,,,,,,,29.81,64,70,,,,,83,,BKN:07 6 BKN:07 33 BKN:07 42,29.76,10.00,66,170,,7,,,,,,,,,,,,,,,,,,,,,,,,,,,,,,,,,,,,,MET11801/21/17 12:54:02 SPECI KCHS 211754Z 17006KT 10SM BKN006 BKN033 BKN042 21/18 A2981 RMK AO2 CIG 005V010 P0001 FIBI (MH),,,,,,,,,,,,,,,,,,,,,,,,,,,,2009-06-10
72208013880,2017-01-21T12:56:00,FM-15,7,,SE,0.25,mi,"TEMP, PRECIP, SNOW",,,"MMTS, SRG, SNOWBOARD",,,WFO CHS,,,,,,,,,,,,,,,,,,,,,,,,,,,29.81,66,69,0.01,,+0.10,8,90,29.81,BKN:07 6 BKN:07 33 BKN:07 42,29.76,10.00,67,170,,8,,,,,,,,,,,,,,,,,,,,,,,,,,,,,,,,,,,,,MET15401/21/17 12:56:02 METAR KCHS 211756Z 17007KT 10SM BKN006 BKN033 BKN042 21/19 A2981 RMK AO2 CIG 005V010 SLP094 P0001 60051 T02060189 10206 20183 58034 (MH),,,,,,,,,,,,,,,,,,,,,,,,,,,,2009-06-10
72208013880,2017-01-21T13:00:00,FM-12,4,,SE,0.25,mi,"TEMP, PRECIP, SNOW",,,"MMTS, SRG, SNOWBOARD",,,WFO CHS,,,,,,,,,,,,,,,,,,,,,,,,,,,29.81,66,69,,,+0.10,8,90,29.81,5,29.76,9.94,67,170,,8,,,,,,,,,,,,,,,,,,,,,,,,,,,,,,,,,,,,,SYN08672208 12266 61707 10206 20189 30079 40094 58034 60131 91756 333 10206 20172 555 92118=,,,,,,,,,,,,,,,,,,,,,,,,,,,,2009-06-10
72208013880,2017-01-21T13:09:00,FM-16,7,,SE,0.25,mi,"TEMP, PRECIP, SNOW",,,"MMTS, SRG, SNOWBOARD",,,WFO CHS,,,,,,,,,,,,,,,,,,,,,,,,,,,29.80,65,68,0.01,-RA:02 BR:1 |RA |,,,90,,BKN:07 6 OVC:08 30,29.75,2.50,66,170,,14,,,,,,,,,,,,,,,,,,,,,,,,,,,,,,,,,,,,,MET13701/21/17 13:09:02 SPECI KCHS 211809Z 17012KT 2 1/2SM R15/4500VP6000FT -RA BR BKN006 OVC030 20/18 A2980 RMK AO2 RAB04 P0001 T02000183 (MH),,,,,,,,,,,,,,,,,,,,,,,,,,,,2009-06-10
72208013880,2017-01-21T13:16:00,FM-16,7,,SE,0.25,mi,"TEMP, PRECIP, SNOW",,,"MMTS, SRG, SNOWBOARD",,,WFO CHS,,,,,,,,,,,,,,,,,,,,,,,,,,,29.80,66,68,0.03,-RA:02 BR:1 |RA |,,,93,,OVC:08 8,29.75,3.00,67,170,,10,,,,,,,,,,,,,,,,,,,,,,,,,,,,,,,,,,,,,MET13801/21/17 13:16:02 SPECI KCHS 211816Z 17009KT 3SM R15/4500VP6000FT -RA BR OVC008 20/19 A2980 RMK AO2 RAB04 CIG 004V014 P0003 T02000189 (MH),,,,,,,,,,,,,,,,,,,,,,,,,,,,2009-06-10
72208013880,2017-01-21T14:56:00,FM-15,7,,SE,0.25,mi,"TEMP, PRECIP, SNOW",,,"MMTS, SRG, SNOWBOARD",,,WFO CHS,,,,,,,,,,,,,,,,,,,,,,,,,,,29.74,65,68,0.00,,,,90,29.74,BKN:07 4 OVC:08 6,29.69,10.00,66,160,,11,,,,,,,,,,,,,,,,,,,,,,,,,,,,,,,,,,,,,MET10501/21/17 14:56:02 METAR KCHS 211956Z 16010KT 10SM BKN004 OVC006 20/18 A2974 RMK AO2 SLP071 T02000183 (MH),,,,,,,,,,,,,,,,,,,,,,,,,,,,2009-06-10
72208013880,2017-01-21T15:09:00,FM-16,7,,SE,0.25,mi,"TEMP, PRECIP, SNOW",,,"MMTS, SRG, SNOWBOARD",,,WFO CHS,,,,,,,,,,,,,,,,,,,,,,,,,,,29.74,65,68,,,,,90,,BKN:07 6 OVC:08 9,29.69,10.00,66,160,,13,,,,,,,,,,,,,,,,,,,,,,,,,,,,,,,,,,,,,MET09901/21/17 15:09:02 SPECI KCHS 212009Z 16011KT 10SM BKN006 OVC009 20/18 A2974 RMK AO2 T02000183 (JRS),,,,,,,,,,,,,,,,,,,,,,,,,,,,2009-06-10
72208013880,2017-01-21T16:20:00,FM-16,7,,SE,0.25,mi,"TEMP, PRECIP, SNOW",,,"MMTS, SRG, SNOWBOARD",,,WFO CHS,,,,,,,,,,,,,,,,,,,,,,,,,,,29.72,64,67,T,-RA:02 |RA |,,,91,,BKN:07 7 OVC:08 12,29.67,8.00,65,170,,14,,,,,,,,,,,,,,,,,,,,,,,,,,,,,,,,,,,,,MET16501/21/17 16:20:02 SPECI KCHS 212120Z 17012KT 8SM -RA BKN007 OVC012CB 19/18 A2972 RMK AO2 LTG DSNT SW-NW RAB12 OCNL LTGCGIC SW-NW CB SW-NW MOV E P0000 T01940178 (JRS),,,,,,,,,,,,,,,,,,,,,,,,,,,,2009-06-10
72208013880,2017-01-21T16:31:00,FM-16,7,,SE,0.25,mi,"TEMP, PRECIP, SNOW",,,"MMTS, SRG, SNOWBOARD",,,WFO CHS,,,,,,,,,,,,,,,,,,,,,,,,,,,29.70,64,67,T,TS:7 RA:02 |RA TS TS |,,,91,,BKN:07 6 OVC:08 20,29.65,4.00,65,160,,16,,,,,,,,,,,,,,,,,,,,,,,,,,,,,,,,,,,,,MET19501/21/17 16:31:02 SPECI KCHS 212131Z 16014KT 4SM R15/5500VP6000FT TSRA BKN006 OVC020CB 19/18 A2970 RMK AO2 LTG DSNT SW-N RAB12 TSB27 PRESFR OCNL LTGCGIC SW-NW TS SW-NW MOV E P0000 T01940178 (JRS),,,,,,,,,,,,,,,,,,,,,,,,,,,,2009-06-10
72208013880,2017-01-22T17:56:00,FM-15,7,,SE,0.25,mi,"TEMP, PRECIP, SNOW",,,"MMTS, SRG, SNOWBOARD",,,WFO CHS,,,,,,,,,,,,,,,,,,,,,,,,,,,29.43,59,61,0.00,,,,93,29.43,FEW:02 5 BKN:07 60 OVC:08 200,29.38,10.00,60,160,,9,,,,,,,,,,,,,,,,,,,,,,,,,,,,,,,,,,,,,MET16301/22/17 17:56:02 METAR KCHS 222256Z 16008KT 10SM FEW005 BKN060 OVC200 16/15 A2943 RMK AO2 LTG DSNT NW SLP965 OCNL LTGICCG DSNT SW-NW CB DSNT SW-NW T01610150 (JRS),,,,,,,,,,,,,,,,,,,,,,,,,,,,2009-06-10
72208013880,2017-02-06T11:56:00,FM-15,7,,SE,0.25,mi,"TEMP, PRECIP, SNOW",,,"MMTS, SRG, SNOWBOARD",,,WFO CHS,,,,,,,,,,,,,,,,,,,,,,,,,,,30.22,45,62,0.00,,,,54,30.22,FEW:02 50 FEW:02 200,30.17,10.00,53,160,,9,,,,,,,,,,,,,,,,,,,,,,,,,,,,,,,,,,,,,MET10502/06/17 11:56:02 METAR KCHS 061656Z 16008KT 10SM FEW050 FEW200 17/07 A3022 RMK AO2 SLP232 T01670072 (MH),,,,,,,,,,,,,,,,,,,,,,,,,,,,2009-06-10
72208013880,2017-02-06T13:56:00,FM-15,7,,SE,0.25,mi,"TEMP, PRECIP, SNOW",,,"MMTS, SRG, SNOWBOARD",,,WFO CHS,,,,,,,,,,,,,,,,,,,,,,,,,,,30.17,45,67,0.00,,,,45,30.17,FEW:02 50 FEW:02 200,30.12,10.00,55,150,,7,,,,,,,,,,,,,,,,,,,,,,,,,,,,,,,,,,,,,MET10502/06/17 13:56:02 METAR KCHS 061856Z 15006KT 10SM FEW050 FEW200 19/07 A3017 RMK AO2 SLP216 T01940072 (MH),,,,,,,,,,,,,,,,,,,,,,,,,,,,2009-06-10
72208013880,2017-02-06T17:56:00,FM-15,7,,SE,0.25,mi,"TEMP, PRECIP, SNOW",,,"MMTS, SRG, SNOWBOARD",,,WFO CHS,,,,,,,,,,,,,,,,,,,,,,,,,,,30.15,47,56,0.00,,,,72,30.15,BKN:07 250,30.10,10.00,51,160,,7,,,,,,,,,,,,,,,,,,,,,,,,,,,,,,,,,,,,,MET09902/06/17 17:56:02 METAR KCHS 062256Z 16006KT 10SM BKN250 13/08 A3015 RMK AO2 SLP210 T01330083 (BBE),,,,,,,,,,,,,,,,,,,,,,,,,,,,2009-06-10
72208013880,2017-02-10T13:56:00,FM-15,7,,SE,0.25,mi,"TEMP, PRECIP, SNOW",,,"MMTS, SRG, SNOWBOARD",,,WFO CHS,,,,,,,,,,,,,,,,,,,,,,,,,,,30.43,24,54,0.00,,,,31,30.42,FEW:02 150,30.38,10.00,42,170,,11,,,,,,,,,,,,,,,,,,,,,,,,,,,,,,,,,,,,,MET09902/10/17 13:56:02 METAR KCHS 101856Z 17010KT 10SM FEW150 12/M04 A3043 RMK AO2 SLP302 T01221044 (MH),,,,,,,,,,,,,,,,,,,,,,,,,,,,2009-06-10
72208013880,2017-02-10T16:56:00,FM-15,7,,SE,0.25,mi,"TEMP, PRECIP, SNOW",,,"MMTS, SRG, SNOWBOARD",,,WFO CHS,,,,,,,,,,,,,,,,,,,,,,,,,,,30.38,29,52,0.00,,,,41,30.38,SCT:04 250,30.33,10.00,42,160,,10,,,,,,,,,,,,,,,,,,,,,,,,,,,,,,,,,,,,,MET10002/10/17 16:56:02 METAR KCHS 102156Z 16009KT 10SM SCT250 11/M02 A3038 RMK AO2 SLP287 T01111017 (BBE),,,,,,,,,,,,,,,,,,,,,,,,,,,,2009-06-10
72208013880,2017-02-14T10:56:00,FM-15,7,,SE,0.25,mi,"TEMP, PRECIP, SNOW",,,"MMTS, SRG, SNOWBOARD",,,WFO CHS,,,,,,,,,,,,,,,,,,,,,,,,,,,30.03,37,66,0.00,,,,34,30.03,SCT:04 250,29.98,10.00,52,160,,10,,,,,,,,,,,,,,,,,,,,,,,,,,,,,,,,,,,,,MET09902/14/17 10:56:02 METAR KCHS 141556Z 16009KT 10SM SCT250 19/03 A3003 RMK AO2 SLP168 T01890028 (JMB),,,,,,,,,,,,,,,,,,,,,,,,,,,,2009-06-10
72208013880,2017-02-20T14:56:00,FM-15,7,,SE,0.25,mi,"TEMP, PRECIP, SNOW",,,"MMTS, SRG, SNOWBOARD",,,WFO CHS,,,,,,,,,,,,,,,,,,,,,,,,,,,30.14,47,75,0.00,,,,37,30.14,SCT:04 250,30.09,10.00,59,160,,10,,,,,,,,,,,,,,,,,,,,,,,,,,,,,,,,,,,,,MET09902/20/17 14:56:02 METAR KCHS 201956Z 16009KT 10SM SCT250 24/08 A3014 RMK AO2 SLP206 T02390083 (JMB),,,,,,,,,,,,,,,,,,,,,,,,,,,,2009-06-10
72208013880,2017-02-20T15:56:00,FM-15,7,,SE,0.25,mi,"TEMP, PRECIP, SNOW",,,"MMTS, SRG, SNOWBOARD",,,WFO CHS,,,,,,,,,,,,,,,,,,,,,,,,,,,30.15,45,71,0.00,,+0.01,5,39,30.15,BKN:07 250,30.10,10.00,57,150,,11,,,,,,,,,,,,,,,,,,,,,,,,,,,,,,,,,,,,,MET10502/20/17 15:56:02 METAR KCHS 202056Z 15010KT 10SM BKN250 22/07 A3015 RMK AO2 SLP209 T02170072 55003 (BBE),,,,,,,,,,,,,,,,,,,,,,,,,,,,2009-06-10
72208013880,2017-02-20T16:00:00,FM-12,4,,SE,0.25,mi,"TEMP, PRECIP, SNOW",,,"MMTS, SRG, SNOWBOARD",,,WFO CHS,,,,,,,,,,,,,,,,,,,,,,,,,,,30.15,45,71,,,+0.01,5,39,30.15,,30.10,9.94,57,150,,11,,,,,,,,,,,,,,,,,,,,,,,,,,,,,,,,,,,,,SYN06472208 32966 61510 10217 20072 30194 40209 55003 92056 555 92021=,,,,,,,,,,,,,,,,,,,,,,,,,,,,2009-06-10
72208013880,2017-02-26T16:56:00,FM-15,7,,SE,0.25,mi,"TEMP, PRECIP, SNOW",,,"MMTS, SRG, SNOWBOARD",,,WFO CHS,,,,,,,,,,,,,,,,,,,,,,,,,,,30.19,34,60,0.00,,,,38,30.19,CLR:00,30.14,10.00,48,170,,10,,,,,,,,,,,,,,,,,,,,,,,,,,,,,,,,,,,,,MET09602/26/17 16:56:02 METAR KCHS 262156Z 17009KT 10SM CLR 16/01 A3019 RMK AO2 SLP223 T01560011 (JRS),,,,,,,,,,,,,,,,,,,,,,,,,,,,2009-06-10
72208013880,2017-02-27T12:56:00,FM-15,7,,SE,0.25,mi,"TEMP, PRECIP, SNOW",,,"MMTS, SRG, SNOWBOARD",,,WFO CHS,,,,,,,,,,,,,,,,,,,,,,,,,,,30.34,50,73,0.00,,+0.03,8,44,30.33,SCT:04 45 BKN:07 250,30.29,10.00,60,160,,17,,,,,,,,,,,,,,,,,,,,,,,,,,,,,,,,,,,,,MET13502/27/17 12:56:02 METAR KCHS 271756Z 16015KT 10SM SCT045 BKN250 23/10 A3034 RMK AO2 SLP272 FU DSNT SW T02280100 10233 20083 58010 (JMB),,,,,,,,,,,,,,,,,,,,,,,,,,,,2009-06-10
72208013880,2017-02-27T13:00:00,FM-12,4,,SE,0.25,mi,"TEMP, PRECIP, SNOW",,,"MMTS, SRG, SNOWBOARD",,,WFO CHS,,,,,,,,,,,,,,,,,,,,,,,,,,,30.34,50,73,,,+0.03,8,44,30.33,41,30.29,9.94,60,160,,17,,,,,,,,,,,,,,,,,,,,,,,,,,,,,,,,,,,,,SYN08072208 32666 61615 10228 20100 30258 40272 58010 91756 333 10233 20083 555 92718=,,,,,,,,,,,,,,,,,,,,,,,,,,,,2009-06-10
72208013880,2017-02-27T14:56:00,FM-15,7,,SE,0.25,mi,"TEMP, PRECIP, SNOW",,,"MMTS, SRG, SNOWBOARD",,,WFO CHS,,,,,,,,,,,,,,,,,,,,,,,,,,,30.31,51,71,0.00,,,,49,30.31,BKN:07 45,30.26,10.00,60,160,,11,,,,,,,,,,,,,,,,,,,,,,,,,,,,,,,,,,,,,MET09902/27/17 14:56:02 METAR KCHS 271956Z 16010KT 10SM BKN045 22/11 A3031 RMK AO2 SLP263 T02170106 (JMB),,,,,,,,,,,,,,,,,,,,,,,,,,,,2009-06-10
72208013880,2017-02-27T15:56:00,FM-15,7,,SE,0.25,mi,"TEMP, PRECIP, SNOW",,,"MMTS, SRG, SNOWBOARD",,,WFO CHS,,,,,,,,,,,,,,,,,,,,,,,,,,,30.31,53,72,0.00,,+0.03,6,52,30.31,SCT:04 45,30.26,10.00,61,160,,11,,,,,,,,,,,,,,,,,,,,,,,,,,,,,,,,,,,,,MET10502/27/17 15:56:02 METAR KCHS 272056Z 16010KT 10SM SCT045 22/12 A3031 RMK AO2 SLP263 T02220117 56009 (JMB),,,,,,,,,,,,,,,,,,,,,,,,,,,,2009-06-10
72208013880,2017-02-27T16:00:00,FM-12,4,,SE,0.25,mi,"TEMP, PRECIP, SNOW",,,"MMTS, SRG, SNOWBOARD",,,WFO CHS,,,,,,,,,,,,,,,,,,,,,,,,,,,30.31,53,72,,,+0.03,6,52,30.31,41,30.26,9.94,61,160,,11,,,,,,,,,,,,,,,,,,,,,,,,,,,,,,,,,,,,,SYN06472208 32666 41610 10222 20117 30248 40263 56009 92056 555 92721=,,,,,,,,,,,,,,,,,,,,,,,,,,,,2009-06-10
72208013880,2017-02-27T16:56:00,FM-15,7,,SE,0.25,mi,"TEMP, PRECIP, SNOW",,,"MMTS, SRG, SNOWBOARD",,,WFO CHS,,,,,,,,,,,,,,,,,,,,,,,,,,,30.32,54,70,0.00,,,,57,30.32,FEW:02 40 SCT:04 60,30.27,10.00,61,170,,10,,,,,,,,,,,,,,,,,,,,,,,,,,,,,,,,,,,,,MET10602/27/17 16:56:02 METAR KCHS 272156Z 17009KT 10SM FEW040 SCT060 21/12 A3032 RMK AO2 SLP266 T02110122 (MBT),,,,,,,,,,,,,,,,,,,,,,,,,,,,2009-06-10
72208013880,2017-03-04T15:56:00,FM-15,7,,SE,0.25,mi,"TEMP, PRECIP, SNOW",,,"MMTS, SRG, SNOWBOARD",,,WFO CHS,,,,,,,,,,,,,,,,,,,,,,,,,,,30.52,27,57,0.00,,+0.07,6,32,30.52,FEW:02 250,30.47,10.00,44,160,,13,,,,,,,,,,,,,,,,,,,,,,,,,,,,,,,,,,,,,MET10603/04/17 15:56:02 METAR KCHS 042056Z 16011KT 10SM FEW250 14/M03 A3052 RMK AO2 SLP334 T01391028 56025 (JRS),,,,,,,,,,,,,,,,,,,,,,,,,,,,2009-06-10
72208013880,2017-03-04T16:00:00,FM-12,4,,SE,0.25,mi,"TEMP, PRECIP, SNOW",,,"MMTS, SRG, SNOWBOARD",,,WFO CHS,,,,,,,,,,,,,,,,,,,,,,,,,,,30.52,27,57,,,+0.07,6,32,30.52,,30.47,9.94,44,160,,13,,,,,,,,,,,,,,,,,,,,,,,,,,,,,,,,,,,,,SYN06472208 32966 21611 10139 21028 30319 40334 56025 92056 555 90421=,,,,,,,,,,,,,,,,,,,,,,,,,,,,2009-06-10
72208013880,2017-03-05T14:56:00,FM-15,7,,SE,0.25,mi,"TEMP, PRECIP, SNOW",,,"MMTS, SRG, SNOWBOARD",,,WFO CHS,,,,,,,,,,,,,,,,,,,,,,,,,,,30.50,34,64,0.00,,,,33,30.49,SCT:04 250,30.45,10.00,50,160,20,13,,,,,,,,,,,,,,,,,,,,,,,,,,,,,,,,,,,,,MET10103/05/17 14:56:02 METAR KCHS 051956Z 16011G17KT 10SM SCT250 18/01 A3050 RMK AO2 SLP326 T01780011 (MH),,,,,,,,,,,,,,,,,,,,,,,,,,,,2009-06-10
72208013880,2017-03-05T16:56:00,FM-15,7,,SE,0.25,mi,"TEMP, PRECIP, SNOW",,,"MMTS, SRG, SNOWBOARD",,,WFO CHS,,,,,,,,,,,,,,,,,,,,,,,,,,,30.49,40,60,0.00,,,,47,30.49,SCT:04 250,30.44,10.00,50,150,,14,,,,,,,,,,,,,,,,,,,,,,,,,,,,,,,,,,,,,MET09903/05/17 16:56:02 METAR KCHS 052156Z 15012KT 10SM SCT250 16/04 A3049 RMK AO2 SLP325 T01560044 (JRS),,,,,,,,,,,,,,,,,,,,,,,,,,,,2009-06-10
72208013880,2017-03-06T15:56:00,FM-15,7,,SE,0.25,mi,"TEMP, PRECIP, SNOW",,,"MMTS, SRG, SNOWBOARD",,,WFO CHS,,,,,,,,,,,,,,,,,,,,,,,,,,,30.43,44,64,0.00,,+0.04,6,48,30.42,FEW:02 90 OVC:08 200,30.38,10.00,54,160,,7,,,,,,,,,,,,,,,,,,,,,,,,,,,,,,,,,,,,,MET11203/06/17 15:56:02 METAR KCHS 062056Z 16006KT 10SM FEW090 OVC200 18/07 A3043 RMK AO2 SLP303 T01780067 56014 (BBE),,,,,,,,,,,,,,,,,,,,,,,,,,,,2009-06-10
72208013880,2017-03-06T16:00:00,FM-12,4,,SE,0.25,mi,"TEMP, PRECIP, SNOW",,,"MMTS, SRG, SNOWBOARD",,,WFO CHS,,,,,,,,,,,,,,,,,,,,,,,,,,,30.43,44,64,,,+0.04,6,48,30.42,,30.38,9.94,54,160,,7,,,,,,,,,,,,,,,,,,,,,,,,,,,,,,,,,,,,,SYN06472208 32966 81606 10178 20067 30288 40303 56014 92056 555 90621=,,,,,,,,,,,,,,,,,,,,,,,,,,,,2009-06-10
72208013880,2017-03-06T16:56:00,FM-15,7,,SE,0.25,mi,"TEMP, PRECIP, SNOW",,,"MMTS, SRG, SNOWBOARD",,,WFO CHS,,,,,,,,,,,,,,,,,,,,,,,,,,,30.43,44,64,0.00,,,,48,30.42,BKN:07 80 OVC:08 200,30.38,10.00,54,160,,7,,,,,,,,,,,,,,,,,,,,,,,,,,,,,,,,,,,,,MET10603/06/17 16:56:02 METAR KCHS 062156Z 16006KT 10SM BKN080 OVC200 18/07 A3043 RMK AO2 SLP303 T01780067 (BBE),,,,,,,,,,,,,,,,,,,,,,,,,,,,2009-06-10
72208013880,2017-03-09T13:56:00,FM-15,7,,SE,0.25,mi,"TEMP, PRECIP, SNOW",,,"MMTS, SRG, SNOWBOARD",,,WFO CHS,,,,,,,,,,,,,,,,,,,,,,,,,,,30.20,21,76,0.00,,,,13,30.19,FEW:02 250,30.15,10.00,52,150,,13,,,,,,,,,,,,,,,,,,,,,,,,,,,,,,,,,,,,,MET10003/09/17 13:56:02 METAR KCHS 091856Z 15011KT 10SM FEW250 24/M06 A3020 RMK AO2 SLP225 T02441061 (JMB),,,,,,,,,,,,,,,,,,,,,,,,,,,,2009-06-10
72208013880,2017-03-09T14:54:00,FM-16,6,,SE,0.25,mi,"TEMP, PRECIP, SNOW",,,"MMTS, SRG, SNOWBOARD",,,WFO CHS,,,,,,,,,,,,,,,,,,,,,,,,,,,30.18,21,75,,,,,13,,FEW:02 5 FEW:02 250,30.13,10.00,51,160,,13,,,,,,,,,,,,,,,,,,,,,,,,,,,,,,,,,,,,,MET10503/09/17 14:54:02 SPECI KCHS 091954Z 16011KT 10SM FEW005 FEW250 24/M06 A3018 RMK AO2 FU FEW005 FIBI (JMB),,,,,,,,,,,,,,,,,,,,,,,,,,,,2009-06-10
72208013880,2017-03-09T14:56:00,FM-15,7,,SE,0.25,mi,"TEMP, PRECIP, SNOW",,,"MMTS, SRG, SNOWBOARD",,,WFO CHS,,,,,,,,,,,,,,,,,,,,,,,,,,,30.18,22,75,0.00,,,,14,30.18,FEW:02 5 FEW:02 250,30.13,10.00,51,150,,13,,,,,,,,,,,,,,,,,,,,,,,,,,,,,,,,,,,,,MET11703/09/17 14:56:02 METAR KCHS 091956Z 15011KT 10SM FEW005 FEW250 24/M06 A3018 RMK AO2 SLP219 FU FEW005 T02391056 (JMB),,,,,,,,,,,,,,,,,,,,,,,,,,,,2009-06-10
72208013880,2017-03-09T15:56:00,FM-15,7,,SE,0.25,mi,"TEMP, PRECIP, SNOW",,,"MMTS, SRG, SNOWBOARD",,,WFO CHS,,,,,,,,,,,,,,,,,,,,,,,,,,,30.16,22,73,0.00,,+0.06,6,15,30.16,SCT:04 250,30.11,10.00,50,150,,14,,,,,,,,,,,,,,,,,,,,,,,,,,,,,,,,,,,,,MET10603/09/17 15:56:02 METAR KCHS 092056Z 15012KT 10SM SCT250 23/M06 A3016 RMK AO2 SLP212 T02281056 56021 (BBE),,,,,,,,,,,,,,,,,,,,,,,,,,,,2009-06-10
72208013880,2017-03-09T16:00:00,FM-12,4,,SE,0.25,mi,"TEMP, PRECIP, SNOW",,,"MMTS, SRG, SNOWBOARD",,,WFO CHS,,,,,,,,,,,,,,,,,,,,,,,,,,,30.16,22,73,,,+0.06,6,15,30.16,,30.11,9.94,50,150,,14,,,,,,,,,,,,,,,,,,,,,,,,,,,,,,,,,,,,,SYN06472208 32966 41512 10228 21056 30197 40212 56021 92056 555 90921=,,,,,,,,,,,,,,,,,,,,,,,,,,,,2009-06-10
72208013880,2017-03-09T16:56:00,FM-15,7,,SE,0.25,mi,"TEMP, PRECIP, SNOW",,,"MMTS, SRG, SNOWBOARD",,,WFO CHS,,,,,,,,,,,,,,,,,,,,,,,,,,,30.15,27,71,0.00,,,,19,30.14,FEW:02 250,30.10,10.00,51,150,,11,,,,,,,,,,,,,,,,,,,,,,,,,,,,,,,,,,,,,MET10003/09/17 16:56:02 METAR KCHS 092156Z 15010KT 10SM FEW250 22/M03 A3015 RMK AO2 SLP208 T02171028 (BBE),,,,,,,,,,,,,,,,,,,,,,,,,,,,2009-06-10
72208013880,2017-03-11T15:56:00,FM-15,7,,SE,0.25,mi,"TEMP, PRECIP, SNOW",,,"MMTS, SRG, SNOWBOARD",,,WFO CHS,,,,,,,,,,,,,,,,,,,,,,,,,,,30.22,30,58,0.00,,+0.05,6,35,30.22,FEW:02 100 BKN:07 250,30.17,10.00,46,150,,13,,,,,,,,,,,,,,,,,,,,,,,,,,,,,,,,,,,,,MET11303/11/17 15:56:02 METAR KCHS 112056Z 15011KT 10SM FEW100 BKN250 14/M01 A3022 RMK AO2 SLP233 T01441011 56016 (JRS),,,,,,,,,,,,,,,,,,,,,,,,,,,,2009-06-10
72208013880,2017-03-11T16:00:00,FM-12,4,,SE,0.25,mi,"TEMP, PRECIP, SNOW",,,"MMTS, SRG, SNOWBOARD",,,WFO CHS,,,,,,,,,,,,,,,,,,,,,,,,,,,30.22,30,58,,,+0.05,6,35,30.22,,30.17,9.94,46,150,,13,,,,,,,,,,,,,,,,,,,,,,,,,,,,,,,,,,,,,SYN06472208 32966 61511 10144 21011 30217 40233 56016 92056 555 91121=,,,,,,,,,,,,,,,,,,,,,,,,,,,,2009-06-10
72208013880,2017-03-11T16:56:00,FM-15,7,,SE,0.25,mi,"TEMP, PRECIP, SNOW",,,"MMTS, SRG, SNOWBOARD",,,WFO CHS,,,,,,,,,,,,,,,,,,,,,,,,,,,30.20,31,56,0.00,,,,39,30.20,BKN:07 250,30.15,10.00,45,150,,10,,,,,,,,,,,,,,,,,,,,,,,,,,,,,,,,,,,,,MET10003/11/17 16:56:02 METAR KCHS 112156Z 15009KT 10SM BKN250 13/M01 A3020 RMK AO2 SLP226 T01331006 (JRS),,,,,,,,,,,,,,,,,,,,,,,,,,,,2009-06-10
72208013880,2017-03-20T15:56:00,FM-15,7,,SE,0.25,mi,"TEMP, PRECIP, SNOW",,,"MMTS, SRG, SNOWBOARD",,,WFO CHS,,,,,,,,,,,,,,,,,,,,,,,,,,,30.12,38,68,0.00,,+0.09,6,33,30.12,CLR:00,30.07,10.00,53,170,,14,,,,,,,,,,,,,,,,,,,,,,,,,,,,,,,,,,,,,MET10103/20/17 15:56:02 METAR KCHS 202056Z 17012KT 10SM CLR 20/03 A3012 RMK AO2 SLP199 T02000033 56030 (AW),,,,,,,,,,,,,,,,,,,,,,,,,,,,2009-06-10
72208013880,2017-03-20T16:00:00,FM-12,4,,SE,0.25,mi,"TEMP, PRECIP, SNOW",,,"MMTS, SRG, SNOWBOARD",,,WFO CHS,,,,,,,,,,,,,,,,,,,,,,,,,,,30.12,38,68,,,+0.09,6,33,30.12,,30.07,9.94,53,170,,14,,,,,,,,,,,,,,,,,,,,,,,,,,,,,,,,,,,,,SYN06472208 32966 01712 10200 20033 30184 40199 56030 92056 555 92021=,,,,,,,,,,,,,,,,,,,,,,,,,,,,2009-06-10
72208013880,2017-03-24T12:56:00,FM-15,7,,SE,0.25,mi,"TEMP, PRECIP, SNOW",,,"MMTS, SRG, SNOWBOARD",,,WFO CHS,,,,,,,,,,,,,,,,,,,,,,,,,,,30.45,46,75,0.00,,+0.04,8,36,30.45,SCT:04 45,30.40,10.00,59,160,20,11,,,,,,,,,,,,,,,,,,,,,,,,,,,,,,,,,,,,,MET12003/24/17 12:56:02 METAR KCHS 241756Z 16010G17KT 10SM SCT045 24/08 A3045 RMK AO2 SLP310 T02390078 10239 20094 58013 (JMB),,,,,,,,,,,,,,,,,,,,,,,,,,,,2009-06-10
72208013880,2017-03-24T13:00:00,FM-12,4,,SE,0.25,mi,"TEMP, PRECIP, SNOW",,,"MMTS, SRG, SNOWBOARD",,,WFO CHS,,,,,,,,,,,,,,,,,,,,,,,,,,,30.45,46,75,,,+0.04,8,36,30.45,41,30.40,9.94,59,160,,11,,,,,,,,,,,,,,,,,,,,,,,,,,,,,,,,,,,,,SYN08672208 32666 41610 10239 20078 30295 40310 58013 91756 333 10239 20094 91017 555 92418=,,,,,,,,,,,,,,,,,,,,,,,,,,,,2009-06-10
72208013880,2017-03-24T14:56:00,FM-15,7,,SE,0.25,mi,"TEMP, PRECIP, SNOW",,,"MMTS, SRG, SNOWBOARD",,,WFO CHS,,,,,,,,,,,,,,,,,,,,,,,,,,,30.41,48,73,0.00,,,,41,30.40,FEW:02 50,30.36,10.00,59,150,21,16,,,,,,,,,,,,,,,,,,,,,,,,,,,,,,,,,,,,,MET10203/24/17 14:56:02 METAR KCHS 241956Z 15014G18KT 10SM FEW050 23/09 A3041 RMK AO2 SLP295 T02280089 (JRS),,,,,,,,,,,,,,,,,,,,,,,,,,,,2009-06-10
72208013880,2017-03-24T15:56:00,FM-15,7,,SE,0.25,mi,"TEMP, PRECIP, SNOW",,,"MMTS, SRG, SNOWBOARD",,,WFO CHS,,,,,,,,,,,,,,,,,,,,,,,,,,,30.39,47,74,0.00,,+0.06,6,38,30.38,FEW:02 50 FEW:02 250,30.34,10.00,59,150,,15,,,,,,,,,,,,,,,,,,,,,,,,,,,,,,,,,,,,,MET11203/24/17 15:56:02 METAR KCHS 242056Z 15013KT 10SM FEW050 FEW250 23/08 A3039 RMK AO2 SLP289 T02330083 56021 (JRS),,,,,,,,,,,,,,,,,,,,,,,,,,,,2009-06-10
72208013880,2017-03-24T16:00:00,FM-12,4,,SE,0.25,mi,"TEMP, PRECIP, SNOW",,,"MMTS, SRG, SNOWBOARD",,,WFO CHS,,,,,,,,,,,,,,,,,,,,,,,,,,,30.39,47,74,,,+0.06,6,38,30.38,57,30.34,9.94,59,150,,15,,,,,,,,,,,,,,,,,,,,,,,,,,,,,,,,,,,,,SYN06472208 32766 21513 10233 20083 30275 40289 56021 92056 555 92421=,,,,,,,,,,,,,,,,,,,,,,,,,,,,2009-06-10
72208013880,2017-03-24T16:56:00,FM-15,7,,SE,0.25,mi,"TEMP, PRECIP, SNOW",,,"MMTS, SRG, SNOWBOARD",,,WFO CHS,,,,,,,,,,,,,,,,,,,,,,,,,,,30.38,47,71,0.00,,,,42,30.37,FEW:02 55 SCT:04 140,30.33,10.00,58,150,,13,,,,,,,,,,,,,,,,,,,,,,,,,,,,,,,,,,,,,MET10603/24/17 16:56:02 METAR KCHS 242156Z 15011KT 10SM FEW055 SCT140 22/08 A3038 RMK AO2 SLP286 T02170083 (JRS),,,,,,,,,,,,,,,,,,,,,,,,,,,,2009-06-10
72208013880,2017-03-24T17:56:00,FM-15,7,,SE,0.25,mi,"TEMP, PRECIP, SNOW",,,"MMTS, SRG, SNOWBOARD",,,WFO CHS,,,,,,,,,,,,,,,,,,,,,,,,,,,30.38,48,67,0.00,,,,51,30.37,FEW:02 60 FEW:02 250,30.33,10.00,57,150,,14,,,,,,,,,,,,,,,,,,,,,,,,,,,,,,,,,,,,,MET10603/24/17 17:56:02 METAR KCHS 242256Z 15012KT 10SM FEW060 FEW250 19/09 A3038 RMK AO2 SLP286 T01940089 (JRS),,,,,,,,,,,,,,,,,,,,,,,,,,,,2009-06-10
72208013880,2017-03-25T10:56:00,FM-15,7,,SE,0.25,mi,"TEMP, PRECIP, SNOW",,,"MMTS, SRG, SNOWBOARD",,,WFO CHS,,,,,,,,,,,,,,,,,,,,,,,,,,,30.34,50,74,0.00,,,,43,30.33,BKN:07 65 BKN:07 250,30.29,10.00,60,150,,11,,,,,,,,,,,,,,,,,,,,,,,,,,,,,,,,,,,,,MET10503/25/17 10:56:02 METAR KCHS 251556Z 15010KT 10SM BKN065 BKN250 23/10 A3034 RMK AO2 SLP272 T02330100 (MH),,,,,,,,,,,,,,,,,,,,,,,,,,,,2009-06-10
72208013880,2017-03-25T14:56:00,FM-15,7,,SE,0.25,mi,"TEMP, PRECIP, SNOW",,,"MMTS, SRG, SNOWBOARD",,,WFO CHS,,,,,,,,,,,,,,,,,,,,,,,,,,,30.26,52,73,0.00,,,,48,30.26,FEW:02 50 OVC:08 130,30.21,10.00,61,150,,14,,,,,,,,,,,,,,,,,,,,,,,,,,,,,,,,,,,,,MET10603/25/17 14:56:02 METAR KCHS 251956Z 15012KT 10SM FEW050 OVC130 23/11 A3026 RMK AO2 SLP247 T02280111 (JRS),,,,,,,,,,,,,,,,,,,,,,,,,,,,2009-06-10
72208013880,2017-03-25T15:56:00,FM-15,7,,SE,0.25,mi,"TEMP, PRECIP, SNOW",,,"MMTS, SRG, SNOWBOARD",,,WFO CHS,,,,,,,,,,,,,,,,,,,,,,,,,,,30.24,54,71,0.00,,+0.06,6,55,30.24,FEW:02 50 SCT:04 70 OVC:08 130,30.19,10.00,61,150,,15,,,,,,,,,,,,,,,,,,,,,,,,,,,,,,,,,,,,,MET11903/25/17 15:56:02 METAR KCHS 252056Z 15013KT 10SM FEW050 SCT070 OVC130 22/12 A3024 RMK AO2 SLP241 T02170122 56021 (JRS),,,,,,,,,,,,,,,,,,,,,,,,,,,,2009-06-10
72208013880,2017-03-25T16:00:00,FM-12,4,,SE,0.25,mi,"TEMP, PRECIP, SNOW",,,"MMTS, SRG, SNOWBOARD",,,WFO CHS,,,,,,,,,,,,,,,,,,,,,,,,,,,30.24,54,71,,,+0.06,6,55,30.24,57,30.19,9.94,61,150,,15,,,,,,,,,,,,,,,,,,,,,,,,,,,,,,,,,,,,,SYN06472208 32766 81513 10217 20122 30224 40241 56021 92056 555 92521=,,,,,,,,,,,,,,,,,,,,,,,,,,,,2009-06-10
72208013880,2017-03-25T16:56:00,FM-15,7,,SE,0.25,mi,"TEMP, PRECIP, SNOW",,,"MMTS, SRG, SNOWBOARD",,,WFO CHS,,,,,,,,,,,,,,,,,,,,,,,,,,,30.22,54,70,0.00,,,,57,30.22,FEW:02 45 FEW:02 70 BKN:07 200,30.17,10.00,61,150,,13,,,,,,,,,,,,,,,,,,,,,,,,,,,,,,,,,,,,,MET11303/25/17 16:56:02 METAR KCHS 252156Z 15011KT 10SM FEW045 FEW070 BKN200 21/12 A3022 RMK AO2 SLP232 T02110122 (JRS),,,,,,,,,,,,,,,,,,,,,,,,,,,,2009-06-10
72208013880,2017-03-26T10:56:00,FM-15,7,,SE,0.25,mi,"TEMP, PRECIP, SNOW",,,"MMTS, SRG, SNOWBOARD",,,WFO CHS,,,,,,,,,,,,,,,,,,,,,,,,,,,30.22,51,77,0.00,,,,40,30.21,FEW:02 60 FEW:02 200,30.17,10.00,62,160,18,11,,,,,,,,,,,,,,,,,,,,,,,,,,,,,,,,,,,,,MET10803/26/17 10:56:02 METAR KCHS 261556Z 16010G16KT 10SM FEW060 FEW200 25/11 A3022 RMK AO2 SLP231 T02500106 (MH),,,,,,,,,,,,,,,,,,,,,,,,,,,,2009-06-10
72208013880,2017-03-26T12:56:00,FM-15,7,,SE,0.25,mi,"TEMP, PRECIP, SNOW",,,"MMTS, SRG, SNOWBOARD",,,WFO CHS,,,,,,,,,,,,,,,,,,,,,,,,,,,30.18,50,76,0.00,,+0.03,8,40,30.18,SCT:04 60 SCT:04 200,30.13,10.00,61,160,22,9,,,,,,,,,,,,,,,,,,,,,,,,,,,,,,,,,,,,,MET12603/26/17 12:56:02 METAR KCHS 261756Z 16008G19KT 10SM SCT060 SCT200 24/10 A3018 RMK AO2 SLP219 T02440100 10267 20144 58010 (MH),,,,,,,,,,,,,,,,,,,,,,,,,,,,2009-06-10
72208013880,2017-03-26T13:00:00,FM-12,4,,SE,0.25,mi,"TEMP, PRECIP, SNOW",,,"MMTS, SRG, SNOWBOARD",,,WFO CHS,,,,,,,,,,,,,,,,,,,,,,,,,,,30.18,50,76,,,+0.03,8,40,30.18,57,30.13,9.94,61,160,,9,,,,,,,,,,,,,,,,,,,,,,,,,,,,,,,,,,,,,SYN08672208 32766 41608 10244 20100 30204 40219 58010 91756 333 10267 20144 91019 555 92618=,,,,,,,,,,,,,,,,,,,,,,,,,,,,2009-06-10
72208013880,2017-03-27T13:56:00,FM-15,7,,SE,0.25,mi,"TEMP, PRECIP, SNOW",,,"MMTS, SRG, SNOWBOARD",,,WFO CHS,,,,,,,,,,,,,,,,,,,,,,,,,,,30.07,58,80,0.00,,,,47,30.06,BKN:07 45,30.02,10.00,66,170,,14,,,,,,,,,,,,,,,,,,,,,,,,,,,,,,,,,,,,,MET09903/27/17 13:56:02 METAR KCHS 271856Z 17012KT 10SM BKN045 27/14 A3007 RMK AO2 SLP181 T02670144 (JMB),,,,,,,,,,,,,,,,,,,,,,,,,,,,2009-06-10
72208013880,2017-03-29T13:56:00,FM-15,7,,SE,0.25,mi,"TEMP, PRECIP, SNOW",,,"MMTS, SRG, SNOWBOARD",,,WFO CHS,,,,,,,,,,,,,,,,,,,,,,,,,,,29.99,57,81,0.00,,,,44,29.99,FEW:02 55 SCT:04 250,29.94,10.00,66,160,,17,,,,,,,,,,,,,,,,,,,,,,,,,,,,,,,,,,,,,MET10503/29/17 13:56:02 METAR KCHS 291856Z 16015KT 10SM FEW055 SCT250 27/14 A2999 RMK AO2 SLP155 T02720139 (MH),,,,,,,,,,,,,,,,,,,,,,,,,,,,2009-06-10
72208013880,2017-03-29T15:56:00,FM-15,7,,SE,0.25,mi,"TEMP, PRECIP, SNOW",,,"MMTS, SRG, SNOWBOARD",,,WFO CHS,,,,,,,,,,,,,,,,,,,,,,,,,,,29.99,55,79,0.00,,+0.01,5,44,29.98,FEW:02 55 SCT:04 250,29.94,10.00,65,150,,13,,,,,,,,,,,,,,,,,,,,,,,,,,,,,,,,,,,,,MET11203/29/17 15:56:02 METAR KCHS 292056Z 15011KT 10SM FEW055 SCT250 26/13 A2999 RMK AO2 SLP154 T02610128 55005 (BBE),,,,,,,,,,,,,,,,,,,,,,,,,,,,2009-06-10
72208013880,2017-03-29T16:00:00,FM-12,4,,SE,0.25,mi,"TEMP, PRECIP, SNOW",,,"MMTS, SRG, SNOWBOARD",,,WFO CHS,,,,,,,,,,,,,,,,,,,,,,,,,,,29.99,55,79,,,+0.01,5,44,29.98,57,29.94,9.94,65,150,,13,,,,,,,,,,,,,,,,,,,,,,,,,,,,,,,,,,,,,SYN06472208 32766 41511 10261 20128 30140 40154 55005 92056 555 92921=,,,,,,,,,,,,,,,,,,,,,,,,,,,,2009-06-10
72208013880,2017-03-29T17:56:00,FM-15,7,,SE,0.25,mi,"TEMP, PRECIP, SNOW",,,"MMTS, SRG, SNOWBOARD",,,WFO CHS,,,,,,,,,,,,,,,,,,,,,,,,,,,30.00,60,72,0.00,,,,66,30.00,SCT:04 250,29.95,10.00,65,150,,9,,,,,,,,,,,,,,,,,,,,,,,,,,,,,,,,,,,,,MET09903/29/17 17:56:02 METAR KCHS 292256Z 15008KT 10SM SCT250 22/16 A3000 RMK AO2 SLP159 T02220156 (BBE),,,,,,,,,,,,,,,,,,,,,,,,,,,,2009-06-10
72208013880,2017-04-01T15:56:00,FM-15,7,,SE,0.25,mi,"TEMP, PRECIP, SNOW",,,"MMTS, SRG, SNOWBOARD",,,WFO CHS,,,,,,,,,,,,,,,,,,,,,,,,,,,29.93,54,79,0.00,,+0.04,6,42,29.92,CLR:00,29.88,10.00,64,170,,9,,,,,,,,,,,,,,,,,,,,,,,,,,,,,,,,,,,,,MET10204/01/17 15:56:02 METAR KCHS 012056Z 17008KT 10SM CLR 26/12 A2993 RMK AO2 SLP133 T02610122 56012 (JRS),,,,,,,,,,,,,,,,,,,,,,,,,,,,2009-06-10
72208013880,2017-04-01T16:00:00,FM-12,4,,SE,0.25,mi,"TEMP, PRECIP, SNOW",,,"MMTS, SRG, SNOWBOARD",,,WFO CHS,,,,,,,,,,,,,,,,,,,,,,,,,,,29.93,54,79,,,+0.04,6,42,29.92,,29.88,9.94,64,170,,9,,,,,,,,,,,,,,,,,,,,,,,,,,,,,,,,,,,,,SYN06472208 32966 01708 10261 20122 30119 40133 56012 92056 555 90121=,,,,,,,,,,,,,,,,,,,,,,,,,,,,2009-06-10
72208013880,2017-04-01T16:56:00,FM-15,7,,SE,0.25,mi,"TEMP, PRECIP, SNOW",,,"MMTS, SRG, SNOWBOARD",,,WFO CHS,,,,,,,,,,,,,,,,,,,,,,,,,,,29.93,54,77,0.00,,,,45,29.93,CLR:00,29.88,10.00,63,160,,14,,,,,,,,,,,,,,,,,,,,,,,,,,,,,,,,,,,,,MET09604/01/17 16:56:02 METAR KCHS 012156Z 16012KT 10SM CLR 25/12 A2993 RMK AO2 SLP135 T02500122 (JRS),,,,,,,,,,,,,,,,,,,,,,,,,,,,2009-06-10
72208013880,2017-04-03T13:56:00,FM-15,7,,SE,0.25,mi,"TEMP, PRECIP, SNOW",,,"MMTS, SRG, SNOWBOARD",,,WFO CHS,,,,,,,,,,,,,,,,,,,,,,,,,,,29.94,63,74,0.00,,,,69,29.94,BKN:07 30 OVC:08 50,29.89,10.00,67,170,26,17,,,,,,,,,,,,,,,,,,,,,,,,,,,,,,,,,,,,,MET14804/03/17 13:56:02 METAR KCHS 031856Z 17015G23KT 10SM BKN030 OVC050 23/17 A2994 RMK AO2 PK WND 17031/1801 LTG DSNT N CB DSNT N SLP138 T02330172 (JMB),,,,,,,,,,,,,,,,,,,,,,,,,,,,2009-06-10
72208013880,2017-04-03T17:08:00,FM-16,7,,SE,0.25,mi,"TEMP, PRECIP, SNOW",,,"MMTS, SRG, SNOWBOARD",,,WFO CHS,,,,,,,,,,,,,,,,,,,,,,,,,,,29.86,66,73,T,VCTS:7 ||,,,79,,BKN:07 20 OVC:08 30,29.81,10.00,69,170,29,17,,,,,,,,,,,,,,,,,,,,,,,,,,,,,,,,,,,,,MET18304/03/17 17:08:02 SPECI KCHS 032208Z 17015G25KT 10SM VCTS BKN020CB OVC030 23/19 A2986 RMK AO2 LTG DSNT SW-N RAB2158E07 TSE06 OCNL LTGIC SW-NW TS VC SW-NW MOV E P0000 T02280189 $ (BBE),,,,,,,,,,,,,,,,,,,,,,,,,,,,2009-06-10
72208013880,2017-04-03T17:25:00,FM-16,7,,SE,0.25,mi,"TEMP, PRECIP, SNOW",,,"MMTS, SRG, SNOWBOARD",,,WFO CHS,,,,,,,,,,,,,,,,,,,,,,,,,,,29.89,67,72,T,TS:7 -RA:02 |RA TS TS |,,,84,,BKN:07 20 OVC:08 30,29.84,7.00,69,170,29,17,,,,,,,,,,,,,,,,,,,,,,,,,,,,,,,,,,,,,MET18704/03/17 17:25:02 SPECI KCHS 032225Z 17015G25KT 7SM -TSRA BKN020CB OVC030 22/19 A2989 RMK AO2 LTG DSNT ALQDS RAB2158E07B10 TSE06B20 OCNL LTGIC SW-NW TS SW-NW MOV E P0000 T02220194 $ (BBE),,,,,,,,,,,,,,,,,,,,,,,,,,,,2009-06-10
72208013880,2017-04-03T17:54:00,FM-16,6,,SE,0.25,mi,"TEMP, PRECIP, SNOW",,,"MMTS, SRG, SNOWBOARD",,,WFO CHS,,,,,,,,,,,,,,,,,,,,,,,,,,,29.91,63,64,,TS:7 RA:02 BR:1 |RA TS |,,,94,,SCT:04 15 BKN:07 25 OVC:08 35,29.86,4.00,63,170,,14,,,,,,,,,,,,,,,,,,,,,,,,,,,,,,,,,,,,,MET18804/03/17 17:54:02 SPECI KCHS 032254Z 17012KT 4SM TSRA BR SCT015CB BKN025 OVC035 18/17 A2991 RMK AO2 LTG DSNT ALQDS RAB2158E07B10 TSE06B20 OCNL LTGIC NE-SE TS NE-SE MOV E P0046 $ FIBI (BBE),,,,,,,,,,,,,,,,,,,,,,,,,,,,2009-06-10
72208013880,2017-04-03T17:56:00,FM-15,7,,SE,0.25,mi,"TEMP, PRECIP, SNOW",,,"MMTS, SRG, SNOWBOARD",,,WFO CHS,,,,,,,,,,,,,,,,,,,,,,,,,,,29.91,63,65,0.47,TS:7 RA:02 BR:1 |RA TS |,,,93,29.90,SCT:04 15 BKN:07 25 OVC:08 35,29.86,4.00,64,170,,14,,,,,,,,,,,,,,,,,,,,,,,,,,,,,,,,,,,,,MET20004/03/17 17:56:02 METAR KCHS 032256Z 17012KT 4SM TSRA BR SCT015CB BKN025 OVC035 18/17 A2991 RMK AO2 LTG DSNT ALQDS RAB2158E07B10 TSE06B20 SLP126 OCNL LTGIC NE-SE TS NE-SE MOV E P0046 T01830172 $ (BBE),,,,,,,,,,,,,,,,,,,,,,,,,,,,2009-06-10
72208013880,2017-04-08T16:56:00,FM-15,7,,SE,0.25,mi,"TEMP, PRECIP, SNOW",,,"MMTS, SRG, SNOWBOARD",,,WFO CHS,,,,,,,,,,,,,,,,,,,,,,,,,,,30.06,37,64,0.00,,,,37,30.06,FEW:02 250,30.01,10.00,51,150,,13,,,,,,,,,,,,,,,,,,,,,,,,,,,,,,,,,,,,,MET09904/08/17 16:56:02 METAR KCHS 082156Z 15011KT 10SM FEW250 18/03 A3006 RMK AO2 SLP179 T01780028 (JRS),,,,,,,,,,,,,,,,,,,,,,,,,,,,2009-06-10
72208013880,2017-04-08T17:56:00,FM-15,7,,SE,0.25,mi,"TEMP, PRECIP, SNOW",,,"MMTS, SRG, SNOWBOARD",,,WFO CHS,,,,,,,,,,,,,,,,,,,,,,,,,,,30.07,36,61,0.00,,,,39,30.06,FEW:02 250,30.02,10.00,49,150,,13,,,,,,,,,,,,,,,,,,,,,,,,,,,,,,,,,,,,,MET09904/08/17 17:56:02 METAR KCHS 082256Z 15011KT 10SM FEW250 16/02 A3007 RMK AO2 SLP180 T01610022 (JRS),,,,,,,,,,,,,,,,,,,,,,,,,,,,2009-06-10
72208013880,2017-04-09T13:56:00,FM-15,7,,SE,0.25,mi,"TEMP, PRECIP, SNOW",,,"MMTS, SRG, SNOWBOARD",,,WFO CHS,,,,,,,,,,,,,,,,,,,,,,,,,,,30.23,37,73,0.00,,,,27,30.23,FEW:02 250,30.18,10.00,55,150,,11,,,,,,,,,,,,,,,,,,,,,,,,,,,,,,,,,,,,,MET09804/09/17 13:56:02 METAR KCHS 091856Z 15010KT 10SM FEW250 23/03 A3023 RMK AO2 SLP236 T02280028 (MH),,,,,,,,,,,,,,,,,,,,,,,,,,,,2009-06-10
72208013880,2017-04-09T17:56:00,FM-15,7,,SE,0.25,mi,"TEMP, PRECIP, SNOW",,,"MMTS, SRG, SNOWBOARD",,,WFO CHS,,,,,,,,,,,,,,,,,,,,,,,,,,,30.22,45,66,0.00,,,,47,30.21,FEW:02 250,30.17,10.00,55,150,,13,,,,,,,,,,,,,,,,,,,,,,,,,,,,,,,,,,,,,MET09904/09/17 17:56:02 METAR KCHS 092256Z 15011KT 10SM FEW250 19/07 A3022 RMK AO2 SLP231 T01890072 (JRS),,,,,,,,,,,,,,,,,,,,,,,,,,,,2009-06-10
72208013880,2017-04-10T10:56:00,FM-15,7,,SE,0.25,mi,"TEMP, PRECIP, SNOW",,,"MMTS, SRG, SNOWBOARD",,,WFO CHS,,,,,,,,,,,,,,,,,,,,,,,,,,,30.34,52,75,0.00,,,,45,30.34,FEW:02 45 SCT:04 250,30.29,10.00,62,150,,9,,,,,,,,,,,,,,,,,,,,,,,,,,,,,,,,,,,,,MET10604/10/17 10:56:02 METAR KCHS 101556Z 15008KT 10SM FEW045 SCT250 24/11 A3034 RMK AO2 SLP274 T02390111 (JMB),,,,,,,,,,,,,,,,,,,,,,,,,,,,2009-06-10
72208013880,2017-04-10T13:56:00,FM-15,7,,SE,0.25,mi,"TEMP, PRECIP, SNOW",,,"MMTS, SRG, SNOWBOARD",,,WFO CHS,,,,,,,,,,,,,,,,,,,,,,,,,,,30.30,53,77,0.00,,,,43,30.29,SCT:04 55 SCT:04 250,30.25,10.00,63,160,17,13,,,,,,,,,,,,,,,,,,,,,,,,,,,,,,,,,,,,,MET10904/10/17 13:56:02 METAR KCHS 101856Z 16011G15KT 10SM SCT055 SCT250 25/12 A3030 RMK AO2 SLP259 T02500117 (JMB),,,,,,,,,,,,,,,,,,,,,,,,,,,,2009-06-10
72208013880,2017-04-10T16:56:00,FM-15,7,,SE,0.25,mi,"TEMP, PRECIP, SNOW",,,"MMTS, SRG, SNOWBOARD",,,WFO CHS,,,,,,,,,,,,,,,,,,,,,,,,,,,30.27,53,73,0.00,,,,50,30.27,FEW:02 50 FEW:02 250,30.22,10.00,61,150,,10,,,,,,,,,,,,,,,,,,,,,,,,,,,,,,,,,,,,,MET10604/10/17 16:56:02 METAR KCHS 102156Z 15009KT 10SM FEW050 FEW250 23/12 A3027 RMK AO2 SLP250 T02280117 (BBE),,,,,,,,,,,,,,,,,,,,,,,,,,,,2009-06-10
72208013880,2017-04-10T17:56:00,FM-15,7,,SE,0.25,mi,"TEMP, PRECIP, SNOW",,,"MMTS, SRG, SNOWBOARD",,,WFO CHS,,,,,,,,,,,,,,,,,,,,,,,,,,,30.28,53,71,0.00,,,,53,30.28,FEW:02 250,30.23,10.00,61,150,,11,,,,,,,,,,,,,,,,,,,,,,,,,,,,,,,,,,,,,MET09904/10/17 17:56:02 METAR KCHS 102256Z 15010KT 10SM FEW250 22/12 A3028 RMK AO2 SLP253 T02170117 (BBE),,,,,,,,,,,,,,,,,,,,,,,,,,,,2009-06-10
72208013880,2017-04-11T13:56:00,FM-15,7,,SE,0.25,mi,"TEMP, PRECIP, SNOW",,,"MMTS, SRG, SNOWBOARD",,,WFO CHS,,,,,,,,,,,,,,,,,,,,,,,,,,,30.28,54,77,0.00,,,,45,30.27,SCT:04 50,30.23,10.00,63,160,17,11,,,,,,,,,,,,,,,,,,,,,,,,,,,,,,,,,,,,,MET10204/11/17 13:56:02 METAR KCHS 111856Z 16010G15KT 10SM SCT050 25/12 A3028 RMK AO2 SLP252 T02500122 (JMB),,,,,,,,,,,,,,,,,,,,,,,,,,,,2009-06-10
72208013880,2017-04-11T14:56:00,FM-15,7,,SE,0.25,mi,"TEMP, PRECIP, SNOW",,,"MMTS, SRG, SNOWBOARD",,,WFO CHS,,,,,,,,,,,,,,,,,,,,,,,,,,,30.25,53,78,0.00,,,,42,30.25,SCT:04 50,30.20,10.00,63,160,,14,,,,,,,,,,,,,,,,,,,,,,,,,,,,,,,,,,,,,MET09904/11/17 14:56:02 METAR KCHS 111956Z 16012KT 10SM SCT050 26/12 A3025 RMK AO2 SLP243 T02560117 (BBE),,,,,,,,,,,,,,,,,,,,,,,,,,,,2009-06-10
72208013880,2017-04-11T15:56:00,FM-15,7,,SE,0.25,mi,"TEMP, PRECIP, SNOW",,,"MMTS, SRG, SNOWBOARD",,,WFO CHS,,,,,,,,,,,,,,,,,,,,,,,,,,,30.24,53,76,0.00,,+0.06,6,45,30.24,FEW:02 50,30.19,10.00,63,150,21,16,,,,,,,,,,,,,,,,,,,,,,,,,,,,,,,,,,,,,MET10804/11/17 15:56:02 METAR KCHS 112056Z 15014G18KT 10SM FEW050 24/12 A3024 RMK AO2 SLP239 T02440117 56019 (BBE),,,,,,,,,,,,,,,,,,,,,,,,,,,,2009-06-10
72208013880,2017-04-11T16:00:00,FM-12,4,,SE,0.25,mi,"TEMP, PRECIP, SNOW",,,"MMTS, SRG, SNOWBOARD",,,WFO CHS,,,,,,,,,,,,,,,,,,,,,,,,,,,30.24,53,76,,,+0.06,6,45,30.24,57,30.19,9.94,63,150,,16,,,,,,,,,,,,,,,,,,,,,,,,,,,,,,,,,,,,,SYN07472208 32766 21514 10244 20117 30224 40239 56019 92056 333 91018 555 91121=,,,,,,,,,,,,,,,,,,,,,,,,,,,,2009-06-10
72208013880,2017-04-12T13:56:00,FM-15,7,,SE,0.25,mi,"TEMP, PRECIP, SNOW",,,"MMTS, SRG, SNOWBOARD",,,WFO CHS,,,,,,,,,,,,,,,,,,,,,,,,,,,30.22,54,79,0.00,,,,42,30.21,SCT:04 60 BKN:07 250,30.17,10.00,64,170,,9,,,,,,,,,,,,,,,,,,,,,,,,,,,,,,,,,,,,,MET10604/12/17 13:56:02 METAR KCHS 121856Z 17008KT 10SM SCT060 BKN250 26/12 A3022 RMK AO2 SLP231 T02610122 (JMB),,,,,,,,,,,,,,,,,,,,,,,,,,,,2009-06-10
72208013880,2017-04-12T14:56:00,FM-15,7,,SE,0.25,mi,"TEMP, PRECIP, SNOW",,,"MMTS, SRG, SNOWBOARD",,,WFO CHS,,,,,,,,,,,,,,,,,,,,,,,,,,,30.21,54,79,0.00,,,,42,30.20,BKN:07 250,30.16,10.00,64,160,,10,,,,,,,,,,,,,,,,,,,,,,,,,,,,,,,,,,,,,MET09904/12/17 14:56:02 METAR KCHS 121956Z 16009KT 10SM BKN250 26/12 A3021 RMK AO2 SLP228 T02610122 (BBE),,,,,,,,,,,,,,,,,,,,,,,,,,,,2009-06-10
72208013880,2017-04-12T15:56:00,FM-15,7,,SE,0.25,mi,"TEMP, PRECIP, SNOW",,,"MMTS, SRG, SNOWBOARD",,,WFO CHS,,,,,,,,,,,,,,,,,,,,,,,,,,,30.21,53,77,0.00,,+0.02,5,43,30.21,BKN:07 250,30.16,10.00,63,150,,13,,,,,,,,,,,,,,,,,,,,,,,,,,,,,,,,,,,,,MET10504/12/17 15:56:02 METAR KCHS 122056Z 15011KT 10SM BKN250 25/12 A3021 RMK AO2 SLP229 T02500117 55007 (BBE),,,,,,,,,,,,,,,,,,,,,,,,,,,,2009-06-10
72208013880,2017-04-12T16:00:00,FM-12,4,,SE,0.25,mi,"TEMP, PRECIP, SNOW",,,"MMTS, SRG, SNOWBOARD",,,WFO CHS,,,,,,,,,,,,,,,,,,,,,,,,,,,30.21,53,77,,,+0.02,5,43,30.21,,30.16,9.94,63,150,,13,,,,,,,,,,,,,,,,,,,,,,,,,,,,,,,,,,,,,SYN06472208 32966 61511 10250 20117 30214 40229 55007 92056 555 91221=,,,,,,,,,,,,,,,,,,,,,,,,,,,,2009-06-10
72208013880,2017-04-12T17:56:00,FM-15,7,,SE,0.25,mi,"TEMP, PRECIP, SNOW",,,"MMTS, SRG, SNOWBOARD",,,WFO CHS,,,,,,,,,,,,,,,,,,,,,,,,,,,30.22,54,72,0.00,,,,53,30.22,BKN:07 200,30.17,10.00,62,170,,11,,,,,,,,,,,,,,,,,,,,,,,,,,,,,,,,,,,,,MET09904/12/17 17:56:02 METAR KCHS 122256Z 17010KT 10SM BKN200 22/12 A3022 RMK AO2 SLP232 T02220122 (BBE),,,,,,,,,,,,,,,,,,,,,,,,,,,,2009-06-10
72208013880,2017-04-13T15:56:00,FM-15,7,,SE,0.25,mi,"TEMP, PRECIP, SNOW",,,"MMTS, SRG, SNOWBOARD",,,WFO CHS,,,,,,,,,,,,,,,,,,,,,,,,,,,30.20,54,79,0.00,,+0.06,6,42,30.19,FEW:02 55,30.15,10.00,64,160,,11,,,,,,,,,,,,,,,,,,,,,,,,,,,,,,,,,,,,,MET10504/13/17 15:56:02 METAR KCHS 132056Z 16010KT 10SM FEW055 26/12 A3020 RMK AO2 SLP224 T02610122 56022 (JRS),,,,,,,,,,,,,,,,,,,,,,,,,,,,2009-06-10
72208013880,2017-04-13T16:00:00,FM-12,4,,SE,0.25,mi,"TEMP, PRECIP, SNOW",,,"MMTS, SRG, SNOWBOARD",,,WFO CHS,,,,,,,,,,,,,,,,,,,,,,,,,,,30.20,54,79,,,+0.06,6,42,30.19,57,30.15,9.94,64,160,,11,,,,,,,,,,,,,,,,,,,,,,,,,,,,,,,,,,,,,SYN06472208 32766 21610 10261 20122 30211 40224 56022 92056 555 91321=,,,,,,,,,,,,,,,,,,,,,,,,,,,,2009-06-10
72208013880,2017-04-13T16:56:00,FM-15,7,,SE,0.25,mi,"TEMP, PRECIP, SNOW",,,"MMTS, SRG, SNOWBOARD",,,WFO CHS,,,,,,,,,,,,,,,,,,,,,,,,,,,30.20,52,79,0.00,,,,39,30.19,FEW:02 50 SCT:04 90,30.15,10.00,63,170,,10,,,,,,,,,,,,,,,,,,,,,,,,,,,,,,,,,,,,,MET10604/13/17 16:56:02 METAR KCHS 132156Z 17009KT 10SM FEW050 SCT090 26/11 A3020 RMK AO2 SLP225 T02610111 (JRS),,,,,,,,,,,,,,,,,,,,,,,,,,,,2009-06-10
72208013880,2017-04-13T17:56:00,FM-15,7,,SE,0.25,mi,"TEMP, PRECIP, SNOW",,,"MMTS, SRG, SNOWBOARD",,,WFO CHS,,,,,,,,,,,,,,,,,,,,,,,,,,,30.20,55,75,0.00,,,,50,30.20,FEW:02 90 SCT:04 250,30.15,10.00,63,160,,10,,,,,,,,,,,,,,,,,,,,,,,,,,,,,,,,,,,,,MET10604/13/17 17:56:02 METAR KCHS 132256Z 16009KT 10SM FEW090 SCT250 24/13 A3020 RMK AO2 SLP226 T02390128 (JRS),,,,,,,,,,,,,,,,,,,,,,,,,,,,2009-06-10
72208013880,2017-04-14T15:56:00,FM-15,7,,SE,0.25,mi,"TEMP, PRECIP, SNOW",,,"MMTS, SRG, SNOWBOARD",,,WFO CHS,,,,,,,,,,,,,,,,,,,,,,,,,,,30.25,58,77,0.00,,+0.04,5,52,30.24,SCT:04 55 SCT:04 75,30.20,10.00,65,150,,11,,,,,,,,,,,,,,,,,,,,,,,,,,,,,,,,,,,,,MET11204/14/17 15:56:02 METAR KCHS 142056Z 15010KT 10SM SCT055 SCT075 25/14 A3025 RMK AO2 SLP242 T02500144 55012 (MBT),,,,,,,,,,,,,,,,,,,,,,,,,,,,2009-06-10
72208013880,2017-04-14T16:00:00,FM-12,4,,SE,0.25,mi,"TEMP, PRECIP, SNOW",,,"MMTS, SRG, SNOWBOARD",,,WFO CHS,,,,,,,,,,,,,,,,,,,,,,,,,,,30.25,58,77,,,+0.04,5,52,30.24,57,30.20,9.94,65,150,,11,,,,,,,,,,,,,,,,,,,,,,,,,,,,,,,,,,,,,SYN06472208 32766 41510 10250 20144 30228 40242 55012 92056 555 91421=,,,,,,,,,,,,,,,,,,,,,,,,,,,,2009-06-10
72208013880,2017-04-15T11:56:00,FM-15,7,,SE,0.25,mi,"TEMP, PRECIP, SNOW",,,"MMTS, SRG, SNOWBOARD",,,WFO CHS,,,,,,,,,,,,,,,,,,,,,,,,,,,30.37,56,78,0.00,,,,47,30.36,SCT:04 48 SCT:04 250,30.32,10.00,65,160,,11,,,,,,,,,,,,,,,,,,,,,,,,,,,,,,,,,,,,,MET10504/15/17 11:56:02 METAR KCHS 151656Z 16010KT 10SM SCT048 SCT250 26/13 A3037 RMK AO2 SLP282 T02560133 (MH),,,,,,,,,,,,,,,,,,,,,,,,,,,,2009-06-10
72208013880,2017-04-15T13:56:00,FM-15,7,,SE,0.25,mi,"TEMP, PRECIP, SNOW",,,"MMTS, SRG, SNOWBOARD",,,WFO CHS,,,,,,,,,,,,,,,,,,,,,,,,,,,30.33,52,81,0.00,,,,37,30.33,FEW:02 50 SCT:04 250,30.28,10.00,64,170,,9,,,,,,,,,,,,,,,,,,,,,,,,,,,,,,,,,,,,,MET10504/15/17 13:56:02 METAR KCHS 151856Z 17008KT 10SM FEW050 SCT250 27/11 A3033 RMK AO2 SLP271 T02720111 (MH),,,,,,,,,,,,,,,,,,,,,,,,,,,,2009-06-10
72208013880,2017-04-15T15:56:00,FM-15,7,,SE,0.25,mi,"TEMP, PRECIP, SNOW",,,"MMTS, SRG, SNOWBOARD",,,WFO CHS,,,,,,,,,,,,,,,,,,,,,,,,,,,30.30,58,79,0.00,,+0.05,6,49,30.30,FEW:02 45 SCT:04 250,30.25,10.00,66,170,,13,,,,,,,,,,,,,,,,,,,,,,,,,,,,,,,,,,,,,MET11204/15/17 15:56:02 METAR KCHS 152056Z 17011KT 10SM FEW045 SCT250 26/14 A3030 RMK AO2 SLP260 T02610144 56016 (JRS),,,,,,,,,,,,,,,,,,,,,,,,,,,,2009-06-10
72208013880,2017-04-15T16:00:00,FM-12,4,,SE,0.25,mi,"TEMP, PRECIP, SNOW",,,"MMTS, SRG, SNOWBOARD",,,WFO CHS,,,,,,,,,,,,,,,,,,,,,,,,,,,30.30,58,79,,,+0.05,6,49,30.30,41,30.25,9.94,66,170,,13,,,,,,,,,,,,,,,,,,,,,,,,,,,,,,,,,,,,,SYN06472208 32666 41711 10261 20144 30244 40260 56016 92056 555 91521=,,,,,,,,,,,,,,,,,,,,,,,,,,,,2009-06-10
72208013880,2017-04-15T16:56:00,FM-15,7,,SE,0.25,mi,"TEMP, PRECIP, SNOW",,,"MMTS, SRG, SNOWBOARD",,,WFO CHS,,,,,,,,,,,,,,,,,,,,,,,,,,,30.30,58,77,0.00,,,,52,30.30,FEW:02 40 SCT:04 250,30.25,10.00,65,170,,14,,,,,,,,,,,,,,,,,,,,,,,,,,,,,,,,,,,,,MET10604/15/17 16:56:02 METAR KCHS 152156Z 17012KT 10SM FEW040 SCT250 25/14 A3030 RMK AO2 SLP260 T02500144 (JRS),,,,,,,,,,,,,,,,,,,,,,,,,,,,2009-06-10
72208013880,2017-04-16T10:56:00,FM-15,7,,SE,0.25,mi,"TEMP, PRECIP, SNOW",,,"MMTS, SRG, SNOWBOARD",,,WFO CHS,,,,,,,,,,,,,,,,,,,,,,,,,,,30.31,56,78,0.00,,,,47,30.31,FEW:02 44 SCT:04 250,30.26,10.00,65,160,,8,,,,,,,,,,,,,,,,,,,,,,,,,,,,,,,,,,,,,MET10504/16/17 10:56:02 METAR KCHS 161556Z 16007KT 10SM FEW044 SCT250 26/13 A3031 RMK AO2 SLP265 T02560133 (MH),,,,,,,,,,,,,,,,,,,,,,,,,,,,2009-06-10
72208013880,2017-04-16T12:56:00,FM-15,7,,SE,0.25,mi,"TEMP, PRECIP, SNOW",,,"MMTS, SRG, SNOWBOARD",,,WFO CHS,,,,,,,,,,,,,,,,,,,,,,,,,,,30.26,57,78,0.00,,+0.06,8,48,30.26,FEW:02 45 BKN:07 250,30.21,10.00,65,160,,10,,,,,,,,,,,,,,,,,,,,,,,,,,,,,,,,,,,,,MET12304/16/17 12:56:02 METAR KCHS 161756Z 16009KT 10SM FEW045 BKN250 26/14 A3026 RMK AO2 SLP247 T02560139 10261 20183 58019 (MH),,,,,,,,,,,,,,,,,,,,,,,,,,,,2009-06-10
72208013880,2017-04-16T13:00:00,FM-12,4,,SE,0.25,mi,"TEMP, PRECIP, SNOW",,,"MMTS, SRG, SNOWBOARD",,,WFO CHS,,,,,,,,,,,,,,,,,,,,,,,,,,,30.26,57,78,,,+0.06,8,48,30.26,41,30.21,9.94,65,160,,10,,,,,,,,,,,,,,,,,,,,,,,,,,,,,,,,,,,,,SYN08072208 32666 61609 10256 20139 30231 40247 58019 91756 333 10261 20183 555 91618=,,,,,,,,,,,,,,,,,,,,,,,,,,,,2009-06-10
72208013880,2017-04-18T13:56:00,FM-15,7,,SE,0.25,mi,"TEMP, PRECIP, SNOW",,,"MMTS, SRG, SNOWBOARD",,,WFO CHS,,,,,,,,,,,,,,,,,,,,,,,,,,,30.16,64,80,0.00,,,,58,30.15,BKN:07 55 BKN:07 90,30.11,10.00,70,170,,9,,,,,,,,,,,,,,,,,,,,,,,,,,,,,,,,,,,,,MET15504/18/17 13:56:02 METAR KCHS 181856Z 17008KT 10SM BKN055 BKN090 27/18 A3016 RMK AO2 LTG DSNT NE AND SW AND W SLP211 CB DSNT NE AND SW AND W T02670178 (JMB),,,,,,,,,,,,,,,,,,,,,,,,,,,,2009-06-10
72208013880,2017-04-18T14:16:00,FM-16,7,,SE,0.25,mi,"TEMP, PRECIP, SNOW",,,"MMTS, SRG, SNOWBOARD",,,WFO CHS,,,,,,,,,,,,,,,,,,,,,,,,,,,30.15,67,74,0.01,TS:7 -RA:02 BR:1 |RA TS |,,,79,,BKN:07 40 OVC:08 50,30.10,5.00,69,170,,16,,,,,,,,,,,,,,,,,,,,,,,,,,,,,,,,,,,,,MET16904/18/17 14:16:02 SPECI KCHS 181916Z 17014KT 5SM -TSRA BR BKN040CB OVC050 23/19 A3015 RMK AO2 LTG DSNT ALQDS RAB05 TSE12B16 OCNL LTGIC W TS W STNRY P0001 T02330194 (BBE),,,,,,,,,,,,,,,,,,,,,,,,,,,,2009-06-10
72208013880,2017-04-19T17:18:00,FM-16,7,,SE,0.25,mi,"TEMP, PRECIP, SNOW",,,"MMTS, SRG, SNOWBOARD",,,WFO CHS,,,,,,,,,,,,,,,,,,,,,,,,,,,30.24,65,70,T,-RA:02 BR:1 |RA |,,,84,,FEW:02 4 BKN:07 25 OVC:08 250,30.19,5.00,67,160,,8,,,,,,,,,,,,,,,,,,,,,,,,,,,,,,,,,,,,,MET12404/19/17 17:18:02 SPECI KCHS 192218Z 16007KT 5SM -RA BR FEW004 BKN025 OVC250 21/18 A3024 RMK AO2 RAB12 P0000 T02110183 (BBE),,,,,,,,,,,,,,,,,,,,,,,,,,,,2009-06-10
72208013880,2017-04-23T10:56:00,FM-15,7,,SE,0.25,mi,"TEMP, PRECIP, SNOW",,,"MMTS, SRG, SNOWBOARD",,,WFO CHS,,,,,,,,,,,,,,,,,,,,,,,,,,,29.87,68,82,0.00,,,,63,29.86,SCT:04 27,29.82,10.00,73,160,17,11,,,,,,,,,,,,,,,,,,,,,,,,,,,,,,,,,,,,,MET10104/23/17 10:56:02 METAR KCHS 231556Z 16010G15KT 10SM SCT027 28/20 A2987 RMK AO2 SLP113 T02780200 (MH),,,,,,,,,,,,,,,,,,,,,,,,,,,,2009-06-10
72208013880,2017-04-23T12:56:00,FM-15,7,,SE,0.25,mi,"TEMP, PRECIP, SNOW",,,"MMTS, SRG, SNOWBOARD",,,WFO CHS,,,,,,,,,,,,,,,,,,,,,,,,,,,29.84,67,81,0.00,,+0.03,8,62,29.83,BKN:07 25,29.79,10.00,72,160,,16,,,,,,,,,,,,,,,,,,,,,,,,,,,,,,,,,,,,,MET11604/23/17 12:56:02 METAR KCHS 231756Z 16014KT 10SM BKN025 27/19 A2984 RMK AO2 SLP103 T02720194 10283 20228 58010 (MH),,,,,,,,,,,,,,,,,,,,,,,,,,,,2009-06-10
72208013880,2017-04-23T13:00:00,FM-12,4,,SE,0.25,mi,"TEMP, PRECIP, SNOW",,,"MMTS, SRG, SNOWBOARD",,,WFO CHS,,,,,,,,,,,,,,,,,,,,,,,,,,,29.84,67,81,,,+0.03,8,62,29.83,26,29.79,9.94,72,160,,16,,,,,,,,,,,,,,,,,,,,,,,,,,,,,,,,,,,,,SYN08072208 32566 61614 10272 20194 30089 40103 58010 91756 333 10283 20228 555 92318=,,,,,,,,,,,,,,,,,,,,,,,,,,,,2009-06-10
72208013880,2017-04-23T13:56:00,FM-15,7,,SE,0.25,mi,"TEMP, PRECIP, SNOW",,,"MMTS, SRG, SNOWBOARD",,,WFO CHS,,,,,,,,,,,,,,,,,,,,,,,,,,,29.83,67,82,0.00,,,,60,29.82,SCT:04 27,29.78,10.00,72,160,,15,,,,,,,,,,,,,,,,,,,,,,,,,,,,,,,,,,,,,MET09804/23/17 13:56:02 METAR KCHS 231856Z 16013KT 10SM SCT027 28/19 A2983 RMK AO2 SLP099 T02780194 (MH),,,,,,,,,,,,,,,,,,,,,,,,,,,,2009-06-10
72208013880,2017-04-23T16:56:00,FM-15,7,,SE,0.25,mi,"TEMP, PRECIP, SNOW",,,"MMTS, SRG, SNOWBOARD",,,WFO CHS,,,,,,,,,,,,,,,,,,,,,,,,,,,29.79,67,77,0.00,,,,71,29.79,FEW:02 25 BKN:07 90 BKN:07 200,29.74,10.00,70,160,,17,,,,,,,,,,,,,,,,,,,,,,,,,,,,,,,,,,,,,MET11304/23/17 16:56:02 METAR KCHS 232156Z 16015KT 10SM FEW025 BKN090 BKN200 25/19 A2979 RMK AO2 SLP088 T02500194 (JRS),,,,,,,,,,,,,,,,,,,,,,,,,,,,2009-06-10
72208013880,2017-04-23T17:56:00,FM-15,7,,SE,0.25,mi,"TEMP, PRECIP, SNOW",,,"MMTS, SRG, SNOWBOARD",,,WFO CHS,,,,,,,,,,,,,,,,,,,,,,,,,,,29.78,66,76,0.00,,,,72,29.78,FEW:02 20 BKN:07 120 BKN:07 200,29.73,10.00,70,160,,14,,,,,,,,,,,,,,,,,,,,,,,,,,,,,,,,,,,,,MET11304/23/17 17:56:02 METAR KCHS 232256Z 16012KT 10SM FEW020 BKN120 BKN200 24/19 A2978 RMK AO2 SLP085 T02440189 (JRS),,,,,,,,,,,,,,,,,,,,,,,,,,,,2009-06-10
72208013880,2017-04-27T17:56:00,FM-15,7,,SE,0.25,mi,"TEMP, PRECIP, SNOW",,,"MMTS, SRG, SNOWBOARD",,,WFO CHS,,,,,,,,,,,,,,,,,,,,,,,,,,,29.88,63,78,0.00,,,,60,29.88,OVC:08 200,29.83,10.00,68,170,24,17,,,,,,,,,,,,,,,,,,,,,,,,,,,,,,,,,,,,,MET10204/27/17 17:56:02 METAR KCHS 272256Z 17015G21KT 10SM OVC200 26/17 A2988 RMK AO2 SLP117 T02560172 (BBE),,,,,,,,,,,,,,,,,,,,,,,,,,,,2009-06-10
72208013880,2017-04-29T14:56:00,FM-15,7,,SE,0.25,mi,"TEMP, PRECIP, SNOW",,,"MMTS, SRG, SNOWBOARD",,,WFO CHS,,,,,,,,,,,,,,,,,,,,,,,,,,,30.19,69,85,0.00,,,,59,30.19,SCT:04 30 BKN:07 250,30.14,10.00,74,170,23,14,,,,,,,,,,,,,,,,,,,,,,,,,,,,,,,,,,,,,MET10904/29/17 14:56:02 METAR KCHS 291956Z 17012G20KT 10SM SCT030 BKN250 29/21 A3019 RMK AO2 SLP222 T02940206 (JRS),,,,,,,,,,,,,,,,,,,,,,,,,,,,2009-06-10
72208013880,2017-05-03T15:56:00,FM-15,7,,SE,0.25,mi,"TEMP, PRECIP, SNOW",,,"MMTS, SRG, SNOWBOARD",,,WFO CHS,,,,,,,,,,,,,,,,,,,,,,,,,,,30.01,50,81,0.00,,+0.02,5,34,30.01,FEW:02 250,29.96,10.00,63,160,,13,,,,,,,,,,,,,,,,,,,,,,,,,,,,,,,,,,,,,MET10505/03/17 15:56:02 METAR KCHS 032056Z 16011KT 10SM FEW250 27/10 A3001 RMK AO2 SLP163 T02720100 55006 (BBE),,,,,,,,,,,,,,,,,,,,,,,,,,,,2009-06-10
72208013880,2017-05-03T16:00:00,FM-12,4,,SE,0.25,mi,"TEMP, PRECIP, SNOW",,,"MMTS, SRG, SNOWBOARD",,,WFO CHS,,,,,,,,,,,,,,,,,,,,,,,,,,,30.01,50,81,,,+0.02,5,34,30.01,,29.96,9.94,63,160,,13,,,,,,,,,,,,,,,,,,,,,,,,,,,,,,,,,,,,,SYN06472208 32966 21611 10272 20100 30146 40163 55006 92056 555 90321=,,,,,,,,,,,,,,,,,,,,,,,,,,,,2009-06-10
72208013880,2017-05-03T17:56:00,FM-15,7,,SE,0.25,mi,"TEMP, PRECIP, SNOW",,,"MMTS, SRG, SNOWBOARD",,,WFO CHS,,,,,,,,,,,,,,,,,,,,,,,,,,,30.04,50,77,0.00,,,,39,30.03,SCT:04 250,29.99,10.00,62,160,,11,,,,,,,,,,,,,,,,,,,,,,,,,,,,,,,,,,,,,MET09905/03/17 17:56:02 METAR KCHS 032256Z 16010KT 10SM SCT250 25/10 A3004 RMK AO2 SLP170 T02500100 (BBE),,,,,,,,,,,,,,,,,,,,,,,,,,,,2009-06-10
72208013880,2017-05-04T13:56:00,FM-15,7,,SE,0.25,mi,"TEMP, PRECIP, SNOW",,,"MMTS, SRG, SNOWBOARD",,,WFO CHS,,,,,,,,,,,,,,,,,,,,,,,,,,,29.90,62,78,0.00,,,,58,29.90,SCT:04 35 BKN:07 45 BKN:07 250,29.85,10.00,68,150,28,14,,,,,,,,,,,,,,,,,,,,,,,,,,,,,,,,,,,,,MET11605/04/17 13:56:02 METAR KCHS 041856Z 15012G24KT 10SM SCT035 BKN045 BKN250 26/17 A2990 RMK AO2 SLP125 T02560167 (JMB),,,,,,,,,,,,,,,,,,,,,,,,,,,,2009-06-10
72208013880,2017-05-12T13:56:00,FM-15,7,,SE,0.25,mi,"TEMP, PRECIP, SNOW",,,"MMTS, SRG, SNOWBOARD",,,WFO CHS,,,,,,,,,,,,,,,,,,,,,,,,,,,29.80,68,84,0.00,,,,59,29.80,SCT:04 50 BKN:07 200,29.75,10.00,73,160,,16,,,,,,,,,,,,,,,,,,,,,,,,,,,,,,,,,,,,,MET10605/12/17 13:56:02 METAR KCHS 121856Z 16014KT 10SM SCT050 BKN200 29/20 A2980 RMK AO2 SLP091 T02890200 (JMB),,,,,,,,,,,,,,,,,,,,,,,,,,,,2009-06-10
72208013880,2017-05-12T15:56:00,FM-15,7,,SE,0.25,mi,"TEMP, PRECIP, SNOW",,,"MMTS, SRG, SNOWBOARD",,,WFO CHS,,,,,,,,,,,,,,,,,,,,,,,,,,,29.77,67,83,0.00,,+0.04,8,59,29.77,FEW:02 20 FEW:02 120 SCT:04 200,29.72,10.00,72,160,,11,,,,,,,,,,,,,,,,,,,,,,,,,,,,,,,,,,,,,MET11905/12/17 15:56:02 METAR KCHS 122056Z 16010KT 10SM FEW020 FEW120 SCT200 28/19 A2977 RMK AO2 SLP081 T02830194 58013 (JRS),,,,,,,,,,,,,,,,,,,,,,,,,,,,2009-06-10
72208013880,2017-05-12T16:00:00,FM-12,4,,SE,0.25,mi,"TEMP, PRECIP, SNOW",,,"MMTS, SRG, SNOWBOARD",,,WFO CHS,,,,,,,,,,,,,,,,,,,,,,,,,,,29.77,67,83,,,+0.04,8,59,29.77,26,29.72,9.94,72,160,,11,,,,,,,,,,,,,,,,,,,,,,,,,,,,,,,,,,,,,SYN06472208 32566 41610 10283 20194 30065 40081 58013 92056 555 91221=,,,,,,,,,,,,,,,,,,,,,,,,,,,,2009-06-10
72208013880,2017-05-12T17:56:00,FM-15,7,,SE,0.25,mi,"TEMP, PRECIP, SNOW",,,"MMTS, SRG, SNOWBOARD",,,WFO CHS,,,,,,,,,,,,,,,,,,,,,,,,,,,29.77,65,80,0.00,,,,60,29.77,FEW:02 60 FEW:02 120 SCT:04 250,29.72,10.00,70,160,,10,,,,,,,,,,,,,,,,,,,,,,,,,,,,,,,,,,,,,MET11305/12/17 17:56:02 METAR KCHS 122256Z 16009KT 10SM FEW060 FEW120 SCT250 27/18 A2977 RMK AO2 SLP080 T02670183 (JRS),,,,,,,,,,,,,,,,,,,,,,,,,,,,2009-06-10
72208013880,2017-05-14T15:56:00,FM-15,7,,SE,0.25,mi,"TEMP, PRECIP, SNOW",,,"MMTS, SRG, SNOWBOARD",,,WFO CHS,,,,,,,,,,,,,,,,,,,,,,,,,,,29.92,60,79,0.00,,+0.03,8,52,29.92,CLR:00,29.87,10.00,67,150,,14,,,,,,,,,,,,,,,,,,,,,,,,,,,,,,,,,,,,,MET10405/14/17 15:56:02 METAR KCHS 142056Z 15012KT 10SM CLR 26/16 A2992 RMK AO2 SLP131 T02610156 58009 $ (JRS),,,,,,,,,,,,,,,,,,,,,,,,,,,,2009-06-10
72208013880,2017-05-14T16:00:00,FM-12,4,,SE,0.25,mi,"TEMP, PRECIP, SNOW",,,"MMTS, SRG, SNOWBOARD",,,WFO CHS,,,,,,,,,,,,,,,,,,,,,,,,,,,29.92,60,79,,,+0.03,8,52,29.92,,29.87,9.94,67,150,,14,,,,,,,,,,,,,,,,,,,,,,,,,,,,,,,,,,,,,SYN06472208 32966 01512 10261 20156 30116 40131 58009 92056 555 91421=,,,,,,,,,,,,,,,,,,,,,,,,,,,,2009-06-10
72208013880,2017-05-14T16:56:00,FM-15,7,,SE,0.25,mi,"TEMP, PRECIP, SNOW",,,"MMTS, SRG, SNOWBOARD",,,WFO CHS,,,,,,,,,,,,,,,,,,,,,,,,,,,29.92,59,78,0.00,,,,52,29.92,CLR:00,29.87,10.00,66,160,,11,,,,,,,,,,,,,,,,,,,,,,,,,,,,,,,,,,,,,MET09805/14/17 16:56:02 METAR KCHS 142156Z 16010KT 10SM CLR 26/15 A2992 RMK AO2 SLP131 T02560150 $ (JRS),,,,,,,,,,,,,,,,,,,,,,,,,,,,2009-06-10
72208013880,2017-05-17T16:56:00,FM-15,7,,SE,0.25,mi,"TEMP, PRECIP, SNOW",,,"MMTS, SRG, SNOWBOARD",,,WFO CHS,,,,,,,,,,,,,,,,,,,,,,,,,,,30.12,60,83,0.00,,,,46,30.12,FEW:02 60,30.07,10.00,68,170,,16,,,,,,,,,,,,,,,,,,,,,,,,,,,,,,,,,,,,,MET09905/17/17 16:56:02 METAR KCHS 172156Z 17014KT 10SM FEW060 28/16 A3012 RMK AO2 SLP200 T02830156 (BBE),,,,,,,,,,,,,,,,,,,,,,,,,,,,2009-06-10
72208013880,2017-05-18T12:56:00,FM-15,7,,SE,0.25,mi,"TEMP, PRECIP, SNOW",,,"MMTS, SRG, SNOWBOARD",,,WFO CHS,,,,,,,,,,,,,,,,,,,,,,,,,,,30.16,65,82,0.00,,+0.02,8,56,30.16,BKN:07 45 BKN:07 250,30.11,10.00,71,150,,14,,,,,,,,,,,,,,,,,,,,,,,,,,,,,,,,,,,,,MET12405/18/17 12:56:02 METAR KCHS 181756Z 15012KT 10SM BKN045 BKN250 28/18 A3016 RMK AO2 SLP213 T02780183 10294 20239 58007 (JMB),,,,,,,,,,,,,,,,,,,,,,,,,,,,2009-06-10
72208013880,2017-05-18T13:00:00,FM-12,4,,SE,0.25,mi,"TEMP, PRECIP, SNOW",,,"MMTS, SRG, SNOWBOARD",,,WFO CHS,,,,,,,,,,,,,,,,,,,,,,,,,,,30.16,65,82,,,+0.02,8,56,30.16,41,30.11,9.94,71,150,,14,,,,,,,,,,,,,,,,,,,,,,,,,,,,,,,,,,,,,SYN08072208 32666 61512 10278 20183 30197 40213 58007 91756 333 10294 20239 555 91818=,,,,,,,,,,,,,,,,,,,,,,,,,,,,2009-06-10
72208013880,2017-05-18T13:56:00,FM-15,7,,SE,0.25,mi,"TEMP, PRECIP, SNOW",,,"MMTS, SRG, SNOWBOARD",,,WFO CHS,,,,,,,,,,,,,,,,,,,,,,,,,,,30.15,66,84,0.00,,,,55,30.14,SCT:04 40 BKN:07 250,30.10,10.00,72,160,,13,,,,,,,,,,,,,,,,,,,,,,,,,,,,,,,,,,,,,MET10605/18/17 13:56:02 METAR KCHS 181856Z 16011KT 10SM SCT040 BKN250 29/19 A3015 RMK AO2 SLP208 T02890189 (JMB),,,,,,,,,,,,,,,,,,,,,,,,,,,,2009-06-10
72208013880,2017-05-18T14:56:00,FM-15,7,,SE,0.25,mi,"TEMP, PRECIP, SNOW",,,"MMTS, SRG, SNOWBOARD",,,WFO CHS,,,,,,,,,,,,,,,,,,,,,,,,,,,30.13,66,83,0.00,,,,57,30.13,SCT:04 35 SCT:04 250,30.08,10.00,72,160,,16,,,,,,,,,,,,,,,,,,,,,,,,,,,,,,,,,,,,,MET10605/18/17 14:56:02 METAR KCHS 181956Z 16014KT 10SM SCT035 SCT250 28/19 A3013 RMK AO2 SLP203 T02830189 (BBE),,,,,,,,,,,,,,,,,,,,,,,,,,,,2009-06-10
72208013880,2017-05-18T15:56:00,FM-15,7,,SE,0.25,mi,"TEMP, PRECIP, SNOW",,,"MMTS, SRG, SNOWBOARD",,,WFO CHS,,,,,,,,,,,,,,,,,,,,,,,,,,,30.12,65,81,0.00,,+0.04,6,58,30.12,FEW:02 35 BKN:07 250,30.07,10.00,71,150,,15,,,,,,,,,,,,,,,,,,,,,,,,,,,,,,,,,,,,,MET11205/18/17 15:56:02 METAR KCHS 182056Z 15013KT 10SM FEW035 BKN250 27/18 A3012 RMK AO2 SLP200 T02720183 56013 (BBE),,,,,,,,,,,,,,,,,,,,,,,,,,,,2009-06-10
72208013880,2017-05-18T16:00:00,FM-12,4,,SE,0.25,mi,"TEMP, PRECIP, SNOW",,,"MMTS, SRG, SNOWBOARD",,,WFO CHS,,,,,,,,,,,,,,,,,,,,,,,,,,,30.12,65,81,,,+0.04,6,58,30.12,41,30.07,9.94,71,150,,15,,,,,,,,,,,,,,,,,,,,,,,,,,,,,,,,,,,,,SYN06472208 32666 61513 10272 20183 30184 40200 56013 92056 555 91821=,,,,,,,,,,,,,,,,,,,,,,,,,,,,2009-06-10
72208013880,2017-05-18T16:56:00,FM-15,7,,SE,0.25,mi,"TEMP, PRECIP, SNOW",,,"MMTS, SRG, SNOWBOARD",,,WFO CHS,,,,,,,,,,,,,,,,,,,,,,,,,,,30.12,64,79,0.00,,,,60,30.12,SCT:04 35 SCT:04 250,30.07,10.00,69,170,,14,,,,,,,,,,,,,,,,,,,,,,,,,,,,,,,,,,,,,MET10605/18/17 16:56:02 METAR KCHS 182156Z 17012KT 10SM SCT035 SCT250 26/18 A3012 RMK AO2 SLP199 T02610178 (BBE),,,,,,,,,,,,,,,,,,,,,,,,,,,,2009-06-10
72208013880,2017-05-18T17:56:00,FM-15,7,,SE,0.25,mi,"TEMP, PRECIP, SNOW",,,"MMTS, SRG, SNOWBOARD",,,WFO CHS,,,,,,,,,,,,,,,,,,,,,,,,,,,30.12,63,79,0.00,,,,58,30.11,SCT:04 35 SCT:04 250,30.07,10.00,69,160,,14,,,,,,,,,,,,,,,,,,,,,,,,,,,,,,,,,,,,,MET10605/18/17 17:56:02 METAR KCHS 182256Z 16012KT 10SM SCT035 SCT250 26/17 A3012 RMK AO2 SLP198 T02610172 (BBE),,,,,,,,,,,,,,,,,,,,,,,,,,,,2009-06-10
72208013880,2017-05-19T13:00:00,FM-12,4,,SE,0.25,mi,"TEMP, PRECIP, SNOW",,,"MMTS, SRG, SNOWBOARD",,,WFO CHS,,,,,,,,,,,,,,,,,,,,,,,,,,,30.11,67,86,,,+0.04,8,53,30.10,,30.06,9.94,73,170,,9,,,,,,,,,,,,,,,,,,,,,,,,,,,,,,,,,,,,,SYN08072208 32966 41708 10300 20194 30180 40194 58014 91756 333 10300 20211 555 91918=,,,,,,,,,,,,,,,,,,,,,,,,,,,,2009-06-10
72208013880,2017-05-20T12:56:00,FM-15,7,,SE,0.25,mi,"TEMP, PRECIP, SNOW",,,"MMTS, SRG, SNOWBOARD",,,WFO CHS,,,,,,,,,,,,,,,,,,,,,,,,,,,30.12,70,89,0.00,,+0.01,6,53,30.12,FEW:02 42 SCT:04 50,30.07,10.00,76,170,,9,,,,,,,,,,,,,,,,,,,,,,,,,,,,,,,,,,,,,MET12305/20/17 12:56:02 METAR KCHS 201756Z 17008KT 10SM FEW042 SCT050 32/21 A3012 RMK AO2 SLP200 T03170211 10317 20233 56002 (MH),,,,,,,,,,,,,,,,,,,,,,,,,,,,2009-06-10
72208013880,2017-05-20T13:00:00,FM-12,4,,SE,0.25,mi,"TEMP, PRECIP, SNOW",,,"MMTS, SRG, SNOWBOARD",,,WFO CHS,,,,,,,,,,,,,,,,,,,,,,,,,,,30.12,70,89,,,+0.01,6,53,30.12,41,30.07,9.94,76,170,,9,,,,,,,,,,,,,,,,,,,,,,,,,,,,,,,,,,,,,SYN08072208 32666 41708 10317 20211 30184 40200 56002 91756 333 10317 20233 555 92018=,,,,,,,,,,,,,,,,,,,,,,,,,,,,2009-06-10
72208013880,2017-05-20T13:56:00,FM-15,7,,SE,0.25,mi,"TEMP, PRECIP, SNOW",,,"MMTS, SRG, SNOWBOARD",,,WFO CHS,,,,,,,,,,,,,,,,,,,,,,,,,,,30.11,70,88,0.00,,,,55,30.11,FEW:02 42,30.06,10.00,76,170,,15,,,,,,,,,,,,,,,,,,,,,,,,,,,,,,,,,,,,,MET09805/20/17 13:56:02 METAR KCHS 201856Z 17013KT 10SM FEW042 31/21 A3011 RMK AO2 SLP197 T03110211 (MH),,,,,,,,,,,,,,,,,,,,,,,,,,,,2009-06-10
72208013880,2017-05-20T14:56:00,FM-15,7,,SE,0.25,mi,"TEMP, PRECIP, SNOW",,,"MMTS, SRG, SNOWBOARD",,,WFO CHS,,,,,,,,,,,,,,,,,,,,,,,,,,,30.10,67,87,0.00,,,,51,30.10,FEW:02 40,30.05,10.00,74,170,,13,,,,,,,,,,,,,,,,,,,,,,,,,,,,,,,,,,,,,MET09905/20/17 14:56:02 METAR KCHS 201956Z 17011KT 10SM FEW040 31/19 A3010 RMK AO2 SLP193 T03060194 (JRS),,,,,,,,,,,,,,,,,,,,,,,,,,,,2009-06-10
72208013880,2017-05-20T17:56:00,FM-15,7,,SE,0.25,mi,"TEMP, PRECIP, SNOW",,,"MMTS, SRG, SNOWBOARD",,,WFO CHS,,,,,,,,,,,,,,,,,,,,,,,,,,,30.10,68,83,0.00,,,,61,30.10,FEW:02 30 FEW:02 250,30.05,10.00,73,170,,14,,,,,,,,,,,,,,,,,,,,,,,,,,,,,,,,,,,,,MET10605/20/17 17:56:02 METAR KCHS 202256Z 17012KT 10SM FEW030 FEW250 28/20 A3010 RMK AO2 SLP192 T02830200 (JRS),,,,,,,,,,,,,,,,,,,,,,,,,,,,2009-06-10
72208013880,2017-05-21T11:56:00,FM-15,7,,SE,0.25,mi,"TEMP, PRECIP, SNOW",,,"MMTS, SRG, SNOWBOARD",,,WFO CHS,,,,,,,,,,,,,,,,,,,,,,,,,,,30.14,70,84,0.00,,,,63,30.14,FEW:02 32 SCT:04 45 SCT:04 250,30.09,10.00,74,150,,15,,,,,,,,,,,,,,,,,,,,,,,,,,,,,,,,,,,,,MET11205/21/17 11:56:02 METAR KCHS 211656Z 15013KT 10SM FEW032 SCT045 SCT250 29/21 A3014 RMK AO2 SLP205 T02890211 (MH),,,,,,,,,,,,,,,,,,,,,,,,,,,,2009-06-10
72208013880,2017-05-21T14:56:00,FM-15,7,,SE,0.25,mi,"TEMP, PRECIP, SNOW",,,"MMTS, SRG, SNOWBOARD",,,WFO CHS,,,,,,,,,,,,,,,,,,,,,,,,,,,30.08,69,83,0.00,,,,63,30.08,SCT:04 24 SCT:04 120 BKN:07 200,30.03,10.00,74,150,22,15,,,,,,,,,,,,,,,,,,,,,,,,,,,,,,,,,,,,,MET11605/21/17 14:56:02 METAR KCHS 211956Z 15013G19KT 10SM SCT024 SCT120 BKN200 28/21 A3008 RMK AO2 SLP185 T02830206 (JRS),,,,,,,,,,,,,,,,,,,,,,,,,,,,2009-06-10
72208013880,2017-05-21T16:56:00,FM-15,7,,SE,0.25,mi,"TEMP, PRECIP, SNOW",,,"MMTS, SRG, SNOWBOARD",,,WFO CHS,,,,,,,,,,,,,,,,,,,,,,,,,,,30.10,69,79,0.00,,,,72,30.10,SCT:04 21 BKN:07 130 OVC:08 200,30.05,10.00,72,150,,14,,,,,,,,,,,,,,,,,,,,,,,,,,,,,,,,,,,,,MET11305/21/17 16:56:02 METAR KCHS 212156Z 15012KT 10SM SCT021 BKN130 OVC200 26/21 A3010 RMK AO2 SLP192 T02610206 (JRS),,,,,,,,,,,,,,,,,,,,,,,,,,,,2009-06-10
72208013880,2017-05-21T17:56:00,FM-15,7,,SE,0.25,mi,"TEMP, PRECIP, SNOW",,,"MMTS, SRG, SNOWBOARD",,,WFO CHS,,,,,,,,,,,,,,,,,,,,,,,,,,,30.09,68,79,0.00,,,,69,30.08,FEW:02 20 SCT:04 120 OVC:08 200,30.04,10.00,72,170,,14,,,,,,,,,,,,,,,,,,,,,,,,,,,,,,,,,,,,,MET11305/21/17 17:56:02 METAR KCHS 212256Z 17012KT 10SM FEW020 SCT120 OVC200 26/20 A3009 RMK AO2 SLP187 T02610200 (JRS),,,,,,,,,,,,,,,,,,,,,,,,,,,,2009-06-10
72208013880,2017-05-22T13:56:00,FM-15,7,,SE,0.25,mi,"TEMP, PRECIP, SNOW",,,"MMTS, SRG, SNOWBOARD",,,WFO CHS,,,,,,,,,,,,,,,,,,,,,,,,,,,29.98,71,85,0.00,,,,63,29.97,FEW:02 30 SCT:04 45 BKN:07 250,29.93,10.00,75,170,,8,,,,,,,,,,,,,,,,,,,,,,,,,,,,,,,,,,,,,MET11305/22/17 13:56:02 METAR KCHS 221856Z 17007KT 10SM FEW030 SCT045 BKN250 29/22 A2998 RMK AO2 SLP150 T02940217 (JMB),,,,,,,,,,,,,,,,,,,,,,,,,,,,2009-06-10
72208013880,2017-06-01T17:56:00,FM-15,7,,SE,0.25,mi,"TEMP, PRECIP, SNOW",,,"MMTS, SRG, SNOWBOARD",,,WFO CHS,,,,,,,,,,,,,,,,,,,,,,,,,,,30.02,69,82,0.00,,,,65,30.01,FEW:02 35 BKN:07 150 BKN:07 250,29.97,10.00,73,170,,9,,,,,,,,,,,,,,,,,,,,,,,,,,,,,,,,,,,,,MET12306/01/17 17:56:02 METAR KCHS 012256Z 17008KT 10SM FEW035 BKN150 BKN250 28/21 A3002 RMK AO2 SLP164 CB DSNT E T02780206 (BBE),,,,,,,,,,,,,,,,,,,,,,,,,,,,2009-06-10
72208013880,2017-06-02T15:56:00,FM-15,7,,SE,0.25,mi,"TEMP, PRECIP, SNOW",,,"MMTS, SRG, SNOWBOARD",,,WFO CHS,,,,,,,,,,,,,,,,,,,,,,,,,,,29.99,70,86,0.00,,+0.03,5,59,29.98,SCT:04 55 SCT:04 250,29.94,10.00,75,150,,11,,,,,,,,,,,,,,,,,,,,,,,,,,,,,,,,,,,,,MET11206/02/17 15:56:02 METAR KCHS 022056Z 15010KT 10SM SCT055 SCT250 30/21 A2999 RMK AO2 SLP154 T03000211 55009 (BBE),,,,,,,,,,,,,,,,,,,,,,,,,,,,2009-06-10
72208013880,2017-06-02T16:00:00,FM-12,4,,SE,0.25,mi,"TEMP, PRECIP, SNOW",,,"MMTS, SRG, SNOWBOARD",,,WFO CHS,,,,,,,,,,,,,,,,,,,,,,,,,,,29.99,70,86,,,+0.03,5,59,29.98,57,29.94,9.94,75,150,,11,,,,,,,,,,,,,,,,,,,,,,,,,,,,,,,,,,,,,SYN06472208 32766 41510 10300 20211 30140 40154 55009 92056 555 90221=,,,,,,,,,,,,,,,,,,,,,,,,,,,,2009-06-10
72208013880,2017-06-03T12:56:00,FM-15,7,,SE,0.25,mi,"TEMP, PRECIP, SNOW",,,"MMTS, SRG, SNOWBOARD",,,WFO CHS,,,,,,,,,,,,,,,,,,,,,,,,,,,30.03,63,87,0.00,,+0.04,8,45,30.02,SCT:04 50 SCT:04 200,29.98,10.00,71,170,,11,,,,,,,,,,,,,,,,,,,,,,,,,,,,,,,,,,,,,MET12506/03/17 12:56:02 METAR KCHS 031756Z 17010KT 10SM SCT050 SCT200 31/17 A3003 RMK AO2 SLP167 T03060172 10317 20239 58012 $ (MH),,,,,,,,,,,,,,,,,,,,,,,,,,,,2009-06-10
72208013880,2017-06-03T13:00:00,FM-12,4,,SE,0.25,mi,"TEMP, PRECIP, SNOW",,,"MMTS, SRG, SNOWBOARD",,,WFO CHS,,,,,,,,,,,,,,,,,,,,,,,,,,,30.03,63,87,,,+0.04,8,45,30.02,57,29.98,9.94,71,170,,11,,,,,,,,,,,,,,,,,,,,,,,,,,,,,,,,,,,,,SYN08072208 32766 41710 10306 20172 30153 40167 58012 91756 333 10317 20239 555 90318=,,,,,,,,,,,,,,,,,,,,,,,,,,,,2009-06-10
72208013880,2017-06-03T14:56:00,FM-15,7,,SE,0.25,mi,"TEMP, PRECIP, SNOW",,,"MMTS, SRG, SNOWBOARD",,,WFO CHS,,,,,,,,,,,,,,,,,,,,,,,,,,,30.00,68,86,0.00,,,,55,30.00,FEW:02 45 SCT:04 120 BKN:07 200,29.95,10.00,74,160,,15,,,,,,,,,,,,,,,,,,,,,,,,,,,,,,,,,,,,,MET14006/03/17 14:56:02 METAR KCHS 031956Z 16013KT 10SM FEW045 SCT120 BKN200 30/20 A3000 RMK AO2 LTG DSNT NW SLP159 CB DSNT NW-N T03000200 $ (JRS),,,,,,,,,,,,,,,,,,,,,,,,,,,,2009-06-10
72208013880,2017-06-03T15:09:00,FM-16,7,,SE,0.25,mi,"TEMP, PRECIP, SNOW",,,"MMTS, SRG, SNOWBOARD",,,WFO CHS,,,,,,,,,,,,,,,,,,,,,,,,,,,30.00,67,86,,VCTS:7 ||,,,53,,FEW:02 45 SCT:04 120 BKN:07 200,29.95,10.00,73,170,,16,,,,,,,,,,,,,,,,,,,,,,,,,,,,,,,,,,,,,MET16106/03/17 15:09:02 SPECI KCHS 032009Z 17014KT 10SM VCTS FEW045 SCT120 BKN200 30/19 A3000 RMK AO2 LTG DSNT NW TSE04 OCNL LTGIC DSNT NW CB DSNT NW T03000194 $ (JRS),,,,,,,,,,,,,,,,,,,,,,,,,,,,2009-06-10
72208013880,2017-06-03T15:24:00,FM-16,7,,SE,0.25,mi,"TEMP, PRECIP, SNOW",,,"MMTS, SRG, SNOWBOARD",,,WFO CHS,,,,,,,,,,,,,,,,,,,,,,,,,,,30.00,66,86,,,,,51,,FEW:02 45 SCT:04 120 BKN:07 200,29.95,10.00,73,160,,14,,,,,,,,,,,,,,,,,,,,,,,,,,,,,,,,,,,,,MET10806/03/17 15:24:02 SPECI KCHS 032024Z 16012KT 10SM FEW045 SCT120 BKN200 30/19 A3000 RMK AO2 T03000189 $ (JRS),,,,,,,,,,,,,,,,,,,,,,,,,,,,2009-06-10
72208013880,2017-06-03T15:56:00,FM-15,7,,SE,0.25,mi,"TEMP, PRECIP, SNOW",,,"MMTS, SRG, SNOWBOARD",,,WFO CHS,,,,,,,,,,,,,,,,,,,,,,,,,,,29.99,66,85,0.00,,+0.04,8,53,29.99,FEW:02 45 FEW:02 120 BKN:07 200,29.94,10.00,72,150,,13,,,,,,,,,,,,,,,,,,,,,,,,,,,,,,,,,,,,,MET12106/03/17 15:56:02 METAR KCHS 032056Z 15011KT 10SM FEW045 FEW120 BKN200 29/19 A2999 RMK AO2 SLP155 T02940189 58012 $ (JRS),,,,,,,,,,,,,,,,,,,,,,,,,,,,2009-06-10
72208013880,2017-06-03T16:00:00,FM-12,4,,SE,0.25,mi,"TEMP, PRECIP, SNOW",,,"MMTS, SRG, SNOWBOARD",,,WFO CHS,,,,,,,,,,,,,,,,,,,,,,,,,,,29.99,66,85,,,+0.04,8,53,29.99,41,29.94,9.94,72,150,,13,,,,,,,,,,,,,,,,,,,,,,,,,,,,,,,,,,,,,SYN06472208 32666 61511 10294 20189 30140 40155 58012 92056 555 90321=,,,,,,,,,,,,,,,,,,,,,,,,,,,,2009-06-10
72208013880,2017-06-03T16:56:00,FM-15,7,,SE,0.25,mi,"TEMP, PRECIP, SNOW",,,"MMTS, SRG, SNOWBOARD",,,WFO CHS,,,,,,,,,,,,,,,,,,,,,,,,,,,29.99,65,83,0.00,,,,55,29.99,FEW:02 45 BKN:07 200,29.94,10.00,71,150,,13,,,,,,,,,,,,,,,,,,,,,,,,,,,,,,,,,,,,,MET10806/03/17 16:56:02 METAR KCHS 032156Z 15011KT 10SM FEW045 BKN200 28/18 A2999 RMK AO2 SLP155 T02830183 $ (JRS),,,,,,,,,,,,,,,,,,,,,,,,,,,,2009-06-10
72208013880,2017-06-04T13:56:00,FM-15,7,,SE,0.25,mi,"TEMP, PRECIP, SNOW",,,"MMTS, SRG, SNOWBOARD",,,WFO CHS,,,,,,,,,,,,,,,,,,,,,,,,,,,29.98,68,85,0.00,,,,57,29.97,SCT:04 32 BKN:07 250,29.93,10.00,74,170,,13,,,,,,,,,,,,,,,,,,,,,,,,,,,,,,,,,,,,,MET10706/04/17 13:56:02 METAR KCHS 041856Z 17011KT 10SM SCT032 BKN250 29/20 A2998 RMK AO2 SLP150 T02940200 $ (MH),,,,,,,,,,,,,,,,,,,,,,,,,,,,2009-06-10
72208013880,2017-06-04T15:56:00,FM-15,7,,SE,0.25,mi,"TEMP, PRECIP, SNOW",,,"MMTS, SRG, SNOWBOARD",,,WFO CHS,,,,,,,,,,,,,,,,,,,,,,,,,,,29.95,69,85,0.00,,+0.04,6,59,29.94,SCT:04 35 SCT:04 250,29.90,10.00,74,160,,15,,,,,,,,,,,,,,,,,,,,,,,,,,,,,,,,,,,,,MET11406/04/17 15:56:02 METAR KCHS 042056Z 16013KT 10SM SCT035 SCT250 29/21 A2995 RMK AO2 SLP140 T02940206 56015 $ (JRS),,,,,,,,,,,,,,,,,,,,,,,,,,,,2009-06-10
72208013880,2017-06-04T16:00:00,FM-12,4,,SE,0.25,mi,"TEMP, PRECIP, SNOW",,,"MMTS, SRG, SNOWBOARD",,,WFO CHS,,,,,,,,,,,,,,,,,,,,,,,,,,,29.95,69,85,,,+0.04,6,59,29.94,41,29.90,9.94,74,160,,15,,,,,,,,,,,,,,,,,,,,,,,,,,,,,,,,,,,,,SYN06472208 32666 41613 10294 20206 30126 40140 56015 92056 555 90421=,,,,,,,,,,,,,,,,,,,,,,,,,,,,2009-06-10
72208013880,2017-06-04T17:56:00,FM-15,7,,SE,0.25,mi,"TEMP, PRECIP, SNOW",,,"MMTS, SRG, SNOWBOARD",,,WFO CHS,,,,,,,,,,,,,,,,,,,,,,,,,,,29.95,67,82,0.00,,,,60,29.94,FEW:02 27 FEW:02 250,29.90,10.00,72,170,,17,,,,,,,,,,,,,,,,,,,,,,,,,,,,,,,,,,,,,MET10806/04/17 17:56:02 METAR KCHS 042256Z 17015KT 10SM FEW027 FEW250 28/19 A2995 RMK AO2 SLP140 T02780194 $ (JRS),,,,,,,,,,,,,,,,,,,,,,,,,,,,2009-06-10
72208013880,2017-06-06T15:17:00,FM-16,7,,SE,0.25,mi,"TEMP, PRECIP, SNOW",,,"MMTS, SRG, SNOWBOARD",,,WFO CHS,,,,,,,,,,,,,,,,,,,,,,,,,,,29.74,72,74,0.03,-RA:02 BR:1 |RA |,,,94,,BKN:07 10 BKN:07 25 OVC:08 55,29.69,6.00,73,160,,8,,,,,,,,,,,,,,,,,,,,,,,,,,,,,,,,,,,,,MET14706/06/17 15:17:02 SPECI KCHS 062017Z 16007KT 6SM -RA BR BKN010 BKN025 OVC055 23/22 A2974 RMK AO2 LTG DSNT SW TSE07 CB DSNT SW P0003 T02330222 (BBE),,,,,,,,,,,,,,,,,,,,,,,,,,,,2009-06-10
72208013880,2017-06-06T15:33:00,FM-16,7,,SE,0.25,mi,"TEMP, PRECIP, SNOW",,,"MMTS, SRG, SNOWBOARD",,,WFO CHS,,,,,,,,,,,,,,,,,,,,,,,,,,,29.74,72,74,0.05,RA:02 BR:1 |RA |,,,94,,BKN:07 6 OVC:08 10,29.69,5.00,73,160,,10,,,,,,,,,,,,,,,,,,,,,,,,,,,,,,,,,,,,,MET11606/06/17 15:33:02 SPECI KCHS 062033Z 16009KT 5SM RA BR BKN006 OVC010 23/22 A2974 RMK AO2 TSE07 P0005 T02330222 (BBE),,,,,,,,,,,,,,,,,,,,,,,,,,,,2009-06-10
72208013880,2017-06-06T16:56:00,FM-15,7,,SE,0.25,mi,"TEMP, PRECIP, SNOW",,,"MMTS, SRG, SNOWBOARD",,,WFO CHS,,,,,,,,,,,,,,,,,,,,,,,,,,,29.73,70,72,0.25,RA:02 BR:1 |RA |,,,94,29.72,SCT:04 8 BKN:07 45 OVC:08 75,29.68,5.00,71,150,,9,,,,,,,,,,,,,,,,,,,,,,,,,,,,,,,,,,,,,MET13406/06/17 16:56:02 METAR KCHS 062156Z 15008KT 5SM RA BR SCT008 BKN045 OVC075 22/21 A2973 RMK AO2 SLP066 SCT V BKN P0025 T02220211 (BBE),,,,,,,,,,,,,,,,,,,,,,,,,,,,2009-06-10
72208013880,2017-06-06T17:56:00,FM-15,7,,SE,0.25,mi,"TEMP, PRECIP, SNOW",,,"MMTS, SRG, SNOWBOARD",,,WFO CHS,,,,,,,,,,,,,,,,,,,,,,,,,,,29.73,70,72,0.18,RA:02 BR:1 |RA |,,,94,29.73,FEW:02 8 BKN:07 80 OVC:08 90,29.68,6.00,71,160,,9,,,,,,,,,,,,,,,,,,,,,,,,,,,,,,,,,,,,,MET12406/06/17 17:56:02 METAR KCHS 062256Z 16008KT 6SM RA BR FEW008 BKN080 OVC090 22/21 A2973 RMK AO2 SLP067 P0019 T02220211 (BBE),,,,,,,,,,,,,,,,,,,,,,,,,,,,2009-06-10
72208013880,2017-06-10T13:56:00,FM-15,7,,SE,0.25,mi,"TEMP, PRECIP, SNOW",,,"MMTS, SRG, SNOWBOARD",,,WFO CHS,,,,,,,,,,,,,,,,,,,,,,,,,,,30.12,57,87,0.00,,,,36,30.11,FEW:02 45 FEW:02 60,30.07,10.00,68,150,,11,,,,,,,,,,,,,,,,,,,,,,,,,,,,,,,,,,,,,MET10506/10/17 13:56:02 METAR KCHS 101856Z 15010KT 10SM FEW045 FEW060 31/14 A3012 RMK AO2 SLP198 T03060139 (MH),,,,,,,,,,,,,,,,,,,,,,,,,,,,2009-06-10
72208013880,2017-06-10T15:56:00,FM-15,7,,SE,0.25,mi,"TEMP, PRECIP, SNOW",,,"MMTS, SRG, SNOWBOARD",,,WFO CHS,,,,,,,,,,,,,,,,,,,,,,,,,,,30.11,64,85,0.00,,+0.01,5,50,30.10,FEW:02 50 FEW:02 70,30.06,10.00,71,170,,11,,,,,,,,,,,,,,,,,,,,,,,,,,,,,,,,,,,,,MET11206/10/17 15:56:02 METAR KCHS 102056Z 17010KT 10SM FEW050 FEW070 29/18 A3011 RMK AO2 SLP194 T02940178 55005 (JRS),,,,,,,,,,,,,,,,,,,,,,,,,,,,2009-06-10
72208013880,2017-06-10T16:00:00,FM-12,4,,SE,0.25,mi,"TEMP, PRECIP, SNOW",,,"MMTS, SRG, SNOWBOARD",,,WFO CHS,,,,,,,,,,,,,,,,,,,,,,,,,,,30.11,64,85,,,+0.01,5,50,30.10,57,30.06,9.94,71,170,,11,,,,,,,,,,,,,,,,,,,,,,,,,,,,,,,,,,,,,SYN06472208 32766 21710 10294 20178 30180 40194 55005 92056 555 91021=,,,,,,,,,,,,,,,,,,,,,,,,,,,,2009-06-10
72208013880,2017-06-10T16:56:00,FM-15,7,,SE,0.25,mi,"TEMP, PRECIP, SNOW",,,"MMTS, SRG, SNOWBOARD",,,WFO CHS,,,,,,,,,,,,,,,,,,,,,,,,,,,30.11,64,83,0.00,,,,53,30.11,FEW:02 45,30.06,10.00,71,160,,13,,,,,,,,,,,,,,,,,,,,,,,,,,,,,,,,,,,,,MET09906/10/17 16:56:02 METAR KCHS 102156Z 16011KT 10SM FEW045 28/18 A3011 RMK AO2 SLP195 T02830178 (JRS),,,,,,,,,,,,,,,,,,,,,,,,,,,,2009-06-10
72208013880,2017-06-10T17:56:00,FM-15,7,,SE,0.25,mi,"TEMP, PRECIP, SNOW",,,"MMTS, SRG, SNOWBOARD",,,WFO CHS,,,,,,,,,,,,,,,,,,,,,,,,,,,30.11,67,81,0.00,,,,62,30.11,FEW:02 40 FEW:02 250,30.06,10.00,72,150,,14,,,,,,,,,,,,,,,,,,,,,,,,,,,,,,,,,,,,,MET10606/10/17 17:56:02 METAR KCHS 102256Z 15012KT 10SM FEW040 FEW250 27/19 A3011 RMK AO2 SLP195 T02720194 (JRS),,,,,,,,,,,,,,,,,,,,,,,,,,,,2009-06-10
72208013880,2017-06-15T16:49:00,FM-16,7,,SE,0.25,mi,"TEMP, PRECIP, SNOW",,,"MMTS, SRG, SNOWBOARD",,,WFO CHS,,,,,,,,,,,,,,,,,,,,,,,,,,,29.90,69,77,0.55,TS:7 -RA:02 BR:1 |RA TS |,,,77,,BKN:07 25 OVC:08 35,29.85,4.00,72,170,26,15,,,,,,,,,,,,,,,,,,,,,,,,,,,,,,,,,,,,,MET17606/15/17 16:49:02 SPECI KCHS 152149Z 17013G23KT 4SM -TSRA BR BKN025CB OVC035 25/21 A2990 RMK AO2 LTG DSNT ALQDS PRESFR FRQ LTGCGIC SW-NW TS SW-NW MOV SW P0055 T02500206 $ (BBE),,,,,,,,,,,,,,,,,,,,,,,,,,,,2009-06-10
72208013880,2017-06-17T11:56:00,FM-15,7,,SE,0.25,mi,"TEMP, PRECIP, SNOW",,,"MMTS, SRG, SNOWBOARD",,,WFO CHS,,,,,,,,,,,,,,,,,,,,,,,,,,,29.90,74,85,0.00,,,,70,29.89,SCT:04 27 SCT:04 70,29.85,10.00,77,150,,7,,,,,,,,,,,,,,,,,,,,,,,,,,,,,,,,,,,,,MET14006/17/17 11:56:02 METAR KCHS 171656Z 15006KT 10SM SCT027 SCT070 29/23 A2990 RMK AO2 LTG DSNT NE AND E SLP123 CB DSNT NE AND E T02940233 (MH),,,,,,,,,,,,,,,,,,,,,,,,,,,,2009-06-10
72208013880,2017-06-17T15:56:00,FM-15,7,,SE,0.25,mi,"TEMP, PRECIP, SNOW",,,"MMTS, SRG, SNOWBOARD",,,WFO CHS,,,,,,,,,,,,,,,,,,,,,,,,,,,29.88,73,85,T,,+0.01,8,68,29.88,FEW:02 23 SCT:04 250,29.83,10.00,77,170,18,13,,,,,,,,,,,,,,,,,,,,,,,,,,,,,,,,,,,,,MET16206/17/17 15:56:02 METAR KCHS 172056Z 17011G16KT 10SM FEW023 SCT250 29/23 A2988 RMK AO2 LTG DSNT NW RAE13 TSE18 SLP117 CB DSNT NW P0000 60000 T02940228 58005 (JRS),,,,,,,,,,,,,,,,,,,,,,,,,,,,2009-06-10
72208013880,2017-06-17T16:00:00,FM-12,4,,SE,0.25,mi,"TEMP, PRECIP, SNOW",,,"MMTS, SRG, SNOWBOARD",,,WFO CHS,,,,,,,,,,,,,,,,,,,,,,,,,,,29.88,73,85,,,+0.01,8,68,29.88,26,29.83,9.94,77,170,,13,,,,,,,,,,,,,,,,,,,,,,,,,,,,,,,,,,,,,SYN08072208 12566 41711 10294 20228 30102 40117 58005 69907 92056 333 91016 555 91721=,,,,,,,,,,,,,,,,,,,,,,,,,,,,2009-06-10
72208013880,2017-06-18T13:56:00,FM-15,7,,SE,0.25,mi,"TEMP, PRECIP, SNOW",,,"MMTS, SRG, SNOWBOARD",,,WFO CHS,,,,,,,,,,,,,,,,,,,,,,,,,,,29.96,74,89,0.00,,,,61,29.96,FEW:02 41,29.91,10.00,78,170,,16,,,,,,,,,,,,,,,,,,,,,,,,,,,,,,,,,,,,,MET09806/18/17 13:56:02 METAR KCHS 181856Z 17014KT 10SM FEW041 32/23 A2996 RMK AO2 SLP145 T03170233 (MH),,,,,,,,,,,,,,,,,,,,,,,,,,,,2009-06-10
72208013880,2017-06-18T15:56:00,FM-15,7,,SE,0.25,mi,"TEMP, PRECIP, SNOW",,,"MMTS, SRG, SNOWBOARD",,,WFO CHS,,,,,,,,,,,,,,,,,,,,,,,,,,,29.95,73,87,0.00,,+0.03,6,63,29.95,FEW:02 36,29.90,10.00,77,170,,17,,,,,,,,,,,,,,,,,,,,,,,,,,,,,,,,,,,,,MET10506/18/17 15:56:02 METAR KCHS 182056Z 17015KT 10SM FEW036 31/23 A2995 RMK AO2 SLP142 T03060228 56010 (JRS),,,,,,,,,,,,,,,,,,,,,,,,,,,,2009-06-10
72208013880,2017-06-18T16:00:00,FM-12,4,,SE,0.25,mi,"TEMP, PRECIP, SNOW",,,"MMTS, SRG, SNOWBOARD",,,WFO CHS,,,,,,,,,,,,,,,,,,,,,,,,,,,29.95,73,87,,,+0.03,6,63,29.95,41,29.90,9.94,77,170,,17,,,,,,,,,,,,,,,,,,,,,,,,,,,,,,,,,,,,,SYN06472208 32666 21715 10306 20228 30126 40142 56010 92056 555 91821=,,,,,,,,,,,,,,,,,,,,,,,,,,,,2009-06-10
72208013880,2017-06-18T16:56:00,FM-15,7,,SE,0.25,mi,"TEMP, PRECIP, SNOW",,,"MMTS, SRG, SNOWBOARD",,,WFO CHS,,,,,,,,,,,,,,,,,,,,,,,,,,,29.95,72,87,0.00,,,,61,29.94,FEW:02 33,29.90,10.00,77,170,,15,,,,,,,,,,,,,,,,,,,,,,,,,,,,,,,,,,,,,MET09906/18/17 16:56:02 METAR KCHS 182156Z 17013KT 10SM FEW033 31/22 A2995 RMK AO2 SLP140 T03060222 (JRS),,,,,,,,,,,,,,,,,,,,,,,,,,,,2009-06-10
72208013880,2017-06-27T16:56:00,FM-15,7,,SE,0.25,mi,"TEMP, PRECIP, SNOW",,,"MMTS, SRG, SNOWBOARD",,,WFO CHS,,,,,,,,,,,,,,,,,,,,,,,,,,,30.00,60,83,0.00,,,,46,30.00,SCT:04 55 BKN:07 65 BKN:07 120,29.95,10.00,68,150,,10,,,,,,,,,,,,,,,,,,,,,,,,,,,,,,,,,,,,,MET11306/27/17 16:56:02 METAR KCHS 272156Z 15009KT 10SM SCT055 BKN065 BKN120 28/16 A3000 RMK AO2 SLP160 T02830156 (BBE),,,,,,,,,,,,,,,,,,,,,,,,,,,,2009-06-10
72208013880,2017-06-27T17:56:00,FM-15,7,,SE,0.25,mi,"TEMP, PRECIP, SNOW",,,"MMTS, SRG, SNOWBOARD",,,WFO CHS,,,,,,,,,,,,,,,,,,,,,,,,,,,30.01,62,81,0.00,,,,53,30.00,SCT:04 60 BKN:07 80 BKN:07 200,29.96,10.00,69,160,,10,,,,,,,,,,,,,,,,,,,,,,,,,,,,,,,,,,,,,MET11306/27/17 17:56:02 METAR KCHS 272256Z 16009KT 10SM SCT060 BKN080 BKN200 27/17 A3001 RMK AO2 SLP160 T02720167 (BBE),,,,,,,,,,,,,,,,,,,,,,,,,,,,2009-06-10
72208013880,2017-06-30T13:17:00,FM-16,7,,SE,0.25,mi,"TEMP, PRECIP, SNOW",,,"MMTS, SRG, SNOWBOARD",,,WFO CHS,,,,,,,,,,,,,,,,,,,,,,,,,,,30.10,77,83,0.01,-RA:02 |RA |,,,82,,SCT:04 17 BKN:07 35 BKN:07 120,30.05,10.00,79,150,,8,,,,,,,,,,,,,,,,,,,,,,,,,,,,,,,,,,,,,MET11606/30/17 13:17:02 SPECI KCHS 301817Z 15007KT 10SM -RA SCT017 BKN035 BKN120 28/25 A3010 RMK AO2 P0001 T02830250 (JMB),,,,,,,,,,,,,,,,,,,,,,,,,,,,2009-06-10
72208013880,2017-07-03T14:56:00,FM-15,7,,SE,0.25,mi,"TEMP, PRECIP, SNOW",,,"MMTS, SRG, SNOWBOARD",,,WFO CHS,,,,,,,,,,,,,,,,,,,,,,,,,,,30.04,76,87,0.00,,,,70,30.04,SCT:04 35 SCT:04 45 BKN:07 200,29.99,10.00,79,150,,9,,,,,,,,,,,,,,,,,,,,,,,,,,,,,,,,,,,,,MET13607/03/17 14:56:02 METAR KCHS 031956Z 15008KT 10SM SCT035 SCT045 BKN200 31/24 A3004 RMK AO2 LTG DSNT SW SLP172 CB DSNT SW T03060244 (BBE),,,,,,,,,,,,,,,,,,,,,,,,,,,,2009-06-10
72208013880,2017-07-03T15:25:00,FM-16,7,,SE,0.25,mi,"TEMP, PRECIP, SNOW",,,"MMTS, SRG, SNOWBOARD",,,WFO CHS,,,,,,,,,,,,,,,,,,,,,,,,,,,30.04,77,89,,VCTS:7 ||,,,68,,SCT:04 30 SCT:04 40 BKN:07 200,29.99,10.00,80,160,,10,,,,,,,,,,,,,,,,,,,,,,,,,,,,,,,,,,,,,MET16407/03/17 15:25:02 SPECI KCHS 032025Z 16009KT 10SM VCTS SCT030CB SCT040 BKN200 32/25 A3004 RMK AO2 LTG DSNT SW AND W OCNL LTGIC SW-W TS VC SW-W MOV E T03170250 (BBE),,,,,,,,,,,,,,,,,,,,,,,,,,,,2009-06-10
72208013880,2017-07-07T15:11:00,FM-16,7,,SE,0.25,mi,"TEMP, PRECIP, SNOW",,,"MMTS, SRG, SNOWBOARD",,,WFO CHS,,,,,,,,,,,,,,,,,,,,,,,,,,,30.00,69,84,,TS:7 |TS TS |,,,61,,SCT:04 50 BKN:07 90 BKN:07 200,29.95,10.00,74,150,,8,,,,,,,,,,,,,,,,,,,,,,,,,,,,,,,,,,,,,MET16607/07/17 15:11:02 SPECI KCHS 072011Z 15007KT 10SM TS SCT050CB BKN090 BKN200 29/21 A3000 RMK AO2 LTG DSNT ALQDS TSB06 OCNL LTGIC E-S-SW TS E-S-SW MOV E T02890206 (BBE),,,,,,,,,,,,,,,,,,,,,,,,,,,,2009-06-10
72208013880,2017-07-10T12:50:00,FM-16,7,,SE,0.25,mi,"TEMP, PRECIP, SNOW",,,"MMTS, SRG, SNOWBOARD",,,WFO CHS,,,,,,,,,,,,,,,,,,,,,,,,,,,30.09,73,77,0.55,TS:7 +RA:02 BR:1 |RA TS |,,,88,,BKN:07 15 BKN:07 30 OVC:08 40,30.04,1.00,74,170,,7,,,,,,,,,,,,,,,,,,,,,,,,,,,,,,,,,,,,,MET18507/10/17 12:50:02 SPECI KCHS 101750Z 17006KT 1SM R15/P6000FT +TSRA BR BKN015 BKN030CB OVC040 25/23 A3009 RMK AO2 LTG DSNT NE FRQ LTGIC OHD TS OHD MOV NE CB DSNT NE P0055 T02500228 (JMB),,,,,,,,,,,,,,,,,,,,,,,,,,,,2009-06-10
72208013880,2017-07-12T13:56:00,FM-15,7,,SE,0.25,mi,"TEMP, PRECIP, SNOW",,,"MMTS, SRG, SNOWBOARD",,,WFO CHS,,,,,,,,,,,,,,,,,,,,,,,,,,,30.15,75,91,0.00,,,,59,30.14,SCT:04 45 SCT:04 250,30.10,10.00,80,170,,10,,,,,,,,,,,,,,,,,,,,,,,,,,,,,,,,,,,,,MET10607/12/17 13:56:02 METAR KCHS 121856Z 17009KT 10SM SCT045 SCT250 33/24 A3015 RMK AO2 SLP207 T03280239 (JMB),,,,,,,,,,,,,,,,,,,,,,,,,,,,2009-06-10
72208013880,2017-07-12T14:56:00,FM-15,7,,SE,0.25,mi,"TEMP, PRECIP, SNOW",,,"MMTS, SRG, SNOWBOARD",,,WFO CHS,,,,,,,,,,,,,,,,,,,,,,,,,,,30.13,74,91,0.00,,,,57,30.13,SCT:04 40,30.08,10.00,79,160,,10,,,,,,,,,,,,,,,,,,,,,,,,,,,,,,,,,,,,,MET09907/12/17 14:56:02 METAR KCHS 121956Z 16009KT 10SM SCT040 33/23 A3013 RMK AO2 SLP203 T03280233 (BBE),,,,,,,,,,,,,,,,,,,,,,,,,,,,2009-06-10
72208013880,2017-07-12T16:56:00,FM-15,7,,SE,0.25,mi,"TEMP, PRECIP, SNOW",,,"MMTS, SRG, SNOWBOARD",,,WFO CHS,,,,,,,,,,,,,,,,,,,,,,,,,,,30.12,73,89,0.00,,,,59,30.12,FEW:02 40 FEW:02 250,30.07,10.00,78,170,,13,,,,,,,,,,,,,,,,,,,,,,,,,,,,,,,,,,,,,MET10607/12/17 16:56:02 METAR KCHS 122156Z 17011KT 10SM FEW040 FEW250 32/23 A3012 RMK AO2 SLP199 T03170228 (BBE),,,,,,,,,,,,,,,,,,,,,,,,,,,,2009-06-10
72208013880,2017-07-12T17:56:00,FM-15,7,,SE,0.25,mi,"TEMP, PRECIP, SNOW",,,"MMTS, SRG, SNOWBOARD",,,WFO CHS,,,,,,,,,,,,,,,,,,,,,,,,,,,30.13,72,87,0.00,,,,61,30.12,FEW:02 35 FEW:02 250,30.08,10.00,77,160,,13,,,,,,,,,,,,,,,,,,,,,,,,,,,,,,,,,,,,,MET10607/12/17 17:56:02 METAR KCHS 122256Z 16011KT 10SM FEW035 FEW250 31/22 A3013 RMK AO2 SLP201 T03060222 (BBE),,,,,,,,,,,,,,,,,,,,,,,,,,,,2009-06-10
72208013880,2017-07-13T14:56:00,FM-15,7,,SE,0.25,mi,"TEMP, PRECIP, SNOW",,,"MMTS, SRG, SNOWBOARD",,,WFO CHS,,,,,,,,,,,,,,,,,,,,,,,,,,,30.14,75,92,0.00,,,,58,30.14,SCT:04 40 SCT:04 250,30.09,10.00,80,160,,11,,,,,,,,,,,,,,,,,,,,,,,,,,,,,,,,,,,,,MET10607/13/17 14:56:02 METAR KCHS 131956Z 16010KT 10SM SCT040 SCT250 33/24 A3014 RMK AO2 SLP206 T03330239 (BBE),,,,,,,,,,,,,,,,,,,,,,,,,,,,2009-06-10
72208013880,2017-07-13T15:56:00,FM-15,7,,SE,0.25,mi,"TEMP, PRECIP, SNOW",,,"MMTS, SRG, SNOWBOARD",,,WFO CHS,,,,,,,,,,,,,,,,,,,,,,,,,,,30.13,73,90,0.00,,+0.05,6,58,30.13,FEW:02 40 FEW:02 250,30.08,10.00,78,170,,9,,,,,,,,,,,,,,,,,,,,,,,,,,,,,,,,,,,,,MET11207/13/17 15:56:02 METAR KCHS 132056Z 17008KT 10SM FEW040 FEW250 32/23 A3013 RMK AO2 SLP202 T03220228 56016 (BBE),,,,,,,,,,,,,,,,,,,,,,,,,,,,2009-06-10
72208013880,2017-07-13T16:00:00,FM-12,4,,SE,0.25,mi,"TEMP, PRECIP, SNOW",,,"MMTS, SRG, SNOWBOARD",,,WFO CHS,,,,,,,,,,,,,,,,,,,,,,,,,,,30.13,73,90,,,+0.05,6,58,30.13,41,30.08,9.94,78,170,,9,,,,,,,,,,,,,,,,,,,,,,,,,,,,,,,,,,,,,SYN06472208 32666 21708 10322 20228 30187 40202 56016 92056 555 91321=,,,,,,,,,,,,,,,,,,,,,,,,,,,,2009-06-10
72208013880,2017-07-13T16:56:00,FM-15,7,,SE,0.25,mi,"TEMP, PRECIP, SNOW",,,"MMTS, SRG, SNOWBOARD",,,WFO CHS,,,,,,,,,,,,,,,,,,,,,,,,,,,30.13,72,89,0.00,,,,57,30.13,FEW:02 35 FEW:02 250,30.08,10.00,77,170,,11,,,,,,,,,,,,,,,,,,,,,,,,,,,,,,,,,,,,,MET10607/13/17 16:56:02 METAR KCHS 132156Z 17010KT 10SM FEW035 FEW250 32/22 A3013 RMK AO2 SLP202 T03170222 (BBE),,,,,,,,,,,,,,,,,,,,,,,,,,,,2009-06-10
72208013880,2017-07-14T12:56:00,FM-15,7,,SE,0.25,mi,"TEMP, PRECIP, SNOW",,,"MMTS, SRG, SNOWBOARD",,,WFO CHS,,,,,,,,,,,,,,,,,,,,,,,,,,,30.14,70,92,0.00,,+0.04,8,49,30.13,SCT:04 45 SCT:04 250,30.09,10.00,77,170,,7,,,,,,,,,,,,,,,,,,,,,,,,,,,,,,,,,,,,,MET12407/14/17 12:56:02 METAR KCHS 141756Z 17006KT 10SM SCT045 SCT250 33/21 A3014 RMK AO2 SLP204 T03330211 10333 20272 58015 (JMB),,,,,,,,,,,,,,,,,,,,,,,,,,,,2009-06-10
72208013880,2017-07-14T13:00:00,FM-12,4,,SE,0.25,mi,"TEMP, PRECIP, SNOW",,,"MMTS, SRG, SNOWBOARD",,,WFO CHS,,,,,,,,,,,,,,,,,,,,,,,,,,,30.14,70,92,,,+0.04,8,49,30.13,41,30.09,9.94,77,170,,7,,,,,,,,,,,,,,,,,,,,,,,,,,,,,,,,,,,,,SYN08072208 32666 41706 10333 20211 30190 40204 58015 91756 333 10333 20272 555 91418=,,,,,,,,,,,,,,,,,,,,,,,,,,,,2009-06-10
72208013880,2017-07-16T12:09:00,FM-16,7,,SE,0.25,mi,"TEMP, PRECIP, SNOW",,,"MMTS, SRG, SNOWBOARD",,,WFO CHS,,,,,,,,,,,,,,,,,,,,,,,,,,,30.03,71,78,,TS:7 |TS TS |,,,79,,FEW:02 8 BKN:07 23 OVC:08 100,29.98,10.00,73,160,,16,,,,,,,,,,,,,,,,,,,,,,,,,,,,,,,,,,,,,MET15707/16/17 12:09:02 SPECI KCHS 161709Z 16014KT 10SM TS FEW008 BKN023CB OVC100 26/22 A3003 RMK AO2 LTG DSNT NE-S OCNL LTGICCC E-SE TS SE MOV NE T02560217 $ (MH),,,,,,,,,,,,,,,,,,,,,,,,,,,,2009-06-10
72208013880,2017-07-16T12:29:00,FM-16,7,,SE,0.25,mi,"TEMP, PRECIP, SNOW",,,"MMTS, SRG, SNOWBOARD",,,WFO CHS,,,,,,,,,,,,,,,,,,,,,,,,,,,30.02,72,76,T,TS:7 -RA:02 BR:1 |RA TS |,,,88,,FEW:02 8 BKN:07 20 OVC:08 100,29.97,1.00,73,150,,16,,,,,,,,,,,,,,,,,,,,,,,,,,,,,,,,,,,,,MET19207/16/17 12:29:02 SPECI KCHS 161729Z 15014KT 1SM R15/P6000FT -TSRA BR FEW008 BKN020CB OVC100 24/22 A3002 RMK AO2 LTG DSNT E AND SE RAB23 OCNL LTGICCC SW-NE TS OHD MOV NE P0000 T02440222 $ (MH),,,,,,,,,,,,,,,,,,,,,,,,,,,,2009-06-10
72208013880,2017-07-16T12:41:00,FM-16,7,,SE,0.25,mi,"TEMP, PRECIP, SNOW",,,"MMTS, SRG, SNOWBOARD",,,WFO CHS,,,,,,,,,,,,,,,,,,,,,,,,,,,30.02,73,75,0.12,TS:7 -RA:02 BR:1 |RA TS |,,,94,,FEW:02 8 BKN:07 20 OVC:08 100,29.97,3.00,74,150,,14,,,,,,,,,,,,,,,,,,,,,,,,,,,,,,,,,,,,,MET17607/16/17 12:41:02 SPECI KCHS 161741Z 15012KT 3SM -TSRA BR FEW008 BKN020CB OVC100 24/23 A3002 RMK AO2 LTG DSNT NW-E RAB23 OCNL LTGICCC SW-NE TS OHD MOV NE P0012 T02390228 $ (MH),,,,,,,,,,,,,,,,,,,,,,,,,,,,2009-06-10
72208013880,2017-07-16T14:56:00,FM-15,7,,SE,0.25,mi,"TEMP, PRECIP, SNOW",,,"MMTS, SRG, SNOWBOARD",,,WFO CHS,,,,,,,,,,,,,,,,,,,,,,,,,,,29.96,74,80,0.00,,,,82,29.96,FEW:02 13 FEW:02 40 SCT:04 120,29.91,10.00,76,160,,8,,,,,,,,,,,,,,,,,,,,,,,,,,,,,,,,,,,,,MET14507/16/17 14:56:02 METAR KCHS 161956Z 16007KT 10SM FEW013 FEW040 SCT120 27/23 A2996 RMK AO2 LTG DSNT W AND NW SLP145 CB DSNT W-N T02670233 $ (JRS),,,,,,,,,,,,,,,,,,,,,,,,,,,,2009-06-10
72208013880,2017-07-18T13:56:00,FM-15,7,,SE,0.25,mi,"TEMP, PRECIP, SNOW",,,"MMTS, SRG, SNOWBOARD",,,WFO CHS,,,,,,,,,,,,,,,,,,,,,,,,,,,30.08,72,84,0.00,,,,67,30.07,SCT:04 30 BKN:07 120 BKN:07 200,30.03,10.00,76,150,,8,,,,,,,,,,,,,,,,,,,,,,,,,,,,,,,,,,,,,MET11307/18/17 13:56:02 METAR KCHS 181856Z 15007KT 10SM SCT030 BKN120 BKN200 29/22 A3008 RMK AO2 SLP184 T02890222 (JMB),,,,,,,,,,,,,,,,,,,,,,,,,,,,2009-06-10
72208013880,2017-07-18T15:54:00,FM-16,6,,SE,0.25,mi,"TEMP, PRECIP, SNOW",,,"MMTS, SRG, SNOWBOARD",,,WFO CHS,,,,,,,,,,,,,,,,,,,,,,,,,,,30.07,72,84,,,,,66,,SCT:04 25 BKN:07 120 BKN:07 200,30.02,10.00,76,160,,11,,,,,,,,,,,,,,,,,,,,,,,,,,,,,,,,,,,,,MET13207/18/17 15:54:02 SPECI KCHS 182054Z 16010KT 10SM SCT025 BKN120 BKN200 29/22 A3007 RMK AO2 LTG DSNT W TS DSIPTD CB DSNT W FIBI (BBE),,,,,,,,,,,,,,,,,,,,,,,,,,,,2009-06-10
72208013880,2017-07-18T15:56:00,FM-15,7,,SE,0.25,mi,"TEMP, PRECIP, SNOW",,,"MMTS, SRG, SNOWBOARD",,,WFO CHS,,,,,,,,,,,,,,,,,,,,,,,,,,,30.07,72,85,0.00,,+0.01,5,65,30.07,SCT:04 25 BKN:07 120 BKN:07 200,30.02,10.00,76,150,,10,,,,,,,,,,,,,,,,,,,,,,,,,,,,,,,,,,,,,MET15007/18/17 15:56:02 METAR KCHS 182056Z 15009KT 10SM SCT025 BKN120 BKN200 29/22 A3007 RMK AO2 LTG DSNT W SLP183 TS DSIPTD CB DSNT W T02940222 55005 (BBE),,,,,,,,,,,,,,,,,,,,,,,,,,,,2009-06-10
72208013880,2017-07-18T16:00:00,FM-12,4,,SE,0.25,mi,"TEMP, PRECIP, SNOW",,,"MMTS, SRG, SNOWBOARD",,,WFO CHS,,,,,,,,,,,,,,,,,,,,,,,,,,,30.07,72,85,,,+0.01,5,65,30.07,26,30.02,9.94,76,150,,10,,,,,,,,,,,,,,,,,,,,,,,,,,,,,,,,,,,,,SYN06472208 32566 61509 10294 20222 30167 40183 55005 92056 555 91821=,,,,,,,,,,,,,,,,,,,,,,,,,,,,2009-06-10
72208013880,2017-07-18T16:56:00,FM-15,7,,SE,0.25,mi,"TEMP, PRECIP, SNOW",,,"MMTS, SRG, SNOWBOARD",,,WFO CHS,,,,,,,,,,,,,,,,,,,,,,,,,,,30.07,71,83,0.00,,,,67,30.07,FEW:02 25 BKN:07 35 BKN:07 120,30.02,10.00,75,170,,11,,,,,,,,,,,,,,,,,,,,,,,,,,,,,,,,,,,,,MET13807/18/17 16:56:02 METAR KCHS 182156Z 17010KT 10SM FEW025 BKN035 BKN120 28/22 A3007 RMK AO2 LTG DSNT NE SLP183 CB DSNT NE T02830217 $ (BBE),,,,,,,,,,,,,,,,,,,,,,,,,,,,2009-06-10
72208013880,2017-07-20T13:54:00,FM-16,7,,SE,0.25,mi,"TEMP, PRECIP, SNOW",,,"MMTS, SRG, SNOWBOARD",,,WFO CHS,,,,,,,,,,,,,,,,,,,,,,,,,,,30.05,77,88,,VCTS:7 ||,,,70,,FEW:02 40 SCT:04 50 SCT:04 250,30.00,10.00,80,150,,14,,,,,,,,,,,,,,,,,,,,,,,,,,,,,,,,,,,,,MET13007/20/17 13:54:02 SPECI KCHS 201854Z 15012KT 10SM VCTS FEW040CB SCT050 SCT250 31/25 A3005 RMK AO2 OCNL LTGIC S TS VC S MOV W (JMB),,,,,,,,,,,,,,,,,,,,,,,,,,,,2009-06-10
72208013880,2017-07-20T13:56:00,FM-15,7,,SE,0.25,mi,"TEMP, PRECIP, SNOW",,,"MMTS, SRG, SNOWBOARD",,,WFO CHS,,,,,,,,,,,,,,,,,,,,,,,,,,,30.05,77,88,0.00,VCTS:7 ||,,,70,30.04,FEW:02 40 SCT:04 50 SCT:04 250,30.00,10.00,80,150,,14,,,,,,,,,,,,,,,,,,,,,,,,,,,,,,,,,,,,,MET14707/20/17 13:56:02 METAR KCHS 201856Z 15012KT 10SM VCTS FEW040CB SCT050 SCT250 31/25 A3005 RMK AO2 SLP174 OCNL LTGIC S TS VC S MOV W T03110250 (JMB),,,,,,,,,,,,,,,,,,,,,,,,,,,,2009-06-10
72208013880,2017-07-25T14:21:00,FM-16,7,,SE,0.25,mi,"TEMP, PRECIP, SNOW",,,"MMTS, SRG, SNOWBOARD",,,WFO CHS,,,,,,,,,,,,,,,,,,,,,,,,,,,30.04,75,90,,TS:7 |TS TS |,,,62,,BKN:07 40 BKN:07 250,29.99,10.00,79,150,,14,,,,,,,,,,,,,,,,,,,,,,,,,,,,,,,,,,,,,MET15307/25/17 14:21:02 SPECI KCHS 251921Z 15012KT 10SM TS BKN040CB BKN250 32/24 A3004 RMK AO2 LTG DSNT SE TSB21 OCNL LTGIC SE-S TS SE-S MOV NW T03220239 (BBE),,,,,,,,,,,,,,,,,,,,,,,,,,,,2009-06-10
72208013880,2017-07-25T14:56:00,FM-15,7,,SE,0.25,mi,"TEMP, PRECIP, SNOW",,,"MMTS, SRG, SNOWBOARD",,,WFO CHS,,,,,,,,,,,,,,,,,,,,,,,,,,,30.03,74,85,T,TS:7 |TS TS |,,,70,30.03,BKN:07 40 BKN:07 50 BKN:07 250,29.98,9.00,77,170,,9,,,,,,,,,,,,,,,,,,,,,,,,,,,,,,,,,,,,,MET16507/25/17 14:56:02 METAR KCHS 251956Z 17008KT 9SM TS BKN040CB BKN050 BKN250 29/23 A3003 RMK AO2 LTG DSNT S TSB21 SLP169 OCNL LTGIC SE-S TS SE-S MOV NW T02940233 (BBE),,,,,,,,,,,,,,,,,,,,,,,,,,,,2009-06-10
72208013880,2017-07-26T12:21:00,FM-16,7,,SE,0.25,mi,"TEMP, PRECIP, SNOW",,,"MMTS, SRG, SNOWBOARD",,,WFO CHS,,,,,,,,,,,,,,,,,,,,,,,,,,,30.13,69,73,0.74,TS:7 -RA:02 BR:1 |RA TS |,,,87,,BKN:07 20 BKN:07 40 OVC:08 90,30.08,2.00,70,170,21,9,,,,,,,,,,,,,,,,,,,,,,,,,,,,,,,,,,,,,MET20107/26/17 12:21:02 SPECI KCHS 261721Z 17008G18KT 2SM R15/5500VP6000FT -TSRA BR BKN020 BKN040CB OVC090 23/21 A3013 RMK AO2 WSHFT 1704 LTG DSNT ALQDS OCNL LTGICCG W-NW TS W-NW MOV SW P0074 T02280206 (JMB),,,,,,,,,,,,,,,,,,,,,,,,,,,,2009-06-10
72208013880,2017-07-27T13:56:00,FM-15,7,,SE,0.25,mi,"TEMP, PRECIP, SNOW",,,"MMTS, SRG, SNOWBOARD",,,WFO CHS,,,,,,,,,,,,,,,,,,,,,,,,,,,29.98,71,88,0.00,,,,57,29.98,FEW:02 40 SCT:04 120,29.93,10.00,76,160,,8,,,,,,,,,,,,,,,,,,,,,,,,,,,,,,,,,,,,,MET10607/27/17 13:56:02 METAR KCHS 271856Z 16007KT 10SM FEW040 SCT120 31/22 A2998 RMK AO2 SLP152 T03110217 (JMB),,,,,,,,,,,,,,,,,,,,,,,,,,,,2009-06-10
72208013880,2017-07-29T17:56:00,FM-15,7,,SE,0.25,mi,"TEMP, PRECIP, SNOW",,,"MMTS, SRG, SNOWBOARD",,,WFO CHS,,,,,,,,,,,,,,,,,,,,,,,,,,,29.76,75,78,T,,,,90,29.75,FEW:02 10 FEW:02 28 BKN:07 60,29.71,10.00,76,160,,7,,,,,,,,,,,,,,,,,,,,,,,,,,,,,,,,,,,,,MET16307/29/17 17:56:02 METAR KCHS 292256Z 16006KT 10SM FEW010 FEW028 BKN060 26/24 A2976 RMK AO2 LTG DSNT W RAB05E30 TSE08 SLP075 CB DSNT NW AND SE P0000 T02560239 (JRS),,,,,,,,,,,,,,,,,,,,,,,,,,,,2009-06-10
72208013880,2017-08-02T17:56:00,FM-15,7,,SE,0.25,mi,"TEMP, PRECIP, SNOW",,,"MMTS, SRG, SNOWBOARD",,,WFO CHS,,,,,,,,,,,,,,,,,,,,,,,,,,,30.06,64,82,0.00,,,,55,30.06,FEW:02 80 BKN:07 200,30.01,10.00,70,170,,11,,,,,,,,,,,,,,,,,,,,,,,,,,,,,,,,,,,,,MET10608/02/17 17:56:02 METAR KCHS 022256Z 17010KT 10SM FEW080 BKN200 28/18 A3006 RMK AO2 SLP179 T02780178 (BBE),,,,,,,,,,,,,,,,,,,,,,,,,,,,2009-06-10
72208013880,2017-08-06T12:56:00,FM-15,7,,SE,0.25,mi,"TEMP, PRECIP, SNOW",,,"MMTS, SRG, SNOWBOARD",,,WFO CHS,,,,,,,,,,,,,,,,,,,,,,,,,,,30.07,72,90,0.00,,+0.01,8,56,30.06,SCT:04 35 SCT:04 45,30.02,10.00,77,170,,8,,,,,,,,,,,,,,,,,,,,,,,,,,,,,,,,,,,,,MET12408/06/17 12:56:02 METAR KCHS 061756Z 17007KT 10SM SCT035 SCT045 32/22 A3007 RMK AO2 SLP181 T03220222 10328 20250 58004 (MBT),,,,,,,,,,,,,,,,,,,,,,,,,,,,2009-06-10
72208013880,2017-08-06T13:00:00,FM-12,4,,SE,0.25,mi,"TEMP, PRECIP, SNOW",,,"MMTS, SRG, SNOWBOARD",,,WFO CHS,,,,,,,,,,,,,,,,,,,,,,,,,,,30.07,72,90,,,+0.01,8,56,30.06,41,30.02,9.94,77,170,,8,,,,,,,,,,,,,,,,,,,,,,,,,,,,,,,,,,,,,SYN08072208 32666 41707 10322 20222 30167 40181 58004 91756 333 10328 20250 555 90618=,,,,,,,,,,,,,,,,,,,,,,,,,,,,2009-06-10
72208013880,2017-08-10T12:47:00,FM-16,7,,SE,0.25,mi,"TEMP, PRECIP, SNOW",,,"MMTS, SRG, SNOWBOARD",,,WFO CHS,,,,,,,,,,,,,,,,,,,,,,,,,,,30.15,74,81,T,-RA:02 |RA |,,,79,,BKN:07 20 OVC:08 30,30.10,10.00,76,160,,13,,,,,,,,,,,,,,,,,,,,,,,,,,,,,,,,,,,,,MET14308/10/17 12:47:02 SPECI KCHS 101747Z 16011KT 10SM -RA BKN020 OVC030 27/23 A3015 RMK AO2 LTG DSNT E RAB43 CB DSNT NE AND E P0000 T02720233 (JMB),,,,,,,,,,,,,,,,,,,,,,,,,,,,2009-06-10
72208013880,2017-08-10T12:53:00,FM-16,7,,SE,0.25,mi,"TEMP, PRECIP, SNOW",,,"MMTS, SRG, SNOWBOARD",,,WFO CHS,,,,,,,,,,,,,,,,,,,,,,,,,,,30.16,73,81,T,VCTS:7 ||,,,79,,BKN:07 2 OVC:08 30,30.11,10.00,75,170,,10,,,,,,,,,,,,,,,,,,,,,,,,,,,,,,,,,,,,,MET16008/10/17 12:53:02 SPECI KCHS 101753Z 17009KT 10SM VCTS BKN002CB OVC030 27/23 A3016 RMK AO2 LTG DSNT E RAB43E52 OCNL LTGIC N TS VC N MOV NE CB DSNT E P0000 (JMB),,,,,,,,,,,,,,,,,,,,,,,,,,,,2009-06-10
72208013880,2017-08-10T12:56:00,FM-15,7,,SE,0.25,mi,"TEMP, PRECIP, SNOW",,,"MMTS, SRG, SNOWBOARD",,,WFO CHS,,,,,,,,,,,,,,,,,,,,,,,,,,,30.16,73,81,T,VCTS:7 ||,+0.02,6,77,30.15,BKN:07 20 OVC:08 30,30.11,10.00,75,160,,9,,,,,,,,,,,,,,,,,,,,,,,,,,,,,,,,,,,,,MET20108/10/17 12:56:02 METAR KCHS 101756Z 16008KT 10SM VCTS BKN020CB OVC030 27/23 A3016 RMK AO2 LTG DSNT E RAB43E52 SLP211 OCNL LTGIC N TS VC N MOV NE CB DSNT E P0000 60000 T02720228 10300 20239 56007 (JMB),,,,,,,,,,,,,,,,,,,,,,,,,,,,2009-06-10
72208013880,2017-08-10T13:00:00,FM-12,4,,SE,0.25,mi,"TEMP, PRECIP, SNOW",,,"MMTS, SRG, SNOWBOARD",,,WFO CHS,,,,,,,,,,,,,,,,,,,,,,,,,,,30.16,73,81,,||TS,+0.02,6,77,30.15,,30.11,9.94,75,160,,9,,,,,,,,,,,,,,,,,,,,,,,,,,,,,,,,,,,,,SYN09272208 11966 81608 10272 20228 30197 40211 56007 69901 717// 91756 333 10300 20239 555 91018=,,,,,,,,,,,,,,,,,,,,,,,,,,,,2009-06-10
72208013880,2017-08-10T13:11:00,FM-16,7,,SE,0.25,mi,"TEMP, PRECIP, SNOW",,,"MMTS, SRG, SNOWBOARD",,,WFO CHS,,,,,,,,,,,,,,,,,,,,,,,,,,,30.16,73,81,,,,,77,,BKN:07 25 OVC:08 35,30.11,10.00,75,150,,10,,,,,,,,,,,,,,,,,,,,,,,,,,,,,,,,,,,,,MET13608/10/17 13:11:02 SPECI KCHS 101811Z 15009KT 10SM BKN025 OVC035 27/23 A3016 RMK AO2 LTG DSNT NE AND SE CB DSNT NE AND SE T02720228 (JMB),,,,,,,,,,,,,,,,,,,,,,,,,,,,2009-06-10
72208013880,2017-08-11T10:56:00,FM-15,7,,SE,0.25,mi,"TEMP, PRECIP, SNOW",,,"MMTS, SRG, SNOWBOARD",,,WFO CHS,,,,,,,,,,,,,,,,,,,,,,,,,,,30.10,74,87,T,,,,65,30.09,SCT:04 25 SCT:04 250,30.05,10.00,78,150,,10,,,,,,,,,,,,,,,,,,,,,,,,,,,,,,,,,,,,,MET11708/11/17 10:56:02 METAR KCHS 111556Z 15009KT 10SM SCT025 SCT250 31/23 A3010 RMK AO2 RAE52 SLP190 P0000 T03060233 (MH),,,,,,,,,,,,,,,,,,,,,,,,,,,,2009-06-10
72208013880,2017-08-11T13:00:00,FM-12,4,,SE,0.25,mi,"TEMP, PRECIP, SNOW",,,"MMTS, SRG, SNOWBOARD",,,WFO CHS,,,,,,,,,,,,,,,,,,,,,,,,,,,30.06,75,88,,,+0.05,8,66,30.05,26,30.01,9.94,79,150,,14,,,,,,,,,,,,,,,,,,,,,,,,,,,,,,,,,,,,,SYN09272208 12566 61512 10311 20239 30163 40177 58016 69901 91756 333 10311 20244 91020 555 91118=,,,,,,,,,,,,,,,,,,,,,,,,,,,,2009-06-10
72208013880,2017-08-11T13:56:00,FM-15,7,,SE,0.25,mi,"TEMP, PRECIP, SNOW",,,"MMTS, SRG, SNOWBOARD",,,WFO CHS,,,,,,,,,,,,,,,,,,,,,,,,,,,30.04,75,87,0.00,,,,67,30.04,SCT:04 30 BKN:07 40 BKN:07 250,29.99,10.00,78,160,23,17,,,,,,,,,,,,,,,,,,,,,,,,,,,,,,,,,,,,,MET11508/11/17 13:56:02 METAR KCHS 111856Z 16015G20KT 10SM SCT030 BKN040 BKN250 31/24 A3004 RMK AO2 SLP173 T03060239 (MH),,,,,,,,,,,,,,,,,,,,,,,,,,,,2009-06-10
72208013880,2017-08-11T16:56:00,FM-15,7,,SE,0.25,mi,"TEMP, PRECIP, SNOW",,,"MMTS, SRG, SNOWBOARD",,,WFO CHS,,,,,,,,,,,,,,,,,,,,,,,,,,,30.01,73,83,T,,,,72,30.01,FEW:02 25 SCT:04 35 SCT:04 120,29.96,10.00,76,150,,11,,,,,,,,,,,,,,,,,,,,,,,,,,,,,,,,,,,,,MET12808/11/17 16:56:02 METAR KCHS 112156Z 15010KT 10SM FEW025 SCT035 SCT120 28/23 A3001 RMK AO2 RAB09E34 SLP162 P0000 T02830228 (BBE),,,,,,,,,,,,,,,,,,,,,,,,,,,,2009-06-10
72208013880,2017-08-11T17:56:00,FM-15,7,,SE,0.25,mi,"TEMP, PRECIP, SNOW",,,"MMTS, SRG, SNOWBOARD",,,WFO CHS,,,,,,,,,,,,,,,,,,,,,,,,,,,30.00,74,83,0.00,,,,74,30.00,FEW:02 25 SCT:04 30 BKN:07 200,29.95,10.00,77,150,,10,,,,,,,,,,,,,,,,,,,,,,,,,,,,,,,,,,,,,MET11308/11/17 17:56:02 METAR KCHS 112256Z 15009KT 10SM FEW025 SCT030 BKN200 28/23 A3000 RMK AO2 SLP158 T02830233 (BBE),,,,,,,,,,,,,,,,,,,,,,,,,,,,2009-06-10
72208013880,2017-08-14T11:56:00,FM-15,7,,SE,0.25,mi,"TEMP, PRECIP, SNOW",,,"MMTS, SRG, SNOWBOARD",,,WFO CHS,,,,,,,,,,,,,,,,,,,,,,,,,,,29.93,77,85,T,,,,77,29.93,BKN:07 30 BKN:07 250,29.88,10.00,79,160,,11,,,,,,,,,,,,,,,,,,,,,,,,,,,,,,,,,,,,,MET10608/14/17 11:56:02 METAR KCHS 141656Z 16010KT 10SM BKN030 BKN250 29/25 A2993 RMK AO2 SLP136 T02940250 (JMB),,,,,,,,,,,,,,,,,,,,,,,,,,,,2009-06-10
72208013880,2017-08-14T13:05:00,FM-16,7,,SE,0.25,mi,"TEMP, PRECIP, SNOW",,,"MMTS, SRG, SNOWBOARD",,,WFO CHS,,,,,,,,,,,,,,,,,,,,,,,,,,,29.93,76,87,,TS:7 |TS TS |,,,70,,FEW:02 30 BKN:07 50 BKN:07 250,29.88,10.00,79,160,,8,,,,,,,,,,,,,,,,,,,,,,,,,,,,,,,,,,,,,MET14408/14/17 13:05:02 SPECI KCHS 141805Z 16007KT 10SM TS FEW030CB BKN050 BKN250 31/24 A2993 RMK AO2 TSB02 OCNL LTGIC SW TS SW MOV NE T03060244 (JMB),,,,,,,,,,,,,,,,,,,,,,,,,,,,2009-06-10
72208013880,2017-08-14T13:22:00,FM-16,7,,SE,0.25,mi,"TEMP, PRECIP, SNOW",,,"MMTS, SRG, SNOWBOARD",,,WFO CHS,,,,,,,,,,,,,,,,,,,,,,,,,,,29.92,79,85,T,VCTS:7 -RA:02 |RA |,,,82,,FEW:02 30 BKN:07 45 BKN:07 70,29.87,10.00,81,150,,7,,,,,,,,,,,,,,,,,,,,,,,,,,,,,,,,,,,,,MET16808/14/17 13:22:02 SPECI KCHS 141822Z 15006KT 10SM VCTS -RA FEW030CB BKN045 BKN070 29/26 A2992 RMK AO2 RAB12 TSB02E18 OCNL LTGIC SW TS VC SW MOV NE P0000 T02940261 (JMB),,,,,,,,,,,,,,,,,,,,,,,,,,,,2009-06-10
72208013880,2017-08-17T16:04:00,FM-16,7,,SE,0.25,mi,"TEMP, PRECIP, SNOW",,,"MMTS, SRG, SNOWBOARD",,,WFO CHS,,,,,,,,,,,,,,,,,,,,,,,,,,,29.96,76,84,,VCTS:7 ||,,,77,,FEW:02 40 SCT:04 120 BKN:07 150,29.91,10.00,78,150,,8,,,,,,,,,,,,,,,,,,,,,,,,,,,,,,,,,,,,,MET15708/17/17 16:04:02 SPECI KCHS 172104Z 15007KT 10SM VCTS FEW040CB SCT120 BKN150 29/24 A2996 RMK AO2 LTG DSNT SW-NW OCNL LTGIC NW TS VC NW MOV E T02890244 (BBE),,,,,,,,,,,,,,,,,,,,,,,,,,,,2009-06-10
72208013880,2017-08-19T14:39:00,FM-16,7,,SE,0.25,mi,"TEMP, PRECIP, SNOW",,,"MMTS, SRG, SNOWBOARD",,,WFO CHS,,,,,,,,,,,,,,,,,,,,,,,,,,,29.91,78,91,,,,,66,,SCT:04 30 SCT:04 250,29.86,10.00,81,150,,13,,,,,,,,,,,,,,,,,,,,,,,,,,,,,,,,,,,,,MET13508/19/17 14:39:02 SPECI KCHS 191939Z 15011KT 10SM SCT030TCU SCT250 33/26 A2991 RMK AO2 TSE34 TCU E CB DSNT NE TS MOV NE T03280256 (JRS),,,,,,,,,,,,,,,,,,,,,,,,,,,,2009-06-10
72208013880,2017-08-20T15:39:00,FM-16,7,,SE,0.25,mi,"TEMP, PRECIP, SNOW",,,"MMTS, SRG, SNOWBOARD",,,WFO CHS,,,,,,,,,,,,,,,,,,,,,,,,,,,30.05,77,86,0.02,TS:7 |TS TS |,,,75,,FEW:02 25 SCT:04 70 BKN:07 250,30.00,10.00,80,160,,9,,,,,,,,,,,,,,,,,,,,,,,,,,,,,,,,,,,,,MET17408/20/17 15:39:02 SPECI KCHS 202039Z 16008KT 10SM TS FEW025CB SCT070 BKN250 30/25 A3005 RMK AO2 LTG DSNT W RAE12 TSE38B39 OCNL LTGCG W-NW TS W-NW MOV NE P0002 T03000250 (JRS),,,,,,,,,,,,,,,,,,,,,,,,,,,,2009-06-10
72208013880,2017-08-20T15:56:00,FM-15,7,,SE,0.25,mi,"TEMP, PRECIP, SNOW",,,"MMTS, SRG, SNOWBOARD",,,WFO CHS,,,,,,,,,,,,,,,,,,,,,,,,,,,30.04,78,86,T,,+0.02,8,77,30.04,FEW:02 25 SCT:04 70 BKN:07 250,29.99,10.00,80,160,,8,,,,,,,,,,,,,,,,,,,,,,,,,,,,,,,,,,,,,MET15908/20/17 15:56:02 METAR KCHS 202056Z 16007KT 10SM FEW025 SCT070 BKN250 30/26 A3004 RMK AO2 RAE12 TSE38B39E56 SLP172 TS DSIPTD P0002 60004 T03000256 58006 (JRS),,,,,,,,,,,,,,,,,,,,,,,,,,,,2009-06-10
72208013880,2017-08-20T16:00:00,FM-12,4,,SE,0.25,mi,"TEMP, PRECIP, SNOW",,,"MMTS, SRG, SNOWBOARD",,,WFO CHS,,,,,,,,,,,,,,,,,,,,,,,,,,,30.04,78,86,,,+0.02,8,77,30.04,26,29.99,9.94,80,160,,8,,,,,,,,,,,,,,,,,,,,,,,,,,,,,,,,,,,,,SYN07072208 12566 61607 10300 20256 30157 40172 58006 60017 92056 555 92021=,,,,,,,,,,,,,,,,,,,,,,,,,,,,2009-06-10
72208013880,2017-08-20T17:56:00,FM-15,7,,SE,0.25,mi,"TEMP, PRECIP, SNOW",,,"MMTS, SRG, SNOWBOARD",,,WFO CHS,,,,,,,,,,,,,,,,,,,,,,,,,,,30.07,77,86,0.00,,,,75,30.07,FEW:02 120 BKN:07 250,30.02,10.00,80,160,,9,,,,,,,,,,,,,,,,,,,,,,,,,,,,,,,,,,,,,MET10608/20/17 17:56:02 METAR KCHS 202256Z 16008KT 10SM FEW120 BKN250 30/25 A3007 RMK AO2 SLP182 T03000250 (JRS),,,,,,,,,,,,,,,,,,,,,,,,,,,,2009-06-10
72208013880,2017-08-24T15:30:00,FM-16,7,,SE,0.25,mi,"TEMP, PRECIP, SNOW",,,"MMTS, SRG, SNOWBOARD",,,WFO CHS,,,,,,,,,,,,,,,,,,,,,,,,,,,29.86,74,76,0.36,TS:7 +RA:02 BR:1 |s RA s TS s |,,,94,,BKN:07 25 BKN:07 45 OVC:08 60,29.81,0.25,75,150,22,16,,,,,,,,,,,,,,,,,,,,,,,,,,,,,,,,,,,,,MET21908/24/17 15:30:02 SPECI KCHS 242030Z 15014G19KT 1/4SM R15/1800V4500FT +TSRA BR BKN025CB BKN045 OVC060 24/23 A2986 RMK AO2 WSHFT 1943 SFC VIS 1 LTG DSNT ALQDS RAB11 FRQ LTGICCG ALQDS TS ALQDS MOV SE P0036 T02440233 (BBE),,,,,,,,,,,,,,,,,,,,,,,,,,,,2009-06-10
72208013880,2017-08-24T17:14:00,FM-16,7,,SE,0.25,mi,"TEMP, PRECIP, SNOW",,,"MMTS, SRG, SNOWBOARD",,,WFO CHS,,,,,,,,,,,,,,,,,,,,,,,,,,,29.88,73,78,,VCTS:7 ||,,,85,,FEW:02 20 SCT:04 50 BKN:07 100,29.83,10.00,75,150,,8,,,,,,,,,,,,,,,,,,,,,,,,,,,,,,,,,,,,,MET16408/24/17 17:14:02 SPECI KCHS 242214Z 15007KT 10SM VCTS FEW020CB SCT050 BKN100 26/23 A2988 RMK AO2 LTG DSNT SE-SW OCNL LTGIC SE-SW TS VC SE-SW MOV SE T02560228 (BBE),,,,,,,,,,,,,,,,,,,,,,,,,,,,2009-06-10
72208013880,2017-09-02T17:56:00,FM-15,7,,SE,0.25,mi,"TEMP, PRECIP, SNOW",,,"MMTS, SRG, SNOWBOARD",,,WFO CHS,,,,,,,,,,,,,,,,,,,,,,,,,,,30.01,75,78,T,,,,90,30.01,SCT:04 16 SCT:04 25 BKN:07 250,29.96,10.00,76,160,,7,,,,,,,,,,,,,,,,,,,,,,,,,,,,,,,,,,,,,MET15609/02/17 17:56:02 METAR KCHS 022256Z 16006KT 10SM SCT016 SCT025 BKN250 26/24 A3001 RMK AO2 RAB17E26 TSB11E47 SLP162 TS MOV E CB DSNT E P0000 T02560239 (JRS),,,,,,,,,,,,,,,,,,,,,,,,,,,,2009-06-10
72208013880,2017-09-05T17:56:00,FM-15,7,,SE,0.25,mi,"TEMP, PRECIP, SNOW",,,"MMTS, SRG, SNOWBOARD",,,WFO CHS,,,,,,,,,,,,,,,,,,,,,,,,,,,29.88,75,83,0.00,,,,77,29.88,FEW:02 20 SCT:04 60,29.83,10.00,77,170,,11,,,,,,,,,,,,,,,,,,,,,,,,,,,,,,,,,,,,,MET10609/05/17 17:56:02 METAR KCHS 052256Z 17010KT 10SM FEW020 SCT060 28/24 A2988 RMK AO2 SLP118 T02830239 (BBE),,,,,,,,,,,,,,,,,,,,,,,,,,,,2009-06-10
72208013880,2017-09-13T10:56:00,FM-15,7,,SE,0.25,mi,"TEMP, PRECIP, SNOW",,,"MMTS, SRG, SNOWBOARD",,,WFO CHS,,,,,,,,,,,,,,,,,,,,,,,,,,,29.98,71,81,0.00,,,,72,29.98,SCT:04 25,29.93,10.00,74,150,,15,,,,,,,,,,,,,,,,,,,,,,,,,,,,,,,,,,,,,MET10409/13/17 10:56:02 METAR KCHS 131556Z 15013KT 10SM SCT025 27/22 A2998 RMK AO2 SLP151 T02720217 FIBI (JMB),,,,,,,,,,,,,,,,,,,,,,,,,,,,2009-06-10
72208013880,2017-09-13T11:56:00,FM-15,7,,SE,0.25,mi,"TEMP, PRECIP, SNOW",,,"MMTS, SRG, SNOWBOARD",,,WFO CHS,,,,,,,,,,,,,,,,,,,,,,,,,,,29.96,71,80,0.00,,,,74,29.96,SCT:04 25 BKN:07 35,29.91,10.00,74,150,,11,,,,,,,,,,,,,,,,,,,,,,,,,,,,,,,,,,,,,MET11109/13/17 11:56:02 METAR KCHS 131656Z 15010KT 10SM SCT025 BKN035 27/22 A2996 RMK AO2 SLP146 T02670217 FIBI (JMB),,,,,,,,,,,,,,,,,,,,,,,,,,,,2009-06-10
72208013880,2017-09-13T14:56:00,FM-15,7,,SE,0.25,mi,"TEMP, PRECIP, SNOW",,,"MMTS, SRG, SNOWBOARD",,,WFO CHS,,,,,,,,,,,,,,,,,,,,,,,,,,,29.92,72,83,0.00,,,,70,29.92,FEW:02 30 SCT:04 40 BKN:07 150,29.87,10.00,75,170,20,11,,,,,,,,,,,,,,,,,,,,,,,,,,,,,,,,,,,,,MET12109/13/17 14:56:02 METAR KCHS 131956Z 17010G17KT 10SM FEW030 SCT040 BKN150 28/22 A2992 RMK AO2 SLP132 T02830222 FIBI (BBE),,,,,,,,,,,,,,,,,,,,,,,,,,,,2009-06-10
72208013880,2017-09-13T15:56:00,FM-15,7,,SE,0.25,mi,"TEMP, PRECIP, SNOW",,,"MMTS, SRG, SNOWBOARD",,,WFO CHS,,,,,,,,,,,,,,,,,,,,,,,,,,,29.92,72,81,0.00,,+0.03,5,74,29.92,SCT:04 28 SCT:04 35 BKN:07 150,29.87,10.00,75,170,,10,,,,,,,,,,,,,,,,,,,,,,,,,,,,,,,,,,,,,MET12409/13/17 15:56:02 METAR KCHS 132056Z 17009KT 10SM SCT028 SCT035 BKN150 27/22 A2992 RMK AO2 SLP132 T02720222 55010 FIBI (BBE),,,,,,,,,,,,,,,,,,,,,,,,,,,,2009-06-10
72208013880,2017-09-13T16:00:00,FM-12,4,,SE,0.25,mi,"TEMP, PRECIP, SNOW",,,"MMTS, SRG, SNOWBOARD",,,WFO CHS,,,,,,,,,,,,,,,,,,,,,,,,,,,29.92,72,81,,,+0.03,5,74,29.92,26,29.87,9.94,75,170,,10,,,,,,,,,,,,,,,,,,,,,,,,,,,,,,,,,,,,,SYN06472208 32566 61709 10272 20222 30116 40132 55010 92056 555 91321=,,,,,,,,,,,,,,,,,,,,,,,,,,,,2009-06-10
72208013880,2017-09-13T16:56:00,FM-15,7,,SE,0.25,mi,"TEMP, PRECIP, SNOW",,,"MMTS, SRG, SNOWBOARD",,,WFO CHS,,,,,,,,,,,,,,,,,,,,,,,,,,,29.92,72,80,0.00,,,,76,29.92,FEW:02 20 SCT:04 25 BKN:07 80,29.87,10.00,75,150,,10,,,,,,,,,,,,,,,,,,,,,,,,,,,,,,,,,,,,,MET11309/13/17 16:56:02 METAR KCHS 132156Z 15009KT 10SM FEW020 SCT025 BKN080 27/22 A2992 RMK AO2 SLP132 T02670222 (BBE),,,,,,,,,,,,,,,,,,,,,,,,,,,,2009-06-10
72208013880,2017-09-15T17:56:00,FM-15,7,,SE,0.25,mi,"TEMP, PRECIP, SNOW",,,"MMTS, SRG, SNOWBOARD",,,WFO CHS,,,,,,,,,,,,,,,,,,,,,,,,,,,30.03,70,81,0.00,,,,69,30.03,FEW:02 100 SCT:04 200,29.98,10.00,74,170,,7,,,,,,,,,,,,,,,,,,,,,,,,,,,,,,,,,,,,,MET10609/15/17 17:56:02 METAR KCHS 152256Z 17006KT 10SM FEW100 SCT200 27/21 A3003 RMK AO2 SLP168 T02720211 (BBE),,,,,,,,,,,,,,,,,,,,,,,,,,,,2009-06-10
72208013880,2017-09-21T13:56:00,FM-15,7,,SE,0.25,mi,"TEMP, PRECIP, SNOW",,,"MMTS, SRG, SNOWBOARD",,,WFO CHS,,,,,,,,,,,,,,,,,,,,,,,,,,,29.99,73,89,,VCTS:7 ||,,,59,29.98,SCT:04 40 BKN:07 250,29.94,10.00,78,170,17,11,,,,,,,,,,,,,,,,,,,,,,,,,,,,,,,,,,,,,MET16209/21/17 13:56:02 METAR KCHS 211856Z 17010G15KT 10SM VCTS SCT040CB BKN250 32/23 A2999 RMK AO2 LTG DSNT NE SLP153 OCNL LTGIC SW TS VC SW MOV SE T03170228 PNO (JMB),,,,,,,,,,,,,,,,,,,,,,,,,,,,2009-06-10
72208013880,2017-09-21T14:46:00,FM-16,7,,SE,0.25,mi,"TEMP, PRECIP, SNOW",,,"MMTS, SRG, SNOWBOARD",,,WFO CHS,,,,,,,,,,,,,,,,,,,,,,,,,,,29.97,74,88,,TS:7 |TS TS |,,,63,,SCT:04 50 BKN:07 250,29.92,10.00,78,170,,16,,,,,,,,,,,,,,,,,,,,,,,,,,,,,,,,,,,,,MET15809/21/17 14:46:02 SPECI KCHS 211946Z 17014KT 10SM TS SCT050CB BKN250 31/23 A2997 RMK AO2 LTG DSNT NE AND W TSB45 OCNL LTGIC NE-E TS NE-E MOV W T03110233 (BBE),,,,,,,,,,,,,,,,,,,,,,,,,,,,2009-06-10
72208013880,2017-09-21T14:56:00,FM-15,7,,SE,0.25,mi,"TEMP, PRECIP, SNOW",,,"MMTS, SRG, SNOWBOARD",,,WFO CHS,,,,,,,,,,,,,,,,,,,,,,,,,,,29.98,73,87,0.00,TS:7 |TS TS |,,,63,29.98,SCT:04 50 BKN:07 250,29.93,10.00,77,150,,14,,,,,,,,,,,,,,,,,,,,,,,,,,,,,,,,,,,,,MET16609/21/17 14:56:02 METAR KCHS 211956Z 15012KT 10SM TS SCT050CB BKN250 31/23 A2998 RMK AO2 LTG DSNT W AND NW TSB45 SLP152 FRQ LTGICCG NE-E TS NE-E MOV W T03060228 (BBE),,,,,,,,,,,,,,,,,,,,,,,,,,,,2009-06-10
72208013880,2017-09-23T12:56:00,FM-15,7,,SE,0.25,mi,"TEMP, PRECIP, SNOW",,,"MMTS, SRG, SNOWBOARD",,,WFO CHS,,,,,,,,,,,,,,,,,,,,,,,,,,,30.01,69,86,0.00,,+0.02,8,57,30.01,SCT:04 40 SCT:04 50,29.96,10.00,74,150,,11,,,,,,,,,,,,,,,,,,,,,,,,,,,,,,,,,,,,,MET12409/23/17 12:56:02 METAR KCHS 231756Z 15010KT 10SM SCT040 SCT050 30/21 A3001 RMK AO2 SLP162 T03000206 10311 20222 58006 (MBT),,,,,,,,,,,,,,,,,,,,,,,,,,,,2009-06-10
72208013880,2017-09-23T13:00:00,FM-12,4,,SE,0.25,mi,"TEMP, PRECIP, SNOW",,,"MMTS, SRG, SNOWBOARD",,,WFO CHS,,,,,,,,,,,,,,,,,,,,,,,,,,,30.01,69,86,,,+0.02,8,57,30.01,41,29.96,9.94,74,150,,11,,,,,,,,,,,,,,,,,,,,,,,,,,,,,,,,,,,,,SYN08072208 32666 41510 10300 20206 30146 40162 58006 91756 333 10311 20222 555 92318=,,,,,,,,,,,,,,,,,,,,,,,,,,,,2009-06-10
72208013880,2017-09-29T13:54:00,FM-16,6,,SE,0.25,mi,"TEMP, PRECIP, SNOW",,,"MMTS, SRG, SNOWBOARD",,,WFO CHS,,,,,,,,,,,,,,,,,,,,,,,,,,,29.94,73,86,,VCTS:7 ||,,,66,,BKN:07 40,29.89,8.00,77,160,,13,,,,,,,,,,,,,,,,,,,,,,,,,,,,,,,,,,,,,MET13709/29/17 13:54:02 SPECI KCHS 291854Z 16011KT 8SM VCTS BKN040CB 30/23 A2994 RMK AO2 LTG DSNT NE OCNL LTGICCC NW TS VC NW MOV NE FIBI (JMB),,,,,,,,,,,,,,,,,,,,,,,,,,,,2009-06-10
72208013880,2017-09-29T13:56:00,FM-15,7,,SE,0.25,mi,"TEMP, PRECIP, SNOW",,,"MMTS, SRG, SNOWBOARD",,,WFO CHS,,,,,,,,,,,,,,,,,,,,,,,,,,,29.94,75,85,0.00,VCTS:7 ||,,,72,29.93,BKN:07 40,29.89,8.00,78,160,,11,,,,,,,,,,,,,,,,,,,,,,,,,,,,,,,,,,,,,MET15009/29/17 13:56:02 METAR KCHS 291856Z 16010KT 8SM VCTS BKN040CB 29/24 A2994 RMK AO2 LTG DSNT NE SLP137 OCNL LTGICCC W-NW TS VC W MOV NE T02940239 (JMB),,,,,,,,,,,,,,,,,,,,,,,,,,,,2009-06-10
72208013880,2017-10-07T10:56:00,FM-15,7,,SE,0.25,mi,"TEMP, PRECIP, SNOW",,,"MMTS, SRG, SNOWBOARD",,,WFO CHS,,,,,,,,,,,,,,,,,,,,,,,,,,,30.03,78,83,T,,,,85,30.03,FEW:02 13 SCT:04 35 BKN:07 50,29.98,10.00,79,170,,7,,,,,,,,,,,,,,,,,,,,,,,,,,,,,,,,,,,,,MET13010/07/17 10:56:02 METAR KCHS 071556Z 17006KT 10SM FEW013 SCT035 BKN050 28/26 A3003 RMK AO2 RAB1459E20 SLP169 P0000 T02830256 (BBE),,,,,,,,,,,,,,,,,,,,,,,,,,,,2009-06-10
72208013880,2017-10-07T11:34:00,FM-16,7,,SE,0.25,mi,"TEMP, PRECIP, SNOW",,,"MMTS, SRG, SNOWBOARD",,,WFO CHS,,,,,,,,,,,,,,,,,,,,,,,,,,,30.03,78,84,T,,,,82,,FEW:02 15 SCT:04 20 BKN:07 25,29.98,10.00,80,150,,10,,,,,,,,,,,,,,,,,,,,,,,,,,,,,,,,,,,,,MET12110/07/17 11:34:02 SPECI KCHS 071634Z 15009KT 10SM FEW015 SCT020 BKN025 29/26 A3003 RMK AO2 RAB11E22 P0000 T02890256 (BBE),,,,,,,,,,,,,,,,,,,,,,,,,,,,2009-06-10
72208013880,2017-10-07T12:14:00,FM-16,7,,SE,0.25,mi,"TEMP, PRECIP, SNOW",,,"MMTS, SRG, SNOWBOARD",,,WFO CHS,,,,,,,,,,,,,,,,,,,,,,,,,,,30.02,78,87,,,,,75,,FEW:02 20 SCT:04 30 SCT:04 40,29.97,10.00,80,160,,10,,,,,,,,,,,,,,,,,,,,,,,,,,,,,,,,,,,,,MET10610/07/17 12:14:02 SPECI KCHS 071714Z 16009KT 10SM FEW020 SCT030 SCT040 31/26 A3002 RMK AO2 T03060256 (BBE),,,,,,,,,,,,,,,,,,,,,,,,,,,,2009-06-10
72208013880,2017-10-07T15:56:00,FM-15,7,,SE,0.25,mi,"TEMP, PRECIP, SNOW",,,"MMTS, SRG, SNOWBOARD",,,WFO CHS,,,,,,,,,,,,,,,,,,,,,,,,,,,29.97,76,87,0.00,,+0.02,6,70,29.97,FEW:02 19 FEW:02 200,29.92,10.00,79,170,,10,,,,,,,,,,,,,,,,,,,,,,,,,,,,,,,,,,,,,MET11210/07/17 15:56:02 METAR KCHS 072056Z 17009KT 10SM FEW019 FEW200 31/24 A2997 RMK AO2 SLP148 T03060244 56008 (JRS),,,,,,,,,,,,,,,,,,,,,,,,,,,,2009-06-10
72208013880,2017-10-07T16:00:00,FM-12,4,,SE,0.25,mi,"TEMP, PRECIP, SNOW",,,"MMTS, SRG, SNOWBOARD",,,WFO CHS,,,,,,,,,,,,,,,,,,,,,,,,,,,29.97,76,87,,,+0.02,6,70,29.97,15,29.92,9.94,79,170,,10,,,,,,,,,,,,,,,,,,,,,,,,,,,,,,,,,,,,,SYN06472208 32466 21709 10306 20244 30133 40148 56008 92056 555 90721=,,,,,,,,,,,,,,,,,,,,,,,,,,,,2009-06-10
72208013880,2017-10-07T16:56:00,FM-15,7,,SE,0.25,mi,"TEMP, PRECIP, SNOW",,,"MMTS, SRG, SNOWBOARD",,,WFO CHS,,,,,,,,,,,,,,,,,,,,,,,,,,,29.98,77,84,0.00,,,,80,29.98,FEW:02 23 FEW:02 200,29.93,10.00,79,150,,14,,,,,,,,,,,,,,,,,,,,,,,,,,,,,,,,,,,,,MET10610/07/17 16:56:02 METAR KCHS 072156Z 15012KT 10SM FEW023 FEW200 29/25 A2998 RMK AO2 SLP151 T02890250 (JRS),,,,,,,,,,,,,,,,,,,,,,,,,,,,2009-06-10
72208013880,2017-10-07T17:56:00,FM-15,7,,SE,0.25,mi,"TEMP, PRECIP, SNOW",,,"MMTS, SRG, SNOWBOARD",,,WFO CHS,,,,,,,,,,,,,,,,,,,,,,,,,,,30.00,76,81,0.00,,,,85,29.99,FEW:02 16 FEW:02 200,29.95,10.00,77,150,,10,,,,,,,,,,,,,,,,,,,,,,,,,,,,,,,,,,,,,MET10610/07/17 17:56:02 METAR KCHS 072256Z 15009KT 10SM FEW016 FEW200 27/24 A3000 RMK AO2 SLP157 T02720244 (JRS),,,,,,,,,,,,,,,,,,,,,,,,,,,,2009-06-10
72208013880,2017-10-08T10:56:00,FM-15,7,,SE,0.25,mi,"TEMP, PRECIP, SNOW",,,"MMTS, SRG, SNOWBOARD",,,WFO CHS,,,,,,,,,,,,,,,,,,,,,,,,,,,30.00,76,86,0.00,,,,72,30.00,FEW:02 25 SCT:04 40 SCT:04 49,29.95,10.00,79,170,23,15,,,,,,,,,,,,,,,,,,,,,,,,,,,,,,,,,,,,,MET11510/08/17 10:56:02 METAR KCHS 081556Z 17013G20KT 10SM FEW025 SCT040 SCT049 30/24 A3000 RMK AO2 SLP158 T03000244 (MH),,,,,,,,,,,,,,,,,,,,,,,,,,,,2009-06-10
72208013880,2017-10-08T12:56:00,FM-15,7,,SE,0.25,mi,"TEMP, PRECIP, SNOW",,,"MMTS, SRG, SNOWBOARD",,,WFO CHS,,,,,,,,,,,,,,,,,,,,,,,,,,,29.96,76,88,0.00,,+0.04,8,68,29.96,SCT:04 24 SCT:04 200,29.91,10.00,79,170,,15,,,,,,,,,,,,,,,,,,,,,,,,,,,,,,,,,,,,,MET12910/08/17 12:56:02 METAR KCHS 081756Z 17013KT 10SM SCT024 SCT200 31/24 A2996 RMK AO2 SLP146 60001 T03110244 10311 20250 58015 (MH),,,,,,,,,,,,,,,,,,,,,,,,,,,,2009-06-10
72208013880,2017-10-08T13:00:00,FM-12,4,,SE,0.25,mi,"TEMP, PRECIP, SNOW",,,"MMTS, SRG, SNOWBOARD",,,WFO CHS,,,,,,,,,,,,,,,,,,,,,,,,,,,29.96,76,88,,,+0.04,8,68,29.96,26,29.91,9.94,79,170,,15,,,,,,,,,,,,,,,,,,,,,,,,,,,,,,,,,,,,,SYN08672208 12566 41713 10311 20244 30129 40146 58015 69931 91756 333 10311 20250 555 90818=,,,,,,,,,,,,,,,,,,,,,,,,,,,,2009-06-10
72208013880,2017-10-08T14:54:00,FM-16,6,,SE,0.25,mi,"TEMP, PRECIP, SNOW",,,"MMTS, SRG, SNOWBOARD",,,WFO CHS,,,,,,,,,,,,,,,,,,,,,,,,,,,29.92,75,82,,,,,79,,SCT:04 21 SCT:04 70 BKN:07 200,29.87,10.00,77,150,,16,,,,,,,,,,,,,,,,,,,,,,,,,,,,,,,,,,,,,MET10110/08/17 14:54:02 SPECI KCHS 081954Z 15014KT 10SM SCT021 SCT070 BKN200 28/24 A2992 RMK AO2 FIBI (JRS),,,,,,,,,,,,,,,,,,,,,,,,,,,,2009-06-10
72208013880,2017-10-08T15:48:00,FM-16,7,,SE,0.25,mi,"TEMP, PRECIP, SNOW",,,"MMTS, SRG, SNOWBOARD",,,WFO CHS,,,,,,,,,,,,,,,,,,,,,,,,,,,29.93,76,83,,,,,79,,BKN:07 18 OVC:08 80,29.88,10.00,78,160,,16,,,,,,,,,,,,,,,,,,,,,,,,,,,,,,,,,,,,,MET09910/08/17 15:48:02 SPECI KCHS 082048Z 16014KT 10SM BKN018 OVC080 28/24 A2993 RMK AO2 T02830244 (JRS),,,,,,,,,,,,,,,,,,,,,,,,,,,,2009-06-10
72208013880,2017-10-08T16:41:00,FM-16,7,,SE,0.25,mi,"TEMP, PRECIP, SNOW",,,"MMTS, SRG, SNOWBOARD",,,WFO CHS,,,,,,,,,,,,,,,,,,,,,,,,,,,29.93,76,82,,,,,82,,FEW:02 16 SCT:04 30 BKN:07 70,29.88,10.00,78,160,,16,,,,,,,,,,,,,,,,,,,,,,,,,,,,,,,,,,,,,MET10610/08/17 16:41:02 SPECI KCHS 082141Z 16014KT 10SM FEW016 SCT030 BKN070 28/24 A2993 RMK AO2 T02780244 (JRS),,,,,,,,,,,,,,,,,,,,,,,,,,,,2009-06-10
72208013880,2017-10-08T16:56:00,FM-15,7,,SE,0.25,mi,"TEMP, PRECIP, SNOW",,,"MMTS, SRG, SNOWBOARD",,,WFO CHS,,,,,,,,,,,,,,,,,,,,,,,,,,,29.93,76,81,0.00,,,,85,29.93,FEW:02 16 SCT:04 30 BKN:07 70,29.88,10.00,77,160,,14,,,,,,,,,,,,,,,,,,,,,,,,,,,,,,,,,,,,,MET11310/08/17 16:56:02 METAR KCHS 082156Z 16012KT 10SM FEW016 SCT030 BKN070 27/24 A2993 RMK AO2 SLP135 T02720244 (JRS),,,,,,,,,,,,,,,,,,,,,,,,,,,,2009-06-10
72208013880,2017-10-08T17:56:00,FM-15,7,,SE,0.25,mi,"TEMP, PRECIP, SNOW",,,"MMTS, SRG, SNOWBOARD",,,WFO CHS,,,,,,,,,,,,,,,,,,,,,,,,,,,29.95,76,81,0.00,,,,85,29.94,FEW:02 16 BKN:07 45 OVC:08 200,29.90,10.00,77,160,,11,,,,,,,,,,,,,,,,,,,,,,,,,,,,,,,,,,,,,MET11310/08/17 17:56:02 METAR KCHS 082256Z 16010KT 10SM FEW016 BKN045 OVC200 27/24 A2995 RMK AO2 SLP140 T02720244 (JRS),,,,,,,,,,,,,,,,,,,,,,,,,,,,2009-06-10
72208013880,2017-10-09T10:56:00,FM-15,7,,SE,0.25,mi,"TEMP, PRECIP, SNOW",,,"MMTS, SRG, SNOWBOARD",,,WFO CHS,,,,,,,,,,,,,,,,,,,,,,,,,,,30.04,76,76,0.48,RA:02 BR:1 |RA |,,,100,30.04,SCT:04 8 BKN:07 15 OVC:08 40,29.99,1.00,76,170,,7,,,,,,,,,,,,,,,,,,,,,,,,,,,,,,,,,,,,,MET15210/09/17 10:56:02 METAR KCHS 091556Z 17006KT 1SM R15/5500VP6000FT RA BR SCT008 BKN015 OVC040 24/24 A3004 RMK AO2 TSB1457E24 SLP172 P0047 T02440244 (KLJ),,,,,,,,,,,,,,,,,,,,,,,,,,,,2009-06-10
72208013880,2017-10-09T14:56:00,FM-15,7,,SE,0.25,mi,"TEMP, PRECIP, SNOW",,,"MMTS, SRG, SNOWBOARD",,,WFO CHS,,,,,,,,,,,,,,,,,,,,,,,,,,,29.99,79,83,0.00,,,,88,29.99,FEW:02 10 SCT:04 25 BKN:07 120,29.94,10.00,80,170,,9,,,,,,,,,,,,,,,,,,,,,,,,,,,,,,,,,,,,,MET11310/09/17 14:56:02 METAR KCHS 091956Z 17008KT 10SM FEW010 SCT025 BKN120 28/26 A2999 RMK AO2 SLP155 T02830261 (BBE),,,,,,,,,,,,,,,,,,,,,,,,,,,,2009-06-10
72208013880,2017-10-09T17:56:00,FM-15,7,,SE,0.25,mi,"TEMP, PRECIP, SNOW",,,"MMTS, SRG, SNOWBOARD",,,WFO CHS,,,,,,,,,,,,,,,,,,,,,,,,,,,30.01,77,80,0.00,,,,90,30.00,FEW:02 10 SCT:04 120 BKN:07 200,29.96,10.00,78,170,,7,,,,,,,,,,,,,,,,,,,,,,,,,,,,,,,,,,,,,MET11310/09/17 17:56:02 METAR KCHS 092256Z 17006KT 10SM FEW010 SCT120 BKN200 27/25 A3001 RMK AO2 SLP160 T02670250 (BBE),,,,,,,,,,,,,,,,,,,,,,,,,,,,2009-06-10
72208013880,2017-10-10T15:56:00,FM-15,7,,SE,0.25,mi,"TEMP, PRECIP, SNOW",,,"MMTS, SRG, SNOWBOARD",,,WFO CHS,,,,,,,,,,,,,,,,,,,,,,,,,,,30.05,75,85,0.00,,+0.02,5,72,30.05,SCT:04 30 SCT:04 45 BKN:07 250,30.00,10.00,78,170,,14,,,,,,,,,,,,,,,,,,,,,,,,,,,,,,,,,,,,,MET12510/10/17 15:56:02 METAR KCHS 102056Z 17012KT 10SM SCT030 SCT045 BKN250 29/24 A3005 RMK AO2 SLP176 60000 T02940239 55006 (BBE),,,,,,,,,,,,,,,,,,,,,,,,,,,,2009-06-10
72208013880,2017-10-10T16:00:00,FM-12,4,,SE,0.25,mi,"TEMP, PRECIP, SNOW",,,"MMTS, SRG, SNOWBOARD",,,WFO CHS,,,,,,,,,,,,,,,,,,,,,,,,,,,30.05,75,85,,,+0.02,5,72,30.05,26,30.00,9.94,78,170,,14,,,,,,,,,,,,,,,,,,,,,,,,,,,,,,,,,,,,,SYN07072208 12566 61712 10294 20239 30160 40176 55006 69907 92056 555 91021=,,,,,,,,,,,,,,,,,,,,,,,,,,,,2009-06-10
72208013880,2017-10-11T12:56:00,FM-15,7,,SE,0.25,mi,"TEMP, PRECIP, SNOW",,,"MMTS, SRG, SNOWBOARD",,,WFO CHS,,,,,,,,,,,,,,,,,,,,,,,,,,,30.04,75,85,0.00,,+0.04,8,72,30.04,BKN:07 40,29.99,10.00,78,170,,11,,,,,,,,,,,,,,,,,,,,,,,,,,,,,,,,,,,,,MET11710/11/17 12:56:02 METAR KCHS 111756Z 17010KT 10SM BKN040 29/24 A3004 RMK AO2 SLP172 T02940239 10306 20228 58014 (JMB),,,,,,,,,,,,,,,,,,,,,,,,,,,,2009-06-10
72208013880,2017-10-11T13:00:00,FM-12,4,,SE,0.25,mi,"TEMP, PRECIP, SNOW",,,"MMTS, SRG, SNOWBOARD",,,WFO CHS,,,,,,,,,,,,,,,,,,,,,,,,,,,30.04,75,85,,,+0.04,8,72,30.04,41,29.99,9.94,78,170,,11,,,,,,,,,,,,,,,,,,,,,,,,,,,,,,,,,,,,,SYN08072208 32666 61710 10294 20239 30157 40172 58014 91756 333 10306 20228 555 91118=,,,,,,,,,,,,,,,,,,,,,,,,,,,,2009-06-10
72208013880,2017-10-12T14:56:00,FM-15,7,,SE,0.25,mi,"TEMP, PRECIP, SNOW",,,"MMTS, SRG, SNOWBOARD",,,WFO CHS,,,,,,,,,,,,,,,,,,,,,,,,,,,30.00,72,85,0.00,,,,65,30.00,FEW:02 40 SCT:04 55,29.95,10.00,76,150,,10,,,,,,,,,,,,,,,,,,,,,,,,,,,,,,,,,,,,,MET10610/12/17 14:56:02 METAR KCHS 121956Z 15009KT 10SM FEW040 SCT055 29/22 A3000 RMK AO2 SLP159 T02940222 (BBE),,,,,,,,,,,,,,,,,,,,,,,,,,,,2009-06-10
72208013880,2017-10-12T16:56:00,FM-15,7,,SE,0.25,mi,"TEMP, PRECIP, SNOW",,,"MMTS, SRG, SNOWBOARD",,,WFO CHS,,,,,,,,,,,,,,,,,,,,,,,,,,,30.01,72,82,0.00,,,,72,30.01,FEW:02 30 FEW:02 90 SCT:04 200,29.96,10.00,75,170,,13,,,,,,,,,,,,,,,,,,,,,,,,,,,,,,,,,,,,,MET11310/12/17 16:56:02 METAR KCHS 122156Z 17011KT 10SM FEW030 FEW090 SCT200 28/22 A3001 RMK AO2 SLP163 T02780222 (BBE),,,,,,,,,,,,,,,,,,,,,,,,,,,,2009-06-10
72208013880,2017-10-22T16:14:00,FM-16,7,,SE,0.25,mi,"TEMP, PRECIP, SNOW",,,"MMTS, SRG, SNOWBOARD",,,WFO CHS,,,,,,,,,,,,,,,,,,,,,,,,,,,30.19,71,72,0.05,+RA:02 BR:1 |RA |,,,97,,FEW:02 7 OVC:08 25,30.14,2.00,71,160,,13,,,,,,,,,,,,,,,,,,,,,,,,,,,,,,,,,,,,,MET12810/22/17 16:14:02 SPECI KCHS 222114Z 16011KT 2SM R15/5500VP6000FT +RA BR FEW007 OVC025 22/22 A3019 RMK AO2 P0005 T02220217 (JRS),,,,,,,,,,,,,,,,,,,,,,,,,,,,2009-06-10
72208013880,2017-10-23T10:56:00,FM-15,7,,SE,0.25,mi,"TEMP, PRECIP, SNOW",,,"MMTS, SRG, SNOWBOARD",,,WFO CHS,,,,,,,,,,,,,,,,,,,,,,,,,,,30.04,74,77,0.00,,,,90,30.03,SCT:04 25 BKN:07 40 OVC:08 120,29.99,7.00,75,150,,13,,,,,,,,,,,,,,,,,,,,,,,,,,,,,,,,,,,,,MET11210/23/17 10:56:02 METAR KCHS 231556Z 15011KT 7SM SCT025 BKN040 OVC120 25/23 A3004 RMK AO2 SLP170 T02500233 (JMB),,,,,,,,,,,,,,,,,,,,,,,,,,,,2009-06-10
72208013880,2017-10-23T11:56:00,FM-15,7,,SE,0.25,mi,"TEMP, PRECIP, SNOW",,,"MMTS, SRG, SNOWBOARD",,,WFO CHS,,,,,,,,,,,,,,,,,,,,,,,,,,,30.00,73,78,T,,,,85,29.99,SCT:04 20 BKN:07 35 OVC:08 120,29.95,10.00,75,160,,17,,,,,,,,,,,,,,,,,,,,,,,,,,,,,,,,,,,,,MET12810/23/17 11:56:02 METAR KCHS 231656Z 16015KT 10SM SCT020 BKN035 OVC120 26/23 A3000 RMK AO2 RAB07E20 SLP157 P0000 T02560228 (JMB),,,,,,,,,,,,,,,,,,,,,,,,,,,,2009-06-10
72208013880,2017-10-23T12:56:00,FM-15,7,,SE,0.25,mi,"TEMP, PRECIP, SNOW",,,"MMTS, SRG, SNOWBOARD",,,WFO CHS,,,,,,,,,,,,,,,,,,,,,,,,,,,29.97,73,77,0.00,,+0.09,8,88,29.96,FEW:02 20 BKN:07 35 OVC:08 120,29.92,10.00,74,170,,17,,,,,,,,,,,,,,,,,,,,,,,,,,,,,,,,,,,,,MET13710/23/17 12:56:02 METAR KCHS 231756Z 17015KT 10SM FEW020 BKN035 OVC120 25/23 A2997 RMK AO2 SLP147 60000 T02500228 10256 20228 58031 (JMB),,,,,,,,,,,,,,,,,,,,,,,,,,,,2009-06-10
72208013880,2017-10-23T13:00:00,FM-12,4,,SE,0.25,mi,"TEMP, PRECIP, SNOW",,,"MMTS, SRG, SNOWBOARD",,,WFO CHS,,,,,,,,,,,,,,,,,,,,,,,,,,,29.97,73,77,,,+0.09,8,88,29.96,26,29.92,9.94,74,170,,17,,,,,,,,,,,,,,,,,,,,,,,,,,,,,,,,,,,,,SYN08672208 12566 81715 10250 20228 30133 40147 58031 69901 91756 333 10256 20222 555 92318=,,,,,,,,,,,,,,,,,,,,,,,,,,,,2009-06-10
72208013880,2017-10-23T13:54:00,FM-16,6,,SE,0.25,mi,"TEMP, PRECIP, SNOW",,,"MMTS, SRG, SNOWBOARD",,,WFO CHS,,,,,,,,,,,,,,,,,,,,,,,,,,,29.93,73,79,,,,,84,,SCT:04 15 BKN:07 25 OVC:08 30,29.88,8.00,75,160,,14,,,,,,,,,,,,,,,,,,,,,,,,,,,,,,,,,,,,,MET12910/23/17 13:54:02 SPECI KCHS 231854Z 16012KT 8SM SCT015 BKN025 OVC030 26/23 A2993 RMK AO2 LTG DSNT NW CB DSNT W AND NW FIBI (JMB),,,,,,,,,,,,,,,,,,,,,,,,,,,,2009-06-10
72208013880,2017-10-23T13:56:00,FM-15,7,,SE,0.25,mi,"TEMP, PRECIP, SNOW",,,"MMTS, SRG, SNOWBOARD",,,WFO CHS,,,,,,,,,,,,,,,,,,,,,,,,,,,29.93,73,78,0.02,-RA:02 |RA |,,,85,29.93,SCT:04 15 BKN:07 25 OVC:08 30,29.88,7.00,75,150,,14,,,,,,,,,,,,,,,,,,,,,,,,,,,,,,,,,,,,,MET16810/23/17 13:56:02 METAR KCHS 231856Z 15012KT 7SM R15/4000VP6000FT -RA SCT015 BKN025 OVC030 26/23 A2993 RMK AO2 LTG DSNT NW RAB55 SLP135 CB DSNT NW P0000 T02560228 (JMB),,,,,,,,,,,,,,,,,,,,,,,,,,,,2009-06-10
72208013880,2017-10-23T15:56:00,FM-15,7,,SE,0.25,mi,"TEMP, PRECIP, SNOW",,,"MMTS, SRG, SNOWBOARD",,,WFO CHS,,,,,,,,,,,,,,,,,,,,,,,,,,,29.88,75,77,T,,+0.09,6,94,29.88,SCT:04 20 SCT:04 95 BKN:07 150,29.83,7.00,76,170,,14,,,,,,,,,,,,,,,,,,,,,,,,,,,,,,,,,,,,,MET14210/23/17 15:56:02 METAR KCHS 232056Z 17012KT 7SM SCT020 SCT095 BKN150 25/24 A2988 RMK AO2 RAE12B27E39 SLP118 P0000 60032 T02500239 56029 (BBE),,,,,,,,,,,,,,,,,,,,,,,,,,,,2009-06-10
72208013880,2017-10-23T16:00:00,FM-12,4,,SE,0.25,mi,"TEMP, PRECIP, SNOW",,,"MMTS, SRG, SNOWBOARD",,,WFO CHS,,,,,,,,,,,,,,,,,,,,,,,,,,,29.88,75,77,,,+0.09,6,94,29.88,26,29.83,6.84,76,170,,14,,,,,,,,,,,,,,,,,,,,,,,,,,,,,,,,,,,,,SYN07072208 12561 61712 10250 20239 30102 40118 56029 60087 92056 555 92321=,,,,,,,,,,,,,,,,,,,,,,,,,,,,2009-06-10
72208013880,2017-10-23T17:08:00,FM-16,7,,SE,0.25,mi,"TEMP, PRECIP, SNOW",,,"MMTS, SRG, SNOWBOARD",,,WFO CHS,,,,,,,,,,,,,,,,,,,,,,,,,,,29.86,74,76,,,,,94,,FEW:02 9 SCT:04 13 BKN:07 20,29.81,7.00,75,170,,16,,,,,,,,,,,,,,,,,,,,,,,,,,,,,,,,,,,,,MET10510/23/17 17:08:02 SPECI KCHS 232208Z 17014KT 7SM FEW009 SCT013 BKN020 24/23 A2986 RMK AO2 T02440233 (BBE),,,,,,,,,,,,,,,,,,,,,,,,,,,,2009-06-10
72208013880,2017-10-27T13:56:00,FM-15,7,,SE,0.25,mi,"TEMP, PRECIP, SNOW",,,"MMTS, SRG, SNOWBOARD",,,WFO CHS,,,,,,,,,,,,,,,,,,,,,,,,,,,30.08,48,73,0.00,,,,41,30.08,CLR:00,30.03,10.00,59,150,,11,,,,,,,,,,,,,,,,,,,,,,,,,,,,,,,,,,,,,MET09510/27/17 13:56:02 METAR KCHS 271856Z 15010KT 10SM CLR 23/09 A3008 RMK AO2 SLP185 T02280089 (MH),,,,,,,,,,,,,,,,,,,,,,,,,,,,2009-06-10
72208013880,2017-10-27T16:56:00,FM-15,7,,SE,0.25,mi,"TEMP, PRECIP, SNOW",,,"MMTS, SRG, SNOWBOARD",,,WFO CHS,,,,,,,,,,,,,,,,,,,,,,,,,,,30.08,50,67,0.00,,,,55,30.07,FEW:02 200,30.03,10.00,58,150,,10,,,,,,,,,,,,,,,,,,,,,,,,,,,,,,,,,,,,,MET09910/27/17 16:56:02 METAR KCHS 272156Z 15009KT 10SM FEW200 19/10 A3008 RMK AO2 SLP183 T01940100 (BBE),,,,,,,,,,,,,,,,,,,,,,,,,,,,2009-06-10
72208013880,2017-10-28T12:56:00,FM-15,7,,SE,0.25,mi,"TEMP, PRECIP, SNOW",,,"MMTS, SRG, SNOWBOARD",,,WFO CHS,,,,,,,,,,,,,,,,,,,,,,,,,,,29.88,60,77,0.00,,+0.09,8,56,29.88,BKN:07 45,29.83,10.00,66,160,,9,,,,,,,,,,,,,,,,,,,,,,,,,,,,,,,,,,,,,MET11610/28/17 12:56:02 METAR KCHS 281756Z 16008KT 10SM BKN045 25/16 A2988 RMK AO2 SLP117 T02500156 10256 20139 58030 (MH),,,,,,,,,,,,,,,,,,,,,,,,,,,,2009-06-10
72208013880,2017-10-28T13:00:00,FM-12,4,,SE,0.25,mi,"TEMP, PRECIP, SNOW",,,"MMTS, SRG, SNOWBOARD",,,WFO CHS,,,,,,,,,,,,,,,,,,,,,,,,,,,29.88,60,77,,,+0.09,8,56,29.88,41,29.83,9.94,66,160,,9,,,,,,,,,,,,,,,,,,,,,,,,,,,,,,,,,,,,,SYN08072208 32666 61608 10250 20156 30102 40117 58030 91756 333 10256 20139 555 92818=,,,,,,,,,,,,,,,,,,,,,,,,,,,,2009-06-10
72208013880,2017-10-28T13:56:00,FM-15,7,,SE,0.25,mi,"TEMP, PRECIP, SNOW",,,"MMTS, SRG, SNOWBOARD",,,WFO CHS,,,,,,,,,,,,,,,,,,,,,,,,,,,29.85,61,77,0.00,,,,58,29.85,SCT:04 43 BKN:07 50,29.80,10.00,67,160,,14,,,,,,,,,,,,,,,,,,,,,,,,,,,,,,,,,,,,,MET10510/28/17 13:56:02 METAR KCHS 281856Z 16012KT 10SM SCT043 BKN050 25/16 A2985 RMK AO2 SLP109 T02500161 (MH),,,,,,,,,,,,,,,,,,,,,,,,,,,,2009-06-10
72208013880,2017-10-28T14:56:00,FM-15,7,,SE,0.25,mi,"TEMP, PRECIP, SNOW",,,"MMTS, SRG, SNOWBOARD",,,WFO CHS,,,,,,,,,,,,,,,,,,,,,,,,,,,29.83,62,78,0.00,,,,58,29.83,BKN:07 40 BKN:07 55,29.78,10.00,68,160,,11,,,,,,,,,,,,,,,,,,,,,,,,,,,,,,,,,,,,,MET10610/28/17 14:56:02 METAR KCHS 281956Z 16010KT 10SM BKN040 BKN055 26/17 A2983 RMK AO2 SLP101 T02560167 (JRS),,,,,,,,,,,,,,,,,,,,,,,,,,,,2009-06-10
72208013880,2017-10-28T15:56:00,FM-15,7,,SE,0.25,mi,"TEMP, PRECIP, SNOW",,,"MMTS, SRG, SNOWBOARD",,,WFO CHS,,,,,,,,,,,,,,,,,,,,,,,,,,,29.83,65,70,T,-RA:02 |RA |,+0.05,6,84,29.82,SCT:04 40 OVC:08 47,29.78,9.00,67,170,,14,,,,,,,,,,,,,,,,,,,,,,,,,,,,,,,,,,,,,MET13310/28/17 15:56:02 METAR KCHS 282056Z 17012KT 9SM -RA SCT040 OVC047 21/18 A2983 RMK AO2 RAB41 SLP099 P0000 60000 T02110183 56018 (JRS),,,,,,,,,,,,,,,,,,,,,,,,,,,,2009-06-10
72208013880,2017-10-28T16:00:00,FM-12,4,,SE,0.25,mi,"TEMP, PRECIP, SNOW",,,"MMTS, SRG, SNOWBOARD",,,WFO CHS,,,,,,,,,,,,,,,,,,,,,,,,,,,29.83,65,70,,||RA,+0.05,6,84,29.82,41,29.78,8.70,67,170,,14,,,,,,,,,,,,,,,,,,,,,,,,,,,,,,,,,,,,,SYN07672208 11664 81712 10211 20183 30086 40099 56018 69907 761// 92056 555 92821=,,,,,,,,,,,,,,,,,,,,,,,,,,,,2009-06-10
72208013880,2017-10-28T16:56:00,FM-15,7,,SE,0.25,mi,"TEMP, PRECIP, SNOW",,,"MMTS, SRG, SNOWBOARD",,,WFO CHS,,,,,,,,,,,,,,,,,,,,,,,,,,,29.81,67,68,0.03,RA:02 BR:1 |RA |,,,96,29.80,FEW:02 13 FEW:02 26 OVC:08 32,29.76,2.00,67,160,,7,,,,,,,,,,,,,,,,,,,,,,,,,,,,,,,,,,,,,MET15010/28/17 16:56:02 METAR KCHS 282156Z 16006KT 2SM R15/6000VP6000FT RA BR FEW013 FEW026 OVC032 20/19 A2981 RMK AO2 RAE04B41 SLP092 P0003 T02000194 (JRS),,,,,,,,,,,,,,,,,,,,,,,,,,,,2009-06-10
72208013880,2017-10-31T15:56:00,FM-15,7,,SE,0.25,mi,"TEMP, PRECIP, SNOW",,,"MMTS, SRG, SNOWBOARD",,,WFO CHS,,,,,,,,,,,,,,,,,,,,,,,,,,,30.10,52,72,0.00,,+0.03,5,50,30.10,FEW:02 250,30.05,10.00,61,160,,9,,,,,,,,,,,,,,,,,,,,,,,,,,,,,,,,,,,,,MET10510/31/17 15:56:02 METAR KCHS 312056Z 16008KT 10SM FEW250 22/11 A3010 RMK AO2 SLP193 T02220111 55011 (BBE),,,,,,,,,,,,,,,,,,,,,,,,,,,,2009-06-10
72208013880,2017-10-31T16:00:00,FM-12,4,,SE,0.25,mi,"TEMP, PRECIP, SNOW",,,"MMTS, SRG, SNOWBOARD",,,WFO CHS,,,,,,,,,,,,,,,,,,,,,,,,,,,30.10,52,72,,,+0.03,5,50,30.10,,30.05,9.94,61,160,,9,,,,,,,,,,,,,,,,,,,,,,,,,,,,,,,,,,,,,SYN06472208 32966 21608 10222 20111 30177 40193 55011 92056 555 93121=,,,,,,,,,,,,,,,,,,,,,,,,,,,,2009-06-10
72208013880,2017-10-31T16:56:00,FM-15,7,,SE,0.25,mi,"TEMP, PRECIP, SNOW",,,"MMTS, SRG, SNOWBOARD",,,WFO CHS,,,,,,,,,,,,,,,,,,,,,,,,,,,30.11,52,68,0.00,,,,57,30.11,FEW:02 250,30.06,10.00,59,150,,10,,,,,,,,,,,,,,,,,,,,,,,,,,,,,,,,,,,,,MET09910/31/17 16:56:02 METAR KCHS 312156Z 15009KT 10SM FEW250 20/11 A3011 RMK AO2 SLP197 T02000111 (BBE),,,,,,,,,,,,,,,,,,,,,,,,,,,,2009-06-10
72208013880,2017-11-18T10:56:00,FM-15,7,,SE,0.25,mi,"TEMP, PRECIP, SNOW",,,"MMTS, SRG, SNOWBOARD",,,WFO CHS,,,,,,,,,,,,,,,,,,,,,,,,,,,30.03,57,71,0.00,,,,61,30.02,BKN:07 60 BKN:07 250,29.98,10.00,63,160,,8,,,,,,,,,,,,,,,,,,,,,,,,,,,,,,,,,,,,,MET10611/18/17 10:56:02 METAR KCHS 181556Z 16007KT 10SM BKN060 BKN250 22/14 A3003 RMK AO2 SLP167 T02170139 (BBE),,,,,,,,,,,,,,,,,,,,,,,,,,,,2009-06-10
72208013880,2017-11-30T17:56:00,FM-15,7,,SE,0.25,mi,"TEMP, PRECIP, SNOW",,,"MMTS, SRG, SNOWBOARD",,,WFO CHS,,,,,,,,,,,,,,,,,,,,,,,,,,,30.10,55,63,0.00,,,,75,30.09,FEW:02 200,30.05,10.00,58,170,,7,,,,,,,,,,,,,,,,,,,,,,,,,,,,,,,,,,,,,MET09911/30/17 17:56:02 METAR KCHS 302256Z 17006KT 10SM FEW200 17/13 A3010 RMK AO2 SLP191 T01720128 (BBE),,,,,,,,,,,,,,,,,,,,,,,,,,,,2009-06-10
72208013880,2017-12-16T14:56:00,FM-15,7,,SE,0.25,mi,"TEMP, PRECIP, SNOW",,,"MMTS, SRG, SNOWBOARD",,,WFO CHS,,,,,,,,,,,,,,,,,,,,,,,,,,,30.25,35,54,0.00,,,,49,30.25,SCT:04 200,30.20,10.00,45,160,,10,,,,,,,,,,,,,,,,,,,,,,,,,,,,,,,,,,,,,MET09812/16/17 14:56:02 METAR KCHS 161956Z 16009KT 10SM SCT200 12/02 A3025 RMK AO2 SLP243 T01220017 (MH),,,,,,,,,,,,,,,,,,,,,,,,,,,,2009-06-10
72208013880,2017-12-16T15:56:00,FM-15,7,,SE,0.25,mi,"TEMP, PRECIP, SNOW",,,"MMTS, SRG, SNOWBOARD",,,WFO CHS,,,,,,,,,,,,,,,,,,,,,,,,,,,30.25,36,53,0.00,,+0.03,6,52,30.25,FEW:02 200,30.20,10.00,45,150,,7,,,,,,,,,,,,,,,,,,,,,,,,,,,,,,,,,,,,,MET10512/16/17 15:56:02 METAR KCHS 162056Z 15006KT 10SM FEW200 12/02 A3025 RMK AO2 SLP243 T01170022 56009 (JRS),,,,,,,,,,,,,,,,,,,,,,,,,,,,2009-06-10
72208013880,2017-12-16T16:00:00,FM-12,4,,SE,0.25,mi,"TEMP, PRECIP, SNOW",,,"MMTS, SRG, SNOWBOARD",,,WFO CHS,,,,,,,,,,,,,,,,,,,,,,,,,,,30.25,36,53,,,+0.03,6,52,30.25,,30.20,9.94,45,150,,7,,,,,,,,,,,,,,,,,,,,,,,,,,,,,,,,,,,,,SYN06472208 32966 21506 10117 20022 30228 40243 56009 92056 555 91621=,,,,,,,,,,,,,,,,,,,,,,,,,,,,2009-06-10
72208013880,2017-12-16T16:56:00,FM-15,7,,SE,0.25,mi,"TEMP, PRECIP, SNOW",,,"MMTS, SRG, SNOWBOARD",,,WFO CHS,,,,,,,,,,,,,,,,,,,,,,,,,,,30.26,36,49,0.00,,,,61,30.25,FEW:02 200,30.21,10.00,43,160,,8,,,,,,,,,,,,,,,,,,,,,,,,,,,,,,,,,,,,,MET09912/16/17 16:56:02 METAR KCHS 162156Z 16007KT 10SM FEW200 09/02 A3026 RMK AO2 SLP245 T00940022 (JRS),,,,,,,,,,,,,,,,,,,,,,,,,,,,2009-06-10
72208013880,2017-12-20T16:56:00,FM-15,7,,SE,0.25,mi,"TEMP, PRECIP, SNOW",,,"MMTS, SRG, SNOWBOARD",,,WFO CHS,,,,,,,,,,,,,,,,,,,,,,,,,,,29.87,62,64,0.01,RA:02 |RA |,,,93,29.87,FEW:02 45 OVC:08 95,29.82,8.00,63,170,,9,,,,,,,,,,,,,,,,,,,,,,,,,,,,,,,,,,,,,MET12012/20/17 16:56:02 METAR KCHS 202156Z 17008KT 8SM RA FEW045 OVC095 18/17 A2987 RMK AO2 RAB04 SLP114 P0000 T01780167 (BBE),,,,,,,,,,,,,,,,,,,,,,,,,,,,2009-06-10
72208013880,2017-12-22T17:56:00,FM-15,7,,SE,0.25,mi,"TEMP, PRECIP, SNOW",,,"MMTS, SRG, SNOWBOARD",,,WFO CHS,,,,,,,,,,,,,,,,,,,,,,,,,,,30.19,52,57,0.00,,,,83,30.19,SCT:04 200,30.14,10.00,54,170,,7,,,,,,,,,,,,,,,,,,,,,,,,,,,,,,,,,,,,,MET09912/22/17 17:56:02 METAR KCHS 222256Z 17006KT 10SM SCT200 14/11 A3019 RMK AO2 SLP223 T01390111 (JRS),,,,,,,,,,,,,,,,,,,,,,,,,,,,2009-06-10
72208013880,2018-01-16T14:56:00,FM-15,7,,SE,0.25,mi,"TEMP, PRECIP, SNOW",,,"MMTS, SRG, SNOWBOARD",,,WFO CHS,,,,,,,,,,,,,,,,,,,,,,,,,,,30.36,28,58,0.00,,,,32,30.35,BKN:07 250,30.31,10.00,45,170,,9,,,,,,,,,,,,,,,,,,,,,,,,,,,,,,,,,,,,,MET10001/16/18 14:56:02 METAR KCHS 161956Z 17008KT 10SM BKN250 14/M02 A3036 RMK AO2 SLP279 T01441022 (BBE),,,,,,,,,,,,,,,,,,,,,,,,,,,,2009-06-10
72208013880,2018-01-16T15:56:00,FM-15,7,,SE,0.25,mi,"TEMP, PRECIP, SNOW",,,"MMTS, SRG, SNOWBOARD",,,WFO CHS,,,,,,,,,,,,,,,,,,,,,,,,,,,30.36,32,54,0.00,,+0.04,5,43,30.35,BKN:07 250,30.31,10.00,44,150,,8,,,,,,,,,,,,,,,,,,,,,,,,,,,,,,,,,,,,,MET10501/16/18 15:56:02 METAR KCHS 162056Z 15007KT 10SM BKN250 12/00 A3036 RMK AO2 SLP279 T01220000 55014 (BBE),,,,,,,,,,,,,,,,,,,,,,,,,,,,2009-06-10
72208013880,2018-01-16T16:00:00,FM-12,4,,SE,0.25,mi,"TEMP, PRECIP, SNOW",,,"MMTS, SRG, SNOWBOARD",,,WFO CHS,,,,,,,,,,,,,,,,,,,,,,,,,,,30.36,32,54,,,+0.04,5,43,30.35,,30.31,9.94,44,150,,8,,,,,,,,,,,,,,,,,,,,,,,,,,,,,,,,,,,,,SYN06472208 32966 61507 10122 20000 30265 40279 55014 92056 555 91621=,,,,,,,,,,,,,,,,,,,,,,,,,,,,2009-06-10
72208013880,2018-01-16T16:56:00,FM-15,7,,SE,0.25,mi,"TEMP, PRECIP, SNOW",,,"MMTS, SRG, SNOWBOARD",,,WFO CHS,,,,,,,,,,,,,,,,,,,,,,,,,,,30.36,33,52,0.00,,,,49,30.35,BKN:07 250,30.31,10.00,44,150,,7,,,,,,,,,,,,,,,,,,,,,,,,,,,,,,,,,,,,,MET09901/16/18 16:56:02 METAR KCHS 162156Z 15006KT 10SM BKN250 11/01 A3036 RMK AO2 SLP279 T01110006 (BBE),,,,,,,,,,,,,,,,,,,,,,,,,,,,2009-06-10
72208013880,2018-01-16T17:56:00,FM-15,7,,SE,0.25,mi,"TEMP, PRECIP, SNOW",,,"MMTS, SRG, SNOWBOARD",,,WFO CHS,,,,,,,,,,,,,,,,,,,,,,,,,,,30.35,34,46,0.00,,,,63,30.35,BKN:07 250,30.29,10.00,41,150,,7,,,,,,,,,,,,,,,,,,,,,,,,,,,,,,,,,,,,,MET09901/16/18 17:56:02 METAR KCHS 162256Z 15006KT 10SM BKN250 08/01 A3035 RMK AO2 SLP279 T00780011 (BBE),,,,,,,,,,,,,,,,,,,,,,,,,,,,2009-06-10
72208013880,2018-01-21T14:56:00,FM-15,7,,SE,0.25,mi,"TEMP, PRECIP, SNOW",,,"MMTS, SRG, SNOWBOARD",,,WFO CHS,,,,,,,,,,,,,,,,,,,,,,,,,,,30.20,42,68,0.00,,,,39,30.20,CLR:00,30.15,10.00,55,150,,10,,,,,,,,,,,,,,,,,,,,,,,,,,,,,,,,,,,,,MET09501/21/18 14:56:02 METAR KCHS 211956Z 15009KT 10SM CLR 20/06 A3020 RMK AO2 SLP226 T02000056 (MH),,,,,,,,,,,,,,,,,,,,,,,,,,,,2009-06-10
72208013880,2018-01-21T16:56:00,FM-15,7,,SE,0.25,mi,"TEMP, PRECIP, SNOW",,,"MMTS, SRG, SNOWBOARD",,,WFO CHS,,,,,,,,,,,,,,,,,,,,,,,,,,,30.21,42,63,0.00,,,,47,30.21,CLR:00,30.16,10.00,52,160,,9,,,,,,,,,,,,,,,,,,,,,,,,,,,,,,,,,,,,,MET09601/21/18 16:56:02 METAR KCHS 212156Z 16008KT 10SM CLR 17/06 A3021 RMK AO2 SLP229 T01720056 (JRS),,,,,,,,,,,,,,,,,,,,,,,,,,,,2009-06-10
72208013880,2018-01-22T14:56:00,FM-15,7,,SE,0.25,mi,"TEMP, PRECIP, SNOW",,,"MMTS, SRG, SNOWBOARD",,,WFO CHS,,,,,,,,,,,,,,,,,,,,,,,,,,,30.09,60,71,0.00,,,,68,30.09,FEW:02 35 BKN:07 45 BKN:07 70,30.04,10.00,64,150,,7,,,,,,,,,,,,,,,,,,,,,,,,,,,,,,,,,,,,,MET11301/22/18 14:56:02 METAR KCHS 221956Z 15006KT 10SM FEW035 BKN045 BKN070 22/16 A3009 RMK AO2 SLP188 T02170156 (JMB),,,,,,,,,,,,,,,,,,,,,,,,,,,,2009-06-10
72208013880,2018-01-27T13:56:00,FM-15,7,,SE,0.25,mi,"TEMP, PRECIP, SNOW",,,"MMTS, SRG, SNOWBOARD",,,WFO CHS,,,,,,,,,,,,,,,,,,,,,,,,,,,30.40,53,71,0.00,,,,53,30.40,SCT:04 37 SCT:04 75 BKN:07 200,30.35,10.00,61,150,24,16,,,,,,,,,,,,,,,,,,,,,,,,,,,,,,,,,,,,,MET11501/27/18 13:56:02 METAR KCHS 271856Z 15014G21KT 10SM SCT037 SCT075 BKN200 22/12 A3040 RMK AO2 SLP294 T02170117 (MH),,,,,,,,,,,,,,,,,,,,,,,,,,,,2009-06-10
72208013880,2018-01-28T13:01:00,FM-16,7,,SE,0.25,mi,"TEMP, PRECIP, SNOW",,,"MMTS, SRG, SNOWBOARD",,,WFO CHS,,,,,,,,,,,,,,,,,,,,,,,,,,,30.18,64,65,0.01,-RA:02 BR:1 |RA |,,,97,,BKN:07 3 BKN:07 7 OVC:08 20,30.13,0.75,64,170,,7,,,,,,,,,,,,,,,,,,,,,,,,,,,,,,,,,,,,,MET15001/28/18 13:01:02 SPECI KCHS 281801Z 17006KT 3/4SM R15/6000VP6000FT -RA BR BKN003 BKN007 OVC020 18/18 A3018 RMK AO2 TWR VIS 1 1/2 P0001 T01830178 (MH),,,,,,,,,,,,,,,,,,,,,,,,,,,,2009-06-10
72208013880,2018-01-28T15:56:00,FM-15,7,,SE,0.25,mi,"TEMP, PRECIP, SNOW",,,"MMTS, SRG, SNOWBOARD",,,WFO CHS,,,,,,,,,,,,,,,,,,,,,,,,,,,30.11,63,65,T,-RA:02 |RA |,+0.08,6,93,30.10,FEW:02 3 BKN:07 7 OVC:08 12,30.06,10.00,64,150,,8,,,,,,,,,,,,,,,,,,,,,,,,,,,,,,,,,,,,,MET14101/28/18 15:56:02 METAR KCHS 282056Z 15007KT 10SM -RA FEW003 BKN007 OVC012 18/17 A3011 RMK AO2 RAB26 SLP194 P0000 60001 T01830172 56026 (MBT),,,,,,,,,,,,,,,,,,,,,,,,,,,,2009-06-10
72208013880,2018-01-28T16:00:00,FM-12,4,,SE,0.25,mi,"TEMP, PRECIP, SNOW",,,"MMTS, SRG, SNOWBOARD",,,WFO CHS,,,,,,,,,,,,,,,,,,,,,,,,,,,30.11,63,65,,||RA,+0.08,6,93,30.10,2,30.06,9.94,64,150,,8,,,,,,,,,,,,,,,,,,,,,,,,,,,,,,,,,,,,,SYN07672208 11166 81507 10183 20172 30180 40194 56026 69937 761// 92056 555 92821=,,,,,,,,,,,,,,,,,,,,,,,,,,,,2009-06-10
72208013880,2018-01-31T13:00:00,FM-12,4,,SE,0.25,mi,"TEMP, PRECIP, SNOW",,,"MMTS, SRG, SNOWBOARD",,,WFO CHS,,,,,,,,,,,,,,,,,,,,,,,,,,,30.36,19,50,,,+0.06,8,29,30.36,,30.31,9.94,38,170,,8,,,,,,,,,,,,,,,,,,,,,,,,,,,,,,,,,,,,,SYN08072208 32966 21707 10100 21072 30265 40281 58022 91756 333 10106 21011 555 93118=,,,,,,,,,,,,,,,,,,,,,,,,,,,,2009-06-10
72208013880,2018-01-31T13:56:00,FM-15,7,,SE,0.25,mi,"TEMP, PRECIP, SNOW",,,"MMTS, SRG, SNOWBOARD",,,WFO CHS,,,,,,,,,,,,,,,,,,,,,,,,,,,30.33,25,51,0.00,,,,36,30.32,FEW:02 250,30.28,10.00,40,170,,10,,,,,,,,,,,,,,,,,,,,,,,,,,,,,,,,,,,,,MET10001/31/18 13:56:02 METAR KCHS 311856Z 17009KT 10SM FEW250 11/M04 A3033 RMK AO2 SLP268 T01061039 (JMB),,,,,,,,,,,,,,,,,,,,,,,,,,,,2009-06-10
72208013880,2018-01-31T14:56:00,FM-15,7,,SE,0.25,mi,"TEMP, PRECIP, SNOW",,,"MMTS, SRG, SNOWBOARD",,,WFO CHS,,,,,,,,,,,,,,,,,,,,,,,,,,,30.32,24,50,0.00,,,,36,30.32,SCT:04 250,30.27,10.00,40,160,,11,,,,,,,,,,,,,,,,,,,,,,,,,,,,,,,,,,,,,MET10001/31/18 14:56:02 METAR KCHS 311956Z 16010KT 10SM SCT250 10/M04 A3032 RMK AO2 SLP266 T01001044 (JMB),,,,,,,,,,,,,,,,,,,,,,,,,,,,2009-06-10
72208013880,2018-01-31T16:56:00,FM-15,7,,SE,0.25,mi,"TEMP, PRECIP, SNOW",,,"MMTS, SRG, SNOWBOARD",,,WFO CHS,,,,,,,,,,,,,,,,,,,,,,,,,,,30.30,31,49,0.00,,,,50,30.30,FEW:02 250,30.25,10.00,41,160,,8,,,,,,,,,,,,,,,,,,,,,,,,,,,,,,,,,,,,,MET10001/31/18 16:56:02 METAR KCHS 312156Z 16007KT 10SM FEW250 09/M01 A3030 RMK AO2 SLP260 T00941006 (BBE),,,,,,,,,,,,,,,,,,,,,,,,,,,,2009-06-10
72208013880,2018-02-05T16:56:00,FM-15,7,,SE,0.25,mi,"TEMP, PRECIP, SNOW",,,"MMTS, SRG, SNOWBOARD",,,WFO CHS,,,,,,,,,,,,,,,,,,,,,,,,,,,30.17,39,60,0.00,,,,46,30.17,FEW:02 50,30.12,10.00,50,150,,8,,,,,,,,,,,,,,,,,,,,,,,,,,,,,,,,,,,,,MET10102/05/18 16:56:02 METAR KCHS 052156Z 15007KT 10SM FEW050 16/04 A3017 RMK AO2 SLP217 T01560039 $ (BBE),,,,,,,,,,,,,,,,,,,,,,,,,,,,2009-06-10
72208013880,2018-02-10T13:56:00,FM-15,7,,SE,0.25,mi,"TEMP, PRECIP, SNOW",,,"MMTS, SRG, SNOWBOARD",,,WFO CHS,,,,,,,,,,,,,,,,,,,,,,,,,,,30.16,66,74,0.00,,,,76,30.15,SCT:04 12 BKN:07 20 BKN:07 200,30.11,10.00,69,170,,16,,,,,,,,,,,,,,,,,,,,,,,,,,,,,,,,,,,,,MET11202/10/18 13:56:02 METAR KCHS 101856Z 17014KT 10SM SCT012 BKN020 BKN200 23/19 A3016 RMK AO2 SLP211 T02330189 (MH),,,,,,,,,,,,,,,,,,,,,,,,,,,,2009-06-10
72208013880,2018-02-17T16:56:00,FM-15,7,,SE,0.25,mi,"TEMP, PRECIP, SNOW",,,"MMTS, SRG, SNOWBOARD",,,WFO CHS,,,,,,,,,,,,,,,,,,,,,,,,,,,30.10,61,70,0.00,,,,73,30.10,BKN:07 250,30.05,9.00,65,150,,8,,,,,,,,,,,,,,,,,,,,,,,,,,,,,,,,,,,,,MET09802/17/18 16:56:02 METAR KCHS 172156Z 15007KT 9SM BKN250 21/16 A3010 RMK AO2 SLP192 T02110161 (JRS),,,,,,,,,,,,,,,,,,,,,,,,,,,,2009-06-10
72208013880,2018-02-17T17:56:00,FM-15,7,,SE,0.25,mi,"TEMP, PRECIP, SNOW",,,"MMTS, SRG, SNOWBOARD",,,WFO CHS,,,,,,,,,,,,,,,,,,,,,,,,,,,30.10,60,65,0.00,,,,84,30.09,SCT:04 250,30.05,8.00,62,150,,10,,,,,,,,,,,,,,,,,,,,,,,,,,,,,,,,,,,,,MET09802/17/18 17:56:02 METAR KCHS 172256Z 15009KT 8SM SCT250 18/16 A3010 RMK AO2 SLP191 T01830156 (JRS),,,,,,,,,,,,,,,,,,,,,,,,,,,,2009-06-10
72208013880,2018-02-19T14:56:00,FM-15,7,,SE,0.25,mi,"TEMP, PRECIP, SNOW",,,"MMTS, SRG, SNOWBOARD",,,WFO CHS,,,,,,,,,,,,,,,,,,,,,,,,,,,30.33,65,78,0.00,,,,64,30.32,SCT:04 27 BKN:07 120,30.28,10.00,70,170,,10,,,,,,,,,,,,,,,,,,,,,,,,,,,,,,,,,,,,,MET10802/19/18 14:56:02 METAR KCHS 191956Z 17009KT 10SM SCT027 BKN120 26/18 A3033 RMK AO2 SLP269 T02560183 $ (JMB),,,,,,,,,,,,,,,,,,,,,,,,,,,,2009-06-10
72208013880,2018-02-19T15:56:00,FM-15,7,,SE,0.25,mi,"TEMP, PRECIP, SNOW",,,"MMTS, SRG, SNOWBOARD",,,WFO CHS,,,,,,,,,,,,,,,,,,,,,,,,,,,30.32,64,78,0.00,,+0.05,6,62,30.32,FEW:02 40 SCT:04 60 SCT:04 250,30.27,10.00,69,170,,10,,,,,,,,,,,,,,,,,,,,,,,,,,,,,,,,,,,,,MET12102/19/18 15:56:02 METAR KCHS 192056Z 17009KT 10SM FEW040 SCT060 SCT250 26/18 A3032 RMK AO2 SLP267 T02560178 56017 $ (BBE),,,,,,,,,,,,,,,,,,,,,,,,,,,,2009-06-10
72208013880,2018-02-19T16:00:00,FM-12,4,,SE,0.25,mi,"TEMP, PRECIP, SNOW",,,"MMTS, SRG, SNOWBOARD",,,WFO CHS,,,,,,,,,,,,,,,,,,,,,,,,,,,30.32,64,78,,,+0.05,6,62,30.32,41,30.27,9.94,69,170,,10,,,,,,,,,,,,,,,,,,,,,,,,,,,,,,,,,,,,,SYN06472208 32666 41709 10256 20178 30251 40267 56017 92056 555 91921=,,,,,,,,,,,,,,,,,,,,,,,,,,,,2009-06-10
72208013880,2018-02-19T16:56:00,FM-15,7,,SE,0.25,mi,"TEMP, PRECIP, SNOW",,,"MMTS, SRG, SNOWBOARD",,,WFO CHS,,,,,,,,,,,,,,,,,,,,,,,,,,,30.32,65,76,0.00,,,,69,30.32,FEW:02 32 SCT:04 38 SCT:04 48,30.27,10.00,69,150,,13,,,,,,,,,,,,,,,,,,,,,,,,,,,,,,,,,,,,,MET11502/19/18 16:56:02 METAR KCHS 192156Z 15011KT 10SM FEW032 SCT038 SCT048 24/18 A3032 RMK AO2 SLP268 T02440183 $ (BBE),,,,,,,,,,,,,,,,,,,,,,,,,,,,2009-06-10
72208013880,2018-02-19T17:56:00,FM-15,7,,SE,0.25,mi,"TEMP, PRECIP, SNOW",,,"MMTS, SRG, SNOWBOARD",,,WFO CHS,,,,,,,,,,,,,,,,,,,,,,,,,,,30.34,65,72,0.00,,,,79,30.34,FEW:02 30 FEW:02 45 SCT:04 250,30.29,10.00,68,150,,8,,,,,,,,,,,,,,,,,,,,,,,,,,,,,,,,,,,,,MET11502/19/18 17:56:02 METAR KCHS 192256Z 15007KT 10SM FEW030 FEW045 SCT250 22/18 A3034 RMK AO2 SLP273 T02220183 $ (BBE),,,,,,,,,,,,,,,,,,,,,,,,,,,,2009-06-10
72208013880,2018-02-20T12:56:00,FM-15,7,,SE,0.25,mi,"TEMP, PRECIP, SNOW",,,"MMTS, SRG, SNOWBOARD",,,WFO CHS,,,,,,,,,,,,,,,,,,,,,,,,,,,30.41,64,79,0.00,,+0.04,8,60,30.41,SCT:04 35 BKN:07 45,30.36,10.00,69,170,21,17,,,,,,,,,,,,,,,,,,,,,,,,,,,,,,,,,,,,,MET12702/20/18 12:56:02 METAR KCHS 201756Z 17015G18KT 10SM SCT035 BKN045 26/18 A3041 RMK AO2 SLP297 T02610178 10272 20150 58013 (JMB),,,,,,,,,,,,,,,,,,,,,,,,,,,,2009-06-10
72208013880,2018-02-20T13:00:00,FM-12,4,,SE,0.25,mi,"TEMP, PRECIP, SNOW",,,"MMTS, SRG, SNOWBOARD",,,WFO CHS,,,,,,,,,,,,,,,,,,,,,,,,,,,30.41,64,79,,,+0.04,8,60,30.41,41,30.36,9.94,69,170,,17,,,,,,,,,,,,,,,,,,,,,,,,,,,,,,,,,,,,,SYN08672208 32666 61715 10261 20178 30282 40297 58013 91756 333 10272 20150 91018 555 92018=,,,,,,,,,,,,,,,,,,,,,,,,,,,,2009-06-10
72208013880,2018-02-20T14:56:00,FM-15,7,,SE,0.25,mi,"TEMP, PRECIP, SNOW",,,"MMTS, SRG, SNOWBOARD",,,WFO CHS,,,,,,,,,,,,,,,,,,,,,,,,,,,30.39,65,76,0.00,,,,69,30.38,BKN:07 40 BKN:07 55,30.34,10.00,69,170,,16,,,,,,,,,,,,,,,,,,,,,,,,,,,,,,,,,,,,,MET10602/20/18 14:56:02 METAR KCHS 201956Z 17014KT 10SM BKN040 BKN055 24/18 A3039 RMK AO2 SLP289 T02440183 (JMB),,,,,,,,,,,,,,,,,,,,,,,,,,,,2009-06-10
72208013880,2018-02-20T16:56:00,FM-15,7,,SE,0.25,mi,"TEMP, PRECIP, SNOW",,,"MMTS, SRG, SNOWBOARD",,,WFO CHS,,,,,,,,,,,,,,,,,,,,,,,,,,,30.39,65,76,0.00,,,,69,30.39,SCT:04 24 BKN:07 60,30.34,10.00,69,150,,16,,,,,,,,,,,,,,,,,,,,,,,,,,,,,,,,,,,,,MET10602/20/18 16:56:02 METAR KCHS 202156Z 15014KT 10SM SCT024 BKN060 24/18 A3039 RMK AO2 SLP291 T02440183 (BBE),,,,,,,,,,,,,,,,,,,,,,,,,,,,2009-06-10
72208013880,2018-02-20T17:56:00,FM-15,7,,SE,0.25,mi,"TEMP, PRECIP, SNOW",,,"MMTS, SRG, SNOWBOARD",,,WFO CHS,,,,,,,,,,,,,,,,,,,,,,,,,,,30.41,65,73,0.00,,,,76,30.41,FEW:02 20 BKN:07 60,30.36,10.00,68,170,,10,,,,,,,,,,,,,,,,,,,,,,,,,,,,,,,,,,,,,MET10602/20/18 17:56:02 METAR KCHS 202256Z 17009KT 10SM FEW020 BKN060 23/18 A3041 RMK AO2 SLP297 T02280183 (BBE),,,,,,,,,,,,,,,,,,,,,,,,,,,,2009-06-10
72208013880,2018-02-21T11:56:00,FM-15,7,,SE,0.25,mi,"TEMP, PRECIP, SNOW",,,"MMTS, SRG, SNOWBOARD",,,WFO CHS,,,,,,,,,,,,,,,,,,,,,,,,,,,30.46,68,77,0.00,,,,74,30.46,SCT:04 20 BKN:07 50,30.41,10.00,71,170,,13,,,,,,,,,,,,,,,,,,,,,,,,,,,,,,,,,,,,,MET10602/21/18 11:56:02 METAR KCHS 211656Z 17011KT 10SM SCT020 BKN050 25/20 A3046 RMK AO2 SLP314 T02500200 (JMB),,,,,,,,,,,,,,,,,,,,,,,,,,,,2009-06-10
72208013880,2018-02-21T13:56:00,FM-15,7,,SE,0.25,mi,"TEMP, PRECIP, SNOW",,,"MMTS, SRG, SNOWBOARD",,,WFO CHS,,,,,,,,,,,,,,,,,,,,,,,,,,,30.42,68,77,T,-RA:02 |RA |,,,74,30.42,SCT:04 25 BKN:07 35 BKN:07 60,30.37,10.00,71,170,,14,,,,,,,,,,,,,,,,,,,,,,,,,,,,,,,,,,,,,MET12902/21/18 13:56:02 METAR KCHS 211856Z 17012KT 10SM -RA SCT025 BKN035 BKN060 25/20 A3042 RMK AO2 RAB18 SLP301 P0000 T02500200 (JMB),,,,,,,,,,,,,,,,,,,,,,,,,,,,2009-06-10
72208013880,2018-02-21T15:56:00,FM-15,7,,SE,0.25,mi,"TEMP, PRECIP, SNOW",,,"MMTS, SRG, SNOWBOARD",,,WFO CHS,,,,,,,,,,,,,,,,,,,,,,,,,,,30.41,66,78,0.00,,+0.03,6,67,30.41,FEW:02 27 SCT:04 45 BKN:07 60,30.36,10.00,70,170,,15,,,,,,,,,,,,,,,,,,,,,,,,,,,,,,,,,,,,,MET12502/21/18 15:56:02 METAR KCHS 212056Z 17013KT 10SM FEW027 SCT045 BKN060 26/19 A3041 RMK AO2 SLP297 60000 T02560189 56009 (BBE),,,,,,,,,,,,,,,,,,,,,,,,,,,,2009-06-10
72208013880,2018-02-21T16:00:00,FM-12,4,,SE,0.25,mi,"TEMP, PRECIP, SNOW",,,"MMTS, SRG, SNOWBOARD",,,WFO CHS,,,,,,,,,,,,,,,,,,,,,,,,,,,30.41,66,78,,,+0.03,6,67,30.41,26,30.36,9.94,70,170,,15,,,,,,,,,,,,,,,,,,,,,,,,,,,,,,,,,,,,,SYN07072208 12566 61713 10256 20189 30282 40297 56009 69907 92056 555 92121=,,,,,,,,,,,,,,,,,,,,,,,,,,,,2009-06-10
72208013880,2018-02-21T17:56:00,FM-15,7,,SE,0.25,mi,"TEMP, PRECIP, SNOW",,,"MMTS, SRG, SNOWBOARD",,,WFO CHS,,,,,,,,,,,,,,,,,,,,,,,,,,,30.41,66,74,0.00,,,,76,30.41,FEW:02 55,30.36,10.00,69,160,,11,,,,,,,,,,,,,,,,,,,,,,,,,,,,,,,,,,,,,MET09902/21/18 17:56:02 METAR KCHS 212256Z 16010KT 10SM FEW055 23/19 A3041 RMK AO2 SLP298 T02330189 (BBE),,,,,,,,,,,,,,,,,,,,,,,,,,,,2009-06-10
72208013880,2018-02-22T14:56:00,FM-15,7,,SE,0.25,mi,"TEMP, PRECIP, SNOW",,,"MMTS, SRG, SNOWBOARD",,,WFO CHS,,,,,,,,,,,,,,,,,,,,,,,,,,,30.41,57,81,0.00,,,,44,30.41,FEW:02 50 FEW:02 250,30.36,10.00,66,170,,9,,,,,,,,,,,,,,,,,,,,,,,,,,,,,,,,,,,,,MET10602/22/18 14:56:02 METAR KCHS 221956Z 17008KT 10SM FEW050 FEW250 27/14 A3041 RMK AO2 SLP297 T02720139 (JMB),,,,,,,,,,,,,,,,,,,,,,,,,,,,2009-06-10
72208013880,2018-02-22T15:56:00,FM-15,7,,SE,0.25,mi,"TEMP, PRECIP, SNOW",,,"MMTS, SRG, SNOWBOARD",,,WFO CHS,,,,,,,,,,,,,,,,,,,,,,,,,,,30.40,57,81,0.00,,+0.05,6,44,30.39,FEW:02 50,30.35,10.00,66,170,,8,,,,,,,,,,,,,,,,,,,,,,,,,,,,,,,,,,,,,MET10502/22/18 15:56:02 METAR KCHS 222056Z 17007KT 10SM FEW050 27/14 A3040 RMK AO2 SLP292 T02720139 56018 (BBE),,,,,,,,,,,,,,,,,,,,,,,,,,,,2009-06-10
72208013880,2018-02-22T16:00:00,FM-12,4,,SE,0.25,mi,"TEMP, PRECIP, SNOW",,,"MMTS, SRG, SNOWBOARD",,,WFO CHS,,,,,,,,,,,,,,,,,,,,,,,,,,,30.40,57,81,,,+0.05,6,44,30.39,57,30.35,9.94,66,170,,8,,,,,,,,,,,,,,,,,,,,,,,,,,,,,,,,,,,,,SYN06472208 32766 21707 10272 20139 30278 40292 56018 92056 555 92221=,,,,,,,,,,,,,,,,,,,,,,,,,,,,2009-06-10
72208013880,2018-02-22T17:56:00,FM-15,7,,SE,0.25,mi,"TEMP, PRECIP, SNOW",,,"MMTS, SRG, SNOWBOARD",,,WFO CHS,,,,,,,,,,,,,,,,,,,,,,,,,,,30.41,60,74,0.00,,,,62,30.41,CLR:00,30.36,10.00,65,170,,13,,,,,,,,,,,,,,,,,,,,,,,,,,,,,,,,,,,,,MET09602/22/18 17:56:02 METAR KCHS 222256Z 17011KT 10SM CLR 23/16 A3041 RMK AO2 SLP297 T02330156 (BBE),,,,,,,,,,,,,,,,,,,,,,,,,,,,2009-06-10
72208013880,2018-02-23T14:56:00,FM-15,7,,SE,0.25,mi,"TEMP, PRECIP, SNOW",,,"MMTS, SRG, SNOWBOARD",,,WFO CHS,,,,,,,,,,,,,,,,,,,,,,,,,,,30.35,60,81,0.00,,,,49,30.35,SCT:04 35 SCT:04 60,30.29,10.00,68,170,,10,,,,,,,,,,,,,,,,,,,,,,,,,,,,,,,,,,,,,MET10602/23/18 14:56:02 METAR KCHS 231956Z 17009KT 10SM SCT035 SCT060 27/16 A3035 RMK AO2 SLP276 T02720156 (JRS),,,,,,,,,,,,,,,,,,,,,,,,,,,,2009-06-10
72208013880,2018-02-23T17:56:00,FM-15,7,,SE,0.25,mi,"TEMP, PRECIP, SNOW",,,"MMTS, SRG, SNOWBOARD",,,WFO CHS,,,,,,,,,,,,,,,,,,,,,,,,,,,30.34,62,71,0.00,,,,73,30.34,FEW:02 75,30.29,10.00,65,150,,13,,,,,,,,,,,,,,,,,,,,,,,,,,,,,,,,,,,,,MET09902/23/18 17:56:02 METAR KCHS 232256Z 15011KT 10SM FEW075 22/17 A3034 RMK AO2 SLP273 T02170167 (MBT),,,,,,,,,,,,,,,,,,,,,,,,,,,,2009-06-10
72208013880,2018-02-28T13:56:00,FM-15,7,,SE,0.25,mi,"TEMP, PRECIP, SNOW",,,"MMTS, SRG, SNOWBOARD",,,WFO CHS,,,,,,,,,,,,,,,,,,,,,,,,,,,30.10,56,67,0.00,,,,68,30.09,FEW:02 45 BKN:07 100 OVC:08 200,30.05,10.00,61,160,,11,,,,,,,,,,,,,,,,,,,,,,,,,,,,,,,,,,,,,MET11302/28/18 13:56:02 METAR KCHS 281856Z 16010KT 10SM FEW045 BKN100 OVC200 19/13 A3010 RMK AO2 SLP191 T01940133 (JMB),,,,,,,,,,,,,,,,,,,,,,,,,,,,2009-06-10
72208013880,2018-02-28T14:56:00,FM-15,7,,SE,0.25,mi,"TEMP, PRECIP, SNOW",,,"MMTS, SRG, SNOWBOARD",,,WFO CHS,,,,,,,,,,,,,,,,,,,,,,,,,,,30.07,57,68,0.00,,,,68,30.06,FEW:02 40 SCT:04 120 OVC:08 200,30.02,10.00,62,170,,10,,,,,,,,,,,,,,,,,,,,,,,,,,,,,,,,,,,,,MET11302/28/18 14:56:02 METAR KCHS 281956Z 17009KT 10SM FEW040 SCT120 OVC200 20/14 A3007 RMK AO2 SLP181 T02000139 (JMB),,,,,,,,,,,,,,,,,,,,,,,,,,,,2009-06-10
72208013880,2018-03-05T15:56:00,FM-15,7,,SE,0.25,mi,"TEMP, PRECIP, SNOW",,,"MMTS, SRG, SNOWBOARD",,,WFO CHS,,,,,,,,,,,,,,,,,,,,,,,,,,,30.05,39,59,0.00,,+0.04,6,48,30.05,BKN:07 120 BKN:07 250,30.00,10.00,49,150,,13,,,,,,,,,,,,,,,,,,,,,,,,,,,,,,,,,,,,,MET11203/05/18 15:56:02 METAR KCHS 052056Z 15011KT 10SM BKN120 BKN250 15/04 A3005 RMK AO2 SLP176 T01500039 56015 (BBE),,,,,,,,,,,,,,,,,,,,,,,,,,,,2009-06-10
72208013880,2018-03-05T16:00:00,FM-12,4,,SE,0.25,mi,"TEMP, PRECIP, SNOW",,,"MMTS, SRG, SNOWBOARD",,,WFO CHS,,,,,,,,,,,,,,,,,,,,,,,,,,,30.05,39,59,,,+0.04,6,48,30.05,,30.00,9.94,49,150,,13,,,,,,,,,,,,,,,,,,,,,,,,,,,,,,,,,,,,,SYN06472208 32966 61511 10150 20039 30160 40176 56015 92056 555 90521=,,,,,,,,,,,,,,,,,,,,,,,,,,,,2009-06-10
72208013880,2018-03-11T15:56:00,FM-15,7,,SE,0.25,mi,"TEMP, PRECIP, SNOW",,,"MMTS, SRG, SNOWBOARD",,,WFO CHS,,,,,,,,,,,,,,,,,,,,,,,,,,,29.86,47,70,0.00,,+0.04,6,44,29.85,FEW:02 55 SCT:04 120 OVC:08 200,29.81,10.00,57,170,,13,,,,,,,,,,,,,,,,,,,,,,,,,,,,,,,,,,,,,MET12703/11/18 15:56:02 METAR KCHS 112056Z 17011KT 10SM FEW055 SCT120 OVC200 21/08 A2986 RMK AO2 SLP110 60000 T02110083 56015 $ (JRS),,,,,,,,,,,,,,,,,,,,,,,,,,,,2009-06-10
72208013880,2018-03-11T16:00:00,FM-12,4,,SE,0.25,mi,"TEMP, PRECIP, SNOW",,,"MMTS, SRG, SNOWBOARD",,,WFO CHS,,,,,,,,,,,,,,,,,,,,,,,,,,,29.86,47,70,,,+0.04,6,44,29.85,57,29.81,9.94,57,170,,13,,,,,,,,,,,,,,,,,,,,,,,,,,,,,,,,,,,,,SYN07072208 12766 81711 10211 20083 30096 40110 56015 69907 92056 555 91121=,,,,,,,,,,,,,,,,,,,,,,,,,,,,2009-06-10
72208013880,2018-03-19T15:56:00,FM-15,7,,SE,0.25,mi,"TEMP, PRECIP, SNOW",,,"MMTS, SRG, SNOWBOARD",,,WFO CHS,,,,,,,,,,,,,,,,,,,,,,,,,,,29.75,59,69,0.00,,+0.05,5,70,29.75,BKN:07 20 OVC:08 33,29.70,10.00,63,160,,11,,,,,,,,,,,,,,,,,,,,,,,,,,,,,,,,,,,,,MET11203/19/18 15:56:02 METAR KCHS 192056Z 16010KT 10SM BKN020 OVC033 21/15 A2975 RMK AO2 SLP074 T02060150 55018 (BBE),,,,,,,,,,,,,,,,,,,,,,,,,,,,2009-06-10
72208013880,2018-03-19T16:00:00,FM-12,4,,SE,0.25,mi,"TEMP, PRECIP, SNOW",,,"MMTS, SRG, SNOWBOARD",,,WFO CHS,,,,,,,,,,,,,,,,,,,,,,,,,,,29.75,59,69,,,+0.05,5,70,29.75,26,29.70,9.94,63,160,,11,,,,,,,,,,,,,,,,,,,,,,,,,,,,,,,,,,,,,SYN06472208 32566 81610 10206 20150 30058 40074 55018 92056 555 91921=,,,,,,,,,,,,,,,,,,,,,,,,,,,,2009-06-10
72208013880,2018-03-19T16:08:00,FM-16,7,,SE,0.25,mi,"TEMP, PRECIP, SNOW",,,"MMTS, SRG, SNOWBOARD",,,WFO CHS,,,,,,,,,,,,,,,,,,,,,,,,,,,29.76,59,69,,,,,70,,SCT:04 20 OVC:08 35,29.71,10.00,63,150,,10,,,,,,,,,,,,,,,,,,,,,,,,,,,,,,,,,,,,,MET09903/19/18 16:08:02 SPECI KCHS 192108Z 15009KT 10SM SCT020 OVC035 21/15 A2976 RMK AO2 T02060150 (BBE),,,,,,,,,,,,,,,,,,,,,,,,,,,,2009-06-10
72208013880,2018-03-20T15:32:00,FM-16,7,,SE,0.25,mi,"TEMP, PRECIP, SNOW",,,"MMTS, SRG, SNOWBOARD",,,WFO CHS,,,,,,,,,,,,,,,,,,,,,,,,,,,29.44,62,66,0.45,TS:7 |TS TS |,,,87,,SCT:04 10 SCT:04 20 OVC:08 100,29.39,10.00,64,170,,8,,,,,,,,,,,,,,,,,,,,,,,,,,,,,,,,,,,,,MET18603/20/18 15:32:02 SPECI KCHS 202032Z 17007KT 10SM TS SCT010CB SCT020 OVC100 19/17 A2944 RMK AO2 PK WND 21032/2005 LTG DSNT ALQDS RAE20 OCNL LTGIC E-SE TS E-SE MOV E P0045 T01890167 (BBE),,,,,,,,,,,,,,,,,,,,,,,,,,,,2009-06-10
72208013880,2018-03-24T13:56:00,FM-15,7,,SE,0.25,mi,"TEMP, PRECIP, SNOW",,,"MMTS, SRG, SNOWBOARD",,,WFO CHS,,,,,,,,,,,,,,,,,,,,,,,,,,,30.11,41,62,0.00,,,,46,30.11,SCT:04 110 SCT:04 250,30.06,10.00,51,150,23,11,,,,,,,,,,,,,,,,,,,,,,,,,,,,,,,,,,,,,MET10903/24/18 13:56:02 METAR KCHS 241856Z 15010G20KT 10SM SCT110 SCT250 17/05 A3011 RMK AO2 SLP196 T01670050 (JRS),,,,,,,,,,,,,,,,,,,,,,,,,,,,2009-06-10
72208013880,2018-03-24T14:56:00,FM-15,7,,SE,0.25,mi,"TEMP, PRECIP, SNOW",,,"MMTS, SRG, SNOWBOARD",,,WFO CHS,,,,,,,,,,,,,,,,,,,,,,,,,,,30.09,44,65,0.00,,,,47,30.09,FEW:02 110 SCT:04 250,30.04,10.00,54,150,,13,,,,,,,,,,,,,,,,,,,,,,,,,,,,,,,,,,,,,MET10603/24/18 14:56:02 METAR KCHS 241956Z 15011KT 10SM FEW110 SCT250 18/07 A3009 RMK AO2 SLP188 T01830067 (JRS),,,,,,,,,,,,,,,,,,,,,,,,,,,,2009-06-10
72208013880,2018-04-01T14:56:00,FM-15,7,,SE,0.25,mi,"TEMP, PRECIP, SNOW",,,"MMTS, SRG, SNOWBOARD",,,WFO CHS,,,,,,,,,,,,,,,,,,,,,,,,,,,30.07,54,78,0.00,,,,43,30.07,SCT:04 200,30.02,10.00,64,160,,10,,,,,,,,,,,,,,,,,,,,,,,,,,,,,,,,,,,,,MET09904/01/18 14:56:02 METAR KCHS 011956Z 16009KT 10SM SCT200 26/12 A3007 RMK AO2 SLP182 T02560122 (JRS),,,,,,,,,,,,,,,,,,,,,,,,,,,,2009-06-10
72208013880,2018-04-01T15:56:00,FM-15,7,,SE,0.25,mi,"TEMP, PRECIP, SNOW",,,"MMTS, SRG, SNOWBOARD",,,WFO CHS,,,,,,,,,,,,,,,,,,,,,,,,,,,30.05,56,76,0.00,,+0.07,6,50,30.05,BKN:07 250,30.00,10.00,64,150,,17,,,,,,,,,,,,,,,,,,,,,,,,,,,,,,,,,,,,,MET10504/01/18 15:56:02 METAR KCHS 012056Z 15015KT 10SM BKN250 24/13 A3005 RMK AO2 SLP176 T02440133 56025 (JRS),,,,,,,,,,,,,,,,,,,,,,,,,,,,2009-06-10
72208013880,2018-04-01T16:00:00,FM-12,4,,SE,0.25,mi,"TEMP, PRECIP, SNOW",,,"MMTS, SRG, SNOWBOARD",,,WFO CHS,,,,,,,,,,,,,,,,,,,,,,,,,,,30.05,56,76,,,+0.07,6,50,30.05,,30.00,9.94,64,150,,17,,,,,,,,,,,,,,,,,,,,,,,,,,,,,,,,,,,,,SYN06472208 32966 61515 10244 20133 30160 40176 56025 92056 555 90121=,,,,,,,,,,,,,,,,,,,,,,,,,,,,2009-06-10
72208013880,2018-04-02T16:56:00,FM-15,7,,SE,0.25,mi,"TEMP, PRECIP, SNOW",,,"MMTS, SRG, SNOWBOARD",,,WFO CHS,,,,,,,,,,,,,,,,,,,,,,,,,,,29.98,62,77,0.00,,,,60,29.98,BKN:07 250,29.93,10.00,68,170,,13,,,,,,,,,,,,,,,,,,,,,,,,,,,,,,,,,,,,,MET09904/02/18 16:56:02 METAR KCHS 022156Z 17011KT 10SM BKN250 25/17 A2998 RMK AO2 SLP151 T02500167 (BBE),,,,,,,,,,,,,,,,,,,,,,,,,,,,2009-06-10
72208013880,2018-04-05T16:56:00,FM-15,7,,SE,0.25,mi,"TEMP, PRECIP, SNOW",,,"MMTS, SRG, SNOWBOARD",,,WFO CHS,,,,,,,,,,,,,,,,,,,,,,,,,,,30.15,40,62,0.00,,,,44,30.14,CLR:00,30.10,10.00,51,170,,13,,,,,,,,,,,,,,,,,,,,,,,,,,,,,,,,,,,,,MET09604/05/18 16:56:02 METAR KCHS 052156Z 17011KT 10SM CLR 17/04 A3015 RMK AO2 SLP208 T01670044 (BBE),,,,,,,,,,,,,,,,,,,,,,,,,,,,2009-06-10
72208013880,2018-04-05T17:56:00,FM-15,7,,SE,0.25,mi,"TEMP, PRECIP, SNOW",,,"MMTS, SRG, SNOWBOARD",,,WFO CHS,,,,,,,,,,,,,,,,,,,,,,,,,,,30.16,39,59,0.00,,,,48,30.15,FEW:02 250,30.11,10.00,49,170,,9,,,,,,,,,,,,,,,,,,,,,,,,,,,,,,,,,,,,,MET09904/05/18 17:56:02 METAR KCHS 052256Z 17008KT 10SM FEW250 15/04 A3016 RMK AO2 SLP211 T01500039 (BBE),,,,,,,,,,,,,,,,,,,,,,,,,,,,2009-06-10
72208013880,2018-04-08T17:56:00,FM-15,7,,SE,0.25,mi,"TEMP, PRECIP, SNOW",,,"MMTS, SRG, SNOWBOARD",,,WFO CHS,,,,,,,,,,,,,,,,,,,,,,,,,,,30.01,40,53,0.00,,,,61,30.00,FEW:02 150 SCT:04 200,29.96,10.00,47,150,,13,,,,,,,,,,,,,,,,,,,,,,,,,,,,,,,,,,,,,MET10804/08/18 17:56:02 METAR KCHS 082256Z 15011KT 10SM FEW150 SCT200 12/04 A3001 RMK AO2 SLP160 T01170044 $ (JRS),,,,,,,,,,,,,,,,,,,,,,,,,,,,2009-06-10
72208013880,2018-04-11T15:56:00,FM-15,7,,SE,0.25,mi,"TEMP, PRECIP, SNOW",,,"MMTS, SRG, SNOWBOARD",,,WFO CHS,,,,,,,,,,,,,,,,,,,,,,,,,,,30.16,43,66,0.00,,-0.00,0,43,30.15,FEW:02 55 SCT:04 250,30.11,10.00,54,150,20,10,,,,,,,,,,,,,,,,,,,,,,,,,,,,,,,,,,,,,MET11504/11/18 15:56:02 METAR KCHS 112056Z 15009G17KT 10SM FEW055 SCT250 19/06 A3016 RMK AO2 SLP211 T01890061 50001 (BBE),,,,,,,,,,,,,,,,,,,,,,,,,,,,2009-06-10
72208013880,2018-04-11T16:00:00,FM-12,4,,SE,0.25,mi,"TEMP, PRECIP, SNOW",,,"MMTS, SRG, SNOWBOARD",,,WFO CHS,,,,,,,,,,,,,,,,,,,,,,,,,,,30.16,43,66,,,0.00,9,43,30.15,57,30.11,9.94,54,150,,10,,,,,,,,,,,,,,,,,,,,,,,,,,,,,,,,,,,,,SYN07472208 32766 41509 10189 20061 30197 40211 50001 92056 333 91017 555 91121=,,,,,,,,,,,,,,,,,,,,,,,,,,,,2009-06-10
72208013880,2018-04-11T16:56:00,FM-15,7,,SE,0.25,mi,"TEMP, PRECIP, SNOW",,,"MMTS, SRG, SNOWBOARD",,,WFO CHS,,,,,,,,,,,,,,,,,,,,,,,,,,,30.16,43,65,0.00,,,,45,30.16,FEW:02 65 SCT:04 250,30.11,10.00,54,150,,11,,,,,,,,,,,,,,,,,,,,,,,,,,,,,,,,,,,,,MET10604/11/18 16:56:02 METAR KCHS 112156Z 15010KT 10SM FEW065 SCT250 18/06 A3016 RMK AO2 SLP212 T01830061 (BBE),,,,,,,,,,,,,,,,,,,,,,,,,,,,2009-06-10
72208013880,2018-04-12T12:56:00,FM-15,7,,SE,0.25,mi,"TEMP, PRECIP, SNOW",,,"MMTS, SRG, SNOWBOARD",,,WFO CHS,,,,,,,,,,,,,,,,,,,,,,,,,,,30.23,49,74,0.00,,+0.04,8,41,30.23,FEW:02 50 FEW:02 250,30.18,10.00,60,160,,11,,,,,,,,,,,,,,,,,,,,,,,,,,,,,,,,,,,,,MET11404/12/18 12:56:02 METAR KCHS 121756Z 16010KT 10SM FEW050 FEW250 23/09 A3023 RMK AO2 SLP237 T02330094 58015 $ (JMB),,,,,,,,,,,,,,,,,,,,,,,,,,,,2009-06-10
72208013880,2018-04-12T13:00:00,FM-12,4,,SE,0.25,mi,"TEMP, PRECIP, SNOW",,,"MMTS, SRG, SNOWBOARD",,,WFO CHS,,,,,,,,,,,,,,,,,,,,,,,,,,,30.23,49,74,,,+0.04,8,41,30.23,57,30.18,9.94,60,160,,11,,,,,,,,,,,,,,,,,,,,,,,,,,,,,,,,,,,,,SYN06472208 32766 21610 10233 20094 30221 40237 58015 91756 555 91218=,,,,,,,,,,,,,,,,,,,,,,,,,,,,2009-06-10
72208013880,2018-04-12T14:56:00,FM-15,7,,SE,0.25,mi,"TEMP, PRECIP, SNOW",,,"MMTS, SRG, SNOWBOARD",,,WFO CHS,,,,,,,,,,,,,,,,,,,,,,,,,,,30.19,50,74,0.00,,,,43,30.19,FEW:02 50 FEW:02 250,30.14,10.00,60,160,,14,,,,,,,,,,,,,,,,,,,,,,,,,,,,,,,,,,,,,MET10604/12/18 14:56:02 METAR KCHS 121956Z 16012KT 10SM FEW050 FEW250 23/10 A3019 RMK AO2 SLP223 T02330100 (BBE),,,,,,,,,,,,,,,,,,,,,,,,,,,,2009-06-10
72208013880,2018-04-12T15:56:00,FM-15,7,,SE,0.25,mi,"TEMP, PRECIP, SNOW",,,"MMTS, SRG, SNOWBOARD",,,WFO CHS,,,,,,,,,,,,,,,,,,,,,,,,,,,30.17,47,73,0.00,,+0.06,6,40,30.17,FEW:02 55 FEW:02 250,30.12,10.00,59,170,,11,,,,,,,,,,,,,,,,,,,,,,,,,,,,,,,,,,,,,MET11204/12/18 15:56:02 METAR KCHS 122056Z 17010KT 10SM FEW055 FEW250 23/08 A3017 RMK AO2 SLP217 T02280083 56021 (BBE),,,,,,,,,,,,,,,,,,,,,,,,,,,,2009-06-10
72208013880,2018-04-12T16:00:00,FM-12,4,,SE,0.25,mi,"TEMP, PRECIP, SNOW",,,"MMTS, SRG, SNOWBOARD",,,WFO CHS,,,,,,,,,,,,,,,,,,,,,,,,,,,30.17,47,73,,,+0.06,6,40,30.17,57,30.12,9.94,59,170,,11,,,,,,,,,,,,,,,,,,,,,,,,,,,,,,,,,,,,,SYN06472208 32766 21710 10228 20083 30201 40217 56021 92056 555 91221=,,,,,,,,,,,,,,,,,,,,,,,,,,,,2009-06-10
72208013880,2018-04-26T14:56:00,FM-15,7,,SE,0.25,mi,"TEMP, PRECIP, SNOW",,,"MMTS, SRG, SNOWBOARD",,,WFO CHS,,,,,,,,,,,,,,,,,,,,,,,,,,,29.82,57,77,0.00,,,,50,29.82,FEW:02 45 SCT:04 250,29.77,10.00,65,170,,9,,,,,,,,,,,,,,,,,,,,,,,,,,,,,,,,,,,,,MET10804/26/18 14:56:02 METAR KCHS 261956Z 17008KT 10SM FEW045 SCT250 25/14 A2982 RMK AO2 SLP098 T02500139 $ (BBE),,,,,,,,,,,,,,,,,,,,,,,,,,,,2009-06-10
72208013880,2018-04-30T15:56:00,FM-15,7,,SE,0.25,mi,"TEMP, PRECIP, SNOW",,,"MMTS, SRG, SNOWBOARD",,,WFO CHS,,,,,,,,,,,,,,,,,,,,,,,,,,,30.22,42,74,0.00,,+0.06,6,32,30.22,CLR:00,30.17,10.00,57,160,,10,,,,,,,,,,,,,,,,,,,,,,,,,,,,,,,,,,,,,MET10204/30/18 15:56:02 METAR KCHS 302056Z 16009KT 10SM CLR 23/06 A3022 RMK AO2 SLP233 T02330056 56021 (BBE),,,,,,,,,,,,,,,,,,,,,,,,,,,,2009-06-10
72208013880,2018-04-30T16:00:00,FM-12,4,,SE,0.25,mi,"TEMP, PRECIP, SNOW",,,"MMTS, SRG, SNOWBOARD",,,WFO CHS,,,,,,,,,,,,,,,,,,,,,,,,,,,30.22,42,74,,,+0.06,6,32,30.22,,30.17,9.94,57,160,,10,,,,,,,,,,,,,,,,,,,,,,,,,,,,,,,,,,,,,SYN06472208 32966 01609 10233 20056 30217 40233 56021 92056 555 93021=,,,,,,,,,,,,,,,,,,,,,,,,,,,,2009-06-10
72208013880,2018-04-30T16:56:00,FM-15,7,,SE,0.25,mi,"TEMP, PRECIP, SNOW",,,"MMTS, SRG, SNOWBOARD",,,WFO CHS,,,,,,,,,,,,,,,,,,,,,,,,,,,30.22,42,73,0.00,,,,33,30.22,CLR:00,30.17,10.00,57,170,,13,,,,,,,,,,,,,,,,,,,,,,,,,,,,,,,,,,,,,MET09604/30/18 16:56:02 METAR KCHS 302156Z 17011KT 10SM CLR 23/06 A3022 RMK AO2 SLP232 T02280056 (BBE),,,,,,,,,,,,,,,,,,,,,,,,,,,,2009-06-10
72208013880,2018-05-01T15:56:00,FM-15,7,,SE,0.25,mi,"TEMP, PRECIP, SNOW",,,"MMTS, SRG, SNOWBOARD",,,WFO CHS,,,,,,,,,,,,,,,,,,,,,,,,,,,30.25,43,79,0.00,,+0.05,7,28,30.25,CLR:00,30.20,10.00,59,170,,11,,,,,,,,,,,,,,,,,,,,,,,,,,,,,,,,,,,,,MET10205/01/18 15:56:02 METAR KCHS 012056Z 17010KT 10SM CLR 26/06 A3025 RMK AO2 SLP243 T02610061 57016 (BBE),,,,,,,,,,,,,,,,,,,,,,,,,,,,2009-06-10
72208013880,2018-05-01T16:00:00,FM-12,4,,SE,0.25,mi,"TEMP, PRECIP, SNOW",,,"MMTS, SRG, SNOWBOARD",,,WFO CHS,,,,,,,,,,,,,,,,,,,,,,,,,,,30.25,43,79,,,+0.05,7,28,30.25,,30.20,9.94,59,170,,11,,,,,,,,,,,,,,,,,,,,,,,,,,,,,,,,,,,,,SYN06472208 32966 01710 10261 20061 30228 40243 57016 92056 555 90121=,,,,,,,,,,,,,,,,,,,,,,,,,,,,2009-06-10
72208013880,2018-05-05T13:56:00,FM-15,7,,SE,0.25,mi,"TEMP, PRECIP, SNOW",,,"MMTS, SRG, SNOWBOARD",,,WFO CHS,,,,,,,,,,,,,,,,,,,,,,,,,,,30.04,64,83,0.00,,,,53,30.04,SCT:04 47 BKN:07 200,29.99,10.00,71,160,,10,,,,,,,,,,,,,,,,,,,,,,,,,,,,,,,,,,,,,MET10505/05/18 13:56:02 METAR KCHS 051856Z 16009KT 10SM SCT047 BKN200 28/18 A3004 RMK AO2 SLP172 T02830178 (MH),,,,,,,,,,,,,,,,,,,,,,,,,,,,2009-06-10
72208013880,2018-05-05T14:56:00,FM-15,7,,SE,0.25,mi,"TEMP, PRECIP, SNOW",,,"MMTS, SRG, SNOWBOARD",,,WFO CHS,,,,,,,,,,,,,,,,,,,,,,,,,,,30.03,63,83,0.00,,,,51,30.03,FEW:02 48 SCT:04 60 BKN:07 200,29.98,10.00,70,150,,11,,,,,,,,,,,,,,,,,,,,,,,,,,,,,,,,,,,,,MET11305/05/18 14:56:02 METAR KCHS 051956Z 15010KT 10SM FEW048 SCT060 BKN200 28/17 A3003 RMK AO2 SLP168 T02830172 (JRS),,,,,,,,,,,,,,,,,,,,,,,,,,,,2009-06-10
72208013880,2018-05-05T15:56:00,FM-15,7,,SE,0.25,mi,"TEMP, PRECIP, SNOW",,,"MMTS, SRG, SNOWBOARD",,,WFO CHS,,,,,,,,,,,,,,,,,,,,,,,,,,,30.03,65,82,0.00,,+0.03,6,56,30.02,FEW:02 40 SCT:04 60 BKN:07 200,29.98,10.00,71,160,,9,,,,,,,,,,,,,,,,,,,,,,,,,,,,,,,,,,,,,MET11905/05/18 15:56:02 METAR KCHS 052056Z 16008KT 10SM FEW040 SCT060 BKN200 28/18 A3003 RMK AO2 SLP167 T02780183 56011 (JRS),,,,,,,,,,,,,,,,,,,,,,,,,,,,2009-06-10
72208013880,2018-05-05T16:00:00,FM-12,4,,SE,0.25,mi,"TEMP, PRECIP, SNOW",,,"MMTS, SRG, SNOWBOARD",,,WFO CHS,,,,,,,,,,,,,,,,,,,,,,,,,,,30.03,65,82,,,+0.03,6,56,30.02,41,29.98,9.94,71,160,,9,,,,,,,,,,,,,,,,,,,,,,,,,,,,,,,,,,,,,SYN06472208 32666 61608 10278 20183 30153 40167 56011 92056 555 90521=,,,,,,,,,,,,,,,,,,,,,,,,,,,,2009-06-10
72208013880,2018-05-08T17:56:00,FM-15,7,,SE,0.25,mi,"TEMP, PRECIP, SNOW",,,"MMTS, SRG, SNOWBOARD",,,WFO CHS,,,,,,,,,,,,,,,,,,,,,,,,,,,30.06,60,74,0.00,,,,62,30.06,FEW:02 45 FEW:02 200,30.01,10.00,65,160,,10,,,,,,,,,,,,,,,,,,,,,,,,,,,,,,,,,,,,,MET10605/08/18 17:56:02 METAR KCHS 082256Z 16009KT 10SM FEW045 FEW200 23/16 A3006 RMK AO2 SLP179 T02330156 (BBE),,,,,,,,,,,,,,,,,,,,,,,,,,,,2009-06-10
72208013880,2018-05-09T16:56:00,FM-15,7,,SE,0.25,mi,"TEMP, PRECIP, SNOW",,,"MMTS, SRG, SNOWBOARD",,,WFO CHS,,,,,,,,,,,,,,,,,,,,,,,,,,,30.08,62,78,0.00,,,,58,30.07,FEW:02 60,30.03,10.00,68,150,,11,,,,,,,,,,,,,,,,,,,,,,,,,,,,,,,,,,,,,MET09905/09/18 16:56:02 METAR KCHS 092156Z 15010KT 10SM FEW060 26/17 A3008 RMK AO2 SLP184 T02560167 (BBE),,,,,,,,,,,,,,,,,,,,,,,,,,,,2009-06-10
72208013880,2018-05-09T17:56:00,FM-15,7,,SE,0.25,mi,"TEMP, PRECIP, SNOW",,,"MMTS, SRG, SNOWBOARD",,,WFO CHS,,,,,,,,,,,,,,,,,,,,,,,,,,,30.08,63,75,0.00,,,,66,30.07,CLR:00,30.03,10.00,67,150,,9,,,,,,,,,,,,,,,,,,,,,,,,,,,,,,,,,,,,,MET09605/09/18 17:56:02 METAR KCHS 092256Z 15008KT 10SM CLR 24/17 A3008 RMK AO2 SLP184 T02390172 (BBE),,,,,,,,,,,,,,,,,,,,,,,,,,,,2009-06-10
72208013880,2018-05-11T16:56:00,FM-15,7,,SE,0.25,mi,"TEMP, PRECIP, SNOW",,,"MMTS, SRG, SNOWBOARD",,,WFO CHS,,,,,,,,,,,,,,,,,,,,,,,,,,,30.04,63,88,0.00,,,,43,30.03,CLR:00,29.99,10.00,72,150,,10,,,,,,,,,,,,,,,,,,,,,,,,,,,,,,,,,,,,,MET09605/11/18 16:56:02 METAR KCHS 112156Z 15009KT 10SM CLR 31/17 A3004 RMK AO2 SLP171 T03110172 (JRS),,,,,,,,,,,,,,,,,,,,,,,,,,,,2009-06-10
72208013880,2018-05-11T17:56:00,FM-15,7,,SE,0.25,mi,"TEMP, PRECIP, SNOW",,,"MMTS, SRG, SNOWBOARD",,,WFO CHS,,,,,,,,,,,,,,,,,,,,,,,,,,,30.04,61,85,0.00,,,,45,30.04,CLR:00,29.99,10.00,70,160,,9,,,,,,,,,,,,,,,,,,,,,,,,,,,,,,,,,,,,,MET09605/11/18 17:56:02 METAR KCHS 112256Z 16008KT 10SM CLR 29/16 A3004 RMK AO2 SLP172 T02940161 (JRS),,,,,,,,,,,,,,,,,,,,,,,,,,,,2009-06-10
72208013880,2018-05-12T12:56:00,FM-15,7,,SE,0.25,mi,"TEMP, PRECIP, SNOW",,,"MMTS, SRG, SNOWBOARD",,,WFO CHS,,,,,,,,,,,,,,,,,,,,,,,,,,,30.10,59,93,0.00,,+0.05,8,32,30.10,FEW:02 60 FEW:02 200,30.05,10.00,71,160,,7,,,,,,,,,,,,,,,,,,,,,,,,,,,,,,,,,,,,,MET12305/12/18 12:56:02 METAR KCHS 121756Z 16006KT 10SM FEW060 FEW200 34/15 A3010 RMK AO2 SLP193 T03390150 10339 20228 58017 (MH),,,,,,,,,,,,,,,,,,,,,,,,,,,,2009-06-10
72208013880,2018-05-12T13:00:00,FM-12,4,,SE,0.25,mi,"TEMP, PRECIP, SNOW",,,"MMTS, SRG, SNOWBOARD",,,WFO CHS,,,,,,,,,,,,,,,,,,,,,,,,,,,30.10,59,93,,,+0.05,8,32,30.10,57,30.05,9.94,71,160,,7,,,,,,,,,,,,,,,,,,,,,,,,,,,,,,,,,,,,,SYN08072208 32766 21606 10339 20150 30177 40193 58017 91756 333 10339 20228 555 91218=,,,,,,,,,,,,,,,,,,,,,,,,,,,,2009-06-10
72208013880,2018-05-12T14:56:00,FM-15,7,,SE,0.25,mi,"TEMP, PRECIP, SNOW",,,"MMTS, SRG, SNOWBOARD",,,WFO CHS,,,,,,,,,,,,,,,,,,,,,,,,,,,30.07,61,90,0.00,,,,38,30.07,FEW:02 80,30.02,10.00,71,170,,15,,,,,,,,,,,,,,,,,,,,,,,,,,,,,,,,,,,,,MET09905/12/18 14:56:02 METAR KCHS 121956Z 17013KT 10SM FEW080 32/16 A3007 RMK AO2 SLP183 T03220161 (JRS),,,,,,,,,,,,,,,,,,,,,,,,,,,,2009-06-10
72208013880,2018-05-12T15:56:00,FM-15,7,,SE,0.25,mi,"TEMP, PRECIP, SNOW",,,"MMTS, SRG, SNOWBOARD",,,WFO CHS,,,,,,,,,,,,,,,,,,,,,,,,,,,30.07,65,87,0.00,,+0.03,6,48,30.06,FEW:02 80 FEW:02 200,30.02,10.00,72,160,,14,,,,,,,,,,,,,,,,,,,,,,,,,,,,,,,,,,,,,MET11205/12/18 15:56:02 METAR KCHS 122056Z 16012KT 10SM FEW080 FEW200 31/18 A3007 RMK AO2 SLP181 T03060183 56011 (JRS),,,,,,,,,,,,,,,,,,,,,,,,,,,,2009-06-10
72208013880,2018-05-12T16:00:00,FM-12,4,,SE,0.25,mi,"TEMP, PRECIP, SNOW",,,"MMTS, SRG, SNOWBOARD",,,WFO CHS,,,,,,,,,,,,,,,,,,,,,,,,,,,30.07,65,87,,,+0.03,6,48,30.06,74,30.02,9.94,72,160,,14,,,,,,,,,,,,,,,,,,,,,,,,,,,,,,,,,,,,,SYN06472208 32866 21612 10306 20183 30167 40181 56011 92056 555 91221=,,,,,,,,,,,,,,,,,,,,,,,,,,,,2009-06-10
72208013880,2018-05-12T16:56:00,FM-15,7,,SE,0.25,mi,"TEMP, PRECIP, SNOW",,,"MMTS, SRG, SNOWBOARD",,,WFO CHS,,,,,,,,,,,,,,,,,,,,,,,,,,,30.06,65,84,0.00,,,,53,30.06,FEW:02 200,30.01,10.00,72,170,,14,,,,,,,,,,,,,,,,,,,,,,,,,,,,,,,,,,,,,MET09905/12/18 16:56:02 METAR KCHS 122156Z 17012KT 10SM FEW200 29/18 A3006 RMK AO2 SLP178 T02890183 (JRS),,,,,,,,,,,,,,,,,,,,,,,,,,,,2009-06-10
72208013880,2018-05-14T12:56:00,FM-15,7,,SE,0.25,mi,"TEMP, PRECIP, SNOW",,,"MMTS, SRG, SNOWBOARD",,,WFO CHS,,,,,,,,,,,,,,,,,,,,,,,,,,,30.06,70,85,0.00,,+0.03,8,61,30.06,SCT:04 35 BKN:07 50 BKN:07 200,30.01,10.00,75,150,,9,,,,,,,,,,,,,,,,,,,,,,,,,,,,,,,,,,,,,MET13105/14/18 12:56:02 METAR KCHS 141756Z 15008KT 10SM SCT035 BKN050 BKN200 29/21 A3006 RMK AO2 SLP178 T02940211 10294 20233 58009 (JMB),,,,,,,,,,,,,,,,,,,,,,,,,,,,2009-06-10
72208013880,2018-05-14T13:00:00,FM-12,4,,SE,0.25,mi,"TEMP, PRECIP, SNOW",,,"MMTS, SRG, SNOWBOARD",,,WFO CHS,,,,,,,,,,,,,,,,,,,,,,,,,,,30.06,70,85,,,+0.03,8,61,30.06,41,30.01,9.94,75,150,,9,,,,,,,,,,,,,,,,,,,,,,,,,,,,,,,,,,,,,SYN08072208 32666 61508 10294 20211 30163 40178 58009 91756 333 10294 20233 555 91418=,,,,,,,,,,,,,,,,,,,,,,,,,,,,2009-06-10
72208013880,2018-05-14T13:56:00,FM-15,7,,SE,0.25,mi,"TEMP, PRECIP, SNOW",,,"MMTS, SRG, SNOWBOARD",,,WFO CHS,,,,,,,,,,,,,,,,,,,,,,,,,,,30.05,69,84,0.00,,,,61,30.04,SCT:04 30 BKN:07 200,30.00,10.00,74,170,,9,,,,,,,,,,,,,,,,,,,,,,,,,,,,,,,,,,,,,MET10605/14/18 13:56:02 METAR KCHS 141856Z 17008KT 10SM SCT030 BKN200 29/21 A3005 RMK AO2 SLP174 T02890206 (JMB),,,,,,,,,,,,,,,,,,,,,,,,,,,,2009-06-10
72208013880,2018-05-14T16:56:00,FM-15,7,,SE,0.25,mi,"TEMP, PRECIP, SNOW",,,"MMTS, SRG, SNOWBOARD",,,WFO CHS,,,,,,,,,,,,,,,,,,,,,,,,,,,30.03,69,80,0.00,,,,69,30.02,FEW:02 25 BKN:07 35 BKN:07 200,29.98,10.00,73,160,,14,,,,,,,,,,,,,,,,,,,,,,,,,,,,,,,,,,,,,MET11305/14/18 16:56:02 METAR KCHS 142156Z 16012KT 10SM FEW025 BKN035 BKN200 27/21 A3003 RMK AO2 SLP167 T02670206 (BBE),,,,,,,,,,,,,,,,,,,,,,,,,,,,2009-06-10
72208013880,2018-05-15T10:56:00,FM-15,7,,SE,0.25,mi,"TEMP, PRECIP, SNOW",,,"MMTS, SRG, SNOWBOARD",,,WFO CHS,,,,,,,,,,,,,,,,,,,,,,,,,,,30.05,71,82,0.00,,,,69,30.04,SCT:04 25 BKN:07 35 BKN:07 100,30.00,10.00,74,160,,17,,,,,,,,,,,,,,,,,,,,,,,,,,,,,,,,,,,,,MET11305/15/18 10:56:02 METAR KCHS 151556Z 16015KT 10SM SCT025 BKN035 BKN100 28/22 A3005 RMK AO2 SLP174 T02780217 (JMB),,,,,,,,,,,,,,,,,,,,,,,,,,,,2009-06-10
72208013880,2018-05-15T11:56:00,FM-15,7,,SE,0.25,mi,"TEMP, PRECIP, SNOW",,,"MMTS, SRG, SNOWBOARD",,,WFO CHS,,,,,,,,,,,,,,,,,,,,,,,,,,,30.03,70,84,0.00,,,,63,30.03,SCT:04 28 BKN:07 40 BKN:07 100,29.98,10.00,74,160,,17,,,,,,,,,,,,,,,,,,,,,,,,,,,,,,,,,,,,,MET11305/15/18 11:56:02 METAR KCHS 151656Z 16015KT 10SM SCT028 BKN040 BKN100 29/21 A3003 RMK AO2 SLP169 T02890211 (JMB),,,,,,,,,,,,,,,,,,,,,,,,,,,,2009-06-10
72208013880,2018-05-15T12:56:00,FM-15,7,,SE,0.25,mi,"TEMP, PRECIP, SNOW",,,"MMTS, SRG, SNOWBOARD",,,WFO CHS,,,,,,,,,,,,,,,,,,,,,,,,,,,30.02,68,85,0.00,,+0.03,8,57,30.01,SCT:04 35 BKN:07 45 BKN:07 100,29.97,10.00,74,170,,15,,,,,,,,,,,,,,,,,,,,,,,,,,,,,,,,,,,,,MET13105/15/18 12:56:02 METAR KCHS 151756Z 17013KT 10SM SCT035 BKN045 BKN100 29/20 A3002 RMK AO2 SLP164 T02940200 10306 20256 58009 (JMB),,,,,,,,,,,,,,,,,,,,,,,,,,,,2009-06-10
72208013880,2018-05-15T13:00:00,FM-12,4,,SE,0.25,mi,"TEMP, PRECIP, SNOW",,,"MMTS, SRG, SNOWBOARD",,,WFO CHS,,,,,,,,,,,,,,,,,,,,,,,,,,,30.02,68,85,,,+0.03,8,57,30.01,41,29.97,9.94,74,170,,15,,,,,,,,,,,,,,,,,,,,,,,,,,,,,,,,,,,,,SYN08072208 32666 61713 10294 20200 30150 40164 58009 91756 333 10306 20244 555 91518=,,,,,,,,,,,,,,,,,,,,,,,,,,,,2009-06-10
72208013880,2018-05-15T14:56:00,FM-15,7,,SE,0.25,mi,"TEMP, PRECIP, SNOW",,,"MMTS, SRG, SNOWBOARD",,,WFO CHS,,,,,,,,,,,,,,,,,,,,,,,,,,,29.98,70,82,T,,,,67,29.98,SCT:04 25 BKN:07 30 BKN:07 40,29.93,10.00,74,150,,15,,,,,,,,,,,,,,,,,,,,,,,,,,,,,,,,,,,,,MET12805/15/18 14:56:02 METAR KCHS 151956Z 15013KT 10SM SCT025 BKN030 BKN040 28/21 A2998 RMK AO2 RAB26E36 SLP153 P0000 T02780211 (BBE),,,,,,,,,,,,,,,,,,,,,,,,,,,,2009-06-10
72208013880,2018-05-15T15:56:00,FM-15,7,,SE,0.25,mi,"TEMP, PRECIP, SNOW",,,"MMTS, SRG, SNOWBOARD",,,WFO CHS,,,,,,,,,,,,,,,,,,,,,,,,,,,29.98,74,78,0.10,RA:02 |RA |RA,+0.04,6,87,29.98,SCT:04 25 BKN:07 40 BKN:07 75,29.93,7.00,75,160,,16,,,,,,,,,,,,,,,,,,,,,,,,,,,,,,,,,,,,,MET16205/15/18 15:56:02 METAR KCHS 152056Z 16014KT 7SM R15/4000VP6000FT RA SCT025 BKN040 BKN075 26/23 A2998 RMK AO2 RAB02E16B39 SLP151 P0009 60010 T02560233 56013 (BBE),,,,,,,,,,,,,,,,,,,,,,,,,,,,2009-06-10
72208013880,2018-05-15T16:00:00,FM-12,4,,SE,0.25,mi,"TEMP, PRECIP, SNOW",,,"MMTS, SRG, SNOWBOARD",,,WFO CHS,,,,,,,,,,,,,,,,,,,,,,,,,,,29.98,74,78,,||RA,+0.04,6,87,29.98,26,29.93,6.84,75,160,,16,,,,,,,,,,,,,,,,,,,,,,,,,,,,,,,,,,,,,SYN07672208 11561 61614 10256 20233 30136 40151 56013 60037 763// 92056 555 91521=,,,,,,,,,,,,,,,,,,,,,,,,,,,,2009-06-10
72208013880,2018-05-15T16:56:00,FM-15,7,,SE,0.25,mi,"TEMP, PRECIP, SNOW",,,"MMTS, SRG, SNOWBOARD",,,WFO CHS,,,,,,,,,,,,,,,,,,,,,,,,,,,29.97,73,78,0.11,,,,85,29.97,SCT:04 18 SCT:04 25 BKN:07 75,29.92,10.00,75,160,,13,,,,,,,,,,,,,,,,,,,,,,,,,,,,,,,,,,,,,MET12505/15/18 16:56:02 METAR KCHS 152156Z 16011KT 10SM SCT018 SCT025 BKN075 26/23 A2997 RMK AO2 RAE18 SLP149 P0012 T02560228 (BBE),,,,,,,,,,,,,,,,,,,,,,,,,,,,2009-06-10
72208013880,2018-05-15T17:56:00,FM-15,7,,SE,0.25,mi,"TEMP, PRECIP, SNOW",,,"MMTS, SRG, SNOWBOARD",,,WFO CHS,,,,,,,,,,,,,,,,,,,,,,,,,,,29.97,73,76,0.01,,,,91,29.97,FEW:02 20 BKN:07 40 BKN:07 75,29.92,10.00,74,150,,10,,,,,,,,,,,,,,,,,,,,,,,,,,,,,,,,,,,,,MET13005/15/18 17:56:02 METAR KCHS 152256Z 15009KT 10SM FEW020 BKN040 BKN075 24/23 A2997 RMK AO2 RAB2158E20 SLP148 P0001 T02440228 (BBE),,,,,,,,,,,,,,,,,,,,,,,,,,,,2009-06-10
72208013880,2018-05-16T10:56:00,FM-15,7,,SE,0.25,mi,"TEMP, PRECIP, SNOW",,,"MMTS, SRG, SNOWBOARD",,,WFO CHS,,,,,,,,,,,,,,,,,,,,,,,,,,,30.00,68,84,0.00,,,,59,29.99,SCT:04 35 SCT:04 120 BKN:07 250,29.95,10.00,73,160,,16,,,,,,,,,,,,,,,,,,,,,,,,,,,,,,,,,,,,,MET11305/16/18 10:56:02 METAR KCHS 161556Z 16014KT 10SM SCT035 SCT120 BKN250 29/20 A3000 RMK AO2 SLP157 T02890200 (JMB),,,,,,,,,,,,,,,,,,,,,,,,,,,,2009-06-10
72208013880,2018-05-16T11:45:00,FM-16,7,,SE,0.25,mi,"TEMP, PRECIP, SNOW",,,"MMTS, SRG, SNOWBOARD",,,WFO CHS,,,,,,,,,,,,,,,,,,,,,,,,,,,29.99,69,84,,,,,61,,SCT:04 35 SCT:04 120 BKN:07 250,29.94,10.00,74,160,,13,,,,,,,,,,,,,,,,,,,,,,,,,,,,,,,,,,,,,MET11805/16/18 11:45:02 SPECI KCHS 161645Z 16011KT 10SM SCT035 SCT120 BKN250 29/21 A2999 RMK AO2 MDT CU S-SW T02890206 (JMB),,,,,,,,,,,,,,,,,,,,,,,,,,,,2009-06-10
72208013880,2018-05-16T12:56:00,FM-15,7,,SE,0.25,mi,"TEMP, PRECIP, SNOW",,,"MMTS, SRG, SNOWBOARD",,,WFO CHS,,,,,,,,,,,,,,,,,,,,,,,,,,,29.96,69,85,0.00,,+0.03,8,59,29.96,SCT:04 37 BKN:07 120 BKN:07 250,29.91,10.00,74,170,22,14,,,,,,,,,,,,,,,,,,,,,,,,,,,,,,,,,,,,,MET13405/16/18 12:56:02 METAR KCHS 161756Z 17012G19KT 10SM SCT037 BKN120 BKN250 29/21 A2996 RMK AO2 SLP144 T02940206 10300 20239 58011 (JMB),,,,,,,,,,,,,,,,,,,,,,,,,,,,2009-06-10
72208013880,2018-05-16T13:00:00,FM-12,4,,SE,0.25,mi,"TEMP, PRECIP, SNOW",,,"MMTS, SRG, SNOWBOARD",,,WFO CHS,,,,,,,,,,,,,,,,,,,,,,,,,,,29.96,69,85,,,+0.03,8,59,29.96,41,29.91,9.94,74,170,,14,,,,,,,,,,,,,,,,,,,,,,,,,,,,,,,,,,,,,SYN08672208 32666 61712 10294 20206 30129 40144 58011 91756 333 10300 20239 91019 555 91618=,,,,,,,,,,,,,,,,,,,,,,,,,,,,2009-06-10
72208013880,2018-05-16T13:18:00,FM-16,7,,SE,0.25,mi,"TEMP, PRECIP, SNOW",,,"MMTS, SRG, SNOWBOARD",,,WFO CHS,,,,,,,,,,,,,,,,,,,,,,,,,,,29.96,68,84,,,,,59,,SCT:04 33 BKN:07 120 BKN:07 250,29.91,10.00,73,150,,17,,,,,,,,,,,,,,,,,,,,,,,,,,,,,,,,,,,,,MET10605/16/18 13:18:02 SPECI KCHS 161818Z 15015KT 10SM SCT033 BKN120 BKN250 29/20 A2996 RMK AO2 T02890200 (JMB),,,,,,,,,,,,,,,,,,,,,,,,,,,,2009-06-10
72208013880,2018-05-16T13:56:00,FM-15,7,,SE,0.25,mi,"TEMP, PRECIP, SNOW",,,"MMTS, SRG, SNOWBOARD",,,WFO CHS,,,,,,,,,,,,,,,,,,,,,,,,,,,29.96,70,82,0.00,,,,67,29.95,SCT:04 25 BKN:07 120 BKN:07 250,29.91,10.00,74,150,,17,,,,,,,,,,,,,,,,,,,,,,,,,,,,,,,,,,,,,MET11305/16/18 13:56:02 METAR KCHS 161856Z 15015KT 10SM SCT025 BKN120 BKN250 28/21 A2996 RMK AO2 SLP143 T02780211 (JMB),,,,,,,,,,,,,,,,,,,,,,,,,,,,2009-06-10
72208013880,2018-05-16T15:56:00,FM-15,7,,SE,0.25,mi,"TEMP, PRECIP, SNOW",,,"MMTS, SRG, SNOWBOARD",,,WFO CHS,,,,,,,,,,,,,,,,,,,,,,,,,,,29.94,70,83,0.00,,+0.02,8,65,29.93,SCT:04 25 BKN:07 32 BKN:07 120,29.89,10.00,74,160,,15,,,,,,,,,,,,,,,,,,,,,,,,,,,,,,,,,,,,,MET11905/16/18 15:56:02 METAR KCHS 162056Z 16013KT 10SM SCT025 BKN032 BKN120 28/21 A2994 RMK AO2 SLP136 T02830211 58008 (BBE),,,,,,,,,,,,,,,,,,,,,,,,,,,,2009-06-10
72208013880,2018-05-16T16:00:00,FM-12,4,,SE,0.25,mi,"TEMP, PRECIP, SNOW",,,"MMTS, SRG, SNOWBOARD",,,WFO CHS,,,,,,,,,,,,,,,,,,,,,,,,,,,29.94,70,83,,,+0.02,8,65,29.93,26,29.89,9.94,74,160,,15,,,,,,,,,,,,,,,,,,,,,,,,,,,,,,,,,,,,,SYN06472208 32566 61613 10283 20211 30123 40136 58008 92056 555 91621=,,,,,,,,,,,,,,,,,,,,,,,,,,,,2009-06-10
72208013880,2018-05-16T16:56:00,FM-15,7,,SE,0.25,mi,"TEMP, PRECIP, SNOW",,,"MMTS, SRG, SNOWBOARD",,,WFO CHS,,,,,,,,,,,,,,,,,,,,,,,,,,,29.93,69,82,0.00,,,,65,29.93,FEW:02 25 SCT:04 35 BKN:07 150,29.88,10.00,73,170,,14,,,,,,,,,,,,,,,,,,,,,,,,,,,,,,,,,,,,,MET11305/16/18 16:56:02 METAR KCHS 162156Z 17012KT 10SM FEW025 SCT035 BKN150 28/21 A2993 RMK AO2 SLP135 T02780206 (BBE),,,,,,,,,,,,,,,,,,,,,,,,,,,,2009-06-10
72208013880,2018-05-18T11:32:00,FM-16,7,,SE,0.25,mi,"TEMP, PRECIP, SNOW",,,"MMTS, SRG, SNOWBOARD",,,WFO CHS,,,,,,,,,,,,,,,,,,,,,,,,,,,30.03,71,76,T,-RA:02 |RA |RA,,,85,,SCT:04 15 BKN:07 20 BKN:07 30,29.98,10.00,73,170,,14,,,,,,,,,,,,,,,,,,,,,,,,,,,,,,,,,,,,,MET11605/18/18 11:32:02 SPECI KCHS 181632Z 17012KT 10SM -RA SCT015 BKN020 BKN030 24/22 A3003 RMK AO2 P0000 T02440217 (KLJ),,,,,,,,,,,,,,,,,,,,,,,,,,,,2009-06-10
72208013880,2018-05-18T15:56:00,FM-15,7,,SE,0.25,mi,"TEMP, PRECIP, SNOW",,,"MMTS, SRG, SNOWBOARD",,,WFO CHS,,,,,,,,,,,,,,,,,,,,,,,,,,,29.98,70,79,T,,+0.04,6,74,29.98,SCT:04 15 SCT:04 25 BKN:07 120,29.93,10.00,73,170,18,10,,,,,,,,,,,,,,,,,,,,,,,,,,,,,,,,,,,,,MET14305/18/18 15:56:02 METAR KCHS 182056Z 17009G16KT 10SM SCT015 SCT025 BKN120 26/21 A2998 RMK AO2 RAB06E27 SLP152 P0000 60000 T02610211 56013 (BBE),,,,,,,,,,,,,,,,,,,,,,,,,,,,2009-06-10
72208013880,2018-05-18T16:00:00,FM-12,4,,SE,0.25,mi,"TEMP, PRECIP, SNOW",,,"MMTS, SRG, SNOWBOARD",,,WFO CHS,,,,,,,,,,,,,,,,,,,,,,,,,,,29.98,70,79,,,+0.04,6,74,29.98,15,29.93,9.94,73,170,,10,,,,,,,,,,,,,,,,,,,,,,,,,,,,,,,,,,,,,SYN08072208 12466 61709 10261 20211 30136 40152 56013 69907 92056 333 91016 555 91821=,,,,,,,,,,,,,,,,,,,,,,,,,,,,2009-06-10
72208013880,2018-05-18T16:36:00,FM-16,7,,SE,0.25,mi,"TEMP, PRECIP, SNOW",,,"MMTS, SRG, SNOWBOARD",,,WFO CHS,,,,,,,,,,,,,,,,,,,,,,,,,,,29.99,70,79,,,,,74,,FEW:02 15 BKN:07 25 BKN:07 120,29.94,10.00,73,150,,13,,,,,,,,,,,,,,,,,,,,,,,,,,,,,,,,,,,,,MET10605/18/18 16:36:02 SPECI KCHS 182136Z 15011KT 10SM FEW015 BKN025 BKN120 26/21 A2999 RMK AO2 T02610211 (BBE),,,,,,,,,,,,,,,,,,,,,,,,,,,,2009-06-10
72208013880,2018-05-18T16:56:00,FM-15,7,,SE,0.25,mi,"TEMP, PRECIP, SNOW",,,"MMTS, SRG, SNOWBOARD",,,WFO CHS,,,,,,,,,,,,,,,,,,,,,,,,,,,29.99,69,79,0.00,,,,72,29.98,BKN:07 20 BKN:07 30 BKN:07 120,29.94,10.00,72,160,,10,,,,,,,,,,,,,,,,,,,,,,,,,,,,,,,,,,,,,MET11305/18/18 16:56:02 METAR KCHS 182156Z 16009KT 10SM BKN020 BKN030 BKN120 26/21 A2999 RMK AO2 SLP154 T02610206 (BBE),,,,,,,,,,,,,,,,,,,,,,,,,,,,2009-06-10
72208013880,2018-05-18T17:45:00,FM-16,7,,SE,0.25,mi,"TEMP, PRECIP, SNOW",,,"MMTS, SRG, SNOWBOARD",,,WFO CHS,,,,,,,,,,,,,,,,,,,,,,,,,,,29.99,69,78,,,,,74,,SCT:04 23 BKN:07 32 BKN:07 120,29.94,10.00,72,160,,13,,,,,,,,,,,,,,,,,,,,,,,,,,,,,,,,,,,,,MET10605/18/18 17:45:02 SPECI KCHS 182245Z 16011KT 10SM SCT023 BKN032 BKN120 26/21 A2999 RMK AO2 T02560206 (BBE),,,,,,,,,,,,,,,,,,,,,,,,,,,,2009-06-10
72208013880,2018-05-18T17:56:00,FM-15,7,,SE,0.25,mi,"TEMP, PRECIP, SNOW",,,"MMTS, SRG, SNOWBOARD",,,WFO CHS,,,,,,,,,,,,,,,,,,,,,,,,,,,29.99,69,77,0.00,,,,77,29.99,SCT:04 23 BKN:07 32 BKN:07 120,29.94,10.00,72,170,,14,,,,,,,,,,,,,,,,,,,,,,,,,,,,,,,,,,,,,MET11305/18/18 17:56:02 METAR KCHS 182256Z 17012KT 10SM SCT023 BKN032 BKN120 25/21 A2999 RMK AO2 SLP156 T02500206 (BBE),,,,,,,,,,,,,,,,,,,,,,,,,,,,2009-06-10
72208013880,2018-05-19T11:14:00,FM-16,7,,SE,0.25,mi,"TEMP, PRECIP, SNOW",,,"MMTS, SRG, SNOWBOARD",,,WFO CHS,,,,,,,,,,,,,,,,,,,,,,,,,,,30.12,71,72,0.54,+RA:02 FG:2 |FG RA |FG RA RA,,,97,,BKN:07 5 BKN:07 16 OVC:08 25,30.07,0.50,71,160,,7,,,,,,,,,,,,,,,,,,,,,,,,,,,,,,,,,,,,,MET14305/19/18 11:14:02 SPECI KCHS 191614Z 16006KT 1/2SM R15/4000VP6000FT +RA FG BKN005 BKN016 OVC025 22/22 A3012 RMK AO2 P0054 T02220217 $ FIBI (MH),,,,,,,,,,,,,,,,,,,,,,,,,,,,2009-06-10
72208013880,2018-05-19T15:56:00,FM-15,7,,SE,0.25,mi,"TEMP, PRECIP, SNOW",,,"MMTS, SRG, SNOWBOARD",,,WFO CHS,,,,,,,,,,,,,,,,,,,,,,,,,,,30.10,71,75,0.00,,-0.00,3,88,30.10,BKN:07 13 OVC:08 28,30.05,10.00,72,160,,10,,,,,,,,,,,,,,,,,,,,,,,,,,,,,,,,,,,,,MET11905/19/18 15:56:02 METAR KCHS 192056Z 16009KT 10SM BKN013 OVC028 24/22 A3010 RMK AO2 SLP193 T02390217 53001 $ FIBI (JRS),,,,,,,,,,,,,,,,,,,,,,,,,,,,2009-06-10
72208013880,2018-05-19T16:00:00,FM-12,4,,SE,0.25,mi,"TEMP, PRECIP, SNOW",,,"MMTS, SRG, SNOWBOARD",,,WFO CHS,,,,,,,,,,,,,,,,,,,,,,,,,,,30.10,71,75,,,-0.00,3,88,30.10,15,30.05,9.94,72,160,,10,,,,,,,,,,,,,,,,,,,,,,,,,,,,,,,,,,,,,SYN06472208 32466 81609 10239 20217 30177 40193 53001 92056 555 91921=,,,,,,,,,,,,,,,,,,,,,,,,,,,,2009-06-10
72208013880,2018-05-19T16:54:00,FM-16,6,,SE,0.25,mi,"TEMP, PRECIP, SNOW",,,"MMTS, SRG, SNOWBOARD",,,WFO CHS,,,,,,,,,,,,,,,,,,,,,,,,,,,30.09,72,75,,,,,89,,SCT:04 12 BKN:07 20 OVC:08 120,30.04,10.00,73,150,,11,,,,,,,,,,,,,,,,,,,,,,,,,,,,,,,,,,,,,MET10305/19/18 16:54:02 SPECI KCHS 192154Z 15010KT 10SM SCT012 BKN020 OVC120 24/22 A3009 RMK AO2 $ FIBI (JRS),,,,,,,,,,,,,,,,,,,,,,,,,,,,2009-06-10
72208013880,2018-05-19T16:56:00,FM-15,7,,SE,0.25,mi,"TEMP, PRECIP, SNOW",,,"MMTS, SRG, SNOWBOARD",,,WFO CHS,,,,,,,,,,,,,,,,,,,,,,,,,,,30.09,71,75,0.00,,,,88,30.09,SCT:04 12 BKN:07 20 OVC:08 120,30.04,10.00,72,150,,11,,,,,,,,,,,,,,,,,,,,,,,,,,,,,,,,,,,,,MET12005/19/18 16:56:02 METAR KCHS 192156Z 15010KT 10SM SCT012 BKN020 OVC120 24/22 A3009 RMK AO2 SLP188 T02390217 $ FIBI (JRS),,,,,,,,,,,,,,,,,,,,,,,,,,,,2009-06-10
72208013880,2018-05-19T17:42:00,FM-16,7,,SE,0.25,mi,"TEMP, PRECIP, SNOW",,,"MMTS, SRG, SNOWBOARD",,,WFO CHS,,,,,,,,,,,,,,,,,,,,,,,,,,,30.08,71,75,,,,,88,,FEW:02 12 FEW:02 25 OVC:08 180,30.03,10.00,72,150,,13,,,,,,,,,,,,,,,,,,,,,,,,,,,,,,,,,,,,,MET11305/19/18 17:42:02 SPECI KCHS 192242Z 15011KT 10SM FEW012 FEW025 OVC180 24/22 A3008 RMK AO2 T02390217 $ FIBI (JRS),,,,,,,,,,,,,,,,,,,,,,,,,,,,2009-06-10
72208013880,2018-05-19T17:56:00,FM-15,7,,SE,0.25,mi,"TEMP, PRECIP, SNOW",,,"MMTS, SRG, SNOWBOARD",,,WFO CHS,,,,,,,,,,,,,,,,,,,,,,,,,,,30.08,71,75,0.00,,,,88,30.08,FEW:02 12 OVC:08 180,30.03,10.00,72,160,,11,,,,,,,,,,,,,,,,,,,,,,,,,,,,,,,,,,,,,MET11305/19/18 17:56:02 METAR KCHS 192256Z 16010KT 10SM FEW012 OVC180 24/22 A3008 RMK AO2 SLP186 T02390217 $ FIBI (JRS),,,,,,,,,,,,,,,,,,,,,,,,,,,,2009-06-10
72208013880,2018-05-20T12:08:00,FM-15,4,,SE,0.25,mi,"TEMP, PRECIP, SNOW",,,"MMTS, SRG, SNOWBOARD",,,WFO CHS,,,,,,,,,,,,,,,,,,,,,,,,,,,30.17,71,80,,,,,74,,,,10.00,,160,,15,,,,,,,,,,,,,,,,,,,,,,,,,,,,,,,,,,,,,MET115METAR KCHS 201708Z 16013KT 10SM VCTS SCT008 BKN025CB BKN043 27/22 A3017 RMK OCNL LTGICCC E TS VC E MOV N T02670217=,,,,,,,,,,,,,,,,,,,,,,,,,,,,2009-06-10
72208013880,2018-05-20T12:25:00,FM-16,7,,SE,0.25,mi,"TEMP, PRECIP, SNOW",,,"MMTS, SRG, SNOWBOARD",,,WFO CHS,,,,,,,,,,,,,,,,,,,,,,,,,,,30.17,71,75,T,TS:7 -RA:02 BR:1 |RA TS |RA TS,,,88,,SCT:04 8 BKN:07 20 BKN:07 40,30.12,2.00,72,150,20,16,,,,,,,,,,,,,,,,,,,,,,,,,,,,,,,,,,,,,MET17305/20/18 12:25:02 SPECI KCHS 201725Z 15014G17KT 2SM -TSRA BR SCT008 BKN020CB BKN040 24/22 A3017 RMK AO2 RAB23 TSB24 OCNL LTGICCC ESE TS OHD MOV N P0000 T02390217 $ FIBI (MH),,,,,,,,,,,,,,,,,,,,,,,,,,,,2009-06-10
72208013880,2018-05-20T13:00:00,FM-12,4,,SE,0.25,mi,"TEMP, PRECIP, SNOW",,,"MMTS, SRG, SNOWBOARD",,,WFO CHS,,,,,,,,,,,,,,,,,,,,,,,,,,,30.16,73,78,,,,,85,30.16,26,30.11,9.94,75,150,,8,,,,,,,,,,,,,,,,,,,,,,,,,,,,,,,,,,,,,SYN05272208 32566 61507 10256 20228 30197 91808 555 92018=,,,,,,,,,,,,,,,,,,,,,,,,,,,,2009-06-10
72208013880,2018-05-20T13:08:00,FM-15,4,,SE,0.25,mi,"TEMP, PRECIP, SNOW",,,"MMTS, SRG, SNOWBOARD",,,WFO CHS,,,,,,,,,,,,,,,,,,,,,,,,,,,30.16,73,78,T,,,,85,,,,10.00,,150,,8,,,,,,,,,,,,,,,,,,,,,,,,,,,,,,,,,,,,,MET116METAR KCHS 201808Z 15007KT 10SM SCT026 BKN060 BKN200 26/23 A3016 RMK RAE03 TSE03 TS MOV N CB DSNT N P0000 T02560228=,,,,,,,,,,,,,,,,,,,,,,,,,,,,2009-06-10
72208013880,2018-05-21T11:56:00,FM-15,7,,SE,0.25,mi,"TEMP, PRECIP, SNOW",,,"MMTS, SRG, SNOWBOARD",,,WFO CHS,,,,,,,,,,,,,,,,,,,,,,,,,,,30.17,69,82,0.00,,,,65,30.17,SCT:04 30 BKN:07 45 BKN:07 200,30.12,10.00,73,160,,9,,,,,,,,,,,,,,,,,,,,,,,,,,,,,,,,,,,,,MET11305/21/18 11:56:02 METAR KCHS 211656Z 16008KT 10SM SCT030 BKN045 BKN200 28/21 A3017 RMK AO2 SLP216 T02780206 (JMB),,,,,,,,,,,,,,,,,,,,,,,,,,,,2009-06-10
72208013880,2018-05-21T12:56:00,FM-15,7,,SE,0.25,mi,"TEMP, PRECIP, SNOW",,,"MMTS, SRG, SNOWBOARD",,,WFO CHS,,,,,,,,,,,,,,,,,,,,,,,,,,,30.15,70,85,0.00,,+0.04,8,61,30.14,SCT:04 35 SCT:04 50 BKN:07 200,30.10,10.00,75,150,,9,,,,,,,,,,,,,,,,,,,,,,,,,,,,,,,,,,,,,MET13105/21/18 12:56:02 METAR KCHS 211756Z 15008KT 10SM SCT035 SCT050 BKN200 29/21 A3015 RMK AO2 SLP208 T02940211 10294 20228 58012 (JMB),,,,,,,,,,,,,,,,,,,,,,,,,,,,2009-06-10
72208013880,2018-05-21T13:00:00,FM-12,4,,SE,0.25,mi,"TEMP, PRECIP, SNOW",,,"MMTS, SRG, SNOWBOARD",,,WFO CHS,,,,,,,,,,,,,,,,,,,,,,,,,,,30.15,70,85,,,+0.04,8,61,30.14,41,30.10,9.94,75,150,,9,,,,,,,,,,,,,,,,,,,,,,,,,,,,,,,,,,,,,SYN08072208 32666 61508 10294 20211 30194 40208 58012 91756 333 10294 20228 555 92118=,,,,,,,,,,,,,,,,,,,,,,,,,,,,2009-06-10
72208013880,2018-05-21T13:56:00,FM-15,7,,SE,0.25,mi,"TEMP, PRECIP, SNOW",,,"MMTS, SRG, SNOWBOARD",,,WFO CHS,,,,,,,,,,,,,,,,,,,,,,,,,,,30.14,71,84,0.00,,,,65,30.14,FEW:02 30 SCT:04 40 BKN:07 120,30.09,10.00,75,150,,13,,,,,,,,,,,,,,,,,,,,,,,,,,,,,,,,,,,,,MET11305/21/18 13:56:02 METAR KCHS 211856Z 15011KT 10SM FEW030 SCT040 BKN120 29/22 A3014 RMK AO2 SLP205 T02890217 (JMB),,,,,,,,,,,,,,,,,,,,,,,,,,,,2009-06-10
72208013880,2018-05-21T14:56:00,FM-15,7,,SE,0.25,mi,"TEMP, PRECIP, SNOW",,,"MMTS, SRG, SNOWBOARD",,,WFO CHS,,,,,,,,,,,,,,,,,,,,,,,,,,,30.13,70,83,0.00,,,,65,30.12,FEW:02 30 SCT:04 40 BKN:07 120,30.08,10.00,74,170,,14,,,,,,,,,,,,,,,,,,,,,,,,,,,,,,,,,,,,,MET11305/21/18 14:56:02 METAR KCHS 211956Z 17012KT 10SM FEW030 SCT040 BKN120 28/21 A3013 RMK AO2 SLP201 T02830211 (BBE),,,,,,,,,,,,,,,,,,,,,,,,,,,,2009-06-10
72208013880,2018-05-21T16:56:00,FM-15,7,,SE,0.25,mi,"TEMP, PRECIP, SNOW",,,"MMTS, SRG, SNOWBOARD",,,WFO CHS,,,,,,,,,,,,,,,,,,,,,,,,,,,30.11,69,83,0.00,,,,63,30.11,FEW:02 28 SCT:04 40 BKN:07 200,30.06,10.00,74,170,,15,,,,,,,,,,,,,,,,,,,,,,,,,,,,,,,,,,,,,MET11305/21/18 16:56:02 METAR KCHS 212156Z 17013KT 10SM FEW028 SCT040 BKN200 28/21 A3011 RMK AO2 SLP195 T02830206 (BBE),,,,,,,,,,,,,,,,,,,,,,,,,,,,2009-06-10
72208013880,2018-05-21T17:56:00,FM-15,7,,SE,0.25,mi,"TEMP, PRECIP, SNOW",,,"MMTS, SRG, SNOWBOARD",,,WFO CHS,,,,,,,,,,,,,,,,,,,,,,,,,,,30.12,69,80,0.00,,,,69,30.11,SCT:04 27 SCT:04 35 BKN:07 200,30.07,10.00,73,170,,11,,,,,,,,,,,,,,,,,,,,,,,,,,,,,,,,,,,,,MET11305/21/18 17:56:02 METAR KCHS 212256Z 17010KT 10SM SCT027 SCT035 BKN200 27/21 A3012 RMK AO2 SLP197 T02670206 (BBE),,,,,,,,,,,,,,,,,,,,,,,,,,,,2009-06-10
72208013880,2018-05-22T10:56:00,FM-15,7,,SE,0.25,mi,"TEMP, PRECIP, SNOW",,,"MMTS, SRG, SNOWBOARD",,,WFO CHS,,,,,,,,,,,,,,,,,,,,,,,,,,,30.15,69,83,T,,,,63,30.14,BKN:07 30 BKN:07 80 BKN:07 200,30.10,10.00,74,160,23,15,,,,,,,,,,,,,,,,,,,,,,,,,,,,,,,,,,,,,MET14005/22/18 10:56:02 METAR KCHS 221556Z 16013G20KT 10SM BKN030 BKN080 BKN200 28/21 A3015 RMK AO2 RAB17E28 SLP208 MDT CU N P0000 T02830206 (JMB),,,,,,,,,,,,,,,,,,,,,,,,,,,,2009-06-10
72208013880,2018-05-22T11:56:00,FM-15,7,,SE,0.25,mi,"TEMP, PRECIP, SNOW",,,"MMTS, SRG, SNOWBOARD",,,WFO CHS,,,,,,,,,,,,,,,,,,,,,,,,,,,30.14,68,84,0.00,,,,59,30.14,SCT:04 35 SCT:04 80 BKN:07 200,30.09,10.00,73,160,,14,,,,,,,,,,,,,,,,,,,,,,,,,,,,,,,,,,,,,MET11305/22/18 11:56:02 METAR KCHS 221656Z 16012KT 10SM SCT035 SCT080 BKN200 29/20 A3014 RMK AO2 SLP205 T02890200 (JMB),,,,,,,,,,,,,,,,,,,,,,,,,,,,2009-06-10
72208013880,2018-05-24T15:56:00,FM-15,7,,SE,0.25,mi,"TEMP, PRECIP, SNOW",,,"MMTS, SRG, SNOWBOARD",,,WFO CHS,,,,,,,,,,,,,,,,,,,,,,,,,,,30.07,74,77,0.00,,+0.02,6,90,30.07,FEW:02 20 SCT:04 90 BKN:07 150,30.02,10.00,75,160,,9,,,,,,,,,,,,,,,,,,,,,,,,,,,,,,,,,,,,,MET12505/24/18 15:56:02 METAR KCHS 242056Z 16008KT 10SM FEW020 SCT090 BKN150 25/23 A3007 RMK AO2 SLP183 60001 T02500233 56008 (BBE),,,,,,,,,,,,,,,,,,,,,,,,,,,,2009-06-10
72208013880,2018-05-24T16:00:00,FM-12,4,,SE,0.25,mi,"TEMP, PRECIP, SNOW",,,"MMTS, SRG, SNOWBOARD",,,WFO CHS,,,,,,,,,,,,,,,,,,,,,,,,,,,30.07,74,77,,,+0.02,6,90,30.07,26,30.02,9.94,75,160,,9,,,,,,,,,,,,,,,,,,,,,,,,,,,,,,,,,,,,,SYN07072208 12566 61608 10250 20233 30167 40183 56008 69937 92056 555 92421=,,,,,,,,,,,,,,,,,,,,,,,,,,,,2009-06-10
72208013880,2018-05-25T11:56:00,FM-15,7,,SE,0.25,mi,"TEMP, PRECIP, SNOW",,,"MMTS, SRG, SNOWBOARD",,,WFO CHS,,,,,,,,,,,,,,,,,,,,,,,,,,,30.07,67,83,0.00,,,,59,30.07,SCT:04 25 BKN:07 40 BKN:07 200,30.02,10.00,72,160,,15,,,,,,,,,,,,,,,,,,,,,,,,,,,,,,,,,,,,,MET13005/25/18 11:56:02 METAR KCHS 251656Z 16013KT 10SM SCT025 BKN040 BKN200 28/19 A3007 RMK AO2 SLP183 CB DSNT W AND NW T02830194 (MBT),,,,,,,,,,,,,,,,,,,,,,,,,,,,2009-06-10
72208013880,2018-05-25T13:56:00,FM-15,7,,SE,0.25,mi,"TEMP, PRECIP, SNOW",,,"MMTS, SRG, SNOWBOARD",,,WFO CHS,,,,,,,,,,,,,,,,,,,,,,,,,,,30.05,69,83,0.00,,,,63,30.04,FEW:02 25 SCT:04 120 BKN:07 200,30.00,10.00,74,150,,15,,,,,,,,,,,,,,,,,,,,,,,,,,,,,,,,,,,,,MET11305/25/18 13:56:02 METAR KCHS 251856Z 15013KT 10SM FEW025 SCT120 BKN200 28/21 A3005 RMK AO2 SLP174 T02830206 (MBT),,,,,,,,,,,,,,,,,,,,,,,,,,,,2009-06-10
72208013880,2018-05-25T14:56:00,FM-15,7,,SE,0.25,mi,"TEMP, PRECIP, SNOW",,,"MMTS, SRG, SNOWBOARD",,,WFO CHS,,,,,,,,,,,,,,,,,,,,,,,,,,,30.03,70,83,0.00,,,,65,30.02,FEW:02 25 SCT:04 120 BKN:07 250,29.98,10.00,74,150,,14,,,,,,,,,,,,,,,,,,,,,,,,,,,,,,,,,,,,,MET11305/25/18 14:56:02 METAR KCHS 251956Z 15012KT 10SM FEW025 SCT120 BKN250 28/21 A3003 RMK AO2 SLP166 T02830211 (BBE),,,,,,,,,,,,,,,,,,,,,,,,,,,,2009-06-10
72208013880,2018-05-28T11:38:00,FM-16,7,,SE,0.25,mi,"TEMP, PRECIP, SNOW",,,"MMTS, SRG, SNOWBOARD",,,WFO CHS,,,,,,,,,,,,,,,,,,,,,,,,,,,29.92,75,79,,,,,88,,BKN:07 10 OVC:08 20,29.87,10.00,76,170,,13,,,,,,,,,,,,,,,,,,,,,,,,,,,,,,,,,,,,,MET10105/28/18 11:38:02 SPECI KCHS 281638Z 17011KT 10SM BKN010 OVC020 26/24 A2992 RMK AO2 T02610239 $ (JMB),,,,,,,,,,,,,,,,,,,,,,,,,,,,2009-06-10
72208013880,2018-05-28T11:56:00,FM-15,7,,SE,0.25,mi,"TEMP, PRECIP, SNOW",,,"MMTS, SRG, SNOWBOARD",,,WFO CHS,,,,,,,,,,,,,,,,,,,,,,,,,,,29.93,75,79,0.00,,,,88,29.92,BKN:07 10 OVC:08 20,29.88,10.00,76,150,,9,,,,,,,,,,,,,,,,,,,,,,,,,,,,,,,,,,,,,MET10805/28/18 11:56:02 METAR KCHS 281656Z 15008KT 10SM BKN010 OVC020 26/24 A2993 RMK AO2 SLP133 T02610239 $ (JMB),,,,,,,,,,,,,,,,,,,,,,,,,,,,2009-06-10
72208013880,2018-05-28T12:56:00,FM-15,7,,SE,0.25,mi,"TEMP, PRECIP, SNOW",,,"MMTS, SRG, SNOWBOARD",,,WFO CHS,,,,,,,,,,,,,,,,,,,,,,,,,,,29.91,75,79,0.00,,-0.00,0,88,29.91,BKN:07 13 OVC:08 25,29.86,10.00,76,160,,11,,,,,,,,,,,,,,,,,,,,,,,,,,,,,,,,,,,,,MET13205/28/18 12:56:02 METAR KCHS 281756Z 16010KT 10SM BKN013 OVC025 26/24 A2991 RMK AO2 SLP129 60007 T02610239 10267 20250 50001 $ (JMB),,,,,,,,,,,,,,,,,,,,,,,,,,,,2009-06-10
72208013880,2018-05-28T13:00:00,FM-12,4,,SE,0.25,mi,"TEMP, PRECIP, SNOW",,,"MMTS, SRG, SNOWBOARD",,,WFO CHS,,,,,,,,,,,,,,,,,,,,,,,,,,,29.91,75,79,,,0.00,9,88,29.91,15,29.86,9.94,76,160,,11,,,,,,,,,,,,,,,,,,,,,,,,,,,,,,,,,,,,,SYN08672208 12466 81610 10261 20239 30113 40129 50001 60021 91756 333 10267 20228 555 92818=,,,,,,,,,,,,,,,,,,,,,,,,,,,,2009-06-10
72208013880,2018-05-28T13:56:00,FM-15,7,,SE,0.25,mi,"TEMP, PRECIP, SNOW",,,"MMTS, SRG, SNOWBOARD",,,WFO CHS,,,,,,,,,,,,,,,,,,,,,,,,,,,29.91,76,79,T,-RA:02 |RA |RA,,,90,29.91,BKN:07 13 OVC:08 25,29.86,10.00,77,160,,10,,,,,,,,,,,,,,,,,,,,,,,,,,,,,,,,,,,,,MET12405/28/18 13:56:02 METAR KCHS 281856Z 16009KT 10SM -RA BKN013 OVC025 26/24 A2991 RMK AO2 RAB31 SLP127 P0000 T02610244 $ (JMB),,,,,,,,,,,,,,,,,,,,,,,,,,,,2009-06-10
72208013880,2018-05-28T16:54:00,FM-16,6,,SE,0.25,mi,"TEMP, PRECIP, SNOW",,,"MMTS, SRG, SNOWBOARD",,,WFO CHS,,,,,,,,,,,,,,,,,,,,,,,,,,,29.88,73,79,,,,,84,,SCT:04 13 SCT:04 20 OVC:08 120,29.83,10.00,75,160,,11,,,,,,,,,,,,,,,,,,,,,,,,,,,,,,,,,,,,,MET11805/28/18 16:54:02 SPECI KCHS 282154Z 16010KT 10SM SCT013 SCT020 OVC120 26/23 A2988 RMK AO2 RAB06E44 P0000 $ FIBI (BBE),,,,,,,,,,,,,,,,,,,,,,,,,,,,2009-06-10
72208013880,2018-05-28T16:56:00,FM-15,6,,SE,0.25,mi,"TEMP, PRECIP, SNOW",,,"MMTS, SRG, SNOWBOARD",,,WFO CHS,,,,,,,,,,,,,,,,,,,,,,,,,,,29.88,74,79,T,,,,85,29.88,SCT:04 13 SCT:04 20 OVC:08 120,29.83,10.00,76,160,,10,,,,,,,,,,,,,,,,,,,,,,,,,,,,,,,,,,,,,MET13005/28/18 16:56:02 METAR KCHS 282156Z 16009KT 10SM SCT013 SCT020 OVC120 26/23 A2988 RMK AO2 RAB06E44 SLP117 P0000 T02610233 $ (BBE),,,,,,,,,,,,,,,,,,,,,,,,,,,,2009-06-10
72208013880,2018-05-28T17:17:00,FM-16,6,,SE,0.25,mi,"TEMP, PRECIP, SNOW",,,"MMTS, SRG, SNOWBOARD",,,WFO CHS,,,,,,,,,,,,,,,,,,,,,,,,,,,29.89,74,79,,,,,85,,BKN:07 13 BKN:07 20 OVC:08 120,29.84,10.00,76,150,,14,,,,,,,,,,,,,,,,,,,,,,,,,,,,,,,,,,,,,MET10805/28/18 17:17:02 SPECI KCHS 282217Z 15012KT 10SM BKN013 BKN020 OVC120 26/23 A2989 RMK AO2 T02610233 $ (BBE),,,,,,,,,,,,,,,,,,,,,,,,,,,,2009-06-10
72208013880,2018-05-28T17:42:00,FM-16,6,,SE,0.25,mi,"TEMP, PRECIP, SNOW",,,"MMTS, SRG, SNOWBOARD",,,WFO CHS,,,,,,,,,,,,,,,,,,,,,,,,,,,29.89,74,78,,,,,87,,FEW:02 13 SCT:04 20 OVC:08 120,29.84,10.00,75,150,,9,,,,,,,,,,,,,,,,,,,,,,,,,,,,,,,,,,,,,MET10805/28/18 17:42:02 SPECI KCHS 282242Z 15008KT 10SM FEW013 SCT020 OVC120 26/23 A2989 RMK AO2 T02560233 $ (BBE),,,,,,,,,,,,,,,,,,,,,,,,,,,,2009-06-10
72208013880,2018-05-28T17:56:00,FM-15,6,,SE,0.25,mi,"TEMP, PRECIP, SNOW",,,"MMTS, SRG, SNOWBOARD",,,WFO CHS,,,,,,,,,,,,,,,,,,,,,,,,,,,29.90,74,78,0.00,,,,87,29.89,FEW:02 13 SCT:04 20 OVC:08 120,29.85,10.00,75,150,,10,,,,,,,,,,,,,,,,,,,,,,,,,,,,,,,,,,,,,MET11505/28/18 17:56:02 METAR KCHS 282256Z 15009KT 10SM FEW013 SCT020 OVC120 26/23 A2990 RMK AO2 SLP123 T02560233 $ (BBE),,,,,,,,,,,,,,,,,,,,,,,,,,,,2009-06-10
72208013880,2018-05-30T10:56:00,FM-15,7,,SE,0.25,mi,"TEMP, PRECIP, SNOW",,,"MMTS, SRG, SNOWBOARD",,,WFO CHS,,,,,,,,,,,,,,,,,,,,,,,,,,,30.01,74,86,0.00,,,,67,30.01,SCT:04 25 BKN:07 35 BKN:07 90,29.96,10.00,78,170,,7,,,,,,,,,,,,,,,,,,,,,,,,,,,,,,,,,,,,,MET12505/30/18 10:56:02 METAR KCHS 301556Z 17006KT 10SM SCT025 BKN035 BKN090 30/23 A3001 RMK AO2 SLP163 MDT CU S-SW T03000233 (JMB),,,,,,,,,,,,,,,,,,,,,,,,,,,,2009-06-10
72208013880,2018-05-30T11:56:00,FM-15,7,,SE,0.25,mi,"TEMP, PRECIP, SNOW",,,"MMTS, SRG, SNOWBOARD",,,WFO CHS,,,,,,,,,,,,,,,,,,,,,,,,,,,30.01,73,80,0.01,,,,79,30.01,FEW:02 25 BKN:07 40 BKN:07 90,29.96,10.00,75,170,,9,,,,,,,,,,,,,,,,,,,,,,,,,,,,,,,,,,,,,MET12805/30/18 11:56:02 METAR KCHS 301656Z 17008KT 10SM FEW025 BKN040 BKN090 27/23 A3001 RMK AO2 RAB09E45 SLP162 P0001 T02670228 (JMB),,,,,,,,,,,,,,,,,,,,,,,,,,,,2009-06-10
72208013880,2018-05-30T13:05:00,FM-16,7,,SE,0.25,mi,"TEMP, PRECIP, SNOW",,,"MMTS, SRG, SNOWBOARD",,,WFO CHS,,,,,,,,,,,,,,,,,,,,,,,,,,,30.01,73,78,T,-RA:02 |RA |RA,,,85,,FEW:02 7 SCT:04 35 BKN:07 45,29.96,5.00,75,160,,16,,,,,,,,,,,,,,,,,,,,,,,,,,,,,,,,,,,,,MET12105/30/18 13:05:02 SPECI KCHS 301805Z 16014KT 5SM -RA FEW007 SCT035 BKN045 26/23 A3001 RMK AO2 RAB01 P0000 T02560228 (JMB),,,,,,,,,,,,,,,,,,,,,,,,,,,,2009-06-10
72208013880,2018-05-31T17:56:00,FM-15,7,,SE,0.25,mi,"TEMP, PRECIP, SNOW",,,"MMTS, SRG, SNOWBOARD",,,WFO CHS,,,,,,,,,,,,,,,,,,,,,,,,,,,29.94,72,78,0.00,,,,82,29.94,FEW:02 10 SCT:04 30,29.89,10.00,74,150,,11,,,,,,,,,,,,,,,,,,,,,,,,,,,,,,,,,,,,,MET12505/31/18 17:56:02 METAR KCHS 312256Z 15010KT 10SM FEW010 SCT030 26/22 A2994 RMK AO2 TSE04 SLP138 CB DSNT SE T02560222 $ (BBE),,,,,,,,,,,,,,,,,,,,,,,,,,,,2009-06-10
72208013880,2018-06-06T14:56:00,FM-15,7,,SE,0.25,mi,"TEMP, PRECIP, SNOW",,,"MMTS, SRG, SNOWBOARD",,,WFO CHS,,,,,,,,,,,,,,,,,,,,,,,,,,,29.83,68,86,0.00,,,,55,29.83,SCT:04 60 BKN:07 250,29.78,10.00,74,160,,13,,,,,,,,,,,,,,,,,,,,,,,,,,,,,,,,,,,,,MET10606/06/18 14:56:02 METAR KCHS 061956Z 16011KT 10SM SCT060 BKN250 30/20 A2983 RMK AO2 SLP101 T03000200 (BBE),,,,,,,,,,,,,,,,,,,,,,,,,,,,2009-06-10
72208013880,2018-06-07T14:56:00,FM-15,7,,SE,0.25,mi,"TEMP, PRECIP, SNOW",,,"MMTS, SRG, SNOWBOARD",,,WFO CHS,,,,,,,,,,,,,,,,,,,,,,,,,,,30.01,70,88,0.00,,,,55,30.01,FEW:02 40 FEW:02 200,29.96,10.00,76,150,,13,,,,,,,,,,,,,,,,,,,,,,,,,,,,,,,,,,,,,MET10606/07/18 14:56:02 METAR KCHS 071956Z 15011KT 10SM FEW040 FEW200 31/21 A3001 RMK AO2 SLP161 T03110211 (BBE),,,,,,,,,,,,,,,,,,,,,,,,,,,,2009-06-10
72208013880,2018-06-07T15:56:00,FM-15,7,,SE,0.25,mi,"TEMP, PRECIP, SNOW",,,"MMTS, SRG, SNOWBOARD",,,WFO CHS,,,,,,,,,,,,,,,,,,,,,,,,,,,30.00,71,86,0.00,,+0.01,8,61,30.00,FEW:02 35 FEW:02 200,29.95,10.00,76,150,,11,,,,,,,,,,,,,,,,,,,,,,,,,,,,,,,,,,,,,MET11806/07/18 15:56:02 METAR KCHS 072056Z 15010KT 10SM FEW035 FEW200 30/22 A3000 RMK AO2 SLP158 60000 T03000217 58002 (BBE),,,,,,,,,,,,,,,,,,,,,,,,,,,,2009-06-10
72208013880,2018-06-07T16:00:00,FM-12,4,,SE,0.25,mi,"TEMP, PRECIP, SNOW",,,"MMTS, SRG, SNOWBOARD",,,WFO CHS,,,,,,,,,,,,,,,,,,,,,,,,,,,30.00,71,86,,,+0.01,8,61,30.00,41,29.95,9.94,76,150,,11,,,,,,,,,,,,,,,,,,,,,,,,,,,,,,,,,,,,,SYN07072208 12666 21510 10300 20217 30143 40158 58002 69907 92056 555 90721=,,,,,,,,,,,,,,,,,,,,,,,,,,,,2009-06-10
72208013880,2018-06-07T16:56:00,FM-15,7,,SE,0.25,mi,"TEMP, PRECIP, SNOW",,,"MMTS, SRG, SNOWBOARD",,,WFO CHS,,,,,,,,,,,,,,,,,,,,,,,,,,,30.00,69,85,0.00,,,,59,30.00,FEW:02 35 SCT:04 90 SCT:04 200,29.95,10.00,74,160,,14,,,,,,,,,,,,,,,,,,,,,,,,,,,,,,,,,,,,,MET12406/07/18 16:56:02 METAR KCHS 072156Z 16012KT 10SM FEW035 SCT090 SCT200 29/21 A3000 RMK AO2 SLP158 CB DSNT NW T02940206 (BBE),,,,,,,,,,,,,,,,,,,,,,,,,,,,2009-06-10
72208013880,2018-06-07T17:56:00,FM-15,7,,SE,0.25,mi,"TEMP, PRECIP, SNOW",,,"MMTS, SRG, SNOWBOARD",,,WFO CHS,,,,,,,,,,,,,,,,,,,,,,,,,,,30.01,69,83,0.00,,,,63,30.01,FEW:02 30 FEW:02 90 SCT:04 200,29.96,10.00,74,150,,9,,,,,,,,,,,,,,,,,,,,,,,,,,,,,,,,,,,,,MET13406/07/18 17:56:02 METAR KCHS 072256Z 15008KT 10SM FEW030 FEW090 SCT200 28/21 A3001 RMK AO2 LTG DSNT W SLP161 CB DSNT W T02830206 (BBE),,,,,,,,,,,,,,,,,,,,,,,,,,,,2009-06-10
72208013880,2018-06-08T13:26:00,FM-16,7,,SE,0.25,mi,"TEMP, PRECIP, SNOW",,,"MMTS, SRG, SNOWBOARD",,,WFO CHS,,,,,,,,,,,,,,,,,,,,,,,,,,,30.15,72,75,0.01,TS:7 -RA:02 BR:1 |RA TS |RA,,,90,,BKN:07 15 BKN:07 30 OVC:08 80,30.10,3.00,73,150,,7,,,,,,,,,,,,,,,,,,,,,,,,,,,,,,,,,,,,,MET17306/08/18 13:26:02 SPECI KCHS 081826Z 15006KT 3SM -TSRA BR BKN015 BKN030CB OVC080 24/22 A3015 RMK AO2 LTG DSNT NE TSB25 OCNL LTGICCC NE-SE TS OHD MOV W P0001 T02390222 $ (MH),,,,,,,,,,,,,,,,,,,,,,,,,,,,2009-06-10
72208013880,2018-06-09T14:54:00,FM-16,6,,SE,0.25,mi,"TEMP, PRECIP, SNOW",,,"MMTS, SRG, SNOWBOARD",,,WFO CHS,,,,,,,,,,,,,,,,,,,,,,,,,,,30.05,73,79,,TS:7 |TS |,,,84,,BKN:07 21 BKN:07 49 OVC:08 120,30.00,10.00,75,160,,11,,,,,,,,,,,,,,,,,,,,,,,,,,,,,,,,,,,,,MET16406/09/18 14:54:02 SPECI KCHS 091954Z 16010KT 10SM TS BKN021CB BKN049 OVC120 26/23 A3005 RMK AO2 RAB00E22 OCNL LTGIC SE-S TS SE-S MOV W CB DSNT SW P0000 $ FIBI (JRS),,,,,,,,,,,,,,,,,,,,,,,,,,,,2009-06-10
72208013880,2018-06-09T15:19:00,FM-16,7,,SE,0.25,mi,"TEMP, PRECIP, SNOW",,,"MMTS, SRG, SNOWBOARD",,,WFO CHS,,,,,,,,,,,,,,,,,,,,,,,,,,,30.04,73,77,,,,,88,,SCT:04 21 BKN:07 45 OVC:08 120,29.99,10.00,74,160,,9,,,,,,,,,,,,,,,,,,,,,,,,,,,,,,,,,,,,,MET12406/09/18 15:19:02 SPECI KCHS 092019Z 16008KT 10SM SCT021 BKN045 OVC120 25/23 A3004 RMK AO2 TSE14 TS DSIPTD T02500228 $ (JRS),,,,,,,,,,,,,,,,,,,,,,,,,,,,2009-06-10
72208013880,2018-06-10T14:56:00,FM-15,7,,SE,0.25,mi,"TEMP, PRECIP, SNOW",,,"MMTS, SRG, SNOWBOARD",,,WFO CHS,,,,,,,,,,,,,,,,,,,,,,,,,,,29.93,73,83,0.00,|TS |,,,72,29.93,FEW:02 8 FEW:02 30,29.88,10.00,76,160,,9,,,,,,,,,,,,,,,,,,,,,,,,,,,,,,,,,,,,,MET17806/10/18 14:56:02 METAR KCHS 101956Z 16008KT 10SM TS FEW008 FEW030CB SCT1 28/23 A2993 RMK AO2 LTG DSNT S AND SW TSE19B21 SLP136 FRQ LTGCGIC SE-SW TS SE-SW STNRY T02830228 $ (JRS),,,,,,,,,,,,,,,,,,,,,,,,,,,,2009-06-10
72208013880,2018-06-13T15:56:00,FM-15,7,,SE,0.25,mi,"TEMP, PRECIP, SNOW",,,"MMTS, SRG, SNOWBOARD",,,WFO CHS,,,,,,,,,,,,,,,,,,,,,,,,,,,30.02,74,85,0.00,,+0.05,6,70,30.01,SCT:04 35 BKN:07 45,29.97,10.00,77,170,,11,,,,,,,,,,,,,,,,,,,,,,,,,,,,,,,,,,,,,MET13506/13/18 15:56:02 METAR KCHS 132056Z 17010KT 10SM SCT035 BKN045 29/23 A3002 RMK AO2 LTG DSNT NE SLP163 CB DSNT NE T02940233 56018 (BBE),,,,,,,,,,,,,,,,,,,,,,,,,,,,2009-06-10
72208013880,2018-06-13T16:00:00,FM-12,4,,SE,0.25,mi,"TEMP, PRECIP, SNOW",,,"MMTS, SRG, SNOWBOARD",,,WFO CHS,,,,,,,,,,,,,,,,,,,,,,,,,,,30.02,74,85,,,+0.05,6,70,30.01,41,29.97,9.94,77,170,,11,,,,,,,,,,,,,,,,,,,,,,,,,,,,,,,,,,,,,SYN06472208 32666 61710 10294 20233 30150 40163 56018 92056 555 91321=,,,,,,,,,,,,,,,,,,,,,,,,,,,,2009-06-10
72208013880,2018-06-17T14:56:00,FM-15,7,,SE,0.25,mi,"TEMP, PRECIP, SNOW",,,"MMTS, SRG, SNOWBOARD",,,WFO CHS,,,,,,,,,,,,,,,,,,,,,,,,,,,30.10,73,90,0.00,,,,58,30.09,FEW:02 30 FEW:02 250,30.05,10.00,78,150,,14,,,,,,,,,,,,,,,,,,,,,,,,,,,,,,,,,,,,,MET10806/17/18 14:56:02 METAR KCHS 171956Z 15012KT 10SM FEW030 FEW250 32/23 A3010 RMK AO2 SLP191 T03220228 $ (JRS),,,,,,,,,,,,,,,,,,,,,,,,,,,,2009-06-10
72208013880,2018-06-17T16:56:00,FM-15,7,,SE,0.25,mi,"TEMP, PRECIP, SNOW",,,"MMTS, SRG, SNOWBOARD",,,WFO CHS,,,,,,,,,,,,,,,,,,,,,,,,,,,30.09,72,87,0.00,,,,61,30.09,FEW:02 35 FEW:02 250,30.04,10.00,77,150,,14,,,,,,,,,,,,,,,,,,,,,,,,,,,,,,,,,,,,,MET13106/17/18 16:56:02 METAR KCHS 172156Z 15012KT 10SM FEW035 FEW250 31/22 A3009 RMK AO2 LTG DSNT NW SLP188 CB DSNT NW T03060222 $ (JRS),,,,,,,,,,,,,,,,,,,,,,,,,,,,2009-06-10
72208013880,2018-06-17T17:56:00,FM-15,7,,SE,0.25,mi,"TEMP, PRECIP, SNOW",,,"MMTS, SRG, SNOWBOARD",,,WFO CHS,,,,,,,,,,,,,,,,,,,,,,,,,,,30.08,73,85,0.00,,,,68,30.08,FEW:02 19 SCT:04 250,30.03,10.00,77,160,,11,,,,,,,,,,,,,,,,,,,,,,,,,,,,,,,,,,,,,MET10806/17/18 17:56:02 METAR KCHS 172256Z 16010KT 10SM FEW019 SCT250 29/23 A3008 RMK AO2 SLP187 T02940228 $ (JRS),,,,,,,,,,,,,,,,,,,,,,,,,,,,2009-06-10
72208013880,2018-06-26T16:00:00,FM-12,4,,SE,0.25,mi,"TEMP, PRECIP, SNOW",,,"MMTS, SRG, SNOWBOARD",,,WFO CHS,,,,,,,,,,,,,,,,,,,,,,,,,,,30.05,75,88,,,+0.06,8,66,30.05,26,30.00,9.94,79,150,,9,,,,,,,,,,,,,,,,,,,,,,,,,,,,,,,,,,,,,SYN06472208 32566 41508 10311 20239 30160 40175 58019 92056 555 92621=,,,,,,,,,,,,,,,,,,,,,,,,,,,,2009-06-10
72208013880,2018-06-29T15:56:00,FM-15,7,,SE,0.25,mi,"TEMP, PRECIP, SNOW",,,"MMTS, SRG, SNOWBOARD",,,WFO CHS,,,,,,,,,,,,,,,,,,,,,,,,,,,29.99,73,89,0.00,,+0.02,5,59,29.98,FEW:02 35 SCT:04 150 SCT:04 250,29.94,10.00,78,170,,13,,,,,,,,,,,,,,,,,,,,,,,,,,,,,,,,,,,,,MET11906/29/18 15:56:02 METAR KCHS 292056Z 17011KT 10SM FEW035 SCT150 SCT250 32/23 A2999 RMK AO2 SLP154 T03170228 55006 (BBE),,,,,,,,,,,,,,,,,,,,,,,,,,,,2009-06-10
72208013880,2018-06-29T16:00:00,FM-12,4,,SE,0.25,mi,"TEMP, PRECIP, SNOW",,,"MMTS, SRG, SNOWBOARD",,,WFO CHS,,,,,,,,,,,,,,,,,,,,,,,,,,,29.99,73,89,,,+0.02,5,59,29.98,41,29.94,9.94,78,170,,13,,,,,,,,,,,,,,,,,,,,,,,,,,,,,,,,,,,,,SYN06472208 32666 41711 10317 20228 30140 40154 55006 92056 555 92921=,,,,,,,,,,,,,,,,,,,,,,,,,,,,2009-06-10
72208013880,2018-06-29T16:56:00,FM-15,7,,SE,0.25,mi,"TEMP, PRECIP, SNOW",,,"MMTS, SRG, SNOWBOARD",,,WFO CHS,,,,,,,,,,,,,,,,,,,,,,,,,,,29.98,71,88,0.00,,,,57,29.98,FEW:02 35 FEW:02 150 BKN:07 250,29.93,10.00,76,150,,10,,,,,,,,,,,,,,,,,,,,,,,,,,,,,,,,,,,,,MET11306/29/18 16:56:02 METAR KCHS 292156Z 15009KT 10SM FEW035 FEW150 BKN250 31/22 A2998 RMK AO2 SLP151 T03110217 (BBE),,,,,,,,,,,,,,,,,,,,,,,,,,,,2009-06-10
72208013880,2018-06-30T14:56:00,FM-15,7,,SE,0.25,mi,"TEMP, PRECIP, SNOW",,,"MMTS, SRG, SNOWBOARD",,,WFO CHS,,,,,,,,,,,,,,,,,,,,,,,,,,,30.04,76,85,T,-RA:02 |RA |RA,,,75,30.03,SCT:04 24 SCT:04 120 BKN:07 250,29.99,10.00,79,160,,7,,,,,,,,,,,,,,,,,,,,,,,,,,,,,,,,,,,,,MET15206/30/18 14:56:02 METAR KCHS 301956Z 16006KT 10SM -RA SCT024 SCT120 BKN250 29/24 A3004 RMK AO2 LTG DSNT SW RAB48 SLP171 CB DSNT SW P0000 T02940244 (JRS),,,,,,,,,,,,,,,,,,,,,,,,,,,,2009-06-10
72208013880,2018-06-30T15:56:00,FM-15,7,,SE,0.25,mi,"TEMP, PRECIP, SNOW",,,"MMTS, SRG, SNOWBOARD",,,WFO CHS,,,,,,,,,,,,,,,,,,,,,,,,,,,30.03,76,87,T,,+0.05,6,70,30.03,FEW:02 25 BKN:07 250,29.98,10.00,79,150,,13,,,,,,,,,,,,,,,,,,,,,,,,,,,,,,,,,,,,,MET15806/30/18 15:56:02 METAR KCHS 302056Z 15011KT 10SM FEW025 BKN250 31/24 A3003 RMK AO2 LTG DSNT N RAE01 SLP168 CB DSNT W AND NW P0000 60000 T03060244 56016 (JRS),,,,,,,,,,,,,,,,,,,,,,,,,,,,2009-06-10
72208013880,2018-06-30T16:00:00,FM-12,4,,SE,0.25,mi,"TEMP, PRECIP, SNOW",,,"MMTS, SRG, SNOWBOARD",,,WFO CHS,,,,,,,,,,,,,,,,,,,,,,,,,,,30.03,76,87,,,+0.05,6,70,30.03,26,29.98,9.94,79,150,,13,,,,,,,,,,,,,,,,,,,,,,,,,,,,,,,,,,,,,SYN07072208 12566 61511 10306 20244 30153 40168 56016 69907 92056 555 93021=,,,,,,,,,,,,,,,,,,,,,,,,,,,,2009-06-10
72208013880,2018-07-01T13:56:00,FM-15,7,,SE,0.25,mi,"TEMP, PRECIP, SNOW",,,"MMTS, SRG, SNOWBOARD",,,WFO CHS,,,,,,,,,,,,,,,,,,,,,,,,,,,30.06,76,90,0.00,,,,63,30.05,SCT:04 36 SCT:04 250,30.01,10.00,80,170,,7,,,,,,,,,,,,,,,,,,,,,,,,,,,,,,,,,,,,,MET13007/01/18 13:56:02 METAR KCHS 011856Z 17006KT 10SM SCT036 SCT250 32/24 A3006 RMK AO2 LTG DSNT NE SLP177 CB DSNT NE T03220244 $ (MH),,,,,,,,,,,,,,,,,,,,,,,,,,,,2009-06-10
72208013880,2018-07-01T16:56:00,FM-15,7,,SE,0.25,mi,"TEMP, PRECIP, SNOW",,,"MMTS, SRG, SNOWBOARD",,,WFO CHS,,,,,,,,,,,,,,,,,,,,,,,,,,,30.04,73,89,0.00,,,,59,30.03,FEW:02 28 BKN:07 250,29.99,10.00,78,150,,14,,,,,,,,,,,,,,,,,,,,,,,,,,,,,,,,,,,,,MET10807/01/18 16:56:02 METAR KCHS 012156Z 15012KT 10SM FEW028 BKN250 32/23 A3004 RMK AO2 SLP170 T03170228 $ (JRS),,,,,,,,,,,,,,,,,,,,,,,,,,,,2009-06-10
72208013880,2018-07-01T17:56:00,FM-15,7,,SE,0.25,mi,"TEMP, PRECIP, SNOW",,,"MMTS, SRG, SNOWBOARD",,,WFO CHS,,,,,,,,,,,,,,,,,,,,,,,,,,,30.03,75,87,0.00,,,,67,30.03,FEW:02 23 SCT:04 250,29.98,10.00,78,160,,10,,,,,,,,,,,,,,,,,,,,,,,,,,,,,,,,,,,,,MET10807/01/18 17:56:02 METAR KCHS 012256Z 16009KT 10SM FEW023 SCT250 31/24 A3003 RMK AO2 SLP170 T03060239 $ (JRS),,,,,,,,,,,,,,,,,,,,,,,,,,,,2009-06-10
72208013880,2018-07-02T14:56:00,FM-15,7,,SE,0.25,mi,"TEMP, PRECIP, SNOW",,,"MMTS, SRG, SNOWBOARD",,,WFO CHS,,,,,,,,,,,,,,,,,,,,,,,,,,,30.06,76,88,0.00,,,,68,30.06,SCT:04 30 BKN:07 200,30.01,10.00,79,150,,7,,,,,,,,,,,,,,,,,,,,,,,,,,,,,,,,,,,,,MET10607/02/18 14:56:02 METAR KCHS 021956Z 15006KT 10SM SCT030 BKN200 31/24 A3006 RMK AO2 SLP178 T03110244 (BBE),,,,,,,,,,,,,,,,,,,,,,,,,,,,2009-06-10
72208013880,2018-07-05T11:56:00,FM-15,7,,SE,0.25,mi,"TEMP, PRECIP, SNOW",,,"MMTS, SRG, SNOWBOARD",,,WFO CHS,,,,,,,,,,,,,,,,,,,,,,,,,,,30.23,72,89,0.00,,,,57,30.22,SCT:04 35 SCT:04 250,30.18,10.00,77,160,,14,,,,,,,,,,,,,,,,,,,,,,,,,,,,,,,,,,,,,MET10607/05/18 11:56:02 METAR KCHS 051656Z 16012KT 10SM SCT035 SCT250 32/22 A3023 RMK AO2 SLP235 T03170222 (JMB),,,,,,,,,,,,,,,,,,,,,,,,,,,,2009-06-10
72208013880,2018-07-05T16:56:00,FM-15,7,,SE,0.25,mi,"TEMP, PRECIP, SNOW",,,"MMTS, SRG, SNOWBOARD",,,WFO CHS,,,,,,,,,,,,,,,,,,,,,,,,,,,30.17,74,88,0.00,,,,63,30.16,FEW:02 35 BKN:07 250,30.12,10.00,78,150,,10,,,,,,,,,,,,,,,,,,,,,,,,,,,,,,,,,,,,,MET10607/05/18 16:56:02 METAR KCHS 052156Z 15009KT 10SM FEW035 BKN250 31/23 A3017 RMK AO2 SLP214 T03110233 (BBE),,,,,,,,,,,,,,,,,,,,,,,,,,,,2009-06-10
72208013880,2018-07-15T12:56:00,FM-15,7,,SE,0.25,mi,"TEMP, PRECIP, SNOW",,,"MMTS, SRG, SNOWBOARD",,,WFO CHS,,,,,,,,,,,,,,,,,,,,,,,,,,,30.06,68,87,0.00,,+0.03,8,53,30.06,BKN:07 50 BKN:07 200,30.01,10.00,74,150,,10,,,,,,,,,,,,,,,,,,,,,,,,,,,,,,,,,,,,,MET12307/15/18 12:56:02 METAR KCHS 151756Z 15009KT 10SM BKN050 BKN200 31/20 A3006 RMK AO2 SLP180 T03060200 10328 20256 58009 (MH),,,,,,,,,,,,,,,,,,,,,,,,,,,,2009-06-10
72208013880,2018-07-15T13:00:00,FM-12,4,,SE,0.25,mi,"TEMP, PRECIP, SNOW",,,"MMTS, SRG, SNOWBOARD",,,WFO CHS,,,,,,,,,,,,,,,,,,,,,,,,,,,30.06,68,87,,,+0.03,8,53,30.06,57,30.01,9.94,74,150,,10,,,,,,,,,,,,,,,,,,,,,,,,,,,,,,,,,,,,,SYN08072208 32766 61509 10306 20200 30163 40180 58009 91756 333 10328 20256 555 91518=,,,,,,,,,,,,,,,,,,,,,,,,,,,,2009-06-10
72208013880,2018-07-15T13:56:00,FM-15,7,,SE,0.25,mi,"TEMP, PRECIP, SNOW",,,"MMTS, SRG, SNOWBOARD",,,WFO CHS,,,,,,,,,,,,,,,,,,,,,,,,,,,30.05,70,89,0.00,,,,53,30.04,FEW:02 50 BKN:07 250,30.00,10.00,76,150,,8,,,,,,,,,,,,,,,,,,,,,,,,,,,,,,,,,,,,,MET10507/15/18 13:56:02 METAR KCHS 151856Z 15007KT 10SM FEW050 BKN250 32/21 A3005 RMK AO2 SLP173 T03170211 (MH),,,,,,,,,,,,,,,,,,,,,,,,,,,,2009-06-10
72208013880,2018-07-15T14:56:00,FM-15,7,,SE,0.25,mi,"TEMP, PRECIP, SNOW",,,"MMTS, SRG, SNOWBOARD",,,WFO CHS,,,,,,,,,,,,,,,,,,,,,,,,,,,30.03,70,90,0.00,,,,52,30.03,SCT:04 50 BKN:07 250,29.98,10.00,76,160,,9,,,,,,,,,,,,,,,,,,,,,,,,,,,,,,,,,,,,,MET10607/15/18 14:56:02 METAR KCHS 151956Z 16008KT 10SM SCT050 BKN250 32/21 A3003 RMK AO2 SLP170 T03220211 (JRS),,,,,,,,,,,,,,,,,,,,,,,,,,,,2009-06-10
72208013880,2018-07-15T15:56:00,FM-15,7,,SE,0.25,mi,"TEMP, PRECIP, SNOW",,,"MMTS, SRG, SNOWBOARD",,,WFO CHS,,,,,,,,,,,,,,,,,,,,,,,,,,,30.03,70,88,0.00,,+0.04,6,55,30.02,FEW:02 50 SCT:04 250,29.98,10.00,76,150,,11,,,,,,,,,,,,,,,,,,,,,,,,,,,,,,,,,,,,,MET11207/15/18 15:56:02 METAR KCHS 152056Z 15010KT 10SM FEW050 SCT250 31/21 A3003 RMK AO2 SLP166 T03110211 56013 (JRS),,,,,,,,,,,,,,,,,,,,,,,,,,,,2009-06-10
72208013880,2018-07-15T16:00:00,FM-12,4,,SE,0.25,mi,"TEMP, PRECIP, SNOW",,,"MMTS, SRG, SNOWBOARD",,,WFO CHS,,,,,,,,,,,,,,,,,,,,,,,,,,,30.03,70,88,,,+0.04,6,55,30.02,57,29.98,9.94,76,150,,11,,,,,,,,,,,,,,,,,,,,,,,,,,,,,,,,,,,,,SYN06472208 32766 41510 10311 20211 30153 40166 56013 92056 555 91521=,,,,,,,,,,,,,,,,,,,,,,,,,,,,2009-06-10
72208013880,2018-07-15T16:56:00,FM-15,7,,SE,0.25,mi,"TEMP, PRECIP, SNOW",,,"MMTS, SRG, SNOWBOARD",,,WFO CHS,,,,,,,,,,,,,,,,,,,,,,,,,,,30.01,70,87,0.00,,,,57,30.01,SCT:04 250,29.96,10.00,75,150,,14,,,,,,,,,,,,,,,,,,,,,,,,,,,,,,,,,,,,,MET09907/15/18 16:56:02 METAR KCHS 152156Z 15012KT 10SM SCT250 31/21 A3001 RMK AO2 SLP161 T03060211 (JRS),,,,,,,,,,,,,,,,,,,,,,,,,,,,2009-06-10
72208013880,2018-07-15T17:56:00,FM-15,7,,SE,0.25,mi,"TEMP, PRECIP, SNOW",,,"MMTS, SRG, SNOWBOARD",,,WFO CHS,,,,,,,,,,,,,,,,,,,,,,,,,,,30.02,67,85,0.00,,,,55,30.01,SCT:04 250,29.97,10.00,73,150,,10,,,,,,,,,,,,,,,,,,,,,,,,,,,,,,,,,,,,,MET09907/15/18 17:56:02 METAR KCHS 152256Z 15009KT 10SM SCT250 29/19 A3002 RMK AO2 SLP164 T02940194 (JRS),,,,,,,,,,,,,,,,,,,,,,,,,,,,2009-06-10
72208013880,2018-07-16T12:56:00,FM-15,7,,SE,0.25,mi,"TEMP, PRECIP, SNOW",,,"MMTS, SRG, SNOWBOARD",,,WFO CHS,,,,,,,,,,,,,,,,,,,,,,,,,,,30.05,74,88,0.00,,+0.01,8,63,30.05,FEW:02 30 BKN:07 60 BKN:07 200,30.00,10.00,78,160,,10,,,,,,,,,,,,,,,,,,,,,,,,,,,,,,,,,,,,,MET13107/16/18 12:56:02 METAR KCHS 161756Z 16009KT 10SM FEW030 BKN060 BKN200 31/23 A3005 RMK AO2 SLP175 T03110233 10317 20261 58004 (JMB),,,,,,,,,,,,,,,,,,,,,,,,,,,,2009-06-10
72208013880,2018-07-16T13:00:00,FM-12,4,,SE,0.25,mi,"TEMP, PRECIP, SNOW",,,"MMTS, SRG, SNOWBOARD",,,WFO CHS,,,,,,,,,,,,,,,,,,,,,,,,,,,30.05,74,88,,,+0.01,8,63,30.05,26,30.00,9.94,78,160,,10,,,,,,,,,,,,,,,,,,,,,,,,,,,,,,,,,,,,,SYN08072208 32566 61609 10311 20233 30160 40175 58004 91756 333 10317 20261 555 91618=,,,,,,,,,,,,,,,,,,,,,,,,,,,,2009-06-10
72208013880,2018-07-18T17:56:00,FM-15,7,,SE,0.25,mi,"TEMP, PRECIP, SNOW",,,"MMTS, SRG, SNOWBOARD",,,WFO CHS,,,,,,,,,,,,,,,,,,,,,,,,,,,29.91,76,83,T,VCTS:7 ||,,,79,29.90,FEW:02 30 SCT:04 65 BKN:07 200,29.86,10.00,78,150,,7,,,,,,,,,,,,,,,,,,,,,,,,,,,,,,,,,,,,,MET18307/18/18 17:56:02 METAR KCHS 182256Z 15006KT 10SM VCTS FEW030CB SCT065 BKN200 28/24 A2991 RMK AO2 LTG DSNT W-NE RAB10E35 TSE05 SLP126 OCNL LTGIC N TS VC N MOV SE P0000 T02830244 (BBE),,,,,,,,,,,,,,,,,,,,,,,,,,,,2009-06-10
72208013880,2018-07-19T10:56:00,FM-15,7,,SE,0.25,mi,"TEMP, PRECIP, SNOW",,,"MMTS, SRG, SNOWBOARD",,,WFO CHS,,,,,,,,,,,,,,,,,,,,,,,,,,,30.01,77,78,0.07,-RA:02 BR:1 |RA |RA,,,97,30.01,FEW:02 15 BKN:07 30 BKN:07 55,29.96,4.00,77,170,,7,,,,,,,,,,,,,,,,,,,,,,,,,,,,,,,,,,,,,MET14607/19/18 10:56:02 METAR KCHS 191556Z 17006KT 4SM -RA BR FEW015 BKN030 BKN055 26/25 A3001 RMK AO2 LTG DSNT E SLP162 CB DSNT E P0008 T02560250 (JMB),,,,,,,,,,,,,,,,,,,,,,,,,,,,2009-06-10
72208013880,2018-07-23T10:56:00,FM-15,7,,SE,0.25,mi,"TEMP, PRECIP, SNOW",,,"MMTS, SRG, SNOWBOARD",,,WFO CHS,,,,,,,,,,,,,,,,,,,,,,,,,,,29.81,76,87,0.00,,,,70,29.81,SCT:04 25 BKN:07 250,29.76,10.00,79,150,,10,,,,,,,,,,,,,,,,,,,,,,,,,,,,,,,,,,,,,MET10607/23/18 10:56:02 METAR KCHS 231556Z 15009KT 10SM SCT025 BKN250 31/24 A2981 RMK AO2 SLP094 T03060244 (JMB),,,,,,,,,,,,,,,,,,,,,,,,,,,,2009-06-10
72208013880,2018-07-23T11:56:00,FM-15,7,,SE,0.25,mi,"TEMP, PRECIP, SNOW",,,"MMTS, SRG, SNOWBOARD",,,WFO CHS,,,,,,,,,,,,,,,,,,,,,,,,,,,29.81,76,88,0.00,,,,68,29.80,SCT:04 30 BKN:07 250,29.76,10.00,79,170,,9,,,,,,,,,,,,,,,,,,,,,,,,,,,,,,,,,,,,,MET10607/23/18 11:56:02 METAR KCHS 231656Z 17008KT 10SM SCT030 BKN250 31/24 A2981 RMK AO2 SLP093 T03110244 (JMB),,,,,,,,,,,,,,,,,,,,,,,,,,,,2009-06-10
72208013880,2018-07-23T12:56:00,FM-15,7,,SE,0.25,mi,"TEMP, PRECIP, SNOW",,,"MMTS, SRG, SNOWBOARD",,,WFO CHS,,,,,,,,,,,,,,,,,,,,,,,,,,,29.82,75,87,0.00,,-0.02,3,67,29.82,SCT:04 30 SCT:04 70 BKN:07 200,29.77,10.00,78,150,,9,,,,,,,,,,,,,,,,,,,,,,,,,,,,,,,,,,,,,MET13107/23/18 12:56:02 METAR KCHS 231756Z 15008KT 10SM SCT030 SCT070 BKN200 31/24 A2982 RMK AO2 SLP098 T03060239 10317 20244 53006 (JMB),,,,,,,,,,,,,,,,,,,,,,,,,,,,2009-06-10
72208013880,2018-07-23T13:00:00,FM-12,4,,SE,0.25,mi,"TEMP, PRECIP, SNOW",,,"MMTS, SRG, SNOWBOARD",,,WFO CHS,,,,,,,,,,,,,,,,,,,,,,,,,,,29.82,75,87,,,-0.02,3,67,29.82,26,29.77,9.94,78,150,,9,,,,,,,,,,,,,,,,,,,,,,,,,,,,,,,,,,,,,SYN08072208 32566 61508 10306 20239 30082 40098 53006 91756 333 10317 20244 555 92318=,,,,,,,,,,,,,,,,,,,,,,,,,,,,2009-06-10
72208013880,2018-07-23T14:56:00,FM-15,7,,SE,0.25,mi,"TEMP, PRECIP, SNOW",,,"MMTS, SRG, SNOWBOARD",,,WFO CHS,,,,,,,,,,,,,,,,,,,,,,,,,,,29.81,73,86,0.00,,,,65,29.80,SCT:04 25 SCT:04 35 BKN:07 120,29.76,10.00,77,160,,16,,,,,,,,,,,,,,,,,,,,,,,,,,,,,,,,,,,,,MET11307/23/18 14:56:02 METAR KCHS 231956Z 16014KT 10SM SCT025 SCT035 BKN120 30/23 A2981 RMK AO2 SLP093 T03000228 (BBE),,,,,,,,,,,,,,,,,,,,,,,,,,,,2009-06-10
72208013880,2018-07-23T15:56:00,FM-15,7,,SE,0.25,mi,"TEMP, PRECIP, SNOW",,,"MMTS, SRG, SNOWBOARD",,,WFO CHS,,,,,,,,,,,,,,,,,,,,,,,,,,,29.81,74,85,0.00,,+0.01,6,70,29.80,FEW:02 25 SCT:04 35 BKN:07 120,29.76,10.00,77,150,,16,,,,,,,,,,,,,,,,,,,,,,,,,,,,,,,,,,,,,MET11907/23/18 15:56:02 METAR KCHS 232056Z 15014KT 10SM FEW025 SCT035 BKN120 29/23 A2981 RMK AO2 SLP093 T02940233 56005 (BBE),,,,,,,,,,,,,,,,,,,,,,,,,,,,2009-06-10
72208013880,2018-07-23T16:00:00,FM-12,4,,SE,0.25,mi,"TEMP, PRECIP, SNOW",,,"MMTS, SRG, SNOWBOARD",,,WFO CHS,,,,,,,,,,,,,,,,,,,,,,,,,,,29.81,74,85,,,+0.01,6,70,29.80,26,29.76,9.94,77,150,,16,,,,,,,,,,,,,,,,,,,,,,,,,,,,,,,,,,,,,SYN06472208 32566 61514 10294 20233 30079 40093 56005 92056 555 92321=,,,,,,,,,,,,,,,,,,,,,,,,,,,,2009-06-10
72208013880,2018-07-23T16:56:00,FM-15,7,,SE,0.25,mi,"TEMP, PRECIP, SNOW",,,"MMTS, SRG, SNOWBOARD",,,WFO CHS,,,,,,,,,,,,,,,,,,,,,,,,,,,29.82,73,85,0.00,,,,68,29.82,SCT:04 20 SCT:04 30 BKN:07 150,29.77,10.00,77,160,,15,,,,,,,,,,,,,,,,,,,,,,,,,,,,,,,,,,,,,MET11307/23/18 16:56:02 METAR KCHS 232156Z 16013KT 10SM SCT020 SCT030 BKN150 29/23 A2982 RMK AO2 SLP098 T02940228 (BBE),,,,,,,,,,,,,,,,,,,,,,,,,,,,2009-06-10
72208013880,2018-07-24T11:29:00,FM-16,7,,SE,0.25,mi,"TEMP, PRECIP, SNOW",,,"MMTS, SRG, SNOWBOARD",,,WFO CHS,,,,,,,,,,,,,,,,,,,,,,,,,,,29.92,76,88,,VCTS:7 ||,,,68,,FEW:02 20 BKN:07 25 BKN:07 80,29.87,10.00,79,160,,11,,,,,,,,,,,,,,,,,,,,,,,,,,,,,,,,,,,,,MET16107/24/18 11:29:02 SPECI KCHS 241629Z 16010KT 10SM VCTS FEW020 BKN025CB BKN080 31/24 A2992 RMK AO2 LTG DSNT W TSE26 OCNL LTGICCC NW TS VC NW MOV N T03110244 (JMB),,,,,,,,,,,,,,,,,,,,,,,,,,,,2009-06-10
72208013880,2018-07-24T11:50:00,FM-16,7,,SE,0.25,mi,"TEMP, PRECIP, SNOW",,,"MMTS, SRG, SNOWBOARD",,,WFO CHS,,,,,,,,,,,,,,,,,,,,,,,,,,,29.92,75,88,,VCTS:7 ||,,,66,,SCT:04 25 BKN:07 80 BKN:07 250,29.87,10.00,79,170,,14,,,,,,,,,,,,,,,,,,,,,,,,,,,,,,,,,,,,,MET18007/24/18 11:50:02 SPECI KCHS 241650Z 17012KT 10SM VCTS SCT025CB BKN080 BKN250 31/24 A2992 RMK AO2 LTG DSNT W AND NW TSE26 OCNL LTGICCC W AND NW TS VC W AND NW MOV N T03110239 (JMB),,,,,,,,,,,,,,,,,,,,,,,,,,,,2009-06-10
72208013880,2018-07-24T13:56:00,FM-15,7,,SE,0.25,mi,"TEMP, PRECIP, SNOW",,,"MMTS, SRG, SNOWBOARD",,,WFO CHS,,,,,,,,,,,,,,,,,,,,,,,,,,,29.90,76,88,T,,,,68,29.89,FEW:02 25 SCT:04 50 BKN:07 250,29.85,10.00,79,170,,9,,,,,,,,,,,,,,,,,,,,,,,,,,,,,,,,,,,,,MET12807/24/18 13:56:02 METAR KCHS 241856Z 17008KT 10SM FEW025 SCT050 BKN250 31/24 A2990 RMK AO2 RAB44E54 SLP123 P0000 T03110244 (JMB),,,,,,,,,,,,,,,,,,,,,,,,,,,,2009-06-10
72208013880,2018-07-24T14:56:00,FM-15,7,,SE,0.25,mi,"TEMP, PRECIP, SNOW",,,"MMTS, SRG, SNOWBOARD",,,WFO CHS,,,,,,,,,,,,,,,,,,,,,,,,,,,29.88,75,89,0.00,,,,63,29.88,SCT:04 30 SCT:04 250,29.83,10.00,79,160,,11,,,,,,,,,,,,,,,,,,,,,,,,,,,,,,,,,,,,,MET10607/24/18 14:56:02 METAR KCHS 241956Z 16010KT 10SM SCT030 SCT250 32/24 A2988 RMK AO2 SLP118 T03170239 (BBE),,,,,,,,,,,,,,,,,,,,,,,,,,,,2009-06-10
72208013880,2018-07-24T17:56:00,FM-15,7,,SE,0.25,mi,"TEMP, PRECIP, SNOW",,,"MMTS, SRG, SNOWBOARD",,,WFO CHS,,,,,,,,,,,,,,,,,,,,,,,,,,,29.90,74,84,0.00,,,,72,29.90,SCT:04 30 SCT:04 40 BKN:07 55,29.85,10.00,77,170,,10,,,,,,,,,,,,,,,,,,,,,,,,,,,,,,,,,,,,,MET13407/24/18 17:56:02 METAR KCHS 242256Z 17009KT 10SM SCT030 SCT040 BKN055 29/23 A2990 RMK AO2 LTG DSNT W SLP125 CB DSNT W T02890233 (BBE),,,,,,,,,,,,,,,,,,,,,,,,,,,,2009-06-10
72208013880,2018-07-26T11:56:00,FM-15,7,,SE,0.25,mi,"TEMP, PRECIP, SNOW",,,"MMTS, SRG, SNOWBOARD",,,WFO CHS,,,,,,,,,,,,,,,,,,,,,,,,,,,29.98,77,90,T,,,,66,29.97,FEW:02 30 SCT:04 40,29.93,10.00,81,170,,7,,,,,,,,,,,,,,,,,,,,,,,,,,,,,,,,,,,,,MET12107/26/18 11:56:02 METAR KCHS 261656Z 17006KT 10SM FEW030 SCT040 32/25 A2998 RMK AO2 RAB23E33 SLP150 P0000 T03220250 (JMB),,,,,,,,,,,,,,,,,,,,,,,,,,,,2009-06-10
72208013880,2018-07-26T13:23:00,FM-16,7,,SE,0.25,mi,"TEMP, PRECIP, SNOW",,,"MMTS, SRG, SNOWBOARD",,,WFO CHS,,,,,,,,,,,,,,,,,,,,,,,,,,,29.96,78,86,,VCTS:7 ||,,,77,,SCT:04 35 BKN:07 45,29.91,10.00,80,150,,14,,,,,,,,,,,,,,,,,,,,,,,,,,,,,,,,,,,,,MET16207/26/18 13:23:02 SPECI KCHS 261823Z 15012KT 10SM VCTS SCT035CB BKN045 30/26 A2996 RMK AO2 WSHFT 1804 LTG DSNT ALQDS OCNL LTGICCC E TS VC E MOV NE T03000256 (JMB),,,,,,,,,,,,,,,,,,,,,,,,,,,,2009-06-10
72208013880,2018-07-27T11:35:00,FM-16,7,,SE,0.25,mi,"TEMP, PRECIP, SNOW",,,"MMTS, SRG, SNOWBOARD",,,WFO CHS,,,,,,,,,,,,,,,,,,,,,,,,,,,30.03,79,86,,VCTS:7 ||,,,80,,FEW:02 35 SCT:04 45 SCT:04 120,29.98,10.00,81,160,,8,,,,,,,,,,,,,,,,,,,,,,,,,,,,,,,,,,,,,MET17407/27/18 11:35:02 SPECI KCHS 271635Z 16007KT 10SM VCTS FEW035 SCT045CB SCT120 30/26 A3003 RMK AO2 LTG DSNT ALQDS OCNL LTGICCG SW TS VC SW MOV NE CB DSNT ALQDS T03000261 (MBT),,,,,,,,,,,,,,,,,,,,,,,,,,,,2009-06-10
72208013880,2018-07-28T11:56:00,FM-15,7,,SE,0.25,mi,"TEMP, PRECIP, SNOW",,,"MMTS, SRG, SNOWBOARD",,,WFO CHS,,,,,,,,,,,,,,,,,,,,,,,,,,,30.03,76,89,0.00,,,,65,30.03,FEW:02 40 FEW:02 200,29.98,10.00,80,160,,7,,,,,,,,,,,,,,,,,,,,,,,,,,,,,,,,,,,,,MET10507/28/18 11:56:02 METAR KCHS 281656Z 16006KT 10SM FEW040 FEW200 32/24 A3003 RMK AO2 SLP169 T03170244 (MH),,,,,,,,,,,,,,,,,,,,,,,,,,,,2009-06-10
72208013880,2018-07-29T12:41:00,FM-16,7,,SE,0.25,mi,"TEMP, PRECIP, SNOW",,,"MMTS, SRG, SNOWBOARD",,,WFO CHS,,,,,,,,,,,,,,,,,,,,,,,,,,,30.05,75,82,,TS:7 |TS TS |,,,79,,SCT:04 47 BKN:07 200,30.00,10.00,77,150,,10,,,,,,,,,,,,,,,,,,,,,,,,,,,,,,,,,,,,,MET16707/29/18 12:41:02 SPECI KCHS 291741Z 15009KT 10SM TS SCT047CB BKN200 28/24 A3005 RMK AO2 LTG DSNT N AND NE TSB36 OCNL LTGICCC W AND NE TS W AND NE MOV N T02780239 (MH),,,,,,,,,,,,,,,,,,,,,,,,,,,,2009-06-10
72208013880,2018-07-29T12:56:00,FM-15,7,,SE,0.25,mi,"TEMP, PRECIP, SNOW",,,"MMTS, SRG, SNOWBOARD",,,WFO CHS,,,,,,,,,,,,,,,,,,,,,,,,,,,30.05,76,82,0.00,TS:7 |TS TS |,+0.00,6,82,30.05,SCT:04 47 BKN:07 200,30.00,10.00,78,160,,10,,,,,,,,,,,,,,,,,,,,,,,,,,,,,,,,,,,,,MET16607/29/18 12:56:02 METAR KCHS 291756Z 16009KT 10SM TS SCT047CB BKN200 28/24 A3005 RMK AO2 TSB36 SLP175 OCNL LTGICCC W TS W MOV N 60000 T02780244 10311 20261 56001 (MH),,,,,,,,,,,,,,,,,,,,,,,,,,,,2009-06-10
72208013880,2018-07-29T13:00:00,FM-12,4,,SE,0.25,mi,"TEMP, PRECIP, SNOW",,,"MMTS, SRG, SNOWBOARD",,,WFO CHS,,,,,,,,,,,,,,,,,,,,,,,,,,,30.05,76,82,,||TS,+0.00,6,82,30.05,41,30.00,9.94,78,160,,10,,,,,,,,,,,,,,,,,,,,,,,,,,,,,,,,,,,,,SYN09272208 11666 61609 10278 20244 30160 40175 56001 69901 795// 91756 333 10311 20261 555 92918=,,,,,,,,,,,,,,,,,,,,,,,,,,,,2009-06-10
72208013880,2018-07-29T13:31:00,FM-16,7,,SE,0.25,mi,"TEMP, PRECIP, SNOW",,,"MMTS, SRG, SNOWBOARD",,,WFO CHS,,,,,,,,,,,,,,,,,,,,,,,,,,,30.03,76,83,,,,,79,,BKN:07 18 BKN:07 95,29.98,10.00,78,150,,9,,,,,,,,,,,,,,,,,,,,,,,,,,,,,,,,,,,,,MET13507/29/18 13:31:02 SPECI KCHS 291831Z 15008KT 10SM BKN018 BKN095 28/24 A3003 RMK AO2 LTG DSNT N TSE27 TS DSIPTD CB DSNT N T02830244 (MH),,,,,,,,,,,,,,,,,,,,,,,,,,,,2009-06-10
72208013880,2018-07-29T13:56:00,FM-15,7,,SE,0.25,mi,"TEMP, PRECIP, SNOW",,,"MMTS, SRG, SNOWBOARD",,,WFO CHS,,,,,,,,,,,,,,,,,,,,,,,,,,,30.03,76,85,T,-RA:02 |RA |RA,,,75,30.02,FEW:02 19 SCT:04 100 BKN:07 250,29.98,10.00,79,160,,8,,,,,,,,,,,,,,,,,,,,,,,,,,,,,,,,,,,,,MET13407/29/18 13:56:02 METAR KCHS 291856Z 16007KT 10SM -RA FEW019 SCT100 BKN250 29/24 A3003 RMK AO2 RAB38 TSE27 SLP167 P0000 T02940244 (MH),,,,,,,,,,,,,,,,,,,,,,,,,,,,2009-06-10
72208013880,2018-07-29T15:56:00,FM-15,7,,SE,0.25,mi,"TEMP, PRECIP, SNOW",,,"MMTS, SRG, SNOWBOARD",,,WFO CHS,,,,,,,,,,,,,,,,,,,,,,,,,,,30.01,75,85,0.00,,+0.02,8,72,30.00,SCT:04 24 BKN:07 120 BKN:07 250,29.96,10.00,78,150,,15,,,,,,,,,,,,,,,,,,,,,,,,,,,,,,,,,,,,,MET13607/29/18 15:56:02 METAR KCHS 292056Z 15013KT 10SM SCT024 BKN120 BKN250 29/24 A3001 RMK AO2 SLP160 TCU DSNT N 60000 T02940239 58007 (JRS),,,,,,,,,,,,,,,,,,,,,,,,,,,,2009-06-10
72208013880,2018-07-29T16:00:00,FM-12,4,,SE,0.25,mi,"TEMP, PRECIP, SNOW",,,"MMTS, SRG, SNOWBOARD",,,WFO CHS,,,,,,,,,,,,,,,,,,,,,,,,,,,30.01,75,85,,,+0.02,8,72,30.00,26,29.96,9.94,78,150,,15,,,,,,,,,,,,,,,,,,,,,,,,,,,,,,,,,,,,,SYN07072208 12566 61513 10294 20239 30146 40160 58007 69907 92056 555 92921=,,,,,,,,,,,,,,,,,,,,,,,,,,,,2009-06-10
72208013880,2018-07-29T16:56:00,FM-15,7,,SE,0.25,mi,"TEMP, PRECIP, SNOW",,,"MMTS, SRG, SNOWBOARD",,,WFO CHS,,,,,,,,,,,,,,,,,,,,,,,,,,,30.01,73,84,0.00,,,,70,30.01,FEW:02 22 FEW:02 40 BKN:07 250,29.96,10.00,76,170,,14,,,,,,,,,,,,,,,,,,,,,,,,,,,,,,,,,,,,,MET11307/29/18 16:56:02 METAR KCHS 292156Z 17012KT 10SM FEW022 FEW040 BKN250 29/23 A3001 RMK AO2 SLP162 T02890228 (JRS),,,,,,,,,,,,,,,,,,,,,,,,,,,,2009-06-10
72208013880,2018-08-01T17:56:00,FM-15,7,,SE,0.25,mi,"TEMP, PRECIP, SNOW",,,"MMTS, SRG, SNOWBOARD",,,WFO CHS,,,,,,,,,,,,,,,,,,,,,,,,,,,30.07,76,84,0.00,,,,77,30.06,SCT:04 25 SCT:04 35 BKN:07 250,30.02,10.00,78,160,,13,,,,,,,,,,,,,,,,,,,,,,,,,,,,,,,,,,,,,MET11308/01/18 17:56:02 METAR KCHS 012256Z 16011KT 10SM SCT025 SCT035 BKN250 29/24 A3007 RMK AO2 SLP180 T02890244 (BBE),,,,,,,,,,,,,,,,,,,,,,,,,,,,2009-06-10
72208013880,2018-08-02T17:56:00,FM-15,7,,SE,0.25,mi,"TEMP, PRECIP, SNOW",,,"MMTS, SRG, SNOWBOARD",,,WFO CHS,,,,,,,,,,,,,,,,,,,,,,,,,,,30.09,76,82,0.00,,,,82,30.09,FEW:02 20 SCT:04 120 BKN:07 200,30.04,10.00,78,170,,11,,,,,,,,,,,,,,,,,,,,,,,,,,,,,,,,,,,,,MET11308/02/18 17:56:02 METAR KCHS 022256Z 17010KT 10SM FEW020 SCT120 BKN200 28/24 A3009 RMK AO2 SLP188 T02780244 (BBE),,,,,,,,,,,,,,,,,,,,,,,,,,,,2009-06-10
72208013880,2018-08-03T13:54:00,FM-16,6,,SE,0.25,mi,"TEMP, PRECIP, SNOW",,,"MMTS, SRG, SNOWBOARD",,,WFO CHS,,,,,,,,,,,,,,,,,,,,,,,,,,,30.15,75,82,,,,,79,,BKN:07 20 BKN:07 30,30.10,10.00,77,150,,15,,,,,,,,,,,,,,,,,,,,,,,,,,,,,,,,,,,,,MET09308/03/18 13:54:02 SPECI KCHS 031854Z 15013KT 10SM BKN020 BKN030 28/24 A3015 RMK AO2 FIBI (MH),,,,,,,,,,,,,,,,,,,,,,,,,,,,2009-06-10
72208013880,2018-08-03T14:26:00,FM-16,7,,SE,0.25,mi,"TEMP, PRECIP, SNOW",,,"MMTS, SRG, SNOWBOARD",,,WFO CHS,,,,,,,,,,,,,,,,,,,,,,,,,,,30.14,76,84,,,,,77,,SCT:04 20 SCT:04 30 BKN:07 200,30.09,10.00,78,160,,13,,,,,,,,,,,,,,,,,,,,,,,,,,,,,,,,,,,,,MET10608/03/18 14:26:02 SPECI KCHS 031926Z 16011KT 10SM SCT020 SCT030 BKN200 29/24 A3014 RMK AO2 T02890244 (BBE),,,,,,,,,,,,,,,,,,,,,,,,,,,,2009-06-10
72208013880,2018-08-03T14:56:00,FM-15,7,,SE,0.25,mi,"TEMP, PRECIP, SNOW",,,"MMTS, SRG, SNOWBOARD",,,WFO CHS,,,,,,,,,,,,,,,,,,,,,,,,,,,30.13,75,83,0.00,,,,77,30.12,SCT:04 20 BKN:07 30 BKN:07 200,30.08,10.00,77,160,,13,,,,,,,,,,,,,,,,,,,,,,,,,,,,,,,,,,,,,MET13408/03/18 14:56:02 METAR KCHS 031956Z 16011KT 10SM SCT020 BKN030 BKN200 28/24 A3013 RMK AO2 LTG DSNT W SLP200 CB DSNT W T02830239 (BBE),,,,,,,,,,,,,,,,,,,,,,,,,,,,2009-06-10
72208013880,2018-08-03T15:48:00,FM-16,7,,SE,0.25,mi,"TEMP, PRECIP, SNOW",,,"MMTS, SRG, SNOWBOARD",,,WFO CHS,,,,,,,,,,,,,,,,,,,,,,,,,,,30.11,77,86,,VCTS:7 ||,,,75,,FEW:02 20 BKN:07 30 BKN:07 35,30.06,10.00,80,160,18,9,,,,,,,,,,,,,,,,,,,,,,,,,,,,,,,,,,,,,MET16408/03/18 15:48:02 SPECI KCHS 032048Z 16008G16KT 10SM VCTS FEW020CB BKN030 BKN035 30/25 A3011 RMK AO2 LTG DSNT W AND NW OCNL LTGIC NW TS VC NW MOV NE T03000250 (BBE),,,,,,,,,,,,,,,,,,,,,,,,,,,,2009-06-10
72208013880,2018-08-03T15:56:00,FM-15,7,,SE,0.25,mi,"TEMP, PRECIP, SNOW",,,"MMTS, SRG, SNOWBOARD",,,WFO CHS,,,,,,,,,,,,,,,,,,,,,,,,,,,30.12,77,86,0.00,VCTS:7 ||,+0.06,6,75,30.11,SCT:04 20 BKN:07 30 BKN:07 200,30.07,10.00,80,150,,15,,,,,,,,,,,,,,,,,,,,,,,,,,,,,,,,,,,,,MET17408/03/18 15:56:02 METAR KCHS 032056Z 15013KT 10SM VCTS SCT020CB BKN030 BKN200 30/25 A3012 RMK AO2 LTG DSNT W AND NW SLP197 OCNL LTGIC NW TS VC NW MOV NE T03000250 56019 (BBE),,,,,,,,,,,,,,,,,,,,,,,,,,,,2009-06-10
72208013880,2018-08-03T16:00:00,FM-12,4,,SE,0.25,mi,"TEMP, PRECIP, SNOW",,,"MMTS, SRG, SNOWBOARD",,,WFO CHS,,,,,,,,,,,,,,,,,,,,,,,,,,,30.12,77,86,,||TS,+0.06,6,75,30.11,26,30.07,9.94,80,150,,15,,,,,,,,,,,,,,,,,,,,,,,,,,,,,,,,,,,,,SYN07072208 31566 61513 10300 20250 30184 40197 56019 717// 92056 555 90321=,,,,,,,,,,,,,,,,,,,,,,,,,,,,2009-06-10
72208013880,2018-08-03T16:03:00,FM-16,7,,SE,0.25,mi,"TEMP, PRECIP, SNOW",,,"MMTS, SRG, SNOWBOARD",,,WFO CHS,,,,,,,,,,,,,,,,,,,,,,,,,,,30.12,76,85,,,,,75,,SCT:04 20 BKN:07 30 BKN:07 200,30.07,10.00,79,170,,10,,,,,,,,,,,,,,,,,,,,,,,,,,,,,,,,,,,,,MET14108/03/18 16:03:02 SPECI KCHS 032103Z 17009KT 10SM SCT020 BKN030 BKN200 29/24 A3012 RMK AO2 LTG DSNT W AND NW CB DSNT W AND NW T02940244 (BBE),,,,,,,,,,,,,,,,,,,,,,,,,,,,2009-06-10
72208013880,2018-08-05T15:56:00,FM-15,7,,SE,0.25,mi,"TEMP, PRECIP, SNOW",,,"MMTS, SRG, SNOWBOARD",,,WFO CHS,,,,,,,,,,,,,,,,,,,,,,,,,,,30.15,77,84,T,-RA:02 |RA |RA,+0.05,6,80,30.14,SCT:04 36 SCT:04 90,30.10,10.00,79,170,,11,,,,,,,,,,,,,,,,,,,,,,,,,,,,,,,,,,,,,MET17208/05/18 15:56:02 METAR KCHS 052056Z 17010KT 10SM -RA SCT036CB SCT090 29/25 A3015 RMK AO2 LTG DSNT NE RAB35 SLP208 CB S-SW STNRY CB DSNT E P0000 60000 T02890250 56018 (JRS),,,,,,,,,,,,,,,,,,,,,,,,,,,,2009-06-10
72208013880,2018-08-05T16:00:00,FM-12,4,,SE,0.25,mi,"TEMP, PRECIP, SNOW",,,"MMTS, SRG, SNOWBOARD",,,WFO CHS,,,,,,,,,,,,,,,,,,,,,,,,,,,30.15,77,84,,||RA,+0.05,6,80,30.14,41,30.10,9.94,79,170,,11,,,,,,,,,,,,,,,,,,,,,,,,,,,,,,,,,,,,,SYN07672208 11666 41710 10289 20250 30194 40208 56018 69907 761// 92056 555 90521=,,,,,,,,,,,,,,,,,,,,,,,,,,,,2009-06-10
72208013880,2018-08-05T17:56:00,FM-15,7,,SE,0.25,mi,"TEMP, PRECIP, SNOW",,,"MMTS, SRG, SNOWBOARD",,,WFO CHS,,,,,,,,,,,,,,,,,,,,,,,,,,,30.14,76,86,0.00,,,,72,30.13,FEW:02 40 FEW:02 100 SCT:04 250,30.09,10.00,79,160,,10,,,,,,,,,,,,,,,,,,,,,,,,,,,,,,,,,,,,,MET11308/05/18 17:56:02 METAR KCHS 052256Z 16009KT 10SM FEW040 FEW100 SCT250 30/24 A3014 RMK AO2 SLP204 T03000244 (JRS),,,,,,,,,,,,,,,,,,,,,,,,,,,,2009-06-10
72208013880,2018-08-06T13:56:00,FM-15,7,,SE,0.25,mi,"TEMP, PRECIP, SNOW",,,"MMTS, SRG, SNOWBOARD",,,WFO CHS,,,,,,,,,,,,,,,,,,,,,,,,,,,30.10,75,91,0.00,,,,59,30.10,SCT:04 45 BKN:07 55,30.05,10.00,80,170,,7,,,,,,,,,,,,,,,,,,,,,,,,,,,,,,,,,,,,,MET10608/06/18 13:56:02 METAR KCHS 061856Z 17006KT 10SM SCT045 BKN055 33/24 A3010 RMK AO2 SLP193 T03280239 (JMB),,,,,,,,,,,,,,,,,,,,,,,,,,,,2009-06-10
72208013880,2018-08-06T14:56:00,FM-15,7,,SE,0.25,mi,"TEMP, PRECIP, SNOW",,,"MMTS, SRG, SNOWBOARD",,,WFO CHS,,,,,,,,,,,,,,,,,,,,,,,,,,,30.08,77,91,0.00,,,,64,30.08,FEW:02 40 SCT:04 55 SCT:04 250,30.03,10.00,81,170,,14,,,,,,,,,,,,,,,,,,,,,,,,,,,,,,,,,,,,,MET14308/06/18 14:56:02 METAR KCHS 061956Z 17012KT 10SM FEW040 SCT055 SCT250 33/25 A3008 RMK AO2 LTG DSNT NW-E SLP185 CB DSNT NW-NE-E T03280250 (BBE),,,,,,,,,,,,,,,,,,,,,,,,,,,,2009-06-10
72208013880,2018-08-06T15:56:00,FM-15,7,,SE,0.25,mi,"TEMP, PRECIP, SNOW",,,"MMTS, SRG, SNOWBOARD",,,WFO CHS,,,,,,,,,,,,,,,,,,,,,,,,,,,30.07,75,91,0.00,VCTS:7 ||,+0.04,5,59,30.06,FEW:02 40 SCT:04 55 SCT:04 250,30.02,10.00,80,170,,14,,,,,,,,,,,,,,,,,,,,,,,,,,,,,,,,,,,,,MET17408/06/18 15:56:02 METAR KCHS 062056Z 17012KT 10SM VCTS FEW040CB SCT055 SCT250 33/24 A3007 RMK AO2 LTG DSNT NW-E TSE49 SLP181 OCNL LTGIC E TS VC E MOV SW T03280239 55012 (BBE),,,,,,,,,,,,,,,,,,,,,,,,,,,,2009-06-10
72208013880,2018-08-06T16:00:00,FM-12,4,,SE,0.25,mi,"TEMP, PRECIP, SNOW",,,"MMTS, SRG, SNOWBOARD",,,WFO CHS,,,,,,,,,,,,,,,,,,,,,,,,,,,30.07,75,91,,||TS,+0.04,5,59,30.06,41,30.02,9.94,80,170,,14,,,,,,,,,,,,,,,,,,,,,,,,,,,,,,,,,,,,,SYN07072208 31666 41712 10328 20239 30167 40181 55012 717// 92056 555 90621=,,,,,,,,,,,,,,,,,,,,,,,,,,,,2009-06-10
72208013880,2018-08-16T14:36:00,FM-16,7,,SE,0.25,mi,"TEMP, PRECIP, SNOW",,,"MMTS, SRG, SNOWBOARD",,,WFO CHS,,,,,,,,,,,,,,,,,,,,,,,,,,,30.15,72,83,,TS:7 |TS TS |,,,70,,SCT:04 30 BKN:07 40 BKN:07 60,30.10,10.00,75,160,,8,,,,,,,,,,,,,,,,,,,,,,,,,,,,,,,,,,,,,MET15808/16/18 14:36:02 SPECI KCHS 161936Z 16007KT 10SM TS SCT030CB BKN040 BKN060 28/22 A3015 RMK AO2 LTG DSNT E TSB31 OCNL LTGIC E-SE TS E-SE MOV E T02830222 (BBE),,,,,,,,,,,,,,,,,,,,,,,,,,,,2009-06-10
72208013880,2018-08-27T14:56:00,FM-15,7,,SE,0.25,mi,"TEMP, PRECIP, SNOW",,,"MMTS, SRG, SNOWBOARD",,,WFO CHS,,,,,,,,,,,,,,,,,,,,,,,,,,,30.13,75,89,0.00,,,,63,30.13,SCT:04 40 BKN:07 50 BKN:07 200,30.08,10.00,79,150,,10,,,,,,,,,,,,,,,,,,,,,,,,,,,,,,,,,,,,,MET13608/27/18 14:56:02 METAR KCHS 271956Z 15009KT 10SM SCT040 BKN050 BKN200 32/24 A3013 RMK AO2 LTG DSNT SW SLP204 CB DSNT SW T03170239 (BBE),,,,,,,,,,,,,,,,,,,,,,,,,,,,2009-06-10
72208013880,2018-08-27T16:56:00,FM-15,7,,SE,0.25,mi,"TEMP, PRECIP, SNOW",,,"MMTS, SRG, SNOWBOARD",,,WFO CHS,,,,,,,,,,,,,,,,,,,,,,,,,,,30.12,74,86,0.00,,,,67,30.11,FEW:02 30 FEW:02 200,30.07,10.00,78,160,,10,,,,,,,,,,,,,,,,,,,,,,,,,,,,,,,,,,,,,MET10608/27/18 16:56:02 METAR KCHS 272156Z 16009KT 10SM FEW030 FEW200 30/23 A3012 RMK AO2 SLP198 T03000233 (BBE),,,,,,,,,,,,,,,,,,,,,,,,,,,,2009-06-10
72208013880,2018-08-27T17:56:00,FM-15,7,,SE,0.25,mi,"TEMP, PRECIP, SNOW",,,"MMTS, SRG, SNOWBOARD",,,WFO CHS,,,,,,,,,,,,,,,,,,,,,,,,,,,30.12,74,83,0.00,,,,74,30.11,FEW:02 30 SCT:04 200,30.07,10.00,77,150,,10,,,,,,,,,,,,,,,,,,,,,,,,,,,,,,,,,,,,,MET10608/27/18 17:56:02 METAR KCHS 272256Z 15009KT 10SM FEW030 SCT200 28/23 A3012 RMK AO2 SLP197 T02830233 (BBE),,,,,,,,,,,,,,,,,,,,,,,,,,,,2009-06-10
72208013880,2018-08-29T13:56:00,FM-15,7,,SE,0.25,mi,"TEMP, PRECIP, SNOW",,,"MMTS, SRG, SNOWBOARD",,,WFO CHS,,,,,,,,,,,,,,,,,,,,,,,,,,,30.13,74,90,0.00,,,,59,30.13,SCT:04 45,30.08,10.00,79,160,,7,,,,,,,,,,,,,,,,,,,,,,,,,,,,,,,,,,,,,MET09908/29/18 13:56:02 METAR KCHS 291856Z 16006KT 10SM SCT045 32/23 A3013 RMK AO2 SLP202 T03220233 (JMB),,,,,,,,,,,,,,,,,,,,,,,,,,,,2009-06-10
72208013880,2018-08-30T14:56:00,FM-15,7,,SE,0.25,mi,"TEMP, PRECIP, SNOW",,,"MMTS, SRG, SNOWBOARD",,,WFO CHS,,,,,,,,,,,,,,,,,,,,,,,,,,,30.07,75,91,0.00,,,,59,30.07,SCT:04 40 BKN:07 75 BKN:07 250,30.02,10.00,80,150,,10,,,,,,,,,,,,,,,,,,,,,,,,,,,,,,,,,,,,,MET11308/30/18 14:56:02 METAR KCHS 301956Z 15009KT 10SM SCT040 BKN075 BKN250 33/24 A3007 RMK AO2 SLP182 T03280239 (BBE),,,,,,,,,,,,,,,,,,,,,,,,,,,,2009-06-10
72208013880,2018-08-30T15:56:00,FM-15,7,,SE,0.25,mi,"TEMP, PRECIP, SNOW",,,"MMTS, SRG, SNOWBOARD",,,WFO CHS,,,,,,,,,,,,,,,,,,,,,,,,,,,30.05,74,90,0.00,,+0.07,6,59,30.05,SCT:04 40 SCT:04 250,30.00,10.00,79,160,,13,,,,,,,,,,,,,,,,,,,,,,,,,,,,,,,,,,,,,MET11208/30/18 15:56:02 METAR KCHS 302056Z 16011KT 10SM SCT040 SCT250 32/23 A3005 RMK AO2 SLP177 T03220233 56023 (BBE),,,,,,,,,,,,,,,,,,,,,,,,,,,,2009-06-10
72208013880,2018-08-30T16:00:00,FM-12,4,,SE,0.25,mi,"TEMP, PRECIP, SNOW",,,"MMTS, SRG, SNOWBOARD",,,WFO CHS,,,,,,,,,,,,,,,,,,,,,,,,,,,30.05,74,90,,,+0.07,6,59,30.05,41,30.00,9.94,79,160,,13,,,,,,,,,,,,,,,,,,,,,,,,,,,,,,,,,,,,,SYN06472208 32666 41611 10322 20233 30160 40177 56023 92056 555 93021=,,,,,,,,,,,,,,,,,,,,,,,,,,,,2009-06-10
72208013880,2018-08-31T16:56:00,FM-15,7,,SE,0.25,mi,"TEMP, PRECIP, SNOW",,,"MMTS, SRG, SNOWBOARD",,,WFO CHS,,,,,,,,,,,,,,,,,,,,,,,,,,,30.09,73,88,0.00,,,,61,30.09,FEW:02 40 SCT:04 250,30.04,10.00,77,150,,9,,,,,,,,,,,,,,,,,,,,,,,,,,,,,,,,,,,,,MET10608/31/18 16:56:02 METAR KCHS 312156Z 15008KT 10SM FEW040 SCT250 31/23 A3009 RMK AO2 SLP188 T03110228 (BBE),,,,,,,,,,,,,,,,,,,,,,,,,,,,2009-06-10
72208013880,2018-08-31T17:56:00,FM-15,7,,SE,0.25,mi,"TEMP, PRECIP, SNOW",,,"MMTS, SRG, SNOWBOARD",,,WFO CHS,,,,,,,,,,,,,,,,,,,,,,,,,,,30.09,73,85,0.00,,,,68,30.09,FEW:02 35 FEW:02 250,30.04,10.00,77,160,,10,,,,,,,,,,,,,,,,,,,,,,,,,,,,,,,,,,,,,MET10608/31/18 17:56:02 METAR KCHS 312256Z 16009KT 10SM FEW035 FEW250 29/23 A3009 RMK AO2 SLP188 T02940228 (BBE),,,,,,,,,,,,,,,,,,,,,,,,,,,,2009-06-10
72208013880,2018-09-01T14:56:00,FM-15,7,,SE,0.25,mi,"TEMP, PRECIP, SNOW",,,"MMTS, SRG, SNOWBOARD",,,WFO CHS,,,,,,,,,,,,,,,,,,,,,,,,,,,30.14,75,90,0.00,,,,62,30.14,FEW:02 35 SCT:04 250,30.09,10.00,79,150,,13,,,,,,,,,,,,,,,,,,,,,,,,,,,,,,,,,,,,,MET10609/01/18 14:56:02 METAR KCHS 011956Z 15011KT 10SM FEW035 SCT250 32/24 A3014 RMK AO2 SLP205 T03220239 (JRS),,,,,,,,,,,,,,,,,,,,,,,,,,,,2009-06-10
72208013880,2018-09-08T14:56:00,FM-15,7,,SE,0.25,mi,"TEMP, PRECIP, SNOW",,,"MMTS, SRG, SNOWBOARD",,,WFO CHS,,,,,,,,,,,,,,,,,,,,,,,,,,,29.91,74,87,0.00,,,,65,29.91,SCT:04 34 SCT:04 250,29.86,10.00,78,150,,14,,,,,,,,,,,,,,,,,,,,,,,,,,,,,,,,,,,,,MET11609/08/18 14:56:02 METAR KCHS 081956Z 15012KT 10SM SCT034 SCT250 31/23 A2991 RMK AO2 SLP127 CB DSNT W T03060233 (JRS),,,,,,,,,,,,,,,,,,,,,,,,,,,,2009-06-10
72208013880,2018-09-08T15:56:00,FM-15,7,,SE,0.25,mi,"TEMP, PRECIP, SNOW",,,"MMTS, SRG, SNOWBOARD",,,WFO CHS,,,,,,,,,,,,,,,,,,,,,,,,,,,29.90,75,89,0.00,,+0.04,6,63,29.90,SCT:04 32 SCT:04 70,29.85,10.00,79,150,,14,,,,,,,,,,,,,,,,,,,,,,,,,,,,,,,,,,,,,MET12609/08/18 15:56:02 METAR KCHS 082056Z 15012KT 10SM SCT032CB SCT070 32/24 A2990 RMK AO2 SLP126 CB NW MOV W T03170239 56014 (JRS),,,,,,,,,,,,,,,,,,,,,,,,,,,,2009-06-10
72208013880,2018-09-08T16:00:00,FM-12,4,,SE,0.25,mi,"TEMP, PRECIP, SNOW",,,"MMTS, SRG, SNOWBOARD",,,WFO CHS,,,,,,,,,,,,,,,,,,,,,,,,,,,29.90,75,89,,,+0.04,6,63,29.90,26,29.85,9.94,79,150,,14,,,,,,,,,,,,,,,,,,,,,,,,,,,,,,,,,,,,,SYN06472208 32566 41512 10317 20239 30109 40126 56014 92056 555 90821=,,,,,,,,,,,,,,,,,,,,,,,,,,,,2009-06-10
72208013880,2018-09-08T16:56:00,FM-15,7,,SE,0.25,mi,"TEMP, PRECIP, SNOW",,,"MMTS, SRG, SNOWBOARD",,,WFO CHS,,,,,,,,,,,,,,,,,,,,,,,,,,,29.91,74,84,0.00,,,,72,29.90,FEW:02 27 SCT:04 60 SCT:04 250,29.86,10.00,77,160,,11,,,,,,,,,,,,,,,,,,,,,,,,,,,,,,,,,,,,,MET12609/08/18 16:56:02 METAR KCHS 082156Z 16010KT 10SM FEW027 SCT060 SCT250 29/23 A2991 RMK AO2 SLP126 CB DSNT W-NW T02890233 (JRS),,,,,,,,,,,,,,,,,,,,,,,,,,,,2009-06-10
72208013880,2018-09-08T17:56:00,FM-15,7,,SE,0.25,mi,"TEMP, PRECIP, SNOW",,,"MMTS, SRG, SNOWBOARD",,,WFO CHS,,,,,,,,,,,,,,,,,,,,,,,,,,,29.91,74,82,0.00,,,,77,29.91,FEW:02 26 FEW:02 250,29.86,10.00,76,160,,9,,,,,,,,,,,,,,,,,,,,,,,,,,,,,,,,,,,,,MET10609/08/18 17:56:02 METAR KCHS 082256Z 16008KT 10SM FEW026 FEW250 28/23 A2991 RMK AO2 SLP128 T02780233 (JRS),,,,,,,,,,,,,,,,,,,,,,,,,,,,2009-06-10
72208013880,2018-09-09T15:56:00,FM-15,7,,SE,0.25,mi,"TEMP, PRECIP, SNOW",,,"MMTS, SRG, SNOWBOARD",,,WFO CHS,,,,,,,,,,,,,,,,,,,,,,,,,,,29.86,78,82,0.05s,+RA:02 BR:1 |RA |RA,+0.05,8,88,29.86,FEW:02 15 SCT:04 25 SCT:04 90,29.81,3.00,79,150,,13,,,,,,,,,,,,,,,,,,,,,,,,,,,,,,,,,,,,,MET15509/09/18 15:56:02 METAR KCHS 092056Z 15011KT 3SM +RA BR FEW015 SCT025TCU SCT090 28/26 A2986 RMK AO2 RAB43 SLP112 TCU SW P0003 60003 T02780256 58016 $ (JRS),,,,,,,,,,,,,,,,,,,,,,,,,,,,2009-06-10
72208013880,2018-09-09T16:00:00,FM-12,4,,SE,0.25,mi,"TEMP, PRECIP, SNOW",,,"MMTS, SRG, SNOWBOARD",,,WFO CHS,,,,,,,,,,,,,,,,,,,,,,,,,,,29.86,78,82,,||RA,+0.05,8,88,29.86,15,29.81,2.98,79,150,,13,,,,,,,,,,,,,,,,,,,,,,,,,,,,,,,,,,,,,SYN08672208 11448 41511 10278 20256 30096 40112 58016 69987 765// 92056 333 96010 555 90921=,,,,,,,,,,,,,,,,,,,,,,,,,,,,2009-06-10
72208013880,2018-09-09T16:56:00,FM-15,7,,SE,0.25,mi,"TEMP, PRECIP, SNOW",,,"MMTS, SRG, SNOWBOARD",,,WFO CHS,,,,,,,,,,,,,,,,,,,,,,,,,,,29.87,75,83,0.03,,,,77,29.86,SCT:04 27 SCT:04 110,29.82,10.00,77,150,,10,,,,,,,,,,,,,,,,,,,,,,,,,,,,,,,,,,,,,MET12009/09/18 16:56:02 METAR KCHS 092156Z 15009KT 10SM SCT027 SCT110 28/24 A2987 RMK AO2 RAE32 SLP113 P0005 T02830239 $ (JRS),,,,,,,,,,,,,,,,,,,,,,,,,,,,2009-06-10
72208013880,2018-09-09T17:56:00,FM-15,7,,SE,0.25,mi,"TEMP, PRECIP, SNOW",,,"MMTS, SRG, SNOWBOARD",,,WFO CHS,,,,,,,,,,,,,,,,,,,,,,,,,,,29.87,74,83,0.00,,,,74,29.86,FEW:02 24 FEW:02 110 SCT:04 250,29.82,10.00,77,160,,8,,,,,,,,,,,,,,,,,,,,,,,,,,,,,,,,,,,,,MET11509/09/18 17:56:02 METAR KCHS 092256Z 16007KT 10SM FEW024 FEW110 SCT250 28/23 A2987 RMK AO2 SLP112 T02830233 $ (JRS),,,,,,,,,,,,,,,,,,,,,,,,,,,,2009-06-10
72208013880,2018-09-10T11:50:00,FM-16,7,,SE,0.25,mi,"TEMP, PRECIP, SNOW",,,"MMTS, SRG, SNOWBOARD",,,WFO CHS,,,,,,,,,,,,,,,,,,,,,,,,,,,29.97,74,89,,VCTS:7 ||,,,61,,FEW:02 25 SCT:04 30 BKN:07 80,29.92,10.00,78,150,,8,,,,,,,,,,,,,,,,,,,,,,,,,,,,,,,,,,,,,MET17409/10/18 11:50:02 SPECI KCHS 101650Z 15007KT 10SM VCTS FEW025CB SCT030 BKN080 32/23 A2997 RMK AO2 LTG DSNT N AND NW TSE45 OCNL LTGICCC N AND NW TS VC N MOV NE T03170233 (JMB),,,,,,,,,,,,,,,,,,,,,,,,,,,,2009-06-10
72208013880,2018-09-10T12:50:00,FM-16,7,,SE,0.25,mi,"TEMP, PRECIP, SNOW",,,"MMTS, SRG, SNOWBOARD",,,WFO CHS,,,,,,,,,,,,,,,,,,,,,,,,,,,29.97,75,85,,,,,72,,BKN:07 35,29.92,10.00,78,170,,13,,,,,,,,,,,,,,,,,,,,,,,,,,,,,,,,,,,,,MET11309/10/18 12:50:02 SPECI KCHS 101750Z 17011KT 10SM BKN035 29/24 A2997 RMK AO2 LTG DSNT S CB DSNT S T02940239 (JMB),,,,,,,,,,,,,,,,,,,,,,,,,,,,2009-06-10
72208013880,2018-09-10T12:56:00,FM-15,7,,SE,0.25,mi,"TEMP, PRECIP, SNOW",,,"MMTS, SRG, SNOWBOARD",,,WFO CHS,,,,,,,,,,,,,,,,,,,,,,,,,,,29.97,75,87,0.00,,+0.02,6,67,29.96,BKN:07 35,29.92,10.00,78,150,,10,,,,,,,,,,,,,,,,,,,,,,,,,,,,,,,,,,,,,MET14409/10/18 12:56:02 METAR KCHS 101756Z 15009KT 10SM BKN035 31/24 A2997 RMK AO2 LTG DSNT S SLP147 CB DSNT S 60000 T03060239 10322 20256 56007 (JMB),,,,,,,,,,,,,,,,,,,,,,,,,,,,2009-06-10
72208013880,2018-09-10T13:00:00,FM-12,4,,SE,0.25,mi,"TEMP, PRECIP, SNOW",,,"MMTS, SRG, SNOWBOARD",,,WFO CHS,,,,,,,,,,,,,,,,,,,,,,,,,,,29.97,75,87,,,+0.02,6,67,29.96,41,29.92,9.94,78,150,,10,,,,,,,,,,,,,,,,,,,,,,,,,,,,,,,,,,,,,SYN08672208 12666 61509 10306 20239 30133 40147 56007 69901 91756 333 10322 20256 555 91018=,,,,,,,,,,,,,,,,,,,,,,,,,,,,2009-06-10
72208013880,2018-09-10T13:56:00,FM-15,7,,SE,0.25,mi,"TEMP, PRECIP, SNOW",,,"MMTS, SRG, SNOWBOARD",,,WFO CHS,,,,,,,,,,,,,,,,,,,,,,,,,,,29.94,74,88,0.00,,,,63,29.94,SCT:04 35 SCT:04 250,29.89,10.00,78,150,,8,,,,,,,,,,,,,,,,,,,,,,,,,,,,,,,,,,,,,MET14009/10/18 13:56:02 METAR KCHS 101856Z 15007KT 10SM SCT035 SCT250 31/23 A2994 RMK AO2 LTG DSNT W AND NW SLP139 CB DSNT W T03110233 PNO $ (JMB),,,,,,,,,,,,,,,,,,,,,,,,,,,,2009-06-10
72208013880,2018-09-10T14:56:00,FM-15,7,,SE,0.25,mi,"TEMP, PRECIP, SNOW",,,"MMTS, SRG, SNOWBOARD",,,WFO CHS,,,,,,,,,,,,,,,,,,,,,,,,,,,29.92,76,89,0.00,,,,65,29.92,SCT:04 30 SCT:04 200,29.87,10.00,80,150,,14,,,,,,,,,,,,,,,,,,,,,,,,,,,,,,,,,,,,,MET13509/10/18 14:56:02 METAR KCHS 101956Z 15012KT 10SM SCT030 SCT200 32/24 A2992 RMK AO2 LTG DSNT NW SLP132 CB DSNT NW T03170244 PNO $ (BBE),,,,,,,,,,,,,,,,,,,,,,,,,,,,2009-06-10
72208013880,2018-09-10T15:56:00,FM-15,7,,SE,0.25,mi,"TEMP, PRECIP, SNOW",,,"MMTS, SRG, SNOWBOARD",,,WFO CHS,,,,,,,,,,,,,,,,,,,,,,,,,,,29.93,74,88,0.00,,+0.04,5,63,29.92,SCT:04 30 SCT:04 200,29.88,10.00,78,160,,13,,,,,,,,,,,,,,,,,,,,,,,,,,,,,,,,,,,,,MET14709/10/18 15:56:02 METAR KCHS 102056Z 16011KT 10SM SCT030 SCT200 31/23 A2993 RMK AO2 LTG DSNT W AND NW SLP133 CB DSNT W AND NW T03110233 55014 (BBE),,,,,,,,,,,,,,,,,,,,,,,,,,,,2009-06-10
72208013880,2018-09-10T16:00:00,FM-12,4,,SE,0.25,mi,"TEMP, PRECIP, SNOW",,,"MMTS, SRG, SNOWBOARD",,,WFO CHS,,,,,,,,,,,,,,,,,,,,,,,,,,,29.93,74,88,,,+0.04,5,63,29.92,26,29.88,9.94,78,160,,13,,,,,,,,,,,,,,,,,,,,,,,,,,,,,,,,,,,,,SYN06472208 32566 41611 10311 20233 30119 40133 55014 92056 555 91021=,,,,,,,,,,,,,,,,,,,,,,,,,,,,2009-06-10
72208013880,2018-09-10T16:32:00,FM-16,7,,SE,0.25,mi,"TEMP, PRECIP, SNOW",,,"MMTS, SRG, SNOWBOARD",,,WFO CHS,,,,,,,,,,,,,,,,,,,,,,,,,,,29.94,73,85,,VCTS:7 ||,,,68,,SCT:04 30 SCT:04 200,29.89,10.00,77,150,,9,,,,,,,,,,,,,,,,,,,,,,,,,,,,,,,,,,,,,MET15809/10/18 16:32:02 SPECI KCHS 102132Z 15008KT 10SM VCTS SCT030CB SCT200 29/23 A2994 RMK AO2 LTG DSNT W AND NW OCNL LTGIC W-NW TS VC W-NW MOV NE T02940228 (BBE),,,,,,,,,,,,,,,,,,,,,,,,,,,,2009-06-10
72208013880,2018-09-10T16:47:00,FM-16,7,,SE,0.25,mi,"TEMP, PRECIP, SNOW",,,"MMTS, SRG, SNOWBOARD",,,WFO CHS,,,,,,,,,,,,,,,,,,,,,,,,,,,29.94,73,84,,,,,70,,SCT:04 30 SCT:04 200,29.89,10.00,76,150,,10,,,,,,,,,,,,,,,,,,,,,,,,,,,,,,,,,,,,,MET13409/10/18 16:47:02 SPECI KCHS 102147Z 15009KT 10SM SCT030 SCT200 29/23 A2994 RMK AO2 LTG DSNT W AND NW CB DSNT W AND NW T02890228 (BBE),,,,,,,,,,,,,,,,,,,,,,,,,,,,2009-06-10
72208013880,2018-09-10T16:56:00,FM-15,7,,SE,0.25,mi,"TEMP, PRECIP, SNOW",,,"MMTS, SRG, SNOWBOARD",,,WFO CHS,,,,,,,,,,,,,,,,,,,,,,,,,,,29.94,73,84,0.00,,,,70,29.93,SCT:04 30 BKN:07 200,29.89,10.00,76,160,,9,,,,,,,,,,,,,,,,,,,,,,,,,,,,,,,,,,,,,MET14109/10/18 16:56:02 METAR KCHS 102156Z 16008KT 10SM SCT030 BKN200 29/23 A2994 RMK AO2 LTG DSNT W AND NW SLP137 CB DSNT W AND NW T02890228 (BBE),,,,,,,,,,,,,,,,,,,,,,,,,,,,2009-06-10
72208013880,2018-09-11T13:30:00,FM-16,7,,SE,0.25,mi,"TEMP, PRECIP, SNOW",,,"MMTS, SRG, SNOWBOARD",,,WFO CHS,,,,,,,,,,,,,,,,,,,,,,,,,,,30.03,75,90,,VCTS:7 ||,,,62,,SCT:04 35 SCT:04 250,29.98,10.00,79,160,,8,,,,,,,,,,,,,,,,,,,,,,,,,,,,,,,,,,,,,MET15009/11/18 13:30:02 SPECI KCHS 111830Z 16007KT 10SM VCTS SCT035CB SCT250 32/24 A3003 RMK AO2 LTG DSNT NE OCNL LTGICCC NE TS VC NE MOV NE T03220239 (JMB),,,,,,,,,,,,,,,,,,,,,,,,,,,,2009-06-10
72208013880,2018-10-02T15:56:00,FM-15,7,,SE,0.25,mi,"TEMP, PRECIP, SNOW",,,"MMTS, SRG, SNOWBOARD",,,WFO CHS,,,,,,,,,,,,,,,,,,,,,,,,,,,30.14,69,85,0.00,,+0.05,6,59,30.13,SCT:04 40 SCT:04 250,30.09,10.00,74,150,,10,,,,,,,,,,,,,,,,,,,,,,,,,,,,,,,,,,,,,MET11210/02/18 15:56:02 METAR KCHS 022056Z 15009KT 10SM SCT040 SCT250 29/21 A3014 RMK AO2 SLP204 T02940206 56016 (BBE),,,,,,,,,,,,,,,,,,,,,,,,,,,,2009-06-10
72208013880,2018-10-02T16:00:00,FM-12,4,,SE,0.25,mi,"TEMP, PRECIP, SNOW",,,"MMTS, SRG, SNOWBOARD",,,WFO CHS,,,,,,,,,,,,,,,,,,,,,,,,,,,30.14,69,85,,,+0.05,6,59,30.13,41,30.09,9.94,74,150,,10,,,,,,,,,,,,,,,,,,,,,,,,,,,,,,,,,,,,,SYN06472208 32666 41509 10294 20206 30190 40204 56016 92056 555 90221=,,,,,,,,,,,,,,,,,,,,,,,,,,,,2009-06-10
72208013880,2018-10-03T15:56:00,FM-15,7,,SE,0.25,mi,"TEMP, PRECIP, SNOW",,,"MMTS, SRG, SNOWBOARD",,,WFO CHS,,,,,,,,,,,,,,,,,,,,,,,,,,,30.06,68,84,0.00,,+0.03,5,59,30.06,FEW:02 50 SCT:04 60 SCT:04 250,30.01,10.00,73,170,,11,,,,,,,,,,,,,,,,,,,,,,,,,,,,,,,,,,,,,MET11910/03/18 15:56:02 METAR KCHS 032056Z 17010KT 10SM FEW050 SCT060 SCT250 29/20 A3006 RMK AO2 SLP179 T02890200 55010 (BBE),,,,,,,,,,,,,,,,,,,,,,,,,,,,2009-06-10
72208013880,2018-10-03T16:00:00,FM-12,4,,SE,0.25,mi,"TEMP, PRECIP, SNOW",,,"MMTS, SRG, SNOWBOARD",,,WFO CHS,,,,,,,,,,,,,,,,,,,,,,,,,,,30.06,68,84,,,+0.03,5,59,30.06,57,30.01,9.94,73,170,,11,,,,,,,,,,,,,,,,,,,,,,,,,,,,,,,,,,,,,SYN06472208 32766 41710 10289 20200 30163 40179 55010 92056 555 90321=,,,,,,,,,,,,,,,,,,,,,,,,,,,,2009-06-10
72208013880,2018-10-03T16:56:00,FM-15,7,,SE,0.25,mi,"TEMP, PRECIP, SNOW",,,"MMTS, SRG, SNOWBOARD",,,WFO CHS,,,,,,,,,,,,,,,,,,,,,,,,,,,30.07,67,82,0.00,,,,60,30.06,FEW:02 50 SCT:04 250,30.02,10.00,72,160,,9,,,,,,,,,,,,,,,,,,,,,,,,,,,,,,,,,,,,,MET10610/03/18 16:56:02 METAR KCHS 032156Z 16008KT 10SM FEW050 SCT250 28/19 A3007 RMK AO2 SLP180 T02780194 (BBE),,,,,,,,,,,,,,,,,,,,,,,,,,,,2009-06-10
72208013880,2018-10-03T17:56:00,FM-15,7,,SE,0.25,mi,"TEMP, PRECIP, SNOW",,,"MMTS, SRG, SNOWBOARD",,,WFO CHS,,,,,,,,,,,,,,,,,,,,,,,,,,,30.07,68,79,0.00,,,,69,30.07,SCT:04 250,30.02,10.00,72,150,,8,,,,,,,,,,,,,,,,,,,,,,,,,,,,,,,,,,,,,MET09910/03/18 17:56:02 METAR KCHS 032256Z 15007KT 10SM SCT250 26/20 A3007 RMK AO2 SLP183 T02610200 (BBE),,,,,,,,,,,,,,,,,,,,,,,,,,,,2009-06-10
72208013880,2018-10-05T15:56:00,FM-15,7,,SE,0.25,mi,"TEMP, PRECIP, SNOW",,,"MMTS, SRG, SNOWBOARD",,,WFO CHS,,,,,,,,,,,,,,,,,,,,,,,,,,,30.02,71,90,0.00,,+0.04,6,54,30.02,SCT:04 55,29.97,10.00,77,160,,10,,,,,,,,,,,,,,,,,,,,,,,,,,,,,,,,,,,,,MET10710/05/18 15:56:02 METAR KCHS 052056Z 16009KT 10SM SCT055 32/22 A3002 RMK AO2 SLP165 T03220217 56012 $ (BBE),,,,,,,,,,,,,,,,,,,,,,,,,,,,2009-06-10
72208013880,2018-10-05T16:00:00,FM-12,4,,SE,0.25,mi,"TEMP, PRECIP, SNOW",,,"MMTS, SRG, SNOWBOARD",,,WFO CHS,,,,,,,,,,,,,,,,,,,,,,,,,,,30.02,71,90,,,+0.04,6,54,30.02,57,29.97,9.94,77,160,,10,,,,,,,,,,,,,,,,,,,,,,,,,,,,,,,,,,,,,SYN06472208 32766 41609 10322 20217 30150 40165 56012 92056 555 90521=,,,,,,,,,,,,,,,,,,,,,,,,,,,,2009-06-10
72208013880,2018-10-05T16:56:00,FM-15,7,,SE,0.25,mi,"TEMP, PRECIP, SNOW",,,"MMTS, SRG, SNOWBOARD",,,WFO CHS,,,,,,,,,,,,,,,,,,,,,,,,,,,30.03,71,87,0.00,,,,59,30.03,FEW:02 55,29.98,10.00,76,170,,8,,,,,,,,,,,,,,,,,,,,,,,,,,,,,,,,,,,,,MET10110/05/18 16:56:02 METAR KCHS 052156Z 17007KT 10SM FEW055 31/22 A3003 RMK AO2 SLP168 T03060217 $ (BBE),,,,,,,,,,,,,,,,,,,,,,,,,,,,2009-06-10
72208013880,2018-10-06T15:56:00,FM-15,7,,SE,0.25,mi,"TEMP, PRECIP, SNOW",,,"MMTS, SRG, SNOWBOARD",,,WFO CHS,,,,,,,,,,,,,,,,,,,,,,,,,,,30.09,71,86,0.00,,+0.03,6,61,30.08,FEW:02 42 SCT:04 60,30.04,10.00,76,150,,9,,,,,,,,,,,,,,,,,,,,,,,,,,,,,,,,,,,,,MET11410/06/18 15:56:02 METAR KCHS 062056Z 15008KT 10SM FEW042 SCT060 30/22 A3009 RMK AO2 SLP187 T03000217 56010 $ (JRS),,,,,,,,,,,,,,,,,,,,,,,,,,,,2009-06-10
72208013880,2018-10-06T16:00:00,FM-12,4,,SE,0.25,mi,"TEMP, PRECIP, SNOW",,,"MMTS, SRG, SNOWBOARD",,,WFO CHS,,,,,,,,,,,,,,,,,,,,,,,,,,,30.09,71,86,,,+0.03,6,61,30.08,41,30.04,9.94,76,150,,9,,,,,,,,,,,,,,,,,,,,,,,,,,,,,,,,,,,,,SYN06472208 32666 41508 10300 20217 30173 40187 56010 92056 555 90621=,,,,,,,,,,,,,,,,,,,,,,,,,,,,2009-06-10
72208013880,2018-10-10T11:47:00,FM-16,7,,SE,0.25,mi,"TEMP, PRECIP, SNOW",,,"MMTS, SRG, SNOWBOARD",,,WFO CHS,,,,,,,,,,,,,,,,,,,,,,,,,,,29.91,79,81,0.12,-RA:02 BR:1 |RA |RA,,,94,,SCT:04 18 BKN:07 50,29.86,3.00,80,160,23,13,,,,,,,,,,,,,,,,,,,,,,,,,,,,,,,,,,,,,MET17310/10/18 11:47:02 SPECI KCHS 101647Z 16011G20KT 3SM -RA BR SCT018 BKN050 27/26 A2991 RMK AO2 PK WND 17027/1626 LTG DSNT NW RAB11 CB DSNT NW SCT V BKN P0012 T02720261 $ (JMB),,,,,,,,,,,,,,,,,,,,,,,,,,,,2009-06-10
72208013880,2018-10-10T11:56:00,FM-15,7,,SE,0.25,mi,"TEMP, PRECIP, SNOW",,,"MMTS, SRG, SNOWBOARD",,,WFO CHS,,,,,,,,,,,,,,,,,,,,,,,,,,,29.91,77,79,0.25,+RA:02 BR:1 |RA |RA,,,94,29.91,SCT:04 18 BKN:07 50,29.86,3.00,78,170,24,14,,,,,,,,,,,,,,,,,,,,,,,,,,,,,,,,,,,,,MET19710/10/18 11:56:02 METAR KCHS 101656Z 17012G21KT 3SM R15/2600VP6000FT +RA BR SCT018 BKN050 26/25 A2991 RMK AO2 PK WND 17027/1626 LTG DSNT NW RAB11 SLP129 CB DSNT NW SCT V BKN P0024 T02610250 $ (JMB),,,,,,,,,,,,,,,,,,,,,,,,,,,,2009-06-10
72208013880,2018-10-10T14:56:00,FM-15,7,,SE,0.25,mi,"TEMP, PRECIP, SNOW",,,"MMTS, SRG, SNOWBOARD",,,WFO CHS,,,,,,,,,,,,,,,,,,,,,,,,,,,29.84,77,85,0.00,,,,77,29.83,SCT:04 20 BKN:07 45 BKN:07 200,29.79,10.00,79,160,,13,,,,,,,,,,,,,,,,,,,,,,,,,,,,,,,,,,,,,MET11310/10/18 14:56:02 METAR KCHS 101956Z 16011KT 10SM SCT020 BKN045 BKN200 29/25 A2984 RMK AO2 SLP103 T02940250 (BBE),,,,,,,,,,,,,,,,,,,,,,,,,,,,2009-06-10
72208013880,2018-10-10T15:56:00,FM-15,7,,SE,0.25,mi,"TEMP, PRECIP, SNOW",,,"MMTS, SRG, SNOWBOARD",,,WFO CHS,,,,,,,,,,,,,,,,,,,,,,,,,,,29.84,77,84,0.00,,+0.04,6,80,29.83,SCT:04 25 BKN:07 31 BKN:07 40,29.79,10.00,79,150,,14,,,,,,,,,,,,,,,,,,,,,,,,,,,,,,,,,,,,,MET11910/10/18 15:56:02 METAR KCHS 102056Z 15012KT 10SM SCT025 BKN031 BKN040 29/25 A2984 RMK AO2 SLP103 T02890250 56012 (BBE),,,,,,,,,,,,,,,,,,,,,,,,,,,,2009-06-10
72208013880,2018-10-10T16:00:00,FM-12,4,,SE,0.25,mi,"TEMP, PRECIP, SNOW",,,"MMTS, SRG, SNOWBOARD",,,WFO CHS,,,,,,,,,,,,,,,,,,,,,,,,,,,29.84,77,84,,,+0.04,6,80,29.83,26,29.79,9.94,79,150,,14,,,,,,,,,,,,,,,,,,,,,,,,,,,,,,,,,,,,,SYN06472208 32566 61512 10289 20250 30089 40103 56012 92056 555 91021=,,,,,,,,,,,,,,,,,,,,,,,,,,,,2009-06-10
72208013880,2018-10-10T16:56:00,FM-15,7,,SE,0.25,mi,"TEMP, PRECIP, SNOW",,,"MMTS, SRG, SNOWBOARD",,,WFO CHS,,,,,,,,,,,,,,,,,,,,,,,,,,,29.82,77,83,T,,,,82,29.82,SCT:04 20 SCT:04 25 BKN:07 60,29.77,10.00,79,150,,11,,,,,,,,,,,,,,,,,,,,,,,,,,,,,,,,,,,,,MET12810/10/18 16:56:02 METAR KCHS 102156Z 15010KT 10SM SCT020 SCT025 BKN060 28/25 A2982 RMK AO2 RAB28E39 SLP097 P0000 T02830250 (BBE),,,,,,,,,,,,,,,,,,,,,,,,,,,,2009-06-10
72208013880,2018-10-10T17:39:00,FM-16,7,,SE,0.25,mi,"TEMP, PRECIP, SNOW",,,"MMTS, SRG, SNOWBOARD",,,WFO CHS,,,,,,,,,,,,,,,,,,,,,,,,,,,29.82,77,82,,,,,85,,SCT:04 20 BKN:07 25 BKN:07 70,29.77,10.00,78,150,,13,,,,,,,,,,,,,,,,,,,,,,,,,,,,,,,,,,,,,MET10610/10/18 17:39:02 SPECI KCHS 102239Z 15011KT 10SM SCT020 BKN025 BKN070 28/25 A2982 RMK AO2 T02780250 (BBE),,,,,,,,,,,,,,,,,,,,,,,,,,,,2009-06-10
72208013880,2018-10-10T17:54:00,FM-16,6,,SE,0.25,mi,"TEMP, PRECIP, SNOW",,,"MMTS, SRG, SNOWBOARD",,,WFO CHS,,,,,,,,,,,,,,,,,,,,,,,,,,,29.81,77,82,,,,,84,,SCT:04 20 SCT:04 30 BKN:07 70,29.76,10.00,78,150,,13,,,,,,,,,,,,,,,,,,,,,,,,,,,,,,,,,,,,,MET10110/10/18 17:54:02 SPECI KCHS 102254Z 15011KT 10SM SCT020 SCT030 BKN070 28/25 A2981 RMK AO2 FIBI (BBE),,,,,,,,,,,,,,,,,,,,,,,,,,,,2009-06-10
72208013880,2018-10-10T17:56:00,FM-15,7,,SE,0.25,mi,"TEMP, PRECIP, SNOW",,,"MMTS, SRG, SNOWBOARD",,,WFO CHS,,,,,,,,,,,,,,,,,,,,,,,,,,,29.81,77,82,0.00,,,,85,29.81,SCT:04 20 SCT:04 30 BKN:07 70,29.76,10.00,78,150,,13,,,,,,,,,,,,,,,,,,,,,,,,,,,,,,,,,,,,,MET11310/10/18 17:56:02 METAR KCHS 102256Z 15011KT 10SM SCT020 SCT030 BKN070 28/25 A2981 RMK AO2 SLP094 T02780250 (BBE),,,,,,,,,,,,,,,,,,,,,,,,,,,,2009-06-10
72208013880,2018-10-14T12:56:00,FM-15,7,,SE,0.25,mi,"TEMP, PRECIP, SNOW",,,"MMTS, SRG, SNOWBOARD",,,WFO CHS,,,,,,,,,,,,,,,,,,,,,,,,,,,30.11,66,85,0.00,,+0.02,8,53,30.10,BKN:07 45 BKN:07 55 BKN:07 250,30.06,10.00,72,150,,7,,,,,,,,,,,,,,,,,,,,,,,,,,,,,,,,,,,,,MET13310/14/18 12:56:02 METAR KCHS 141756Z 15006KT 10SM BKN045 BKN055 BKN250 29/19 A3011 RMK AO2 SLP194 T02940189 10294 20167 58008 $ (DTU),,,,,,,,,,,,,,,,,,,,,,,,,,,,2009-06-10
72208013880,2018-10-14T13:00:00,FM-12,4,,SE,0.25,mi,"TEMP, PRECIP, SNOW",,,"MMTS, SRG, SNOWBOARD",,,WFO CHS,,,,,,,,,,,,,,,,,,,,,,,,,,,30.11,66,85,,,+0.02,8,53,30.10,41,30.06,9.94,72,150,,7,,,,,,,,,,,,,,,,,,,,,,,,,,,,,,,,,,,,,SYN08072208 32666 61506 10294 20189 30180 40194 58008 91756 333 10294 20167 555 91418=,,,,,,,,,,,,,,,,,,,,,,,,,,,,2009-06-10
72208013880,2018-10-14T13:56:00,FM-15,7,,SE,0.25,mi,"TEMP, PRECIP, SNOW",,,"MMTS, SRG, SNOWBOARD",,,WFO CHS,,,,,,,,,,,,,,,,,,,,,,,,,,,30.10,64,82,0.00,,,,55,30.09,SCT:04 45 BKN:07 55 BKN:07 220,30.05,10.00,70,150,,9,,,,,,,,,,,,,,,,,,,,,,,,,,,,,,,,,,,,,MET11510/14/18 13:56:02 METAR KCHS 141856Z 15008KT 10SM SCT045 BKN055 BKN220 28/18 A3010 RMK AO2 SLP190 T02780178 $ (DTU),,,,,,,,,,,,,,,,,,,,,,,,,,,,2009-06-10
72208013880,2018-10-14T14:56:00,FM-15,7,,SE,0.25,mi,"TEMP, PRECIP, SNOW",,,"MMTS, SRG, SNOWBOARD",,,WFO CHS,,,,,,,,,,,,,,,,,,,,,,,,,,,30.10,65,84,0.00,,,,53,30.10,SCT:04 45,30.05,10.00,72,160,,7,,,,,,,,,,,,,,,,,,,,,,,,,,,,,,,,,,,,,MET10110/14/18 14:56:02 METAR KCHS 141956Z 16006KT 10SM SCT045 29/18 A3010 RMK AO2 SLP192 T02890183 $ (JRS),,,,,,,,,,,,,,,,,,,,,,,,,,,,2009-06-10
72208013880,2018-10-14T15:56:00,FM-15,7,,SE,0.25,mi,"TEMP, PRECIP, SNOW",,,"MMTS, SRG, SNOWBOARD",,,WFO CHS,,,,,,,,,,,,,,,,,,,,,,,,,,,30.10,64,82,0.00,,+0.01,6,55,30.09,FEW:02 45 FEW:02 220,30.05,10.00,70,160,,9,,,,,,,,,,,,,,,,,,,,,,,,,,,,,,,,,,,,,MET11410/14/18 15:56:02 METAR KCHS 142056Z 16008KT 10SM FEW045 FEW220 28/18 A3010 RMK AO2 SLP191 T02780178 56003 $ (JRS),,,,,,,,,,,,,,,,,,,,,,,,,,,,2009-06-10
72208013880,2018-10-14T16:00:00,FM-12,4,,SE,0.25,mi,"TEMP, PRECIP, SNOW",,,"MMTS, SRG, SNOWBOARD",,,WFO CHS,,,,,,,,,,,,,,,,,,,,,,,,,,,30.10,64,82,,,+0.01,6,55,30.09,41,30.05,9.94,70,160,,9,,,,,,,,,,,,,,,,,,,,,,,,,,,,,,,,,,,,,SYN06472208 32666 21608 10278 20178 30177 40191 56003 92056 555 91421=,,,,,,,,,,,,,,,,,,,,,,,,,,,,2009-06-10
72208013880,2018-10-14T16:56:00,FM-15,7,,SE,0.25,mi,"TEMP, PRECIP, SNOW",,,"MMTS, SRG, SNOWBOARD",,,WFO CHS,,,,,,,,,,,,,,,,,,,,,,,,,,,30.10,66,80,0.00,,,,62,30.10,FEW:02 43 FEW:02 200,30.05,10.00,71,160,,8,,,,,,,,,,,,,,,,,,,,,,,,,,,,,,,,,,,,,MET10810/14/18 16:56:02 METAR KCHS 142156Z 16007KT 10SM FEW043 FEW200 27/19 A3010 RMK AO2 SLP192 T02670189 $ (JRS),,,,,,,,,,,,,,,,,,,,,,,,,,,,2009-06-10
72208013880,2018-10-15T10:56:00,FM-15,7,,SE,0.25,mi,"TEMP, PRECIP, SNOW",,,"MMTS, SRG, SNOWBOARD",,,WFO CHS,,,,,,,,,,,,,,,,,,,,,,,,,,,30.17,67,86,0.00,,,,53,30.17,SCT:04 40,30.12,10.00,73,160,,14,,,,,,,,,,,,,,,,,,,,,,,,,,,,,,,,,,,,,MET09910/15/18 10:56:02 METAR KCHS 151556Z 16012KT 10SM SCT040 30/19 A3017 RMK AO2 SLP216 T03000194 (JMB),,,,,,,,,,,,,,,,,,,,,,,,,,,,2009-06-10
72208013880,2018-10-15T13:56:00,FM-15,7,,SE,0.25,mi,"TEMP, PRECIP, SNOW",,,"MMTS, SRG, SNOWBOARD",,,WFO CHS,,,,,,,,,,,,,,,,,,,,,,,,,,,30.11,66,85,0.00,,,,53,30.11,SCT:04 45 SCT:04 60,30.06,10.00,72,160,,9,,,,,,,,,,,,,,,,,,,,,,,,,,,,,,,,,,,,,MET10610/15/18 13:56:02 METAR KCHS 151856Z 16008KT 10SM SCT045 SCT060 29/19 A3011 RMK AO2 SLP197 T02940189 (JMB),,,,,,,,,,,,,,,,,,,,,,,,,,,,2009-06-10
72208013880,2018-10-15T14:56:00,FM-15,7,,SE,0.25,mi,"TEMP, PRECIP, SNOW",,,"MMTS, SRG, SNOWBOARD",,,WFO CHS,,,,,,,,,,,,,,,,,,,,,,,,,,,30.10,68,85,0.00,,,,57,30.10,FEW:02 40 BKN:07 70,30.05,10.00,74,160,,8,,,,,,,,,,,,,,,,,,,,,,,,,,,,,,,,,,,,,MET10610/15/18 14:56:02 METAR KCHS 151956Z 16007KT 10SM FEW040 BKN070 29/20 A3010 RMK AO2 SLP193 T02940200 (BBE),,,,,,,,,,,,,,,,,,,,,,,,,,,,2009-06-10
72208013880,2018-10-15T17:56:00,FM-15,7,,SE,0.25,mi,"TEMP, PRECIP, SNOW",,,"MMTS, SRG, SNOWBOARD",,,WFO CHS,,,,,,,,,,,,,,,,,,,,,,,,,,,30.11,71,80,0.00,,,,74,30.11,BKN:07 90,30.06,10.00,74,160,,8,,,,,,,,,,,,,,,,,,,,,,,,,,,,,,,,,,,,,MET09910/15/18 17:56:02 METAR KCHS 152256Z 16007KT 10SM BKN090 27/22 A3011 RMK AO2 SLP196 T02670217 (BBE),,,,,,,,,,,,,,,,,,,,,,,,,,,,2009-06-10
72208013880,2018-10-31T12:56:00,FM-15,7,,SE,0.25,mi,"TEMP, PRECIP, SNOW",,,"MMTS, SRG, SNOWBOARD",,,WFO CHS,,,,,,,,,,,,,,,,,,,,,,,,,,,30.17,57,76,0.00,,+0.07,8,52,30.16,FEW:02 40 FEW:02 250,30.12,10.00,65,150,17,9,,,,,,,,,,,,,,,,,,,,,,,,,,,,,,,,,,,,,MET12710/31/18 12:56:02 METAR KCHS 311756Z 15008G15KT 10SM FEW040 FEW250 24/14 A3017 RMK AO2 SLP214 T02440139 10256 20100 58025 (JMB),,,,,,,,,,,,,,,,,,,,,,,,,,,,2009-06-10
72208013880,2018-10-31T13:00:00,FM-12,4,,SE,0.25,mi,"TEMP, PRECIP, SNOW",,,"MMTS, SRG, SNOWBOARD",,,WFO CHS,,,,,,,,,,,,,,,,,,,,,,,,,,,30.17,57,76,,,+0.07,8,52,30.16,41,30.12,9.94,65,150,,9,,,,,,,,,,,,,,,,,,,,,,,,,,,,,,,,,,,,,SYN08672208 32666 21508 10244 20139 30201 40214 58025 91756 333 10256 20100 91015 555 93118=,,,,,,,,,,,,,,,,,,,,,,,,,,,,2009-06-10
72208013880,2018-11-01T16:56:00,FM-15,7,,SE,0.25,mi,"TEMP, PRECIP, SNOW",,,"MMTS, SRG, SNOWBOARD",,,WFO CHS,,,,,,,,,,,,,,,,,,,,,,,,,,,29.89,68,73,0.00,,,,84,29.89,FEW:02 120 BKN:07 200,29.84,10.00,70,170,,9,,,,,,,,,,,,,,,,,,,,,,,,,,,,,,,,,,,,,MET10611/01/18 16:56:02 METAR KCHS 012156Z 17008KT 10SM FEW120 BKN200 23/20 A2989 RMK AO2 SLP121 T02280200 (BBE),,,,,,,,,,,,,,,,,,,,,,,,,,,,2009-06-10
72208013880,2018-11-01T17:56:00,FM-15,7,,SE,0.25,mi,"TEMP, PRECIP, SNOW",,,"MMTS, SRG, SNOWBOARD",,,WFO CHS,,,,,,,,,,,,,,,,,,,,,,,,,,,29.89,69,72,0.00,,,,91,29.89,SCT:04 150 BKN:07 200,29.84,10.00,70,170,,11,,,,,,,,,,,,,,,,,,,,,,,,,,,,,,,,,,,,,MET10611/01/18 17:56:02 METAR KCHS 012256Z 17010KT 10SM SCT150 BKN200 22/21 A2989 RMK AO2 SLP121 T02220206 (BBE),,,,,,,,,,,,,,,,,,,,,,,,,,,,2009-06-10
72208013880,2018-11-05T11:52:00,FM-16,7,,SE,0.25,mi,"TEMP, PRECIP, SNOW",,,"MMTS, SRG, SNOWBOARD",,,WFO CHS,,,,,,,,,,,,,,,,,,,,,,,,,,,30.11,72,73,T,,,,94,,SCT:04 15 BKN:07 30 OVC:08 50,30.06,10.00,72,170,,10,,,,,,,,,,,,,,,,,,,,,,,,,,,,,,,,,,,,,MET12111/05/18 11:52:02 SPECI KCHS 051652Z 17009KT 10SM SCT015 BKN030 OVC050 23/22 A3011 RMK AO2 RAB33E48 SCT V BKN P0000 (JMB),,,,,,,,,,,,,,,,,,,,,,,,,,,,2009-06-10
72208013880,2018-11-05T11:56:00,FM-15,7,,SE,0.25,mi,"TEMP, PRECIP, SNOW",,,"MMTS, SRG, SNOWBOARD",,,WFO CHS,,,,,,,,,,,,,,,,,,,,,,,,,,,30.11,72,74,T,-RA:02 |RA |RA,,,94,30.11,SCT:04 15 BKN:07 30 OVC:08 50,30.06,10.00,73,170,,9,,,,,,,,,,,,,,,,,,,,,,,,,,,,,,,,,,,,,MET14511/05/18 11:56:02 METAR KCHS 051656Z 17008KT 10SM -RA SCT015 BKN030 OVC050 23/22 A3011 RMK AO2 RAB33E48B53 SLP195 SCT V BKN P0000 T02330222 (JMB),,,,,,,,,,,,,,,,,,,,,,,,,,,,2009-06-10
72208013880,2018-11-09T14:41:00,FM-16,7,,SE,0.25,mi,"TEMP, PRECIP, SNOW",,,"MMTS, SRG, SNOWBOARD",,,WFO CHS,,,,,,,,,,,,,,,,,,,,,,,,,,,29.98,69,76,,,,,79,,FEW:02 15 SCT:04 25 BKN:07 120,29.93,10.00,71,160,,7,,,,,,,,,,,,,,,,,,,,,,,,,,,,,,,,,,,,,MET10611/09/18 14:41:02 SPECI KCHS 091941Z 16006KT 10SM FEW015 SCT025 BKN120 24/21 A2998 RMK AO2 T02440206 (MBT),,,,,,,,,,,,,,,,,,,,,,,,,,,,2009-06-10
72208013880,2018-12-01T17:14:00,FM-16,7,,SE,0.25,mi,"TEMP, PRECIP, SNOW",,,"MMTS, SRG, SNOWBOARD",,,WFO CHS,,,,,,,,,,,,,,,,,,,,,,,,,,,29.92,62,64,T,-RA:02 |RA |RA,,,93,,SCT:04 4 SCT:04 40 OVC:08 110,29.87,10.00,63,150,,10,,,,,,,,,,,,,,,,,,,,,,,,,,,,,,,,,,,,,MET12212/01/18 17:14:02 SPECI KCHS 012214Z 15009KT 10SM -RA SCT004 SCT040 OVC110 18/17 A2992 RMK AO2 RAB08 P0000 T01780167 (JRS),,,,,,,,,,,,,,,,,,,,,,,,,,,,2009-06-10
72208013880,2018-12-14T11:56:00,FM-15,7,,SE,0.25,mi,"TEMP, PRECIP, SNOW",,,"MMTS, SRG, SNOWBOARD",,,WFO CHS,,,,,,,,,,,,,,,,,,,,,,,,,,,30.09,62,63,0.03,-RA:02 BR:1 |RA |RA,,,97,30.09,SCT:04 4 BKN:07 20 OVC:08 70,30.04,3.00,62,150,,9,,,,,,,,,,,,,,,,,,,,,,,,,,,,,,,,,,,,,MET11912/14/18 11:56:02 METAR KCHS 141656Z 15008KT 3SM -RA BR SCT004 BKN020 OVC070 17/17 A3009 RMK AO2 SLP188 P0003 T01720167,,,,,,,,,,,,,,,,,,,,,,,,,,,,2009-06-10
72208013880,2018-12-14T12:02:00,FM-16,7,,SE,0.25,mi,"TEMP, PRECIP, SNOW",,,"MMTS, SRG, SNOWBOARD",,,WFO CHS,,,,,,,,,,,,,,,,,,,,,,,,,,,30.08,62,63,T,-RA:02 BR:1 |RA |RA,,,97,,SCT:04 4 BKN:07 30 OVC:08 70,30.03,3.00,62,150,,9,,,,,,,,,,,,,,,,,,,,,,,,,,,,,,,,,,,,,MET12212/14/18 12:02:02 SPECI KCHS 141702Z 15008KT 3SM -RA BR SCT004 BKN030 OVC070 17/17 A3008 RMK AO2 SFC VIS 4 P0000 T01720167,,,,,,,,,,,,,,,,,,,,,,,,,,,,2009-06-10
72208013880,2018-12-20T10:56:00,FM-15,7,,SE,0.25,mi,"TEMP, PRECIP, SNOW",,,"MMTS, SRG, SNOWBOARD",,,WFO CHS,,,,,,,,,,,,,,,,,,,,,,,,,,,29.78,63,64,0.04,-RA:02 BR:1 |RA |RA,,,96,29.78,SCT:04 20 BKN:07 35 OVC:08 60,29.73,3.00,63,150,,8,,,,,,,,,,,,,,,,,,,,,,,,,,,,,,,,,,,,,MET12512/20/18 10:56:02 METAR KCHS 201556Z 15007KT 3SM -RA BR SCT020 BKN035 OVC060 18/17 A2978 RMK AO2 SLP083 P0003 T01780172 (JMB),,,,,,,,,,,,,,,,,,,,,,,,,,,,2009-06-10
72208013880,2018-12-20T12:56:00,FM-15,7,,SE,0.25,mi,"TEMP, PRECIP, SNOW",,,"MMTS, SRG, SNOWBOARD",,,WFO CHS,,,,,,,,,,,,,,,,,,,,,,,,,,,29.66,65,67,0.13,-RA:02 BR:1 |RA |RA,+0.17,8,93,29.66,FEW:02 6 BKN:07 20 OVC:08 40,29.61,1.50,66,150,,17,,,,,,,,,,,,,,,,,,,,,,,,,,,,,,,,,,,,,MET17112/20/18 12:56:02 METAR KCHS 201756Z 15015KT 1 1/2SM -RA BR FEW006 BKN020 OVC040 19/18 A2966 RMK AO2 PK WND 15028/1739 SLP043 P0014 60051 T01940183 10194 20150 58056 (JMB),,,,,,,,,,,,,,,,,,,,,,,,,,,,2009-06-10
72208013880,2018-12-20T13:00:00,FM-12,4,,SE,0.25,mi,"TEMP, PRECIP, SNOW",,,"MMTS, SRG, SNOWBOARD",,,WFO CHS,,,,,,,,,,,,,,,,,,,,,,,,,,,29.66,65,67,,||RA,+0.17,8,93,29.66,5,29.61,1.49,66,150,,17,,,,,,,,,,,,,,,,,,,,,,,,,,,,,,,,,,,,,SYN09872208 11224 81515 10194 20183 30028 40043 58056 60131 761// 91756 333 10194 20133 96010 555 92018=,,,,,,,,,,,,,,,,,,,,,,,,,,,,2009-06-10
72208013880,2018-12-20T16:56:00,FM-15,7,,SE,0.25,mi,"TEMP, PRECIP, SNOW",,,"MMTS, SRG, SNOWBOARD",,,WFO CHS,,,,,,,,,,,,,,,,,,,,,,,,,,,29.49,63,66,T,,,,90,29.49,BKN:07 14 BKN:07 120,29.44,10.00,64,150,,16,,,,,,,,,,,,,,,,,,,,,,,,,,,,,,,,,,,,,MET14312/20/18 16:56:02 METAR KCHS 202156Z 15014KT 10SM BKN014 BKN120 19/17 A2949 RMK AO2 PK WND 20028/2059 RAE04 PRESFR SLP985 P0000 T01890172 (BBE),,,,,,,,,,,,,,,,,,,,,,,,,,,,2009-06-10
72208013880,2018-12-20T17:07:00,FM-16,7,,SE,0.25,mi,"TEMP, PRECIP, SNOW",,,"MMTS, SRG, SNOWBOARD",,,WFO CHS,,,,,,,,,,,,,,,,,,,,,,,,,,,29.48,63,65,,,,,93,,FEW:02 14 BKN:07 150 BKN:07 250,29.43,10.00,64,160,25,11,,,,,,,,,,,,,,,,,,,,,,,,,,,,,,,,,,,,,MET10912/20/18 17:07:02 SPECI KCHS 202207Z 16010G22KT 10SM FEW014 BKN150 BKN250 18/17 A2948 RMK AO2 T01830172 (BBE),,,,,,,,,,,,,,,,,,,,,,,,,,,,2009-06-10
72208013880,2018-12-20T17:30:00,FM-16,7,,SE,0.25,mi,"TEMP, PRECIP, SNOW",,,"MMTS, SRG, SNOWBOARD",,,WFO CHS,,,,,,,,,,,,,,,,,,,,,,,,,,,29.50,63,65,,,,,93,,BKN:07 14 OVC:08 150,29.45,10.00,64,170,,15,,,,,,,,,,,,,,,,,,,,,,,,,,,,,,,,,,,,,MET09912/20/18 17:30:02 SPECI KCHS 202230Z 17013KT 10SM BKN014 OVC150 18/17 A2950 RMK AO2 T01830172 (BBE),,,,,,,,,,,,,,,,,,,,,,,,,,,,2009-06-10
72208013880,2018-12-30T12:56:00,FM-15,7,,SE,0.25,mi,"TEMP, PRECIP, SNOW",,,"MMTS, SRG, SNOWBOARD",,,WFO CHS,,,,,,,,,,,,,,,,,,,,,,,,,,,30.14,61,64,0.00,,+0.06,8,90,30.14,OVC:08 7,30.09,10.00,62,170,,7,,,,,,,,,,,,,,,,,,,,,,,,,,,,,,,,,,,,,MET12312/30/18 12:56:02 METAR KCHS 301756Z 17006KT 10SM OVC007 18/16 A3014 RMK AO2 SLP206 60000 T01780161 10178 20156 58020 (MBT),,,,,,,,,,,,,,,,,,,,,,,,,,,,2009-06-10
72208013880,2018-12-30T13:00:00,FM-12,4,,SE,0.25,mi,"TEMP, PRECIP, SNOW",,,"MMTS, SRG, SNOWBOARD",,,WFO CHS,,,,,,,,,,,,,,,,,,,,,,,,,,,30.14,61,64,,,+0.06,8,90,30.14,8,30.09,9.94,62,170,,7,,,,,,,,,,,,,,,,,,,,,,,,,,,,,,,,,,,,,SYN08672208 12366 81706 10178 20161 30190 40206 58020 69901 91756 333 10178 20156 555 93018=,,,,,,,,,,,,,,,,,,,,,,,,,,,,2009-06-10
72208013880,2018-12-31T11:37:00,FM-16,7,,SE,0.25,mi,"TEMP, PRECIP, SNOW",,,"MMTS, SRG, SNOWBOARD",,,WFO CHS,,,,,,,,,,,,,,,,,,,,,,,,,,,30.19,64,65,,BR:1 ||,,,97,,BKN:07 2 OVC:08 15,30.14,1.00,64,150,,8,,,,,,,,,,,,,,,,,,,,,,,,,,,,,,,,,,,,,MET11812/31/18 11:37:02 SPECI KCHS 311637Z 15007KT 1SM R15/5500VP6000FT BR BKN002 OVC015 18/18 A3019 RMK AO2 T01830178 (JMB),,,,,,,,,,,,,,,,,,,,,,,,,,,,2009-06-10
72208013880,2018-12-31T11:52:00,FM-16,7,,SE,0.25,mi,"TEMP, PRECIP, SNOW",,,"MMTS, SRG, SNOWBOARD",,,WFO CHS,,,,,,,,,,,,,,,,,,,,,,,,,,,30.17,64,66,,BR:1 ||,,,94,,BKN:07 2 OVC:08 15,30.12,1.50,65,150,,8,,,,,,,,,,,,,,,,,,,,,,,,,,,,,,,,,,,,,MET09512/31/18 11:52:02 SPECI KCHS 311652Z 15007KT 1 1/2SM BR BKN002 OVC015 19/18 A3017 RMK AO2 (JMB),,,,,,,,,,,,,,,,,,,,,,,,,,,,2009-06-10
72208013880,2018-12-31T11:56:00,FM-15,7,,SE,0.25,mi,"TEMP, PRECIP, SNOW",,,"MMTS, SRG, SNOWBOARD",,,WFO CHS,,,,,,,,,,,,,,,,,,,,,,,,,,,30.17,65,66,0.00,BR:1 ||,,,96,30.17,BKN:07 2 OVC:08 15,30.12,1.50,65,150,,9,,,,,,,,,,,,,,,,,,,,,,,,,,,,,,,,,,,,,MET11212/31/18 11:56:02 METAR KCHS 311656Z 15008KT 1 1/2SM BR BKN002 OVC015 19/18 A3017 RMK AO2 SLP216 T01890183 (JMB),,,,,,,,,,,,,,,,,,,,,,,,,,,,2009-06-10
72208013880,2018-12-31T12:07:00,FM-16,7,,SE,0.25,mi,"TEMP, PRECIP, SNOW",,,"MMTS, SRG, SNOWBOARD",,,WFO CHS,,,,,,,,,,,,,,,,,,,,,,,,,,,30.17,65,66,,BR:1 ||,,,96,,BKN:07 3 OVC:08 15,30.12,1.50,65,170,,7,,,,,,,,,,,,,,,,,,,,,,,,,,,,,,,,,,,,,MET10512/31/18 12:07:02 SPECI KCHS 311707Z 17006KT 1 1/2SM BR BKN003 OVC015 19/18 A3017 RMK AO2 T01890183 (JMB),,,,,,,,,,,,,,,,,,,,,,,,,,,,2009-06-10
72208013880,2018-12-31T12:33:00,FM-16,7,,SE,0.25,mi,"TEMP, PRECIP, SNOW",,,"MMTS, SRG, SNOWBOARD",,,WFO CHS,,,,,,,,,,,,,,,,,,,,,,,,,,,30.16,65,67,,BR:1 ||,,,93,,BKN:07 3 OVC:08 15,30.11,2.00,66,160,,7,,,,,,,,,,,,,,,,,,,,,,,,,,,,,,,,,,,,,MET10112/31/18 12:33:02 SPECI KCHS 311733Z 16006KT 2SM BR BKN003 OVC015 19/18 A3016 RMK AO2 T01940183 (JMB),,,,,,,,,,,,,,,,,,,,,,,,,,,,2009-06-10
72208013880,2018-12-31T12:56:00,FM-15,7,,SE,0.25,mi,"TEMP, PRECIP, SNOW",,,"MMTS, SRG, SNOWBOARD",,,WFO CHS,,,,,,,,,,,,,,,,,,,,,,,,,,,30.14,65,68,0.00,BR:1 ||,+0.09,8,90,30.14,BKN:07 3 OVC:08 15,30.09,2.00,66,150,,7,,,,,,,,,,,,,,,,,,,,,,,,,,,,,,,,,,,,,MET13212/31/18 12:56:02 METAR KCHS 311756Z 15006KT 2SM BR BKN003 OVC015 20/18 A3014 RMK AO2 SLP207 60000 T02000183 10200 20161 58029 (JMB),,,,,,,,,,,,,,,,,,,,,,,,,,,,2009-06-10
72208013880,2018-12-31T13:00:00,FM-12,4,,SE,0.25,mi,"TEMP, PRECIP, SNOW",,,"MMTS, SRG, SNOWBOARD",,,WFO CHS,,,,,,,,,,,,,,,,,,,,,,,,,,,30.14,65,68,,,+0.09,8,90,30.14,2,30.09,1.99,66,150,,7,,,,,,,,,,,,,,,,,,,,,,,,,,,,,,,,,,,,,SYN09272208 11132 81506 10200 20183 30190 40207 58029 69901 710// 91756 333 10200 20161 555 93118=,,,,,,,,,,,,,,,,,,,,,,,,,,,,2009-06-10
72208013880,2018-12-31T15:56:00,FM-15,7,,SE,0.25,mi,"TEMP, PRECIP, SNOW",,,"MMTS, SRG, SNOWBOARD",,,WFO CHS,,,,,,,,,,,,,,,,,,,,,,,,,,,30.12,66,70,T,,+0.03,8,87,30.11,BKN:07 9 OVC:08 13,30.07,10.00,67,170,,8,,,,,,,,,,,,,,,,,,,,,,,,,,,,,,,,,,,,,MET13312/31/18 15:56:02 METAR KCHS 312056Z 17007KT 10SM BKN009 OVC013 21/19 A3012 RMK AO2 RAB03E14 SLP198 P0000 60000 T02110189 58009 (JRS),,,,,,,,,,,,,,,,,,,,,,,,,,,,2009-06-10
72208013880,2018-12-31T16:00:00,FM-12,4,,SE,0.25,mi,"TEMP, PRECIP, SNOW",,,"MMTS, SRG, SNOWBOARD",,,WFO CHS,,,,,,,,,,,,,,,,,,,,,,,,,,,30.12,66,70,,,+0.03,8,87,30.11,8,30.07,9.94,67,170,,8,,,,,,,,,,,,,,,,,,,,,,,,,,,,,,,,,,,,,SYN07072208 12366 81707 10211 20189 30184 40198 58009 69907 92056 555 93121=,,,,,,,,,,,,,,,,,,,,,,,,,,,,2009-06-10
72208013880,2018-12-31T16:27:00,FM-16,7,,SE,0.25,mi,"TEMP, PRECIP, SNOW",,,"MMTS, SRG, SNOWBOARD",,,WFO CHS,,,,,,,,,,,,,,,,,,,,,,,,,,,30.11,66,69,,,,,90,,SCT:04 10 BKN:07 200,30.06,10.00,67,170,,9,,,,,,,,,,,,,,,,,,,,,,,,,,,,,,,,,,,,,MET09912/31/18 16:27:02 SPECI KCHS 312127Z 17008KT 10SM SCT010 BKN200 21/19 A3011 RMK AO2 T02060189 (JRS),,,,,,,,,,,,,,,,,,,,,,,,,,,,2009-06-10
72208013880,2018-12-31T16:56:00,FM-15,7,,SE,0.25,mi,"TEMP, PRECIP, SNOW",,,"MMTS, SRG, SNOWBOARD",,,WFO CHS,,,,,,,,,,,,,,,,,,,,,,,,,,,30.10,66,69,0.00,,,,90,30.10,SCT:04 10 SCT:04 110 BKN:07 200,30.05,10.00,67,160,,7,,,,,,,,,,,,,,,,,,,,,,,,,,,,,,,,,,,,,MET11312/31/18 16:56:02 METAR KCHS 312156Z 16006KT 10SM SCT010 SCT110 BKN200 21/19 A3010 RMK AO2 SLP193 T02060189 (JRS),,,,,,,,,,,,,,,,,,,,,,,,,,,,2009-06-10
